{
"type": "FeatureCollection",
"name": "Beek__L__",
"crs": { "type": "name", "properties": { "name": "urn:ogc:def:crs:EPSG::28992" } },
"features": [
{ "type": "Feature", "properties": { "buurtcode": "BU08880000", "buurtnaam": "Beek", "pc6_codes": "6191AA, 6191AB, 6191AC, 6191AD, 6191AE, 6191AG, 6191AH, 6191AJ, 6191AK, 6191AL, 6191AM, 6191AN, 6191AP, 6191AR, 6191AS, 6191AT, 6191AV, 6191AW, 6191AX, 6191AZ, 6191BA, 6191BB, 6191BC, 6191BD, 6191BE, 6191BG, 6191BH, 6191BJ, 6191BK, 6191BL, 6191BM, 6191BN, 6191BP, 6191BR, 6191BS, 6191BT, 6191BV, 6191BW, 6191BX, 6191BZ, 6191CB, 6191CC, 6191CD, 6191CE, 6191CG, 6191CH, 6191CJ, 6191CK, 6191CL, 6191CM, 6191CN, 6191CP, 6191CR, 6191CS, 6191CT, 6191CV, 6191CW, 6191CX, 6191CZ, 6191DA, 6191DB, 6191DC, 6191DD, 6191DE, 6191EA, 6191EB, 6191EC, 6191ED, 6191EE, 6191EG, 6191EH, 6191EJ, 6191EM, 6191HL, 6191HM, 6191HV, 6191HW, 6191HX, 6191HZ, 6191JB, 6191JC, 6191JD, 6191JE, 6191JG, 6191JH, 6191JJ, 6191JK, 6191JL, 6191JM, 6191JN, 6191JP, 6191JR, 6191JS, 6191JT, 6191JV, 6191JW, 6191JX, 6191JZ, 6191KA, 6191KB, 6191KC, 6191KD, 6191KE, 6191KG, 6191KH, 6191KJ, 6191KK, 6191KL, 6191KM, 6191KN, 6191KP, 6191KR, 6191KS, 6191KT, 6191KV, 6191KW, 6191KX, 6191KZ, 6191LA, 6191LB, 6191LC, 6191LD, 6191LE, 6191LG, 6191NA, 6191NB, 6191NC, 6191ND, 6191NL, 6191PW, 6191PX, 6191RS, 6191RT, 6191RZ, 6191SE, 6191SG, 6191SH, 6191SJ, 6191SK, 6191SL, 6191SM, 6191SN, 6191SP, 6191SR, 6191ST, 6191SV, 6191SW, 6191SX, 6191SZ, 6191TA, 6191TB, 6191TC, 6191TD, 6191TE, 6191TG, 6191TH, 6191TJ, 6191TK, 6191TL, 6191TM, 6191TN, 6191TP, 6191TR, 6191TS, 6191TT, 6191TV, 6191TW, 6191TX, 6191TZ, 6191VA, 6191VB, 6191VC, 6191VD, 6191VE, 6191VG, 6191VH, 6191VJ, 6191VK, 6191VL, 6191VM, 6191VN, 6191VP, 6191VR, 6191VS, 6191VT, 6191VV, 6191VW, 6191VX, 6191VZ, 6191WB, 6191WC, 6191WD, 6191WE, 6191WG, 6191WH, 6191WJ, 6191WK, 6191WL, 6191WN, 6191WP, 6191WV, 6191WX, 6191WZ, 6191XA, 6191XB, 6191XC, 6191XD, 6191XE, 6191XG, 6191XH, 6191XJ, 6191XK, 6191XL, 6191XM, 6191XN, 6191XP, 6191XR, 6191XS, 6191XT, 6191XV, 6191XW, 6191XX, 6191XZ, 6191ZA", "wijkcode": "WK088800", "gemeentecode": "GM0888", "gemeentenaam": "Beek (L.)", "oppervlakteLandInHa": 389, "AantalInwoners_5": 8365, "Mannen_6": 4045, "Vrouwen_7": 4315, "HuishoudensTotaal_29": 4135, "GemiddeldeHuishoudensgrootte_33": 2.0, "Woningvoorraad_35": 4240, "NieuwbouwWoningen_36": 26, "NietWoningvoorraad_37": 738, "NieuwbouwNietWoningen_38": 0, "GemiddeldeWOZWaardeVanWoningen_39": 268, "PercentageEengezinswoning_40": 62, "PercentageTussenwoningEengezins_41": 20, "PercentageHoekwoningEengezins_42": 13, "PercentageTweeOnderEenKapWoningEe_43": 18, "PercentageVrijstaandeWoningEengezins_44": 11, "PercentageMeergezinswoning_45": 38, "Koopwoningen_47": 61, "HuurwoningenTotaal_48": 39, "InBezitWoningcorporatie_49": 28, "InBezitOverigeVerhuurders_50": 11, "BouwjaarMeerDanTienJaarGeleden_51": 98, "BouwjaarAfgelopenTienJaar_52": 2, "GemiddeldeElektriciteitslevering_53": 2610, "GemiddeldeElektriciteitsteruglevering_54": 950, "GemiddeldAardgasverbruik_55": 900, "AardgasvrijeWoningen_57": 2, "Aardgaswoningen_58": 94, "WoningenMetZonnestroom_59": 46, "WoningenHoofdzElektrVerwarmd_60": 6, "k_20PersonenMetHoogsteInkomen_80": 18.6, "k_20HuishoudensMetHoogsteInkomen_85": 16.9, "MediaanVermogenVanParticuliereHuish_86": 141.9, "PersonenautoSTotaal_104": 4885, "PersonenautoSBrandstofBenzine_105": 4190, "PersonenautoSOverigeBrandstof_106": 695, "PersonenautoSPerHuishouden_107": 1.2, "Omgevingsadressendichtheid_121": 1215, "AantalInstallatiesBijWoningen_5": 1466, "OpgesteldVermogenVanZonnepanelen_6": 5217, "installaties_per_woning": 0.34575471698113208, "vermogen_per_woning": 1.2304245283018869, "installaties_per_100_woningen": 34.575471698113205, "vermogen_per_huishouden": 1.2616686819830714, "batterijdruk_score": 437.0, "koop_zon_score": 0.2806, "eengezins_zon_score": 0.2852, "betaalkracht_zon_score": 65.274, "overige_brandstof_zon_score": 319.7, "lichte_batterij_kansscore": 0.37767992993136357 }, "geometry": { "type": "MultiPolygon", "coordinates": [ [ [ [ 183555.312, 329200.659999999974389 ], [ 183575.528, 329183.712999999988824 ], [ 183680.889, 329095.392999999981839 ], [ 183897.763, 328913.57 ], [ 183964.934, 328857.238000000012107 ], [ 184008.76500000001397, 328820.487000000022817 ], [ 184020.003999999986263, 328821.566999999980908 ], [ 184031.655, 328822.686999999976251 ], [ 184158.198, 328717.226000000024214 ], [ 184160.598, 328715.87599999998929 ], [ 184166.128, 328714.346000000019558 ], [ 184169.057999999989988, 328713.946 ], [ 184171.998, 328714.946 ], [ 184174.557999999989988, 328716.48599999997532 ], [ 184175.221, 328716.966000000014901 ], [ 184192.038, 328729.136 ], [ 184192.11799999998766, 328729.066 ], [ 184195.038, 328731.805999999982305 ], [ 184197.86799999998766, 328734.576 ], [ 184197.928000000014435, 328734.506 ], [ 184198.908, 328735.506 ], [ 184201.568, 328738.446 ], [ 184208.418, 328746.897 ], [ 184213.748, 328753.707 ], [ 184217.158, 328764.027 ], [ 184223.397999999986496, 328771.647 ], [ 184236.548, 328785.047000000020489 ], [ 184243.768000000010943, 328790.727000000013504 ], [ 184246.147999999986496, 328792.577 ], [ 184255.147999999986496, 328803.99800000002142 ], [ 184268.987, 328821.544 ], [ 184271.4306, 328824.6422 ], [ 184294.29680000001099, 328808.6876 ], [ 184554.29680000001099, 328641.406399999978021 ], [ 184681.203, 328512.906399999978021 ], [ 184751.703, 328411.0001 ], [ 184856.29680000001099, 328284.406399999978021 ], [ 185035.29680000001099, 328312.3126 ], [ 185261.9999, 328341.3126 ], [ 185446.4062, 328362.3126 ], [ 185519.9062, 328369.1876 ], [ 185528.4999, 328364.0001 ], [ 185475.5937, 328307.6876 ], [ 185431.796899999986636, 328222.6876 ], [ 185429.5938, 328099.3126 ], [ 185453.796899999986636, 327993.8126 ], [ 185494.0937, 327898.093899999978021 ], [ 185481.796899999986636, 327826.593899999978021 ], [ 185475.703100000013364, 327736.8126 ], [ 185502.796899999986636, 327638.3126 ], [ 185563.79680000001099, 327502.406399999978021 ], [ 185609.5, 327375.093899999978021 ], [ 185609.0, 327340.8126 ], [ 185600.0937, 327322.8126 ], [ 185171.4999, 327344.8126 ], [ 184454.203, 327387.1876 ], [ 184396.090999999985797, 327391.3052 ], [ 184360.524800000013784, 327309.2291 ], [ 184311.9705, 327320.018999999971129 ], [ 184236.4417, 327106.020399999979418 ], [ 184045.5835, 327198.158799999975599 ], [ 183948.29680000001099, 327159.406399999978021 ], [ 183811.703, 327135.093899999978021 ], [ 183729.4999, 327149.593799999973271 ], [ 183570.5937, 327203.593799999973271 ], [ 183428.5, 327249.1875 ], [ 183418.4999, 327253.593799999973271 ], [ 183300.0938, 327306.406299999973271 ], [ 183186.5, 327380.593799999973271 ], [ 183084.4999, 327458.3126 ], [ 183077.203, 327463.8126 ], [ 182531.203, 327491.0001 ], [ 182508.809, 327492.214700000011362 ], [ 182513.585, 327533.799 ], [ 182514.75, 327543.936999999976251 ], [ 182515.346, 327549.125 ], [ 182515.934, 327554.239 ], [ 182517.809, 327570.566 ], [ 182533.97, 327568.451 ], [ 182539.606, 327597.864 ], [ 182540.533, 327602.702999999979511 ], [ 182547.454999999987194, 327638.822999999974854 ], [ 182549.174, 327647.798 ], [ 182546.952, 327664.086000000010245 ], [ 182547.99900000001071, 327667.455000000016298 ], [ 182551.635, 327679.141 ], [ 182571.609, 327732.56 ], [ 182585.59, 327769.288999999989755 ], [ 182556.171, 327797.955000000016298 ], [ 182624.553000000014435, 327878.681999999971595 ], [ 182615.277, 327886.07 ], [ 182668.478, 327936.503000000026077 ], [ 182671.24, 327939.120999999984633 ], [ 182719.018000000010943, 327984.414999999979045 ], [ 182751.329, 328015.047000000020489 ], [ 182800.613000000012107, 328081.01500000001397 ], [ 182791.810999999986961, 328085.44 ], [ 182833.057, 328176.947999999974854 ], [ 182853.13, 328172.617000000027474 ], [ 182870.24299999998766, 328217.474999999976717 ], [ 182747.347, 328231.938000000023749 ], [ 182711.228, 328236.416000000026543 ], [ 182608.924999999988358, 328280.962 ], [ 182586.584, 328291.120999999984633 ], [ 182573.37599999998929, 328297.120999999984633 ], [ 182559.952, 328302.560999999986961 ], [ 182549.280999999988126, 328306.881999999983236 ], [ 182554.044, 328318.863000000012107 ], [ 182539.771, 328325.018999999971129 ], [ 182541.621000000013737, 328329.098999999987427 ], [ 182551.861, 328351.69 ], [ 182560.7433, 328371.284700000018347 ], [ 182567.346, 328385.851000000024214 ], [ 182567.35999999998603, 328385.881999999983236 ], [ 182591.73499999998603, 328439.653 ], [ 182594.063, 328444.788 ], [ 182594.279, 328445.261999999987893 ], [ 182594.786, 328446.962 ], [ 182595.54, 328450.021 ], [ 182596.060999999986961, 328452.038 ], [ 182603.420000000012806, 328476.63 ], [ 182649.310999999986961, 328488.954000000027008 ], [ 182665.119, 328493.663 ], [ 182700.288, 328505.378000000026077 ], [ 182710.714, 328511.679 ], [ 182724.055, 328516.487000000022817 ], [ 182734.339, 328520.194000000017695 ], [ 182739.571999999985565, 328521.862000000022817 ], [ 182760.215999999985797, 328530.468999999982771 ], [ 182776.807, 328537.68 ], [ 182803.212, 328549.142 ], [ 182805.066, 328550.023999999975786 ], [ 182865.921, 328579.24 ], [ 182868.639, 328579.919 ], [ 182873.157, 328583.452 ], [ 182872.014, 328590.00099999998929 ], [ 182872.006, 328590.049 ], [ 182871.728, 328591.63900000002468 ], [ 182873.253999999986263, 328592.509000000020023 ], [ 182887.219000000011874, 328600.477000000013504 ], [ 182941.642, 328636.580000000016298 ], [ 182940.939000000013039, 328637.776000000012573 ], [ 182944.568, 328640.419999999983702 ], [ 182956.174, 328648.87599999998929 ], [ 182956.911, 328649.413 ], [ 182967.135, 328656.863000000012107 ], [ 182988.022, 328673.313000000023749 ], [ 182991.269999999989523, 328679.011 ], [ 182997.315, 328689.618000000016764 ], [ 183074.862, 328752.131 ], [ 183093.99900000001071, 328767.696999999985565 ], [ 183104.975, 328776.809 ], [ 183118.348999999987427, 328788.271 ], [ 183119.392, 328789.196999999985565 ], [ 183131.566, 328800.012999999977183 ], [ 183147.076, 328814.746999999973923 ], [ 183170.399, 328838.575000000011642 ], [ 183174.439000000013039, 328843.186999999976251 ], [ 183174.473, 328842.892999999981839 ], [ 183179.685999999986961, 328797.168 ], [ 183180.051, 328793.967 ], [ 183181.388, 328782.243000000016764 ], [ 183181.670000000012806, 328779.770000000018626 ], [ 183197.34, 328801.849999999976717 ], [ 183218.700000000011642, 328822.57 ], [ 183220.098, 328824.474999999976717 ], [ 183255.87400000001071, 328873.221000000019558 ], [ 183256.844000000011874, 328874.538 ], [ 183268.78, 328890.75 ], [ 183268.797, 328890.768999999971129 ], [ 183281.988000000012107, 328908.777 ], [ 183282.21, 328909.080000000016298 ], [ 183283.22, 328910.650000000023283 ], [ 183282.726, 328914.402 ], [ 183282.420000000012806, 328916.729999999981374 ], [ 183285.76, 328920.74 ], [ 183287.127, 328919.385 ], [ 183289.24, 328917.289999999979045 ], [ 183300.980000000010477, 328931.44 ], [ 183361.799, 329004.416000000026543 ], [ 183368.97, 329013.020000000018626 ], [ 183422.4, 329075.049999999988358 ], [ 183434.32, 329088.840000000025611 ], [ 183437.0, 329091.840000000025611 ], [ 183453.82, 329110.96999999997206 ], [ 183459.1, 329115.090000000025611 ], [ 183474.769999999989523, 329133.049999999988358 ], [ 183477.799999999988358, 329138.49 ], [ 183491.25, 329154.090000000025611 ], [ 183500.47, 329164.49 ], [ 183502.950000000011642, 329167.56 ], [ 183503.730000000010477, 329166.799999999988358 ], [ 183530.09, 329197.520000000018626 ], [ 183541.614, 329212.142999999981839 ], [ 183555.312, 329200.659999999974389 ] ] ] ] } },
{ "type": "Feature", "properties": { "buurtcode": "BU08880001", "buurtnaam": "Neerbeek", "pc6_codes": "6191DV, 6191DW, 6191DX, 6191DZ, 6191EE, 6191EH, 6191EK, 6191EL, 6191EM, 6191EN, 6191EP, 6191ER, 6191ES, 6191ET, 6191EV, 6191EW, 6191EX, 6191EZ, 6191GA, 6191GB, 6191GC, 6191GD, 6191GE, 6191GG, 6191GH, 6191GJ, 6191GK, 6191GL, 6191GM, 6191GN, 6191GP, 6191GR, 6191GS, 6191GT, 6191GV, 6191GW, 6191GX, 6191GZ, 6191HA, 6191HB, 6191HC, 6191HD, 6191HE, 6191HG, 6191HH, 6191HK, 6191HN, 6191HP, 6191HR, 6191HS, 6191HT", "wijkcode": "WK088800", "gemeentecode": "GM0888", "gemeentenaam": "Beek (L.)", "oppervlakteLandInHa": 123, "AantalInwoners_5": 2360, "Mannen_6": 1160, "Vrouwen_7": 1200, "HuishoudensTotaal_29": 1040, "GemiddeldeHuishoudensgrootte_33": 2.3, "Woningvoorraad_35": 1044, "NieuwbouwWoningen_36": 0, "NietWoningvoorraad_37": 58, "NieuwbouwNietWoningen_38": 0, "GemiddeldeWOZWaardeVanWoningen_39": 330, "PercentageEengezinswoning_40": 95, "PercentageTussenwoningEengezins_41": 29, "PercentageHoekwoningEengezins_42": 19, "PercentageTweeOnderEenKapWoningEe_43": 26, "PercentageVrijstaandeWoningEengezins_44": 21, "PercentageMeergezinswoning_45": 5, "Koopwoningen_47": 85, "HuurwoningenTotaal_48": 15, "InBezitWoningcorporatie_49": 9, "InBezitOverigeVerhuurders_50": 6, "BouwjaarMeerDanTienJaarGeleden_51": 99, "BouwjaarAfgelopenTienJaar_52": 1, "GemiddeldeElektriciteitslevering_53": 3210, "GemiddeldeElektriciteitsteruglevering_54": 1560, "GemiddeldAardgasverbruik_55": 980, "AardgasvrijeWoningen_57": 3, "Aardgaswoningen_58": 90, "WoningenMetZonnestroom_59": 59, "WoningenHoofdzElektrVerwarmd_60": 9, "k_20PersonenMetHoogsteInkomen_80": 21.6, "k_20HuishoudensMetHoogsteInkomen_85": 25.2, "MediaanVermogenVanParticuliereHuish_86": 258.6, "PersonenautoSTotaal_104": 1435, "PersonenautoSBrandstofBenzine_105": 1205, "PersonenautoSOverigeBrandstof_106": 230, "PersonenautoSPerHuishouden_107": 1.4, "Omgevingsadressendichtheid_121": 830, "AantalInstallatiesBijWoningen_5": 488, "OpgesteldVermogenVanZonnepanelen_6": 2055, "installaties_per_woning": 0.46743295019157088, "vermogen_per_woning": 1.9683908045977012, "installaties_per_100_woningen": 46.743295019157088, "vermogen_per_huishouden": 1.9759615384615385, "batterijdruk_score": 920.4, "koop_zon_score": 0.5015, "eengezins_zon_score": 0.5605, "betaalkracht_zon_score": 152.574, "overige_brandstof_zon_score": 135.7, "lichte_batterij_kansscore": 0.52707987175300797 }, "geometry": { "type": "MultiPolygon", "coordinates": [ [ [ [ 184870.700000000011642, 329556.479999999981374 ], [ 184870.733, 329556.454000000027008 ], [ 184879.700000000011642, 329549.349999999976717 ], [ 184885.5331, 329545.810300000011921 ], [ 184886.72, 329545.090000000025611 ], [ 184917.74, 329521.229999999981374 ], [ 184923.94, 329520.330000000016298 ], [ 184928.03, 329519.200000000011642 ], [ 184934.28, 329516.81 ], [ 184944.21, 329511.13 ], [ 184956.32, 329504.539999999979045 ], [ 184964.049999999988358, 329499.539999999979045 ], [ 185079.01, 329433.330000000016298 ], [ 185123.03, 329409.590000000025611 ], [ 185128.85, 329406.400000000023283 ], [ 185182.84, 329379.49 ], [ 185208.230000000010477, 329362.21999999997206 ], [ 185281.230000000010477, 329315.18 ], [ 185348.64000000001397, 329276.03000000002794 ], [ 185399.799999999988358, 329244.520000000018626 ], [ 185521.19, 329173.099999999976717 ], [ 185534.99, 329165.580000000016298 ], [ 185582.76, 329136.10999999998603 ], [ 185604.730000000010477, 329121.39000000001397 ], [ 185623.649, 329107.882999999972526 ], [ 185625.74299999998766, 329106.387999999977183 ], [ 185663.57, 329079.38 ], [ 185713.498, 329040.558000000019092 ], [ 185774.06, 328993.46999999997206 ], [ 185781.16, 328990.169999999983702 ], [ 185789.66, 328988.60999999998603 ], [ 185794.94, 328989.71999999997206 ], [ 185797.892, 328991.460000000020955 ], [ 185797.96, 328991.5 ], [ 185809.621000000013737, 328984.525000000023283 ], [ 185813.09, 328982.450000000011642 ], [ 185815.35, 328981.789999999979045 ], [ 185841.480000000010477, 328967.19 ], [ 185964.7562, 328893.072600000014063 ], [ 185804.9999, 328668.5001 ], [ 185669.4062, 328490.406399999978021 ], [ 185570.4062, 328408.593899999978021 ], [ 185528.4999, 328364.0001 ], [ 185519.9062, 328369.1876 ], [ 185446.4062, 328362.3126 ], [ 185261.9999, 328341.3126 ], [ 185035.29680000001099, 328312.3126 ], [ 184856.29680000001099, 328284.406399999978021 ], [ 184751.703, 328411.0001 ], [ 184681.203, 328512.906399999978021 ], [ 184554.29680000001099, 328641.406399999978021 ], [ 184294.29680000001099, 328808.6876 ], [ 184271.4306, 328824.6422 ], [ 184458.678000000014435, 329062.052000000025146 ], [ 184516.788, 329135.683000000019092 ], [ 184630.288999999989755, 329278.896 ], [ 184701.123, 329368.278 ], [ 184699.863000000012107, 329369.278 ], [ 184712.481, 329385.528999999980442 ], [ 184733.465, 329412.538999999989755 ], [ 184735.144999999989523, 329411.208999999973457 ], [ 184749.083000000013271, 329428.761 ], [ 184751.155999999988126, 329431.368000000016764 ], [ 184758.016, 329440.018999999971129 ], [ 184757.715999999985797, 329440.24900000001071 ], [ 184756.506, 329441.309 ], [ 184766.026000000012573, 329453.028999999980442 ], [ 184767.659000000014203, 329455.898999999975786 ], [ 184769.736, 329459.549 ], [ 184767.766, 329461.268999999971129 ], [ 184787.546, 329507.21999999997206 ], [ 184787.264, 329507.495 ], [ 184777.886, 329516.650000000023283 ], [ 184781.919, 329520.659999999974389 ], [ 184820.405999999988126, 329558.93 ], [ 184841.226, 329579.851000000024214 ], [ 184870.700000000011642, 329556.479999999981374 ] ] ] ] } },
{ "type": "Feature", "properties": { "buurtcode": "BU08880002", "buurtnaam": "Spaubeek", "pc6_codes": "6176AA, 6176AB, 6176AC, 6176AD, 6176AE, 6176AH, 6176AJ, 6176AK, 6176AL, 6176AM, 6176AN, 6176AP, 6176AR, 6176AS, 6176AT, 6176AV, 6176AW, 6176BA, 6176BB, 6176BD, 6176BE, 6176BG, 6176BH, 6176BK, 6176BL, 6176BM, 6176BN, 6176BP, 6176BR, 6176BS, 6176BT, 6176BV, 6176BW, 6176BX, 6176BZ, 6176CA, 6176CB, 6176CC, 6176CD, 6176CG, 6176CH, 6176CJ, 6176CK, 6176CL, 6176CM, 6176CN, 6176CP, 6176CR, 6176CS, 6176CT, 6176CV, 6176CW, 6176CX, 6176CZ, 6176DA, 6176DB, 6176DC, 6176DD, 6176DE, 6176DG, 6176DK, 6176DL, 6176DM, 6176DN, 6176EA, 6176EB, 6176EC, 6176ED, 6176EE, 6176EG, 6176EX, 6176EZ, 6176JA, 6176JB, 6176JC, 6176RA, 6176RB, 6176RC, 6176RD, 6176RE", "wijkcode": "WK088800", "gemeentecode": "GM0888", "gemeentenaam": "Beek (L.)", "oppervlakteLandInHa": 536, "AantalInwoners_5": 3350, "Mannen_6": 1650, "Vrouwen_7": 1700, "HuishoudensTotaal_29": 1530, "GemiddeldeHuishoudensgrootte_33": 2.2, "Woningvoorraad_35": 1536, "NieuwbouwWoningen_36": 1, "NietWoningvoorraad_37": 101, "NieuwbouwNietWoningen_38": 0, "GemiddeldeWOZWaardeVanWoningen_39": 312, "PercentageEengezinswoning_40": 90, "PercentageTussenwoningEengezins_41": 21, "PercentageHoekwoningEengezins_42": 13, "PercentageTweeOnderEenKapWoningEe_43": 29, "PercentageVrijstaandeWoningEengezins_44": 26, "PercentageMeergezinswoning_45": 10, "Koopwoningen_47": 76, "HuurwoningenTotaal_48": 24, "InBezitWoningcorporatie_49": 16, "InBezitOverigeVerhuurders_50": 8, "BouwjaarMeerDanTienJaarGeleden_51": 98, "BouwjaarAfgelopenTienJaar_52": 2, "GemiddeldeElektriciteitslevering_53": 3140, "GemiddeldeElektriciteitsteruglevering_54": 1510, "GemiddeldAardgasverbruik_55": 1030, "AardgasvrijeWoningen_57": 2, "Aardgaswoningen_58": 91, "WoningenMetZonnestroom_59": 58, "WoningenHoofdzElektrVerwarmd_60": 9, "k_20PersonenMetHoogsteInkomen_80": 19.5, "k_20HuishoudensMetHoogsteInkomen_85": 21.5, "MediaanVermogenVanParticuliereHuish_86": 224.3, "PersonenautoSTotaal_104": 2015, "PersonenautoSBrandstofBenzine_105": 1685, "PersonenautoSOverigeBrandstof_106": 325, "PersonenautoSPerHuishouden_107": 1.3, "Omgevingsadressendichtheid_121": 433, "AantalInstallatiesBijWoningen_5": 588, "OpgesteldVermogenVanZonnepanelen_6": 2679, "installaties_per_woning": 0.3828125, "vermogen_per_woning": 1.744140625, "installaties_per_100_woningen": 38.28125, "vermogen_per_huishouden": 1.7509803921568627, "batterijdruk_score": 875.8, "koop_zon_score": 0.4408, "eengezins_zon_score": 0.522, "betaalkracht_zon_score": 130.094, "overige_brandstof_zon_score": 188.5, "lichte_batterij_kansscore": 0.49731309439470001 }, "geometry": { "type": "MultiPolygon", "coordinates": [ [ [ [ 186819.78, 329039.261999999987893 ], [ 186820.219000000011874, 329039.172000000020489 ], [ 186826.74299999998766, 329037.112000000022817 ], [ 186835.049999999988358, 329000.0 ], [ 186835.549999999988358, 328997.400000000023283 ], [ 186842.299999999988358, 328974.650000000023283 ], [ 186848.15, 328964.200000000011642 ], [ 186853.267, 328957.89000000001397 ], [ 186854.15, 328956.799999999988358 ], [ 186872.652, 328935.865999999979977 ], [ 186876.6, 328931.400000000023283 ], [ 186892.6, 328915.549999999988358 ], [ 186900.799999999988358, 328905.950000000011642 ], [ 186895.9, 328901.049999999988358 ], [ 186898.950000000011642, 328897.599999999976717 ], [ 186901.9, 328899.700000000011642 ], [ 186911.913999999989755, 328887.898999999975786 ], [ 186912.606999999989057, 328888.810999999986961 ], [ 186917.81, 328882.194000000017695 ], [ 186922.049999999988358, 328876.799999999988358 ], [ 186931.6, 328861.700000000011642 ], [ 186938.9, 328839.25 ], [ 186941.939000000013039, 328832.223 ], [ 186942.85, 328831.549999999988358 ], [ 186943.456, 328831.102000000013504 ], [ 186955.950000000011642, 328821.849999999976717 ], [ 186950.549999999988358, 328818.849999999976717 ], [ 186955.450000000011642, 328807.700000000011642 ], [ 186956.412000000011176, 328807.901000000012573 ], [ 186958.128, 328808.259000000020023 ], [ 186962.15, 328809.099999999976717 ], [ 186969.143000000010943, 328812.128000000026077 ], [ 186971.85, 328813.299999999988358 ], [ 186980.35, 328813.049999999988358 ], [ 186981.408, 328812.901000000012573 ], [ 186986.049999999988358, 328812.25 ], [ 186991.35, 328810.900000000023283 ], [ 186994.65, 328809.099999999976717 ], [ 187003.61799999998766, 328800.724999999976717 ], [ 187012.700000000011642, 328792.25 ], [ 187073.200000000011642, 328717.549999999988358 ], [ 187108.15, 328673.099999999976717 ], [ 187127.9, 328649.700000000011642 ], [ 187144.6, 328633.549999999988358 ], [ 187176.492, 328606.452999999979511 ], [ 187189.5, 328595.400000000023283 ], [ 187214.25, 328572.849999999976717 ], [ 187252.700000000011642, 328538.849999999976717 ], [ 187260.6, 328532.099999999976717 ], [ 187262.428000000014435, 328530.704000000027008 ], [ 187292.635, 328507.385 ], [ 187334.818, 328480.255 ], [ 187355.064000000013039, 328468.233 ], [ 187368.825000000011642, 328460.609 ], [ 187383.566, 328452.629000000015367 ], [ 187400.114, 328444.036000000021886 ], [ 187410.048, 328439.072999999974854 ], [ 187418.57, 328434.87 ], [ 187425.361, 328432.424999999988358 ], [ 187432.62, 328429.81 ], [ 187444.28, 328427.789999999979045 ], [ 187450.85, 328427.402 ], [ 187455.46, 328427.13 ], [ 187466.1, 328427.330000000016298 ], [ 187475.99, 328429.200000000011642 ], [ 187481.079999999987194, 328431.13 ], [ 187483.615, 328433.37400000001071 ], [ 187486.434, 328436.36099999997532 ], [ 187494.003, 328444.586000000010245 ], [ 187497.202, 328451.017 ], [ 187500.862, 328461.642 ], [ 187503.442000000010012, 328470.506 ], [ 187504.333000000013271, 328473.113000000012107 ], [ 187507.102000000013504, 328480.593 ], [ 187510.236, 328487.284999999974389 ], [ 187513.932, 328493.759000000020023 ], [ 187519.674999999988358, 328502.517999999981839 ], [ 187525.782, 328510.5 ], [ 187532.565, 328518.048 ], [ 187539.01500000001397, 328523.802000000025146 ], [ 187540.356, 328524.99800000002142 ], [ 187549.429, 328530.286000000021886 ], [ 187560.113000000012107, 328535.24 ], [ 187581.731, 328546.395000000018626 ], [ 187596.682, 328554.10999999998603 ], [ 187604.04, 328557.907 ], [ 187605.035, 328558.419999999983702 ], [ 187645.4, 328579.25 ], [ 187673.509, 328593.061999999976251 ], [ 187675.945, 328594.259000000020023 ], [ 187677.25, 328594.900000000023283 ], [ 187695.780999999988126, 328605.884000000020023 ], [ 187724.15, 328622.700000000011642 ], [ 187742.4, 328630.049999999988358 ], [ 187754.247, 328633.867000000027474 ], [ 187754.35, 328633.900000000023283 ], [ 187764.549999999988358, 328635.5 ], [ 187778.65, 328636.950000000011642 ], [ 187787.35, 328635.950000000011642 ], [ 187793.233, 328634.489 ], [ 187795.200000000011642, 328634.0 ], [ 187803.763, 328629.799 ], [ 187808.505, 328627.231000000028871 ], [ 187811.700000000011642, 328625.5 ], [ 187828.700000000011642, 328616.049999999988358 ], [ 187827.799999999988358, 328614.049999999988358 ], [ 187831.450000000011642, 328611.849999999976717 ], [ 187832.950000000011642, 328613.400000000023283 ], [ 187836.448, 328611.072999999974854 ], [ 187840.71, 328609.188000000023749 ], [ 187844.823, 328607.022999999986496 ], [ 187848.494, 328604.81 ], [ 187856.37, 328600.170999999972992 ], [ 187862.189000000013039, 328596.744 ], [ 187869.247, 328592.713999999978114 ], [ 187874.256, 328589.62300000002142 ], [ 187880.424, 328585.533999999985099 ], [ 187886.85, 328580.69 ], [ 187894.587999999988824, 328572.593 ], [ 187899.056000000011409, 328567.266 ], [ 187902.065, 328563.316 ], [ 187907.07, 328556.37 ], [ 187917.144, 328538.950000000011642 ], [ 187927.727000000013504, 328519.164999999979045 ], [ 187930.434, 328513.561999999976251 ], [ 187937.980000000010477, 328500.147999999986496 ], [ 187962.556000000011409, 328456.397999999986496 ], [ 187974.198, 328435.819000000017695 ], [ 187975.147, 328433.474999999976717 ], [ 187975.755, 328432.065 ], [ 187980.76500000001397, 328420.456 ], [ 187987.471, 328409.718999999982771 ], [ 187987.616, 328409.454000000027008 ], [ 187993.973, 328397.569000000017695 ], [ 187994.753999999986263, 328396.109 ], [ 188000.0, 328386.299999999988358 ], [ 188014.25, 328359.700000000011642 ], [ 188009.700000000011642, 328346.398999999975786 ], [ 188008.450000000011642, 328338.199000000022352 ], [ 188007.409000000014203, 328334.762999999977183 ], [ 188006.299999999988358, 328331.099999999976717 ], [ 188002.65, 328323.700000000011642 ], [ 188000.261999999987893, 328317.25099999998929 ], [ 188000.0, 328308.400000000023283 ], [ 187999.328, 328302.393999999971129 ], [ 187998.801, 328301.450000000011642 ], [ 187998.458000000013271, 328300.836000000010245 ], [ 187996.75099999998929, 328298.391 ], [ 187994.946999999985565, 328296.945 ], [ 187992.941, 328294.800999999977648 ], [ 187990.937, 328293.356000000028871 ], [ 187986.93, 328290.767999999981839 ], [ 187986.722, 328288.367000000027474 ], [ 187985.217, 328286.621999999973923 ], [ 187983.708000000013271, 328283.425999999977648 ], [ 187983.6997, 328283.367000000027474 ], [ 187983.104, 328279.152 ], [ 187982.682999999989988, 328276.175999999977648 ], [ 187979.75, 328265.781000000017229 ], [ 187977.621000000013737, 328241.778999999980442 ], [ 187973.057, 328207.03000000002794 ], [ 187968.073, 328182.648999999975786 ], [ 187967.0, 328177.397 ], [ 187966.623, 328175.552000000025146 ], [ 187961.997, 328152.927000000025146 ], [ 187961.078, 328148.435 ], [ 187959.68, 328141.593999999982771 ], [ 187959.498, 328140.822999999974854 ], [ 187957.952, 328134.281000000017229 ], [ 187956.085, 328093.972 ], [ 187952.103, 328068.593 ], [ 187949.28, 328015.711000000010245 ], [ 187949.687, 328015.449000000022352 ], [ 187950.141, 328013.333999999973457 ], [ 187950.12, 328006.696999999985565 ], [ 187950.465999999985797, 328005.473 ], [ 187952.378999999986263, 328004.006 ], [ 187954.622, 328001.773999999975786 ], [ 187954.815, 328001.582999999984168 ], [ 187961.946, 327994.5 ], [ 187963.547, 327992.504000000015367 ], [ 187964.541999999986729, 327990.151000000012573 ], [ 187965.489, 327986.593999999982771 ], [ 187965.809, 327983.202 ], [ 187965.871000000013737, 327978.696999999985565 ], [ 187965.016, 327954.549 ], [ 187962.634, 327911.715000000025611 ], [ 187960.465, 327884.484 ], [ 187958.404, 327858.617000000027474 ], [ 187955.593, 327857.055 ], [ 187952.461000000010245, 327854.24900000001071 ], [ 187948.384, 327849.831 ], [ 187943.348, 327844.023999999975786 ], [ 187941.155, 327841.221000000019558 ], [ 187938.987, 327837.503000000026077 ], [ 187935.363000000012107, 327830.134000000020023 ], [ 187933.041999999986729, 327824.435999999986961 ], [ 187930.86799999998766, 327817.935 ], [ 187931.144, 327813.841000000014901 ], [ 187932.049999999988358, 327811.869 ], [ 187931.560999999986961, 327810.204000000027008 ], [ 187941.924, 327787.283999999985099 ], [ 187936.62, 327750.729999999981374 ], [ 187936.459, 327745.777 ], [ 187917.64000000001397, 327634.60999999998603 ], [ 187909.003999999986263, 327634.256999999983236 ], [ 187909.50099999998929, 327622.99800000002142 ], [ 187909.367, 327615.287000000011176 ], [ 187906.815, 327599.603 ], [ 187905.723999999987427, 327589.702 ], [ 187905.952, 327583.153 ], [ 187907.653, 327576.818000000028405 ], [ 187907.668, 327576.761999999987893 ], [ 187909.200000000011642, 327571.055999999982305 ], [ 187911.901000000012573, 327558.098 ], [ 187910.609, 327540.87599999998929 ], [ 187911.700000000011642, 327535.85999999998603 ], [ 187920.44, 327514.64000000001397 ], [ 187923.13, 327505.88 ], [ 187924.76, 327498.659999999974389 ], [ 187925.43, 327489.349999999976717 ], [ 187925.24, 327483.85999999998603 ], [ 187922.29, 327469.669999999983702 ], [ 187920.53, 327464.68 ], [ 187904.980000000010477, 327421.62 ], [ 187894.87, 327402.01 ], [ 187888.920000000012806, 327391.68 ], [ 187885.29, 327382.94 ], [ 187884.06, 327377.28000000002794 ], [ 187882.19, 327364.210000000020955 ], [ 187877.39000000001397, 327351.01 ], [ 187874.76, 327345.450000000011642 ], [ 187870.57, 327339.460000000020955 ], [ 187863.91, 327333.28000000002794 ], [ 187861.28, 327329.590000000025611 ], [ 187859.649, 327326.49900000001071 ], [ 187858.6, 327324.51 ], [ 187846.51, 327289.75 ], [ 187841.903, 327278.076 ], [ 187833.511, 327260.887999999977183 ], [ 187821.13, 327234.03000000002794 ], [ 187804.69, 327194.62 ], [ 187796.535, 327162.141 ], [ 187792.162000000011176, 327142.818000000028405 ], [ 187787.568, 327124.864 ], [ 187781.93, 327106.64000000001397 ], [ 187776.34, 327095.590000000025611 ], [ 187771.96, 327088.60999999998603 ], [ 187764.69, 327072.599999999976717 ], [ 187761.4, 327057.679 ], [ 187760.01, 327039.849999999976717 ], [ 187757.230000000010477, 327021.49 ], [ 187755.937, 327017.740999999979977 ], [ 187740.492, 326990.739 ], [ 187742.503, 326988.865 ], [ 187741.62599999998929, 326987.311999999976251 ], [ 187739.657, 326984.73599999997532 ], [ 187739.313, 326984.284999999974389 ], [ 187718.913999999989755, 326957.59499999997206 ], [ 187717.293, 326955.463999999978114 ], [ 187705.169, 326939.526000000012573 ], [ 187704.133, 326937.329000000027008 ], [ 187700.393000000010943, 326929.392999999981839 ], [ 187691.104, 326905.299999999988358 ], [ 187688.244, 326893.15500000002794 ], [ 187686.477000000013504, 326882.131 ], [ 187686.229, 326865.358 ], [ 187686.109, 326856.239 ], [ 187685.252, 326847.12599999998929 ], [ 187680.85999999998603, 326834.112000000022817 ], [ 187678.647, 326825.272 ], [ 187677.121000000013737, 326825.75099999998929 ], [ 187676.453, 326821.794999999983702 ], [ 187672.788, 326800.068000000028405 ], [ 187668.15, 326793.778 ], [ 187655.950000000011642, 326776.767999999981839 ], [ 187655.065, 326775.054 ], [ 187646.817000000010012, 326759.064000000013039 ], [ 187639.403, 326742.670999999972992 ], [ 187639.373, 326742.537000000011176 ], [ 187638.641, 326739.281000000017229 ], [ 187637.924, 326736.090000000025611 ], [ 187637.112, 326738.422000000020489 ], [ 187636.799999999988358, 326737.590000000025611 ], [ 187634.736, 326730.208999999973457 ], [ 187634.426, 326729.099999999976717 ], [ 187607.777, 326667.414999999979045 ], [ 187591.869, 326631.829000000027008 ], [ 187576.051, 326602.292000000015832 ], [ 187541.1, 326541.443000000028405 ], [ 187530.987, 326522.650000000023283 ], [ 187545.480000000010477, 326497.643999999971129 ], [ 187531.354, 326490.614 ], [ 187517.711000000010245, 326484.239 ], [ 187496.696, 326475.435999999986961 ], [ 187494.812, 326475.413 ], [ 187486.394999999989523, 326475.310999999986961 ], [ 187485.666999999986729, 326474.044999999983702 ], [ 187485.04, 326472.88 ], [ 187484.941, 326472.781000000017229 ], [ 187435.85, 326424.340000000025611 ], [ 187413.123, 326407.049999999988358 ], [ 187381.69, 326382.950000000011642 ], [ 187380.43, 326381.81 ], [ 187365.53, 326366.31 ], [ 187347.771, 326344.39000000001397 ], [ 187343.161, 326339.13900000002468 ], [ 187345.454, 326327.901000000012573 ], [ 187345.707, 326327.656000000017229 ], [ 187334.756, 326301.761 ], [ 187327.187, 326287.311999999976251 ], [ 187320.995, 326273.550999999977648 ], [ 187313.426, 326257.038 ], [ 187309.986, 326248.782 ], [ 187298.977000000013504, 326233.645000000018626 ], [ 187293.473, 326225.387999999977183 ], [ 187286.592, 326212.315 ], [ 187280.4, 326203.370999999984633 ], [ 187267.327, 326186.169999999983702 ], [ 187258.38200000001234, 326174.473 ], [ 187253.631, 326167.511999999987893 ], [ 187249.327, 326160.787000000011176 ], [ 187245.696, 326154.331 ], [ 187241.392, 326146.664999999979045 ], [ 187243.736, 326144.488000000012107 ], [ 187241.46, 326139.121999999973923 ], [ 187240.336000000010245, 326136.472 ], [ 187233.372, 326121.516 ], [ 187225.13200000001234, 326105.550999999977648 ], [ 187217.176, 326090.663999999989755 ], [ 187202.229, 326063.090000000025611 ], [ 187194.846, 326049.597 ], [ 187175.685999999986961, 326014.087 ], [ 187157.309, 325979.766 ], [ 187139.136999999987893, 325946.12300000002142 ], [ 187138.552, 325945.041000000026543 ], [ 187112.813, 325897.316999999980908 ], [ 187095.017, 325864.299999999988358 ], [ 187090.696999999985565, 325856.281000000017229 ], [ 187073.174, 325823.75099999998929 ], [ 187067.0, 325812.227000000013504 ], [ 187065.597, 325809.608 ], [ 187060.016, 325798.191999999980908 ], [ 187050.352000000013504, 325777.59499999997206 ], [ 187048.51, 325773.647 ], [ 187044.032, 325764.424999999988358 ], [ 187039.76, 325757.484 ], [ 187036.568, 325752.841000000014901 ], [ 187033.938, 325749.01500000001397 ], [ 187027.255, 325740.995999999984633 ], [ 187022.644, 325736.49800000002142 ], [ 187013.715, 325728.079000000027008 ], [ 187006.885, 325721.24900000001071 ], [ 186992.326, 325705.923 ], [ 186984.646, 325697.989 ], [ 186971.587, 325684.666000000026543 ], [ 186952.7477, 325665.3664 ], [ 186950.796, 325663.367000000027474 ], [ 186938.951, 325651.521 ], [ 186940.88, 325648.316999999980908 ], [ 186941.268000000010943, 325647.673 ], [ 186941.426, 325647.411000000021886 ], [ 186946.511999999987893, 325638.957999999984168 ], [ 186929.934, 325640.238000000012107 ], [ 186929.598999999987427, 325639.561999999976251 ], [ 186922.744, 325640.091000000014901 ], [ 186887.364, 325642.821999999985565 ], [ 186863.352000000013504, 325644.675999999977648 ], [ 186795.381, 325650.946999999985565 ], [ 186752.166, 325654.93 ], [ 186724.733, 325657.599999999976717 ], [ 186535.01500000001397, 325673.341000000014901 ], [ 186531.454999999987194, 325671.825000000011642 ], [ 186531.865, 325673.858 ], [ 186514.421, 325676.694000000017695 ], [ 186513.209, 325676.918 ], [ 186465.739, 325677.966000000014901 ], [ 186437.678000000014435, 325679.891 ], [ 186424.449, 325680.949000000022352 ], [ 186416.0803, 325682.0675 ], [ 186375.4999, 325776.3125 ], [ 186316.4063, 325823.8125 ], [ 186230.796899999986636, 325897.406299999973271 ], [ 186443.0937, 326144.8125 ], [ 186335.5939, 326188.593899999978021 ], [ 186440.9999, 326307.5001 ], [ 186301.5, 326546.3125 ], [ 186240.296899999986636, 326680.3125 ], [ 186157.5, 326847.406299999973271 ], [ 185948.296899999986636, 327028.593799999973271 ], [ 185832.0938, 327125.5 ], [ 185693.796899999986636, 327218.1875 ], [ 185644.4063, 327240.5001 ], [ 185617.703100000013364, 327321.906299999973271 ], [ 185600.0937, 327322.8126 ], [ 185609.0, 327340.8126 ], [ 185609.5, 327375.093899999978021 ], [ 185563.79680000001099, 327502.406399999978021 ], [ 185502.796899999986636, 327638.3126 ], [ 185475.703100000013364, 327736.8126 ], [ 185481.796899999986636, 327826.593899999978021 ], [ 185494.0937, 327898.093899999978021 ], [ 185453.796899999986636, 327993.8126 ], [ 185429.5938, 328099.3126 ], [ 185431.796899999986636, 328222.6876 ], [ 185475.5937, 328307.6876 ], [ 185528.4999, 328364.0001 ], [ 185570.4062, 328408.593899999978021 ], [ 185669.4062, 328490.406399999978021 ], [ 185804.9999, 328668.5001 ], [ 185964.7562, 328893.072600000014063 ], [ 185971.184, 328889.207999999984168 ], [ 185984.269999999989523, 328881.340000000025611 ], [ 186011.34, 328866.580000000016298 ], [ 186076.19, 328830.99 ], [ 186102.980000000010477, 328815.93 ], [ 186168.299999999988358, 328776.200000000011642 ], [ 186186.1, 328766.38 ], [ 186228.730000000010477, 328746.090000000025611 ], [ 186262.200000000011642, 328731.150000000023283 ], [ 186267.353, 328729.076 ], [ 186286.47, 328721.38 ], [ 186334.46, 328703.710000000020955 ], [ 186354.49, 328696.950000000011642 ], [ 186393.43, 328686.270000000018626 ], [ 186548.54, 328649.18 ], [ 186655.582, 328621.504000000015367 ], [ 186669.519999999989523, 328617.900000000023283 ], [ 186724.829999999987194, 328640.87 ], [ 186732.230000000010477, 328681.919999999983702 ], [ 186730.85, 328684.46999999997206 ], [ 186730.329999999987194, 328690.64000000001397 ], [ 186729.13, 328696.599999999976717 ], [ 186727.1, 328702.729999999981374 ], [ 186716.299999999988358, 328726.210000000020955 ], [ 186715.35999999998603, 328727.01 ], [ 186721.769999999989523, 328737.07 ], [ 186723.293, 328739.428000000014435 ], [ 186732.43, 328753.580000000016298 ], [ 186733.321, 328754.960000000020955 ], [ 186736.172, 328760.26400000002468 ], [ 186737.269, 328762.305 ], [ 186749.109, 328784.332 ], [ 186763.03, 328810.229999999981374 ], [ 186764.764, 328813.419 ], [ 186767.23499999998603, 328817.962 ], [ 186768.10999999998603, 328819.57 ], [ 186772.56, 328825.460000000020955 ], [ 186784.69, 328838.330000000016298 ], [ 186795.170000000012806, 328853.49 ], [ 186798.74, 328857.13 ], [ 186795.152, 328860.409999999974389 ], [ 186795.192000000010012, 328862.74 ], [ 186794.592, 328863.941 ], [ 186789.712, 328868.371999999973923 ], [ 186786.532, 328869.423 ], [ 186776.192000000010012, 328879.968 ], [ 186772.022, 328884.26 ], [ 186763.872, 328894.913 ], [ 186760.752, 328900.82 ], [ 186760.443, 328901.40500000002794 ], [ 186757.905, 328908.897 ], [ 186756.865, 328912.878000000026077 ], [ 186755.386999999987893, 328918.788999999989755 ], [ 186754.508, 328927.691 ], [ 186754.93, 328933.00099999998929 ], [ 186754.980000000010477, 328933.61099999997532 ], [ 186755.049, 328934.363000000012107 ], [ 186755.700000000011642, 328941.5 ], [ 186761.200000000011642, 328959.789999999979045 ], [ 186767.4, 328969.299999999988358 ], [ 186778.299999999988358, 328985.650000000023283 ], [ 186785.4, 329000.020000000018626 ], [ 186792.9, 329011.25 ], [ 186807.700000000011642, 329040.729999999981374 ], [ 186812.503999999986263, 329040.76 ], [ 186819.78, 329039.261999999987893 ] ] ] ] } },
{ "type": "Feature", "properties": { "buurtcode": "BU08880100", "buurtnaam": "Geverik", "pc6_codes": "6191AC, 6191KT, 6191RG, 6191RH, 6191RJ, 6191RK, 6191RL, 6191RM, 6191RN, 6191RP, 6191RR, 6191RT", "wijkcode": "WK088801", "gemeentecode": "GM0888", "gemeentenaam": "Beek (L.)", "oppervlakteLandInHa": 63, "AantalInwoners_5": 375, "Mannen_6": 180, "Vrouwen_7": 195, "HuishoudensTotaal_29": 165, "GemiddeldeHuishoudensgrootte_33": 2.2, "Woningvoorraad_35": 172, "NieuwbouwWoningen_36": 0, "NietWoningvoorraad_37": 7, "NieuwbouwNietWoningen_38": 0, "GemiddeldeWOZWaardeVanWoningen_39": 367, "PercentageEengezinswoning_40": 94, "PercentageTussenwoningEengezins_41": 12, "PercentageHoekwoningEengezins_42": 9, "PercentageTweeOnderEenKapWoningEe_43": 34, "PercentageVrijstaandeWoningEengezins_44": 39, "PercentageMeergezinswoning_45": 6, "Koopwoningen_47": 84, "HuurwoningenTotaal_48": 15, "InBezitWoningcorporatie_49": 8, "InBezitOverigeVerhuurders_50": 7, "BouwjaarMeerDanTienJaarGeleden_51": 100, "BouwjaarAfgelopenTienJaar_52": 0, "GemiddeldeElektriciteitslevering_53": 3530, "GemiddeldeElektriciteitsteruglevering_54": 1800, "GemiddeldAardgasverbruik_55": 1280, "AardgasvrijeWoningen_57": 3, "Aardgaswoningen_58": 87, "WoningenMetZonnestroom_59": 62, "WoningenHoofdzElektrVerwarmd_60": 10, "k_20PersonenMetHoogsteInkomen_80": 25.2, "k_20HuishoudensMetHoogsteInkomen_85": 27.3, "MediaanVermogenVanParticuliereHuish_86": 285.2, "PersonenautoSTotaal_104": 250, "PersonenautoSBrandstofBenzine_105": 205, "PersonenautoSOverigeBrandstof_106": 45, "PersonenautoSPerHuishouden_107": 1.5, "Omgevingsadressendichtheid_121": 317, "AantalInstallatiesBijWoningen_5": 71, "OpgesteldVermogenVanZonnepanelen_6": 322, "installaties_per_woning": 0.41279069767441862, "vermogen_per_woning": 1.8720930232558139, "installaties_per_100_woningen": 41.279069767441861, "vermogen_per_huishouden": 1.9515151515151514, "batterijdruk_score": 1116.0, "koop_zon_score": 0.5208, "eengezins_zon_score": 0.5828, "betaalkracht_zon_score": 176.824, "overige_brandstof_zon_score": 27.9, "lichte_batterij_kansscore": 0.5327420528302752 }, "geometry": { "type": "MultiPolygon", "coordinates": [ [ [ [ 183186.5, 327380.593799999973271 ], [ 183300.0938, 327306.406299999973271 ], [ 183418.4999, 327253.593799999973271 ], [ 183417.703100000013364, 327248.3126 ], [ 183389.5, 326967.1876 ], [ 183403.796899999986636, 326630.593899999978021 ], [ 183425.5, 326353.906399999978021 ], [ 183447.296899999986636, 326107.8126 ], [ 183449.4999, 326097.406399999978021 ], [ 183324.1395, 325991.114899999985937 ], [ 183319.1616, 326002.3614 ], [ 182888.910800000012387, 326113.119 ], [ 182871.8712, 326411.3126 ], [ 182846.1978, 326579.615999999979977 ], [ 182865.4063, 326647.406399999978021 ], [ 182904.796899999986636, 326779.3126 ], [ 182945.5, 326887.093899999978021 ], [ 183020.5, 327098.093799999973271 ], [ 183068.296899999986636, 327332.0 ], [ 183084.4999, 327458.3126 ], [ 183186.5, 327380.593799999973271 ] ] ] ] } },
{ "type": "Feature", "properties": { "buurtcode": "BU08880101", "buurtnaam": "Grootgenhout", "pc6_codes": "6191NG, 6191NH, 6191NJ, 6191NK, 6191NM, 6191NP, 6191NR, 6191NS, 6191NT, 6191NV, 6191NW, 6191NX, 6191NZ, 6191PA, 6191PB, 6191PC, 6191PD, 6191PE, 6191PG, 6191PH, 6191PJ, 6191PK, 6191PL, 6191PR, 6191PT", "wijkcode": "WK088801", "gemeentecode": "GM0888", "gemeentenaam": "Beek (L.)", "oppervlakteLandInHa": 140, "AantalInwoners_5": 950, "Mannen_6": 475, "Vrouwen_7": 480, "HuishoudensTotaal_29": 410, "GemiddeldeHuishoudensgrootte_33": 2.3, "Woningvoorraad_35": 413, "NieuwbouwWoningen_36": 0, "NietWoningvoorraad_37": 26, "NieuwbouwNietWoningen_38": 0, "GemiddeldeWOZWaardeVanWoningen_39": 344, "PercentageEengezinswoning_40": 98, "PercentageTussenwoningEengezins_41": 26, "PercentageHoekwoningEengezins_42": 17, "PercentageTweeOnderEenKapWoningEe_43": 29, "PercentageVrijstaandeWoningEengezins_44": 27, "PercentageMeergezinswoning_45": 2, "Koopwoningen_47": 89, "HuurwoningenTotaal_48": 11, "InBezitWoningcorporatie_49": 8, "InBezitOverigeVerhuurders_50": 3, "BouwjaarMeerDanTienJaarGeleden_51": 99, "BouwjaarAfgelopenTienJaar_52": 1, "GemiddeldeElektriciteitslevering_53": 3370, "GemiddeldeElektriciteitsteruglevering_54": 1710, "GemiddeldAardgasverbruik_55": 1070, "AardgasvrijeWoningen_57": 2, "Aardgaswoningen_58": 90, "WoningenMetZonnestroom_59": 61, "WoningenHoofdzElektrVerwarmd_60": 9, "k_20PersonenMetHoogsteInkomen_80": 23.3, "k_20HuishoudensMetHoogsteInkomen_85": 30.2, "MediaanVermogenVanParticuliereHuish_86": 271.1, "PersonenautoSTotaal_104": 625, "PersonenautoSBrandstofBenzine_105": 525, "PersonenautoSOverigeBrandstof_106": 100, "PersonenautoSPerHuishouden_107": 1.5, "Omgevingsadressendichtheid_121": 155, "AantalInstallatiesBijWoningen_5": 194, "OpgesteldVermogenVanZonnepanelen_6": 850, "installaties_per_woning": 0.46973365617433416, "vermogen_per_woning": 2.0581113801452786, "installaties_per_100_woningen": 46.973365617433416, "vermogen_per_huishouden": 2.0731707317073171, "batterijdruk_score": 1043.1, "koop_zon_score": 0.5429, "eengezins_zon_score": 0.5978, "betaalkracht_zon_score": 165.371, "overige_brandstof_zon_score": 61.0, "lichte_batterij_kansscore": 0.54711509575558981 }, "geometry": { "type": "MultiPolygon", "coordinates": [ [ [ [ 185617.703100000013364, 327321.906299999973271 ], [ 185644.4063, 327240.5001 ], [ 185693.796899999986636, 327218.1875 ], [ 185832.0938, 327125.5 ], [ 185948.296899999986636, 327028.593799999973271 ], [ 186157.5, 326847.406299999973271 ], [ 186240.296899999986636, 326680.3125 ], [ 186301.5, 326546.3125 ], [ 186440.9999, 326307.5001 ], [ 186335.5939, 326188.593899999978021 ], [ 186443.0937, 326144.8125 ], [ 186230.796899999986636, 325897.406299999973271 ], [ 186316.4063, 325823.8125 ], [ 186375.4999, 325776.3125 ], [ 186416.0803, 325682.0675 ], [ 186410.989, 325682.74800000002142 ], [ 186386.867, 325695.072999999974854 ], [ 186380.666, 325702.352000000013504 ], [ 186379.663999999989755, 325692.924999999988358 ], [ 186379.469000000011874, 325691.088999999978114 ], [ 186379.442000000010012, 325690.832 ], [ 186377.50700000001234, 325672.473999999987427 ], [ 186284.157, 325628.273999999975786 ], [ 186278.269, 325638.958999999973457 ], [ 186225.747, 325610.668 ], [ 186228.332, 325598.781000000017229 ], [ 186230.7492, 325587.662699999986216 ], [ 186038.5938, 325710.906299999973271 ], [ 185851.203100000013364, 325862.906299999973271 ], [ 185670.4063, 325967.8125 ], [ 185548.203100000013364, 326048.8125 ], [ 185457.0, 326101.8125 ], [ 185419.5, 326135.3125 ], [ 185372.0938, 326196.406299999973271 ], [ 185349.9063, 326243.5 ], [ 185255.9062, 326255.1876 ], [ 185071.5937, 326250.6876 ], [ 184997.797, 326368.5 ], [ 185033.9063, 326516.8125 ], [ 185024.0, 326557.3125 ], [ 184905.0, 326658.0 ], [ 184808.203100000013364, 326733.3125 ], [ 184741.296899999986636, 326828.906299999973271 ], [ 184698.4999, 326884.093899999978021 ], [ 184782.703, 326906.1876 ], [ 184952.0937, 326928.8126 ], [ 185122.5938, 326905.593799999973271 ], [ 185278.0937, 326844.5 ], [ 185294.5633, 326841.204000000027008 ], [ 185298.8748, 326846.7474 ], [ 185313.748499999986961, 326852.059499999973923 ], [ 185337.1214, 326886.0564 ], [ 185376.954999999987194, 326861.713600000017323 ], [ 185480.29680000001099, 326916.8126 ], [ 185510.203100000013364, 326949.906299999973271 ], [ 185522.0938, 327076.6875 ], [ 185541.5937, 327205.0 ], [ 185600.0937, 327322.8126 ], [ 185617.703100000013364, 327321.906299999973271 ] ] ] ] } },
{ "type": "Feature", "properties": { "buurtcode": "BU08880102", "buurtnaam": "Kleingenhout", "pc6_codes": "6191PK, 6191PM, 6191PN, 6191PP, 6191PS, 6191PV", "wijkcode": "WK088801", "gemeentecode": "GM0888", "gemeentenaam": "Beek (L.)", "oppervlakteLandInHa": 37, "AantalInwoners_5": 170, "Mannen_6": 85, "Vrouwen_7": 85, "HuishoudensTotaal_29": 70, "GemiddeldeHuishoudensgrootte_33": 2.5, "Woningvoorraad_35": 68, "NieuwbouwWoningen_36": 0, "NietWoningvoorraad_37": 2, "NieuwbouwNietWoningen_38": 0, "GemiddeldeWOZWaardeVanWoningen_39": 369, "PercentageEengezinswoning_40": 100, "PercentageTussenwoningEengezins_41": 7, "PercentageHoekwoningEengezins_42": 12, "PercentageTweeOnderEenKapWoningEe_43": 43, "PercentageVrijstaandeWoningEengezins_44": 38, "PercentageMeergezinswoning_45": 0, "Koopwoningen_47": 78, "HuurwoningenTotaal_48": 22, "InBezitWoningcorporatie_49": 13, "InBezitOverigeVerhuurders_50": 9, "BouwjaarMeerDanTienJaarGeleden_51": 99, "BouwjaarAfgelopenTienJaar_52": 1, "GemiddeldeElektriciteitslevering_53": 4330, "GemiddeldeElektriciteitsteruglevering_54": 2220, "GemiddeldAardgasverbruik_55": 1380, "AardgasvrijeWoningen_57": null, "Aardgaswoningen_58": null, "WoningenMetZonnestroom_59": null, "WoningenHoofdzElektrVerwarmd_60": null, "k_20PersonenMetHoogsteInkomen_80": 21.6, "k_20HuishoudensMetHoogsteInkomen_85": null, "MediaanVermogenVanParticuliereHuish_86": null, "PersonenautoSTotaal_104": 100, "PersonenautoSBrandstofBenzine_105": 80, "PersonenautoSOverigeBrandstof_106": 20, "PersonenautoSPerHuishouden_107": 1.5, "Omgevingsadressendichtheid_121": 168, "AantalInstallatiesBijWoningen_5": 34, "OpgesteldVermogenVanZonnepanelen_6": 198, "installaties_per_woning": 0.5, "vermogen_per_woning": 2.9117647058823528, "installaties_per_100_woningen": 50.0, "vermogen_per_huishouden": 2.8285714285714287, "batterijdruk_score": null, "koop_zon_score": null, "eengezins_zon_score": null, "betaalkracht_zon_score": null, "overige_brandstof_zon_score": null, "lichte_batterij_kansscore": null }, "geometry": { "type": "MultiPolygon", "coordinates": [ [ [ [ 184741.296899999986636, 326828.906299999973271 ], [ 184808.203100000013364, 326733.3125 ], [ 184905.0, 326658.0 ], [ 185024.0, 326557.3125 ], [ 185033.9063, 326516.8125 ], [ 184997.797, 326368.5 ], [ 185071.5937, 326250.6876 ], [ 185054.9062, 326250.3126 ], [ 184384.296899999986636, 326270.3125 ], [ 184281.9063, 326428.093799999973271 ], [ 184206.796899999986636, 326518.406299999973271 ], [ 184142.203, 326592.593899999978021 ], [ 184338.703, 326712.3126 ], [ 184600.79680000001099, 326858.593899999978021 ], [ 184698.4999, 326884.093899999978021 ], [ 184741.296899999986636, 326828.906299999973271 ] ] ] ] } },
{ "type": "Feature", "properties": { "buurtcode": "BU08880103", "buurtnaam": "Kelmond", "pc6_codes": "6191PZ, 6191RA, 6191RB, 6191RC, 6191RD, 6191RE, 6191RG", "wijkcode": "WK088801", "gemeentecode": "GM0888", "gemeentenaam": "Beek (L.)", "oppervlakteLandInHa": 80, "AantalInwoners_5": 150, "Mannen_6": 80, "Vrouwen_7": 70, "HuishoudensTotaal_29": 70, "GemiddeldeHuishoudensgrootte_33": 2.1, "Woningvoorraad_35": 61, "NieuwbouwWoningen_36": 0, "NietWoningvoorraad_37": 14, "NieuwbouwNietWoningen_38": 0, "GemiddeldeWOZWaardeVanWoningen_39": 471, "PercentageEengezinswoning_40": 90, "PercentageTussenwoningEengezins_41": 5, "PercentageHoekwoningEengezins_42": 3, "PercentageTweeOnderEenKapWoningEe_43": 15, "PercentageVrijstaandeWoningEengezins_44": 67, "PercentageMeergezinswoning_45": 10, "Koopwoningen_47": 93, "HuurwoningenTotaal_48": 7, "InBezitWoningcorporatie_49": 0, "InBezitOverigeVerhuurders_50": 7, "BouwjaarMeerDanTienJaarGeleden_51": 97, "BouwjaarAfgelopenTienJaar_52": 3, "GemiddeldeElektriciteitslevering_53": 3960, "GemiddeldeElektriciteitsteruglevering_54": 2010, "GemiddeldAardgasverbruik_55": 1480, "AardgasvrijeWoningen_57": null, "Aardgaswoningen_58": null, "WoningenMetZonnestroom_59": null, "WoningenHoofdzElektrVerwarmd_60": null, "k_20PersonenMetHoogsteInkomen_80": 24.4, "k_20HuishoudensMetHoogsteInkomen_85": null, "MediaanVermogenVanParticuliereHuish_86": null, "PersonenautoSTotaal_104": 105, "PersonenautoSBrandstofBenzine_105": 80, "PersonenautoSOverigeBrandstof_106": 25, "PersonenautoSPerHuishouden_107": 1.5, "Omgevingsadressendichtheid_121": 105, "AantalInstallatiesBijWoningen_5": 24, "OpgesteldVermogenVanZonnepanelen_6": 140, "installaties_per_woning": 0.39344262295081966, "vermogen_per_woning": 2.2950819672131146, "installaties_per_100_woningen": 39.344262295081968, "vermogen_per_huishouden": 2.0, "batterijdruk_score": null, "koop_zon_score": null, "eengezins_zon_score": null, "betaalkracht_zon_score": null, "overige_brandstof_zon_score": null, "lichte_batterij_kansscore": null }, "geometry": { "type": "MultiPolygon", "coordinates": [ [ [ [ 184206.796899999986636, 326518.406299999973271 ], [ 184281.9063, 326428.093799999973271 ], [ 184384.296899999986636, 326270.3125 ], [ 184413.5938, 326177.593899999978021 ], [ 184458.703100000013364, 325943.406399999978021 ], [ 184225.703, 325716.5001 ], [ 183874.9062, 325458.6876 ], [ 183757.703100000013364, 325363.0 ], [ 183570.0938, 325493.906299999973271 ], [ 183520.9737, 325525.3454 ], [ 183498.0777, 325636.009299999976065 ], [ 183434.1791, 325742.506999999983236 ], [ 183324.1395, 325991.114899999985937 ], [ 183449.4999, 326097.406399999978021 ], [ 183538.4062, 326172.906399999978021 ], [ 183794.9062, 326360.906399999978021 ], [ 184043.203, 326532.3126 ], [ 184142.203, 326592.593899999978021 ], [ 184206.796899999986636, 326518.406299999973271 ] ] ] ] } },
{ "type": "Feature", "properties": { "buurtcode": "BU08880109", "buurtnaam": "Verspreide huizen Vliegbasis Zuid-Limburg", "pc6_codes": "6191NJ, 6191PJ, 6191PL, 6191PR, 6191PV, 6191PW, 6191RC, 6191RS, 6191RT, 6191RW, 6199AA, 6199AB, 6199AC, 6199AD, 6199AE, 6199AG, 6199AH, 6199AL, 6199AM, 6199AN, 6199AP, 6199AR, 6199AS", "wijkcode": "WK088801", "gemeentecode": "GM0888", "gemeentenaam": "Beek (L.)", "oppervlakteLandInHa": 738, "AantalInwoners_5": 495, "Mannen_6": 200, "Vrouwen_7": 290, "HuishoudensTotaal_29": 200, "GemiddeldeHuishoudensgrootte_33": 2.5, "Woningvoorraad_35": 16, "NieuwbouwWoningen_36": 0, "NietWoningvoorraad_37": 378, "NieuwbouwNietWoningen_38": 1, "GemiddeldeWOZWaardeVanWoningen_39": null, "PercentageEengezinswoning_40": null, "PercentageTussenwoningEengezins_41": null, "PercentageHoekwoningEengezins_42": null, "PercentageTweeOnderEenKapWoningEe_43": null, "PercentageVrijstaandeWoningEengezins_44": null, "PercentageMeergezinswoning_45": null, "Koopwoningen_47": null, "HuurwoningenTotaal_48": null, "InBezitWoningcorporatie_49": null, "InBezitOverigeVerhuurders_50": null, "BouwjaarMeerDanTienJaarGeleden_51": null, "BouwjaarAfgelopenTienJaar_52": null, "GemiddeldeElektriciteitslevering_53": 3820, "GemiddeldeElektriciteitsteruglevering_54": 1450, "GemiddeldAardgasverbruik_55": 1580, "AardgasvrijeWoningen_57": null, "Aardgaswoningen_58": null, "WoningenMetZonnestroom_59": null, "WoningenHoofdzElektrVerwarmd_60": null, "k_20PersonenMetHoogsteInkomen_80": 1.5, "k_20HuishoudensMetHoogsteInkomen_85": 3.0, "MediaanVermogenVanParticuliereHuish_86": 0.7, "PersonenautoSTotaal_104": 210, "PersonenautoSBrandstofBenzine_105": 130, "PersonenautoSOverigeBrandstof_106": 85, "PersonenautoSPerHuishouden_107": 1.1, "Omgevingsadressendichtheid_121": 162, "AantalInstallatiesBijWoningen_5": 3, "OpgesteldVermogenVanZonnepanelen_6": 24, "installaties_per_woning": 0.1875, "vermogen_per_woning": 1.5, "installaties_per_100_woningen": 18.75, "vermogen_per_huishouden": 0.12, "batterijdruk_score": null, "koop_zon_score": null, "eengezins_zon_score": null, "betaalkracht_zon_score": null, "overige_brandstof_zon_score": null, "lichte_batterij_kansscore": null }, "geometry": { "type": "MultiPolygon", "coordinates": [ [ [ [ 183520.9737, 325525.3454 ], [ 183570.0938, 325493.906299999973271 ], [ 183757.703100000013364, 325363.0 ], [ 183874.9062, 325458.6876 ], [ 184225.703, 325716.5001 ], [ 184458.703100000013364, 325943.406399999978021 ], [ 184413.5938, 326177.593899999978021 ], [ 184384.296899999986636, 326270.3125 ], [ 185054.9062, 326250.3126 ], [ 185071.5937, 326250.6876 ], [ 185255.9062, 326255.1876 ], [ 185349.9063, 326243.5 ], [ 185372.0938, 326196.406299999973271 ], [ 185419.5, 326135.3125 ], [ 185457.0, 326101.8125 ], [ 185548.203100000013364, 326048.8125 ], [ 185670.4063, 325967.8125 ], [ 185851.203100000013364, 325862.906299999973271 ], [ 186038.5938, 325710.906299999973271 ], [ 186230.7492, 325587.662699999986216 ], [ 186234.601, 325569.946 ], [ 186240.696999999985565, 325541.903999999980442 ], [ 186241.674999999988358, 325537.407 ], [ 186245.775, 325518.547000000020489 ], [ 186246.378999999986263, 325515.768999999971129 ], [ 186246.453, 325515.425999999977648 ], [ 186269.161, 325410.979999999981374 ], [ 186269.388, 325409.934 ], [ 186274.242, 325387.604999999981374 ], [ 186249.127, 325364.743000000016764 ], [ 186219.555, 325358.982000000018161 ], [ 186218.791999999986729, 325358.832 ], [ 186198.614, 325354.901000000012573 ], [ 186180.929, 325351.455000000016298 ], [ 186117.64000000001397, 325339.12300000002142 ], [ 186116.093, 325338.821999999985565 ], [ 186061.97, 325328.276000000012573 ], [ 186060.964, 325328.080000000016298 ], [ 186057.021, 325327.311999999976251 ], [ 186052.584, 325326.446999999985565 ], [ 186015.218, 325319.166000000026543 ], [ 186011.062, 325318.356000000028871 ], [ 185946.467, 325305.768999999971129 ], [ 185944.548, 325305.395000000018626 ], [ 185943.997, 325305.288 ], [ 185942.577, 325305.011 ], [ 185941.01500000001397, 325304.707 ], [ 185931.506, 325302.854 ], [ 185930.587999999988824, 325302.674999999988358 ], [ 185902.155999999988126, 325297.1298 ], [ 185832.138, 325283.473999999987427 ], [ 185826.288, 325282.351000000024214 ], [ 185825.214, 325282.141 ], [ 185804.326, 325278.071999999985565 ], [ 185778.142, 325272.96999999997206 ], [ 185770.372, 325271.455000000016298 ], [ 185769.495, 325271.284999999974389 ], [ 185687.24, 325255.256999999983236 ], [ 185597.388, 325237.74900000001071 ], [ 185595.519, 325237.385 ], [ 185522.283, 325223.114 ], [ 185520.769, 325222.819000000017695 ], [ 185451.116, 325209.246999999973923 ], [ 185449.659000000014203, 325208.962999999988824 ], [ 185423.566, 325203.879000000015367 ], [ 185421.747, 325203.525000000023283 ], [ 185389.147999999986496, 325197.172000000020489 ], [ 185388.855000000010477, 325198.23599999997532 ], [ 185388.59, 325199.200000000011642 ], [ 185386.299999999988358, 325206.900000000023283 ], [ 185382.64000000001397, 325214.450000000011642 ], [ 185378.980000000010477, 325220.76 ], [ 185372.78, 325229.82 ], [ 185366.29, 325238.10999999998603 ], [ 185362.88200000001234, 325242.332999999984168 ], [ 185362.700000000011642, 325242.299999999988358 ], [ 185359.989, 325241.805 ], [ 185282.16, 325227.581 ], [ 185281.565, 325227.472 ], [ 185243.627, 325220.538999999989755 ], [ 185243.472, 325220.511 ], [ 185242.469000000011874, 325220.327999999979511 ], [ 185158.161, 325204.919999999983702 ], [ 185157.614, 325204.854999999981374 ], [ 185129.136, 325199.615999999979977 ], [ 185100.748, 325194.428000000014435 ], [ 185068.084, 325188.458999999973457 ], [ 185055.170000000012806, 325186.098999999987427 ], [ 185052.761999999987893, 325185.658999999985099 ], [ 185029.449, 325181.397999999986496 ], [ 185003.226, 325176.606000000028871 ], [ 185001.484, 325176.288 ], [ 184963.827, 325169.406000000017229 ], [ 184961.699, 325169.017 ], [ 184925.816, 325162.460000000020955 ], [ 184924.746000000013737, 325162.26400000002468 ], [ 184923.299999999988358, 325162.0 ], [ 184922.642, 325161.856000000028871 ], [ 184921.522999999986496, 325161.64000000001397 ], [ 184871.157, 325151.928000000014435 ], [ 184870.386, 325151.778999999980442 ], [ 184860.245, 325149.82 ], [ 184788.950000000011642, 325136.048 ], [ 184784.747, 325135.23599999997532 ], [ 184784.011999999987893, 325135.093999999982771 ], [ 184771.978, 325132.768999999971129 ], [ 184762.725, 325130.982000000018161 ], [ 184696.047, 325118.101000000024214 ], [ 184680.245, 325115.048 ], [ 184624.526000000012573, 325104.286000000021886 ], [ 184624.34, 325104.25 ], [ 184574.855000000010477, 325094.691 ], [ 184574.484, 325094.619 ], [ 184562.744, 325092.352000000013504 ], [ 184562.397, 325092.284999999974389 ], [ 184550.342, 325089.956 ], [ 184543.813, 325088.695 ], [ 184518.450000000011642, 325083.794999999983702 ], [ 184518.185, 325083.744 ], [ 184483.188, 325076.984 ], [ 184454.002, 325071.346000000019558 ], [ 184418.495, 325064.487000000022817 ], [ 184397.73499999998603, 325060.477000000013504 ], [ 184374.25, 325055.941 ], [ 184373.848999999987427, 325055.863000000012107 ], [ 184356.63, 325052.537000000011176 ], [ 184355.423, 325052.304 ], [ 184350.829, 325051.416000000026543 ], [ 184350.057, 325051.267 ], [ 184329.00099999998929, 325047.200000000011642 ], [ 184300.755, 325041.743000000016764 ], [ 184299.324, 325041.467 ], [ 184294.389, 325040.51400000002468 ], [ 184292.158, 325040.082999999984168 ], [ 184253.502, 325032.615 ], [ 184214.15, 325025.01400000002468 ], [ 184212.718, 325024.737000000022817 ], [ 184183.116, 325019.018999999971129 ], [ 184163.157, 325015.163 ], [ 184159.93, 325014.539999999979045 ], [ 184152.416999999986729, 325013.088999999978114 ], [ 184137.617, 325023.756999999983236 ], [ 184115.041999999986729, 325040.585000000020955 ], [ 184082.712999999988824, 325064.756 ], [ 184055.796, 325085.886 ], [ 184056.655, 325061.238000000012107 ], [ 184043.684, 325045.444000000017695 ], [ 184036.553000000014435, 325038.424999999988358 ], [ 184021.601, 325025.842 ], [ 184003.973999999987427, 325011.364 ], [ 183994.359, 325003.466000000014901 ], [ 183980.994, 324992.559 ], [ 183960.795000000012806, 324976.074000000022352 ], [ 183947.432, 324965.163999999989755 ], [ 183869.204999999987194, 324902.753000000026077 ], [ 183839.238000000012107, 324878.745999999984633 ], [ 183839.16, 324878.680999999982305 ], [ 183815.247, 324859.00199999997858 ], [ 183798.718, 324845.446999999985565 ], [ 183784.043, 324833.411000000021886 ], [ 183689.831, 324756.68 ], [ 183644.593, 324720.359 ], [ 183544.817000000010012, 324637.298 ], [ 183532.75, 324628.0 ], [ 183526.845, 324623.113000000012107 ], [ 183522.15, 324619.599999999976717 ], [ 183511.13200000001234, 324613.25199999997858 ], [ 183507.718, 324611.059 ], [ 183504.1, 324609.200000000011642 ], [ 183496.25, 324605.849999999976717 ], [ 183490.208000000013271, 324604.862000000022817 ], [ 183485.026000000012573, 324603.943000000028405 ], [ 183482.799999999988358, 324603.650000000023283 ], [ 183459.01, 324601.897999999986496 ], [ 183437.894999999989523, 324622.756 ], [ 183416.432, 324638.674 ], [ 183387.196999999985565, 324655.702 ], [ 183362.912000000011176, 324666.663999999989755 ], [ 183356.852000000013504, 324669.398999999975786 ], [ 183330.948, 324679.76400000002468 ], [ 183324.176, 324682.668 ], [ 183310.225, 324688.648999999975786 ], [ 183300.011, 324697.147 ], [ 183199.081, 324770.327999999979511 ], [ 183186.897999999986496, 324771.006 ], [ 183171.826, 324771.843999999982771 ], [ 183157.810999999986961, 324772.62300000002142 ], [ 183152.185999999986961, 324772.935999999986961 ], [ 183135.89000000001397, 324773.843 ], [ 183133.602000000013504, 324774.813000000023749 ], [ 183110.663, 324784.538999999989755 ], [ 183077.356, 324799.859 ], [ 183072.995, 324800.51 ], [ 183072.25, 324800.826 ], [ 182866.59, 324888.026000000012573 ], [ 182829.579, 324906.052000000025146 ], [ 182797.35999999998603, 324921.743000000016764 ], [ 182772.248, 324879.933000000019092 ], [ 182756.787000000011176, 324854.191 ], [ 182712.685999999986961, 324780.76500000001397 ], [ 182710.21, 324776.771499999973457 ], [ 182708.297, 324773.685999999986961 ], [ 182703.704, 324767.341000000014901 ], [ 182697.764, 324760.917000000015832 ], [ 182691.397999999986496, 324755.341000000014901 ], [ 182644.673, 324719.454000000027008 ], [ 182625.775, 324704.94 ], [ 182606.951, 324690.49800000002142 ], [ 182569.685, 324661.907 ], [ 182563.04, 324656.958999999973457 ], [ 182561.663, 324656.159999999974389 ], [ 182559.307, 324654.792000000015832 ], [ 182555.503999999986263, 324653.071 ], [ 182551.671, 324651.68 ], [ 182543.477000000013504, 324649.614 ], [ 182535.377, 324648.854 ], [ 182533.385, 324649.049999999988358 ], [ 182526.807, 324649.696 ], [ 182526.778, 324649.702999999979511 ], [ 182519.115, 324651.592 ], [ 182511.223, 324654.706 ], [ 182500.37400000001071, 324660.895000000018626 ], [ 182500.354, 324660.805999999982305 ], [ 182450.708000000013271, 324689.646 ], [ 182403.182, 324717.229 ], [ 182399.777, 324719.206 ], [ 182399.763, 324719.213999999978114 ], [ 182399.752, 324719.21999999997206 ], [ 182393.411, 324722.668 ], [ 182386.791, 324725.363000000012107 ], [ 182379.736, 324726.981000000028871 ], [ 182372.03, 324727.439000000013039 ], [ 182369.306000000011409, 324727.352000000013504 ], [ 182366.424, 324727.016 ], [ 182362.998, 324726.313000000023749 ], [ 182362.972, 324726.305999999982305 ], [ 182362.935, 324726.295999999972992 ], [ 182354.98499999998603, 324724.099999999976717 ], [ 182354.959, 324724.092 ], [ 182354.949, 324724.088999999978114 ], [ 182354.863000000012107, 324724.060999999986961 ], [ 182354.871000000013737, 324724.674999999988358 ], [ 182354.609, 324724.576 ], [ 182349.695, 324722.94 ], [ 182340.788, 324719.853 ], [ 182340.346, 324719.700000000011642 ], [ 182302.905, 324706.722 ], [ 182272.788999999989755, 324696.217 ], [ 182265.486, 324693.411000000021886 ], [ 182258.688, 324690.184 ], [ 182256.229, 324688.766 ], [ 182254.503, 324687.588999999978114 ], [ 182252.75700000001234, 324686.239 ], [ 182251.767, 324685.282 ], [ 182246.678000000014435, 324679.854 ], [ 182242.155, 324673.53000000002794 ], [ 182237.826, 324666.945 ], [ 182222.226, 324641.917000000015832 ], [ 182209.44, 324621.493000000016764 ], [ 182207.687, 324618.49800000002142 ], [ 182206.565, 324615.577999999979511 ], [ 182206.552, 324615.543 ], [ 182206.544, 324615.50199999997858 ], [ 182206.215, 324613.919999999983702 ], [ 182207.574, 324613.191 ], [ 182206.529, 324611.5 ], [ 182206.052, 324607.300999999977648 ], [ 182204.951, 324604.49900000001071 ], [ 182202.85, 324600.979999999981374 ], [ 182202.701, 324601.01 ], [ 182200.15, 324601.049999999988358 ], [ 182186.579999999987194, 324609.659999999974389 ], [ 182183.19, 324611.810999999986961 ], [ 182180.005, 324613.832 ], [ 182175.391, 324602.482000000018161 ], [ 182170.806000000011409, 324594.552000000025146 ], [ 182156.718, 324571.574000000022352 ], [ 182141.354, 324549.87400000001071 ], [ 182070.951, 324464.509000000020023 ], [ 182007.511, 324387.950000000011642 ], [ 181911.696, 324272.483 ], [ 181814.788, 324154.445 ], [ 181801.022999999986496, 324139.228 ], [ 181794.578, 324132.69 ], [ 181787.977000000013504, 324126.794 ], [ 181778.424, 324119.170999999972992 ], [ 181752.638, 324099.319000000017695 ], [ 181733.165, 324085.478 ], [ 181730.193999999988591, 324083.368000000016764 ], [ 181717.606, 324070.532 ], [ 181715.916, 324068.549999999988358 ], [ 181714.268000000010943, 324066.533 ], [ 181712.665, 324064.479999999981374 ], [ 181711.106, 324062.393999999971129 ], [ 181709.592, 324060.273999999975786 ], [ 181708.12400000001071, 324058.12300000002142 ], [ 181706.703, 324055.94 ], [ 181705.329, 324053.727000000013504 ], [ 181646.726, 323963.119 ], [ 181633.3394, 323942.1286 ], [ 181593.536, 323879.716000000014901 ], [ 181546.979, 323806.444000000017695 ], [ 181545.283, 323803.800999999977648 ], [ 181543.566, 323801.170999999972992 ], [ 181541.829, 323798.554 ], [ 181540.073, 323795.951 ], [ 181538.296, 323793.36099999997532 ], [ 181536.5, 323790.784999999974389 ], [ 181534.684, 323788.222 ], [ 181532.848, 323785.674 ], [ 181530.99299999998766, 323783.13900000002468 ], [ 181529.119, 323780.619 ], [ 181527.225, 323778.114 ], [ 181525.313, 323775.62300000002142 ], [ 181523.381, 323773.146 ], [ 181521.43, 323770.685 ], [ 181519.461000000010245, 323768.238000000012107 ], [ 181517.473, 323765.806999999971595 ], [ 181502.401000000012573, 323754.164999999979045 ], [ 181501.29, 323753.306999999971595 ], [ 181499.627, 323752.143999999971129 ], [ 181497.977000000013504, 323750.962 ], [ 181496.342, 323749.76 ], [ 181494.72, 323748.539999999979045 ], [ 181493.113000000012107, 323747.299999999988358 ], [ 181491.521, 323746.042000000015832 ], [ 181489.943, 323744.76500000001397 ], [ 181488.38, 323743.46999999997206 ], [ 181486.833000000013271, 323742.157 ], [ 181485.301, 323740.826 ], [ 181483.785, 323739.477000000013504 ], [ 181482.284000000014203, 323738.11099999997532 ], [ 181480.799999999988358, 323736.727000000013504 ], [ 181479.331, 323735.325000000011642 ], [ 181477.88, 323733.907 ], [ 181476.445, 323732.472 ], [ 181475.027, 323731.020000000018626 ], [ 181474.731999999989057, 323730.711000000010245 ], [ 181473.62599999998929, 323729.552000000025146 ], [ 181472.242, 323728.066999999980908 ], [ 181470.875, 323726.566999999980908 ], [ 181469.527, 323725.049999999988358 ], [ 181468.196, 323723.517999999981839 ], [ 181466.883, 323721.971000000019558 ], [ 181465.587999999988824, 323720.408 ], [ 181464.310999999986961, 323718.830000000016298 ], [ 181463.053000000014435, 323717.237000000022817 ], [ 181461.814000000013039, 323715.63 ], [ 181460.594000000011874, 323714.009000000020023 ], [ 181459.392, 323712.37300000002142 ], [ 181458.21, 323710.723 ], [ 181457.047, 323709.06 ], [ 181455.904, 323707.382999999972526 ], [ 181410.233, 323635.23599999997532 ], [ 181410.201, 323635.186999999976251 ], [ 181355.603, 323548.941 ], [ 181322.147999999986496, 323496.517999999981839 ], [ 181312.165, 323481.465000000025611 ], [ 181283.986, 323440.017999999981839 ], [ 181263.932999999989988, 323412.436999999976251 ], [ 181261.939000000013039, 323409.766 ], [ 181261.932999999989988, 323409.756999999983236 ], [ 181255.49299999998766, 323401.125 ], [ 181244.702, 323386.664999999979045 ], [ 181226.373, 323362.816 ], [ 181216.097, 323350.098 ], [ 181216.075000000011642, 323350.072999999974854 ], [ 181212.514, 323345.667000000015832 ], [ 181193.065, 323322.726000000024214 ], [ 181157.935, 323282.78000000002794 ], [ 181156.76, 323281.571999999985565 ], [ 181155.549, 323280.400000000023283 ], [ 181154.304, 323279.26400000002468 ], [ 181153.026000000012573, 323278.164999999979045 ], [ 181151.717, 323277.104 ], [ 181150.37599999998929, 323276.082999999984168 ], [ 181149.00700000001234, 323275.101000000024214 ], [ 181147.608, 323274.159999999974389 ], [ 181146.182999999989988, 323273.261 ], [ 181144.731, 323272.40500000002794 ], [ 181143.255, 323271.592 ], [ 181141.756, 323270.821999999985565 ], [ 181141.23499999998603, 323270.574000000022352 ], [ 181140.234, 323270.097 ], [ 181139.371000000013737, 323269.717 ], [ 181138.692000000010012, 323269.418 ], [ 181137.131, 323268.783999999985099 ], [ 181135.551, 323268.196999999985565 ], [ 181134.215999999985797, 323267.696 ], [ 181132.87, 323267.224999999976717 ], [ 181131.514, 323266.783 ], [ 181130.149, 323266.371999999973923 ], [ 181129.226, 323266.115999999979977 ], [ 181128.775, 323265.99 ], [ 181127.393000000010943, 323265.64000000001397 ], [ 181126.003999999986263, 323265.319000000017695 ], [ 181124.606999999989057, 323265.03000000002794 ], [ 181124.121000000013737, 323264.94 ], [ 181123.253, 323264.78000000002794 ], [ 181121.771, 323264.537000000011176 ], [ 181120.385, 323264.347 ], [ 181118.969000000011874, 323264.181999999971595 ], [ 181117.952, 323264.086000000010245 ], [ 181117.549, 323264.048 ], [ 181116.127, 323263.946 ], [ 181114.703, 323263.87400000001071 ], [ 181113.277, 323263.835000000020955 ], [ 181111.852000000013504, 323263.827 ], [ 181110.426, 323263.849999999976717 ], [ 181109.00099999998929, 323263.90500000002794 ], [ 181107.578, 323263.990999999979977 ], [ 181106.157, 323264.108 ], [ 181106.033, 323264.12300000002142 ], [ 181106.009, 323264.12400000001071 ], [ 181104.738000000012107, 323264.256999999983236 ], [ 181103.324, 323264.438000000023749 ], [ 181101.913999999989755, 323264.648999999975786 ], [ 181100.509, 323264.891 ], [ 181099.109, 323265.164999999979045 ], [ 181097.715999999985797, 323265.468999999982771 ], [ 181096.329999999987194, 323265.804 ], [ 181094.952, 323266.169 ], [ 181093.582, 323266.565 ], [ 181092.221, 323266.990999999979977 ], [ 181090.87, 323267.446999999985565 ], [ 180993.003, 323326.462999999988824 ], [ 180991.01, 323327.670999999972992 ], [ 180960.347, 323346.163 ], [ 180959.263, 323346.924 ], [ 180930.481, 323367.136999999987893 ], [ 180928.519999999989523, 323369.044999999983702 ], [ 180926.364, 323371.329000000027008 ], [ 180924.415, 323373.642 ], [ 180922.96, 323376.38 ], [ 180922.174999999988358, 323379.28000000002794 ], [ 180921.654, 323382.097 ], [ 180921.938, 323383.805 ], [ 180922.196999999985565, 323385.359 ], [ 180923.38, 323388.006999999983236 ], [ 180924.741, 323390.657 ], [ 180928.046, 323395.678000000014435 ], [ 180931.585, 323400.793 ], [ 180947.783, 323424.207999999984168 ], [ 180947.73499999998603, 323424.245 ], [ 180952.721, 323431.32 ], [ 180955.666999999986729, 323435.805999999982305 ], [ 180939.31, 323446.521 ], [ 180907.087, 323467.63 ], [ 180906.229, 323471.865999999979977 ], [ 180902.98499999998603, 323474.34499999997206 ], [ 180890.937, 323490.449000000022352 ], [ 180876.467, 323479.647999999986496 ], [ 180874.49299999998766, 323481.183000000019092 ], [ 180873.391, 323482.038999999989755 ], [ 180863.75099999998929, 323489.425999999977648 ], [ 180878.032, 323505.059 ], [ 180891.5201, 323521.2268 ], [ 180891.658, 323521.392 ], [ 180900.51500000001397, 323533.227000000013504 ], [ 180907.441, 323542.882999999972526 ], [ 180910.439000000013039, 323552.218999999982771 ], [ 180914.229, 323559.081 ], [ 180932.858, 323588.878000000026077 ], [ 180944.476, 323608.24800000002142 ], [ 180958.131, 323633.552000000025146 ], [ 180980.513, 323677.729999999981374 ], [ 180996.583000000013271, 323713.255 ], [ 181010.965, 323749.034999999974389 ], [ 181021.468, 323778.456 ], [ 181119.159000000014203, 324079.518999999971129 ], [ 181128.027, 324104.617000000027474 ], [ 181138.606999999989057, 324132.153 ], [ 181149.135, 324156.425999999977648 ], [ 181161.166, 324183.305999999982305 ], [ 181180.12599999998929, 324222.922000000020489 ], [ 181222.429800000012619, 324307.022899999981746 ], [ 181255.846, 324373.455000000016298 ], [ 181381.88, 324622.59499999997206 ], [ 181406.97, 324670.463999999978114 ], [ 181425.087999999988824, 324703.607000000018161 ], [ 181440.99900000001071, 324730.961000000010245 ], [ 181463.304, 324767.900000000023283 ], [ 181503.062, 324829.613000000012107 ], [ 181509.791999999986729, 324841.577 ], [ 181520.862, 324864.381999999983236 ], [ 181542.644999999989523, 324915.867000000027474 ], [ 181551.50700000001234, 324931.920999999972992 ], [ 181559.646, 324943.61099999997532 ], [ 181571.934, 324959.330000000016298 ], [ 181576.924999999988358, 324964.552000000025146 ], [ 181581.49299999998766, 324969.06 ], [ 181586.584, 324973.347 ], [ 181595.56, 324977.663999999989755 ], [ 181594.659000000014203, 324982.808000000019092 ], [ 181594.079, 324986.12699999997858 ], [ 181592.49900000001071, 324995.147999999986496 ], [ 181594.997, 324997.868000000016764 ], [ 181597.670000000012806, 325001.677000000025146 ], [ 181600.286, 325006.023999999975786 ], [ 181602.541, 325009.842 ], [ 181622.38200000001234, 325042.761 ], [ 181646.893000000010943, 325083.401000000012573 ], [ 181650.608, 325088.447999999974854 ], [ 181651.4, 325089.457 ], [ 181653.978, 325092.393999999971129 ], [ 181655.829999999987194, 325094.46999999997206 ], [ 181664.921, 325103.509000000020023 ], [ 181688.397999999986496, 325126.575000000011642 ], [ 181744.211000000010245, 325181.435999999986961 ], [ 181787.011999999987893, 325223.545999999972992 ], [ 181832.448, 325267.913 ], [ 181841.926, 325283.734 ], [ 181866.582, 325313.161000000021886 ], [ 181881.234, 325334.43 ], [ 181894.85, 325355.791000000026543 ], [ 181909.835, 325380.606000000028871 ], [ 181926.280999999988126, 325408.799999999988358 ], [ 181944.611, 325441.5 ], [ 181954.587, 325460.694000000017695 ], [ 181969.047, 325489.246999999973923 ], [ 181982.772, 325517.912000000011176 ], [ 181993.897, 325542.298 ], [ 182005.969000000011874, 325570.582 ], [ 182006.5868, 325572.165199999988545 ], [ 182012.858, 325588.23499999998603 ], [ 182019.337999999988824, 325606.572999999974854 ], [ 182019.818999999988591, 325606.428000000014435 ], [ 182026.401000000012573, 325624.805999999982305 ], [ 182031.73499999998603, 325638.933000000019092 ], [ 182050.236, 325684.511999999987893 ], [ 182062.095, 325714.900000000023283 ], [ 182071.497, 325739.368000000016764 ], [ 182075.932999999989988, 325751.406000000017229 ], [ 182082.615, 325772.587 ], [ 182084.473999999987427, 325788.146 ], [ 182085.472, 325795.897 ], [ 182099.229, 325831.952999999979511 ], [ 182100.85, 325836.200000000011642 ], [ 182111.347, 325863.330000000016298 ], [ 182116.090999999985797, 325879.13 ], [ 182124.614, 325902.021 ], [ 182138.271, 325938.859 ], [ 182151.10999999998603, 325973.73599999997532 ], [ 182162.747, 326002.87599999998929 ], [ 182168.363000000012107, 326018.864 ], [ 182171.722, 326031.847 ], [ 182176.082, 326056.87699999997858 ], [ 182179.218, 326084.971000000019558 ], [ 182180.878999999986263, 326108.81 ], [ 182180.97, 326126.71999999997206 ], [ 182180.837999999988824, 326168.233 ], [ 182181.728, 326195.78000000002794 ], [ 182183.536, 326217.473 ], [ 182186.528, 326244.642999999981839 ], [ 182184.226, 326274.006 ], [ 182180.339, 326287.704000000027008 ], [ 182179.337, 326291.237000000022817 ], [ 182177.677, 326294.472 ], [ 182172.147999999986496, 326305.246999999973923 ], [ 182167.496000000013737, 326314.314000000013039 ], [ 182149.487, 326335.542000000015832 ], [ 182135.369, 326349.00099999998929 ], [ 182121.242, 326364.853 ], [ 182104.6, 326388.653 ], [ 182091.105000000010477, 326411.142999999981839 ], [ 182083.37599999998929, 326428.678000000014435 ], [ 182071.284000000014203, 326455.07 ], [ 182077.096, 326457.041000000026543 ], [ 182076.01500000001397, 326460.332999999984168 ], [ 182074.991, 326463.643999999971129 ], [ 182074.024, 326466.972 ], [ 182073.116, 326470.316 ], [ 182072.448, 326472.928000000014435 ], [ 182071.815, 326475.549 ], [ 182071.218, 326478.179 ], [ 182070.419, 326481.983 ], [ 182069.693, 326485.800999999977648 ], [ 182069.04, 326489.631999999983236 ], [ 182068.461000000010245, 326493.476000000024214 ], [ 182067.957, 326497.329000000027008 ], [ 182067.526000000012573, 326501.191999999980908 ], [ 182066.617, 326511.75199999997858 ], [ 182066.549999999988358, 326512.882999999972526 ], [ 182066.412000000011176, 326514.007999999972526 ], [ 182066.203, 326515.121999999973923 ], [ 182065.924, 326516.21999999997206 ], [ 182065.575000000011642, 326517.298 ], [ 182065.159000000014203, 326518.352000000013504 ], [ 182064.677, 326519.378000000026077 ], [ 182065.595, 326531.386999999987893 ], [ 182066.04, 326537.077 ], [ 182066.314000000013039, 326540.237000000022817 ], [ 182066.827, 326546.398999999975786 ], [ 182067.25700000001234, 326551.787000000011176 ], [ 182067.693999999988591, 326557.26400000002468 ], [ 182068.421, 326558.147999999986496 ], [ 182069.092, 326559.077 ], [ 182069.702, 326560.044999999983702 ], [ 182070.25, 326561.050999999977648 ], [ 182070.734, 326562.087999999988824 ], [ 182071.152, 326563.15500000002794 ], [ 182071.50099999998929, 326564.245 ], [ 182074.452, 326574.068000000028405 ], [ 182075.628999999986263, 326577.604999999981374 ], [ 182076.87400000001071, 326581.118000000016764 ], [ 182078.187, 326584.607000000018161 ], [ 182079.568, 326588.069000000017695 ], [ 182081.014, 326591.505 ], [ 182082.527, 326594.911000000021886 ], [ 182084.106, 326598.288 ], [ 182085.74900000001071, 326601.634000000020023 ], [ 182087.457, 326604.946999999985565 ], [ 182089.228, 326608.227000000013504 ], [ 182091.536, 326610.511 ], [ 182097.519999999989523, 326616.587999999988824 ], [ 182105.497, 326626.213999999978114 ], [ 182116.389, 326638.566999999980908 ], [ 182122.074, 326645.310999999986961 ], [ 182128.095, 326656.406000000017229 ], [ 182132.913999999989755, 326661.775000000023283 ], [ 182143.407, 326678.457999999984168 ], [ 182146.659000000014203, 326685.536000000021886 ], [ 182147.096, 326688.142 ], [ 182147.057, 326689.607000000018161 ], [ 182147.606, 326690.647999999986496 ], [ 182150.264, 326697.012999999977183 ], [ 182152.681000000011409, 326699.441 ], [ 182152.903, 326699.664999999979045 ], [ 182155.598, 326700.125 ], [ 182168.003, 326724.691999999980908 ], [ 182167.495, 326726.933000000019092 ], [ 182171.96, 326734.965000000025611 ], [ 182174.041999999986729, 326738.700000000011642 ], [ 182178.992, 326747.577 ], [ 182190.063, 326770.141 ], [ 182205.547, 326803.118000000016764 ], [ 182213.741, 326819.558000000019092 ], [ 182221.567000000010012, 326835.031000000017229 ], [ 182227.024, 326844.076 ], [ 182232.048, 326852.433000000019092 ], [ 182238.797, 326861.62300000002142 ], [ 182243.796, 326868.795999999972992 ], [ 182250.843, 326877.316999999980908 ], [ 182267.655999999988126, 326896.007999999972526 ], [ 182286.571, 326911.935 ], [ 182294.731, 326918.794999999983702 ], [ 182302.480000000010477, 326924.23499999998603 ], [ 182311.69, 326929.713999999978114 ], [ 182320.079, 326934.268999999971129 ], [ 182329.679, 326939.982000000018161 ], [ 182336.968, 326943.549999999988358 ], [ 182347.163999999989755, 326947.927000000025146 ], [ 182356.866, 326951.896 ], [ 182364.797, 326954.581 ], [ 182372.511, 326956.919999999983702 ], [ 182382.465999999985797, 326959.767999999981839 ], [ 182392.313, 326962.445 ], [ 182403.541, 326966.170999999972992 ], [ 182403.733, 326966.381 ], [ 182397.212999999988824, 326985.587999999988824 ], [ 182433.85999999998603, 327027.946 ], [ 182451.813, 327049.386 ], [ 182467.908, 327068.576 ], [ 182418.98499999998603, 327103.865 ], [ 182443.381, 327127.65500000002794 ], [ 182495.486, 327178.471000000019558 ], [ 182511.704, 327194.288999999989755 ], [ 182449.711000000010245, 327234.572999999974854 ], [ 182471.133, 327282.299999999988358 ], [ 182489.794, 327336.62599999998929 ], [ 182499.951, 327366.194000000017695 ], [ 182507.35, 327387.73499999998603 ], [ 182510.865, 327397.968 ], [ 182511.896, 327401.829000000027008 ], [ 182514.291, 327410.800999999977648 ], [ 182516.518000000010943, 327419.136999999987893 ], [ 182517.848999999987427, 327435.348 ], [ 182520.389, 327459.196 ], [ 182505.978, 327467.566 ], [ 182508.809, 327492.214700000011362 ], [ 182531.203, 327491.0001 ], [ 183077.203, 327463.8126 ], [ 183084.4999, 327458.3126 ], [ 183068.296899999986636, 327332.0 ], [ 183020.5, 327098.093799999973271 ], [ 182945.5, 326887.093899999978021 ], [ 182904.796899999986636, 326779.3126 ], [ 182865.4063, 326647.406399999978021 ], [ 182846.1978, 326579.615999999979977 ], [ 182871.8712, 326411.3126 ], [ 182888.910800000012387, 326113.119 ], [ 183319.1616, 326002.3614 ], [ 183324.1395, 325991.114899999985937 ], [ 183434.1791, 325742.506999999983236 ], [ 183498.0777, 325636.009299999976065 ], [ 183520.9737, 325525.3454 ] ] ], [ [ [ 185541.5937, 327205.0 ], [ 185522.0938, 327076.6875 ], [ 185510.203100000013364, 326949.906299999973271 ], [ 185480.29680000001099, 326916.8126 ], [ 185376.954999999987194, 326861.713600000017323 ], [ 185337.1214, 326886.0564 ], [ 185313.748499999986961, 326852.059499999973923 ], [ 185298.8748, 326846.7474 ], [ 185294.5633, 326841.204000000027008 ], [ 185278.0937, 326844.5 ], [ 185122.5938, 326905.593799999973271 ], [ 184952.0937, 326928.8126 ], [ 184782.703, 326906.1876 ], [ 184698.4999, 326884.093899999978021 ], [ 184600.79680000001099, 326858.593899999978021 ], [ 184338.703, 326712.3126 ], [ 184142.203, 326592.593899999978021 ], [ 184043.203, 326532.3126 ], [ 183794.9062, 326360.906399999978021 ], [ 183538.4062, 326172.906399999978021 ], [ 183449.4999, 326097.406399999978021 ], [ 183447.296899999986636, 326107.8126 ], [ 183425.5, 326353.906399999978021 ], [ 183403.796899999986636, 326630.593899999978021 ], [ 183389.5, 326967.1876 ], [ 183417.703100000013364, 327248.3126 ], [ 183418.4999, 327253.593799999973271 ], [ 183428.5, 327249.1875 ], [ 183570.5937, 327203.593799999973271 ], [ 183729.4999, 327149.593799999973271 ], [ 183811.703, 327135.093899999978021 ], [ 183948.29680000001099, 327159.406399999978021 ], [ 184045.5835, 327198.158799999975599 ], [ 184236.4417, 327106.020399999979418 ], [ 184311.9705, 327320.018999999971129 ], [ 184360.524800000013784, 327309.2291 ], [ 184396.090999999985797, 327391.3052 ], [ 184454.203, 327387.1876 ], [ 185171.4999, 327344.8126 ], [ 185600.0937, 327322.8126 ], [ 185541.5937, 327205.0 ] ] ] ] } }
]
}
