{
"type": "FeatureCollection",
"name": "Beesel",
"crs": { "type": "name", "properties": { "name": "urn:ogc:def:crs:OGC:1.3:CRS84" } },
"features": [
{ "type": "Feature", "properties": { "buurtcode": "BU08890000", "buurtnaam": "Reuver", "pc6_codes": "5953AA, 5953AB, 5953AC, 5953AD, 5953AE, 5953AG, 5953AH, 5953AJ, 5953AK, 5953AL, 5953AM, 5953AN, 5953AP, 5953AR, 5953AS, 5953AT, 5953AV, 5953AW, 5953AX, 5953AZ, 5953BA, 5953BB, 5953BC, 5953BD, 5953BE, 5953BG, 5953BH, 5953BJ, 5953BK, 5953BL, 5953BM, 5953BN, 5953BP, 5953BR, 5953BS, 5953BT, 5953BV, 5953BW, 5953BX, 5953BZ, 5953CA, 5953CB, 5953CC, 5953CD, 5953CE, 5953CG, 5953CH, 5953CJ, 5953CK, 5953CL, 5953CM, 5953CN, 5953CP, 5953CR, 5953CS, 5953CT, 5953CV, 5953CW, 5953CX, 5953CZ, 5953DA, 5953DC, 5953DD, 5953DE, 5953DM, 5953DN, 5953DP, 5953DV, 5953DX, 5953DZ, 5953EA, 5953EB, 5953EC, 5953ED, 5953EH, 5953EJ, 5953EK, 5953EL, 5953EM, 5953EN, 5953EP, 5953ER, 5953ES, 5953ET, 5953EV, 5953EW, 5953EX, 5953EZ, 5953GA, 5953GB, 5953GC, 5953GD, 5953GE, 5953GG, 5953GH, 5953GJ, 5953GK, 5953GL, 5953GM, 5953GN, 5953GP, 5953GR, 5953GS, 5953GT, 5953GV, 5953GW, 5953GX, 5953GZ, 5953HA, 5953HB, 5953HC, 5953HD, 5953HE, 5953HK, 5953HL, 5953HR, 5953HS, 5953HT, 5953HV, 5953HW, 5953HX, 5953JA, 5953JB, 5953JC, 5953JD, 5953JE, 5953JG, 5953JH, 5953JJ, 5953MA, 5953MB, 5953MC, 5953MD, 5953ME, 5953MG, 5953MH, 5953MP, 5953TN, 5953TS, 5953TT, 5953WZ", "wijkcode": "WK088900", "gemeentecode": "GM0889", "gemeentenaam": "Beesel", "oppervlakteLandInHa": 432, "AantalInwoners_5": 6070, "Mannen_6": 3035, "Vrouwen_7": 3035, "HuishoudensTotaal_29": 2765, "GemiddeldeHuishoudensgrootte_33": 2.2, "Woningvoorraad_35": 2855, "NieuwbouwWoningen_36": 51, "NietWoningvoorraad_37": 777, "NieuwbouwNietWoningen_38": 1, "GemiddeldeWOZWaardeVanWoningen_39": 277, "PercentageEengezinswoning_40": 79, "PercentageTussenwoningEengezins_41": 28, "PercentageHoekwoningEengezins_42": 14, "PercentageTweeOnderEenKapWoningEe_43": 22, "PercentageVrijstaandeWoningEengezins_44": 15, "PercentageMeergezinswoning_45": 21, "Koopwoningen_47": 65, "HuurwoningenTotaal_48": 35, "InBezitWoningcorporatie_49": 28, "InBezitOverigeVerhuurders_50": 7, "BouwjaarMeerDanTienJaarGeleden_51": 99, "BouwjaarAfgelopenTienJaar_52": 1, "GemiddeldeElektriciteitslevering_53": 2800, "GemiddeldeElektriciteitsteruglevering_54": 1100, "GemiddeldAardgasverbruik_55": 870, "AardgasvrijeWoningen_57": 8, "Aardgaswoningen_58": 84, "WoningenMetZonnestroom_59": 46, "WoningenHoofdzElektrVerwarmd_60": 10, "k_20PersonenMetHoogsteInkomen_80": 12.3, "k_20HuishoudensMetHoogsteInkomen_85": 14.7, "MediaanVermogenVanParticuliereHuish_86": 151.5, "PersonenautoSTotaal_104": 3195, "PersonenautoSBrandstofBenzine_105": 2680, "PersonenautoSOverigeBrandstof_106": 515, "PersonenautoSPerHuishouden_107": 1.2, "Omgevingsadressendichtheid_121": 832, "AantalInstallatiesBijWoningen_5": 948, "OpgesteldVermogenVanZonnepanelen_6": 3893, "installaties_per_woning": 0.33204903677758318, "vermogen_per_woning": 1.3635726795096321, "installaties_per_100_woningen": 33.204903677758317, "vermogen_per_huishouden": 1.4079566003616637, "batterijdruk_score": 506.0, "koop_zon_score": 0.299, "eengezins_zon_score": 0.3634, "betaalkracht_zon_score": 69.69, "overige_brandstof_zon_score": 236.9, "lichte_batterij_kansscore": 0.42083293073147515 }, "geometry": { "type": "MultiPolygon", "coordinates": [ [ [ [ 6.085571587505193, 51.296646528466844 ], [ 6.08560533640154, 51.296602207794386 ], [ 6.085626401985126, 51.296581748194562 ], [ 6.08564561086445, 51.296564580728706 ], [ 6.085669616428394, 51.296549802518904 ], [ 6.085692157601772, 51.29653865567105 ], [ 6.085713746296793, 51.296536494573104 ], [ 6.085730727851041, 51.296535907237505 ], [ 6.08574896355922, 51.296535761822682 ], [ 6.085767034549197, 51.296541729931732 ], [ 6.085788262925349, 51.2965497735279 ], [ 6.085801091228845, 51.296556069740511 ], [ 6.085820941958398, 51.296567789123529 ], [ 6.085843231131095, 51.296582388330968 ], [ 6.085852582143891, 51.296594764017094 ], [ 6.085866402055171, 51.296609656767927 ], [ 6.085879644035082, 51.296623321490223 ], [ 6.08589149112658, 51.296638594632299 ], [ 6.085909049167014, 51.296658849362288 ], [ 6.085922307132894, 51.296652908916982 ], [ 6.085936157236922, 51.296648187422498 ], [ 6.085949469636514, 51.296640179171114 ], [ 6.085954960286255, 51.296631678540876 ], [ 6.085961100560041, 51.296624405506407 ], [ 6.085969421368953, 51.296610638290652 ], [ 6.085987894797919, 51.296584755827986 ], [ 6.085994558427526, 51.296580769632911 ], [ 6.086003194477685, 51.296576376076537 ], [ 6.086016452270127, 51.296570426632336 ], [ 6.086024343602957, 51.296568905045746 ], [ 6.086039559749225, 51.296562566300096 ], [ 6.086052719812647, 51.296558666936676 ], [ 6.086054016706008, 51.29655909062194 ], [ 6.086081096146946, 51.296548437808937 ], [ 6.086093016656155, 51.296544114411624 ], [ 6.086104962922944, 51.296537723382286 ], [ 6.086116317041514, 51.296530113400259 ], [ 6.086121767139352, 51.296523653514512 ], [ 6.086130513129253, 51.29651519624823 ], [ 6.086134749847811, 51.296506271666779 ], [ 6.086143455187886, 51.296499846163655 ], [ 6.08614698715538, 51.296491716848784 ], [ 6.086148546567884, 51.296483985909035 ], [ 6.086153418709856, 51.296476297996243 ], [ 6.086155820814403, 51.296463662975619 ], [ 6.08616127089878, 51.296457203087982 ], [ 6.086159629494261, 51.296447369962024 ], [ 6.086162416477607, 51.296442094642543 ], [ 6.086160804021383, 51.29643227932079 ], [ 6.08615197606084, 51.296423172523447 ], [ 6.086144390013246, 51.296416521259985 ], [ 6.086132927772248, 51.296408607844938 ], [ 6.086124680680287, 51.296402796529776 ], [ 6.086110554936889, 51.296396040715351 ], [ 6.08609514733202, 51.296388906069296 ], [ 6.086073890166366, 51.296380853713003 ], [ 6.086059089050237, 51.296374937927688 ], [ 6.086035350179229, 51.29636398802284 ], [ 6.086016770469691, 51.296354751004586 ], [ 6.086000741394114, 51.2963463526252 ], [ 6.08598541707202, 51.296337158977543 ], [ 6.085971913004897, 51.296331675855285 ], [ 6.085961057289618, 51.296324981289338 ], [ 6.085951498737717, 51.296318728385167 ], [ 6.085938656280995, 51.296312441263261 ], [ 6.085929704345648, 51.296307416211739 ], [ 6.085919469864028, 51.296301967386746 ], [ 6.085905951203985, 51.296296466366464 ], [ 6.085894957124862, 51.296293853643228 ], [ 6.085882074164587, 51.296289607267347 ], [ 6.0858665278349, 51.296286527475132 ], [ 6.085848333158157, 51.296284659120488 ], [ 6.085829545937053, 51.296281544845485 ], [ 6.085815267960898, 51.29627889789456 ], [ 6.085795183724167, 51.296275350937862 ], [ 6.085780327681417, 51.296271466967077 ], [ 6.085769550768496, 51.296266174198514 ], [ 6.085767499460752, 51.296265170751909 ], [ 6.085750395646078, 51.296250234778391 ], [ 6.085747500740259, 51.296239995675904 ], [ 6.085743170284825, 51.296233396756932 ], [ 6.085746026500804, 51.296226080522935 ], [ 6.085746358151574, 51.296215875987052 ], [ 6.085746978653944, 51.296204869693995 ], [ 6.085751172409207, 51.296195945384454 ], [ 6.085758678734305, 51.296187055124882 ], [ 6.085766777599247, 51.296179410782656 ], [ 6.085784283775607, 51.296162487228237 ], [ 6.085791099951746, 51.296154410121744 ], [ 6.085804550623088, 51.296142320038157 ], [ 6.085823215536996, 51.296129919991245 ], [ 6.085836736324304, 51.296120544169021 ], [ 6.085841706146369, 51.296118312021989 ], [ 6.085863586015465, 51.296108005089209 ], [ 6.085883423457614, 51.296100092506506 ], [ 6.085894357256125, 51.296095945844478 ], [ 6.085905219507246, 51.296091808600011 ], [ 6.085921042394022, 51.296086715701065 ], [ 6.085940218494066, 51.29607962508075 ], [ 6.085970428857289, 51.296073088445773 ], [ 6.08599120315094, 51.296075822216025 ], [ 6.08600681832831, 51.296076843090788 ], [ 6.086022364458722, 51.296079913876177 ], [ 6.086036475205512, 51.296086633834882 ], [ 6.0860461030416, 51.296090854795871 ], [ 6.086056903592018, 51.296099572216093 ], [ 6.086067068998882, 51.296107070941915 ], [ 6.086075221086378, 51.296116990816763 ], [ 6.086086668770249, 51.296124895335552 ], [ 6.086099413614429, 51.296133241514454 ], [ 6.086115896823235, 51.296146967645676 ], [ 6.086125524679342, 51.296151188599978 ], [ 6.086137167949265, 51.296155001932 ], [ 6.086149527796279, 51.296155979415666 ], [ 6.086161335871036, 51.296153688206225 ], [ 6.086177144413947, 51.296148595358588 ], [ 6.086188345595033, 51.296145058316775 ], [ 6.086208350298093, 51.296133081633734 ], [ 6.086223000298099, 51.296123483247037 ], [ 6.086231760667018, 51.296115034875278 ], [ 6.086238548221277, 51.296106966903146 ], [ 6.086249916410197, 51.296099347833923 ], [ 6.086256732494655, 51.296091270700316 ], [ 6.086259617430125, 51.29608396326978 ], [ 6.086271701764039, 51.296073481385953 ], [ 6.086275964715947, 51.296062525121243 ], [ 6.086280738808108, 51.296056869311819 ], [ 6.086286257725061, 51.296048350517317 ], [ 6.086292976087017, 51.296042323466757 ], [ 6.086295115776382, 51.296037852055683 ], [ 6.086295930186352, 51.296032975110656 ], [ 6.086293558142642, 51.296025995897068 ], [ 6.086293765661014, 51.296019873123036 ], [ 6.086282372667225, 51.296009918797786 ], [ 6.086272054700224, 51.296006511014433 ], [ 6.08625770761026, 51.2960059050423 ], [ 6.086236740143278, 51.296009294007398 ], [ 6.086224917773054, 51.296011585310566 ], [ 6.08621105355486, 51.296016306925246 ], [ 6.086193864805578, 51.296023026092634 ], [ 6.086172068703823, 51.296031301064787 ], [ 6.08615952975204, 51.296036428208673 ], [ 6.086148161426268, 51.296044038280911 ], [ 6.086132916794161, 51.296050377212737 ], [ 6.086120363770892, 51.296055522414918 ], [ 6.08610658263428, 51.296058176041882 ], [ 6.086092856890644, 51.296058824781525 ], [ 6.086087697771117, 51.296057111893347 ], [ 6.086082001222653, 51.296052130226705 ], [ 6.08608821058086, 51.296042816260986 ], [ 6.086096280692176, 51.29603517206808 ], [ 6.086102475846002, 51.296025867175928 ], [ 6.086110657867786, 51.296016163822806 ], [ 6.086116231930411, 51.296005622174228 ], [ 6.086115749206135, 51.296000303569393 ], [ 6.086114452328069, 51.295999879884754 ], [ 6.086105860402307, 51.295984632161193 ], [ 6.086095764609951, 51.295975119478726 ], [ 6.086086798249751, 51.295970085537036 ], [ 6.086077930021519, 51.295963028474326 ], [ 6.086052495287701, 51.295944295271646 ], [ 6.086043515013769, 51.295939288377333 ], [ 6.086033927721162, 51.295933026663683 ], [ 6.086026272862337, 51.295928434293174 ], [ 6.086019863219757, 51.295923699609325 ], [ 6.086005942144937, 51.295913436833239 ], [ 6.085993183180005, 51.295905099718183 ], [ 6.08599311399396, 51.295907140642726 ], [ 6.08598689452763, 51.295898899094666 ], [ 6.085983142004039, 51.295893528210961 ], [ 6.085978190741961, 51.2958857105207 ], [ 6.085975847427378, 51.295878731128354 ], [ 6.085976730780762, 51.295871795284526 ], [ 6.085976952540093, 51.295865663436643 ], [ 6.085979725310247, 51.295860397195725 ], [ 6.085989521321789, 51.295840904098469 ], [ 6.085993122589604, 51.295830742851734 ], [ 6.086000781790305, 51.295817788617839 ], [ 6.086011294235607, 51.295811406206901 ], [ 6.086031363811321, 51.295814944224624 ], [ 6.086045585351142, 51.295823290530542 ], [ 6.086056328629545, 51.295832017283608 ], [ 6.086070468114928, 51.295838746054422 ], [ 6.086077860758758, 51.29584119161931 ], [ 6.086102718873062, 51.295849402128688 ], [ 6.086118403430606, 51.295848400040434 ], [ 6.086132983904275, 51.295840824613329 ], [ 6.086146227130635, 51.295834875240715 ], [ 6.086154325731299, 51.295827221883414 ], [ 6.086156560772196, 51.29581866888396 ], [ 6.086153665803295, 51.295808429791521 ], [ 6.086149473688367, 51.295797749038343 ], [ 6.086137129531869, 51.295777148414828 ], [ 6.086140138489071, 51.295765759224075 ], [ 6.086140536086312, 51.295762691577913 ], [ 6.086141050625652, 51.295758832195027 ], [ 6.086147355143593, 51.295745427646985 ], [ 6.086154225898627, 51.295735300692613 ], [ 6.086161787049344, 51.295724378556812 ], [ 6.086168106167612, 51.295710991897948 ], [ 6.086172397509131, 51.295700017488294 ], [ 6.086187669834922, 51.295672041796124 ], [ 6.086195383382385, 51.295657019746322 ], [ 6.086206338324478, 51.295642068116805 ], [ 6.086213292563295, 51.295629900148164 ], [ 6.086221307742065, 51.295624296785228 ], [ 6.086228785484344, 51.295615424644119 ], [ 6.086242966641871, 51.295600489588097 ], [ 6.086251741106445, 51.295592032140497 ], [ 6.086261867135268, 51.295581948548488 ], [ 6.086278780489304, 51.295563787992883 ], [ 6.08628824547157, 51.295554544349052 ], [ 6.086296467869397, 51.295542800230436 ], [ 6.086324814574145, 51.295509100867839 ], [ 6.086333869649996, 51.295498367504202 ], [ 6.086343291186457, 51.295489097149684 ], [ 6.086368769952667, 51.29548820697741 ], [ 6.086411822699612, 51.295487993256422 ], [ 6.086427437685422, 51.295489014075144 ], [ 6.086449618402328, 51.295488098756095 ], [ 6.086472434405493, 51.295488411112295 ], [ 6.086502370216653, 51.295482702977459 ], [ 6.086523406859261, 51.295477291016461 ], [ 6.086556870209789, 51.295460361341327 ], [ 6.086568048039343, 51.295439367711026 ], [ 6.086589080426962, 51.295400858164292 ], [ 6.086607202645728, 51.295362375092708 ], [ 6.086629696674658, 51.295324755656502 ], [ 6.086665322155563, 51.29528702133377 ], [ 6.086697068122063, 51.295270308687378 ], [ 6.086764820798654, 51.29525486277803 ], [ 6.086849348361113, 51.295243163282123 ], [ 6.086936631489864, 51.295224148065266 ], [ 6.087002010461786, 51.295203502653692 ], [ 6.087075936839614, 51.295174571851383 ], [ 6.087132400795236, 51.295148505662901 ], [ 6.087175874288348, 51.295129897575912 ], [ 6.087225111723001, 51.295107560310043 ], [ 6.087278705717622, 51.295087902512584 ], [ 6.08733670085567, 51.295069153070706 ], [ 6.087387497268351, 51.295054069491101 ], [ 6.087432486990041, 51.295041798438632 ], [ 6.087464598306862, 51.295041488359303 ], [ 6.087493911406148, 51.295047577320005 ], [ 6.087533587955998, 51.295058179322176 ], [ 6.08758223364091, 51.295078678185881 ], [ 6.087626563683732, 51.29510198061422 ], [ 6.087676700562601, 51.295122479452651 ], [ 6.087717852708472, 51.29513487031619 ], [ 6.087757585313496, 51.29514725173275 ], [ 6.087906896923837, 51.295164115116691 ], [ 6.087953969181241, 51.295178286034776 ], [ 6.087977941564642, 51.295204488523765 ], [ 6.087988726432284, 51.295229017561695 ], [ 6.088002364964167, 51.295250769782093 ], [ 6.088020333783573, 51.295270671150575 ], [ 6.088038091865555, 51.295280560007384 ], [ 6.088068981179196, 51.295289380985473 ], [ 6.088096805098379, 51.295292773066272 ], [ 6.088131574071324, 51.295279691365216 ], [ 6.088148682996715, 51.295262185555309 ], [ 6.088161237089797, 51.295235619270187 ], [ 6.088141650641562, 51.295210271326013 ], [ 6.088101861825872, 51.295194231843787 ], [ 6.088063379938349, 51.295171784288542 ], [ 6.088035006312588, 51.295144673463582 ], [ 6.088030070484786, 51.295120100216629 ], [ 6.088035852127398, 51.295093197190916 ], [ 6.088074950945163, 51.295078246679488 ], [ 6.08810922219805, 51.295070120936892 ], [ 6.088148531747966, 51.295065182909532 ], [ 6.088192609418159, 51.295074805341471 ], [ 6.088238036120325, 51.295081704943428 ], [ 6.088283532697757, 51.295091291826495 ], [ 6.088318625407709, 51.295092797312407 ], [ 6.088362336173708, 51.295087832696623 ], [ 6.088437021460909, 51.295078546470606 ], [ 6.088480774227786, 51.29507632321112 ], [ 6.08851138114897, 51.295090107717463 ], [ 6.088538123483194, 51.295109929166841 ], [ 6.088590287617074, 51.29515414643317 ], [ 6.088618210318876, 51.295161178350661 ], [ 6.088657591155147, 51.295158082472845 ], [ 6.088702763828054, 51.295154016809512 ], [ 6.088749399478452, 51.295148117536165 ], [ 6.088796189928775, 51.295150442272785 ], [ 6.088830130860866, 51.295164718970383 ], [ 6.088852627653521, 51.295190031274828 ], [ 6.088864973993369, 51.295218182386797 ], [ 6.088858142813208, 51.295238323044373 ], [ 6.088839585381686, 51.295257653476966 ], [ 6.088828381757486, 51.295277829483915 ], [ 6.088838983605176, 51.295294134586449 ], [ 6.088871265072404, 51.295300232271885 ], [ 6.088919264161569, 51.295290675164324 ], [ 6.088952485669247, 51.295274869883109 ], [ 6.088982712232983, 51.29525543310713 ], [ 6.08900869374619, 51.295240597339635 ], [ 6.089049381387556, 51.295231093259524 ], [ 6.089097606239174, 51.295231584451493 ], [ 6.089135426609756, 51.295223032493887 ], [ 6.089159803472608, 51.295205473706183 ], [ 6.089185863918391, 51.295193918418505 ], [ 6.089225264340967, 51.295193033531746 ], [ 6.089299879466358, 51.295195990234014 ], [ 6.089342113852741, 51.295190117276455 ], [ 6.089398356507213, 51.295162792854541 ], [ 6.089405640105294, 51.295159998262001 ], [ 6.089437399329628, 51.295144219642751 ], [ 6.089467851016625, 51.295135730019474 ], [ 6.089495378638215, 51.295126359131466 ], [ 6.089535967176445, 51.295113214921294 ], [ 6.089557730830647, 51.295106629448071 ], [ 6.089577891463719, 51.295093689412589 ], [ 6.08957137900502, 51.295065467208097 ], [ 6.08956069224668, 51.295045513137502 ], [ 6.089550117784841, 51.295030070881303 ], [ 6.089567424446323, 51.295020815596274 ], [ 6.089609517653416, 51.29500949604072 ], [ 6.089660298928333, 51.294995346416364 ], [ 6.089722721783194, 51.294978366860157 ], [ 6.089789432011208, 51.294958619731631 ], [ 6.089847354755007, 51.294937100849495 ], [ 6.089903900300334, 51.294919266767806 ], [ 6.08994450289764, 51.294907057188098 ], [ 6.089997042937481, 51.294904744337337 ], [ 6.090073062610777, 51.294908626919124 ], [ 6.090156322909914, 51.294908789200775 ], [ 6.090246922800918, 51.294909805985455 ], [ 6.090318457441313, 51.294908259160778 ], [ 6.090386041552549, 51.294904345081122 ], [ 6.090438539455844, 51.294900225490402 ], [ 6.09048649568328, 51.294888861197094 ], [ 6.090519843765797, 51.294877612138563 ], [ 6.090548564999139, 51.294856377254249 ], [ 6.090557784399704, 51.294835889465375 ], [ 6.090557889856733, 51.294832490974294 ], [ 6.090558596481021, 51.294808512957871 ], [ 6.090559776501609, 51.294795741401856 ], [ 6.090559762404956, 51.294794824605901 ], [ 6.090576601946424, 51.294766398389697 ], [ 6.090603818546152, 51.294743356801234 ], [ 6.090692388919952, 51.294700060592611 ], [ 6.09070492704605, 51.294673494122307 ], [ 6.090702616731339, 51.294637938492521 ], [ 6.09069565369829, 51.294609359510389 ], [ 6.090704625830895, 51.294579326852855 ], [ 6.090738078013765, 51.294549694532407 ], [ 6.090768147842939, 51.294523876022396 ], [ 6.090808509416121, 51.294501626847946 ], [ 6.090839144874468, 51.294499535942059 ], [ 6.090877472688852, 51.294514711388828 ], [ 6.0909365676191, 51.294543361645097 ], [ 6.091017934996547, 51.294587338304808 ], [ 6.09108317624473, 51.294628733717211 ], [ 6.091130631018837, 51.294658416107438 ], [ 6.091175175174397, 51.294689949848184 ], [ 6.091207809830135, 51.294711550828133 ], [ 6.091237251609367, 51.294721323571864 ], [ 6.091279528140718, 51.294717301393938 ], [ 6.091368269521628, 51.294701923565881 ], [ 6.091396079848599, 51.294703508144515 ], [ 6.091428474315703, 51.294715087746127 ], [ 6.091477179049038, 51.294736537468104 ], [ 6.09153183207479, 51.294762526585998 ], [ 6.091625010824686, 51.294811851723928 ], [ 6.09166200467517, 51.294831610406263 ], [ 6.091687413518716, 51.29485693150805 ], [ 6.091699535483806, 51.294875060914372 ], [ 6.091704049378178, 51.294880489930463 ], [ 6.091707610231702, 51.294907821997583 ], [ 6.091709723059019, 51.294936088701064 ], [ 6.091710260130423, 51.294959789526722 ], [ 6.091713637262821, 51.29497891571981 ], [ 6.091728796691809, 51.295002492065954 ], [ 6.091754106668693, 51.29502324732394 ], [ 6.091780836658984, 51.295042178194592 ], [ 6.091842914061997, 51.295072625722391 ], [ 6.091891789777029, 51.295100483417471 ], [ 6.091925957425405, 51.295126623365604 ], [ 6.091961658878263, 51.295153670896333 ], [ 6.091995855627943, 51.295178902755787 ], [ 6.092043043010101, 51.29519673885337 ], [ 6.092084267661312, 51.29521096150178 ], [ 6.09213849712107, 51.295217779298163 ], [ 6.092188099231494, 51.29521460233093 ], [ 6.092222952368667, 51.29520426953659 ], [ 6.092249144888371, 51.295199472511911 ], [ 6.092294424286397, 51.295197697010202 ], [ 6.092330027709182, 51.295201625231982 ], [ 6.092381904515256, 51.295206497561189 ], [ 6.092408050537229, 51.295211705575475 ], [ 6.092448058459186, 51.295225117466799 ], [ 6.092465831536218, 51.295234987583122 ], [ 6.092488189585241, 51.295253027907066 ], [ 6.09251496226734, 51.295272839277203 ], [ 6.092535801247533, 51.295289064025205 ], [ 6.092561055417421, 51.295307095771093 ], [ 6.092592328069586, 51.295331419309981 ], [ 6.092673129391809, 51.295384980563519 ], [ 6.092691470790253, 51.295385210957718 ], [ 6.092765494407104, 51.29539161182597 ], [ 6.092767608719226, 51.295392974329083 ], [ 6.092840848409194, 51.295397815810709 ], [ 6.092910131965483, 51.295403096530286 ], [ 6.092931856100967, 51.295404751809635 ], [ 6.093009449765432, 51.295409288121327 ], [ 6.09307989627179, 51.295417085807102 ], [ 6.093175244502148, 51.295431204492338 ], [ 6.093189276836724, 51.295433717195962 ], [ 6.093227664674758, 51.295440603622374 ], [ 6.093245083164786, 51.295437702356089 ], [ 6.093266901699033, 51.29543655421984 ], [ 6.09328285691001, 51.295436385502946 ], [ 6.093297695627006, 51.295436243333981 ], [ 6.091543570333697, 51.293805960516281 ], [ 6.091125733192198, 51.293451092930063 ], [ 6.087307663164685, 51.290208100386188 ], [ 6.086932498185234, 51.289858941625361 ], [ 6.08347446366751, 51.286639139991948 ], [ 6.081700547522287, 51.285076661640147 ], [ 6.079879447936634, 51.283244766769116 ], [ 6.079020018351734, 51.2826178391472 ], [ 6.078553384850636, 51.282002055467395 ], [ 6.078303805436076, 51.28122514520971 ], [ 6.078255382259613, 51.280391419322235 ], [ 6.078240885010354, 51.279431365070359 ], [ 6.077928001377868, 51.278643031898611 ], [ 6.077560534901301, 51.27794687796807 ], [ 6.076802934096032, 51.277411186258021 ], [ 6.076191196888729, 51.277132499509975 ], [ 6.075489507638398, 51.276991985322219 ], [ 6.073540429033546, 51.276891137179639 ], [ 6.070443816740621, 51.272508114301161 ], [ 6.070291673672623, 51.27230591248685 ], [ 6.070187248042889, 51.272405403958786 ], [ 6.066901186567934, 51.272787861992903 ], [ 6.062845364963183, 51.27393680062044 ], [ 6.060625650687788, 51.274819919851076 ], [ 6.059190149425089, 51.275542004728131 ], [ 6.056523168987484, 51.275940254298931 ], [ 6.053811386146, 51.276509491329641 ], [ 6.051354423092325, 51.277159234259599 ], [ 6.049616582797032, 51.277709325507125 ], [ 6.04810084641493, 51.278739883078579 ], [ 6.045874808051907, 51.280308446430695 ], [ 6.043730672820389, 51.281711332434796 ], [ 6.042521115894043, 51.282324065580532 ], [ 6.042266594952101, 51.282384458581433 ], [ 6.04299879426039, 51.283127422069683 ], [ 6.043256824280426, 51.283338952741339 ], [ 6.043789165147536, 51.283768329673137 ], [ 6.044776217577179, 51.284498648795456 ], [ 6.045129693388261, 51.284758500109767 ], [ 6.045815307154163, 51.285187162901046 ], [ 6.046415432405547, 51.285602175357688 ], [ 6.048328870730187, 51.286391501858247 ], [ 6.04858216892185, 51.286577141450032 ], [ 6.049046520772544, 51.286915328079957 ], [ 6.049058169801151, 51.286923882271324 ], [ 6.049374310904631, 51.287073332481626 ], [ 6.050591190942327, 51.287648573825912 ], [ 6.052878025471219, 51.288601516843336 ], [ 6.054073542726182, 51.289025172777251 ], [ 6.055239441777159, 51.28939228391171 ], [ 6.055537574212428, 51.289469297652474 ], [ 6.058425202782693, 51.290246613203166 ], [ 6.058864170914842, 51.289692046746012 ], [ 6.058880103807977, 51.289671936258443 ], [ 6.059172310448683, 51.289588961598206 ], [ 6.059426893786577, 51.289667592203919 ], [ 6.059692538447027, 51.289595565477313 ], [ 6.06005281933253, 51.289498648723516 ], [ 6.060354752458151, 51.289422203782088 ], [ 6.060594207018732, 51.289346560096682 ], [ 6.060966782735754, 51.289235924029995 ], [ 6.061148431786584, 51.289188353972811 ], [ 6.061304846489203, 51.289147374939589 ], [ 6.061318698568558, 51.289143744032771 ], [ 6.061919407631045, 51.288986433481867 ], [ 6.062241447378868, 51.288905147799163 ], [ 6.062747495261828, 51.28880820392807 ], [ 6.063277796978644, 51.288697696338282 ], [ 6.063463018532218, 51.288703973038224 ], [ 6.063622298566556, 51.288704818071132 ], [ 6.063894750142808, 51.288688689741875 ], [ 6.064272063415449, 51.288674341740858 ], [ 6.06483522437644, 51.288672744464819 ], [ 6.065571452137558, 51.288687196784892 ], [ 6.066001054953629, 51.288701438002569 ], [ 6.066380467138487, 51.288792781721227 ], [ 6.066426953382144, 51.288802173571064 ], [ 6.066568583915614, 51.288830821736276 ], [ 6.066818802680588, 51.288881406979037 ], [ 6.067011794958805, 51.288980273430475 ], [ 6.06705602708444, 51.289002919017037 ], [ 6.067588823035404, 51.289341180697505 ], [ 6.068140210389435, 51.289735593417163 ], [ 6.068351221224541, 51.289888798690541 ], [ 6.068383684256859, 51.289912348647604 ], [ 6.068776615989225, 51.29028180649599 ], [ 6.0689628585116, 51.290435955769546 ], [ 6.069049931680019, 51.290513596087443 ], [ 6.069189389684902, 51.290664351614026 ], [ 6.069279382285046, 51.290755053670011 ], [ 6.069327631557465, 51.290803671088732 ], [ 6.069937040779714, 51.291392050822381 ], [ 6.069949199330319, 51.291404627030957 ], [ 6.069974608756205, 51.291430923629179 ], [ 6.070002469056742, 51.291474464750983 ], [ 6.070034261229956, 51.291523052599089 ], [ 6.070062806857678, 51.291582724968322 ], [ 6.070104498852063, 51.291672154724324 ], [ 6.070117218399892, 51.291693491913676 ], [ 6.070184011075678, 51.291823072089144 ], [ 6.070231362460792, 51.291906472911059 ], [ 6.070293617586357, 51.292028807544952 ], [ 6.07032694020919, 51.292098231858219 ], [ 6.070363816918411, 51.292173316355061 ], [ 6.07038128305141, 51.292212954253117 ], [ 6.070445206794425, 51.292337526265463 ], [ 6.070500353707008, 51.29244461221068 ], [ 6.070519856786541, 51.292489110174223 ], [ 6.070567912416074, 51.29261284942919 ], [ 6.070592393299718, 51.292711279209755 ], [ 6.070594043641064, 51.292772808318865 ], [ 6.070582015043637, 51.292805437172433 ], [ 6.070641888880129, 51.292813337461837 ], [ 6.070654803832998, 51.292816048205722 ], [ 6.070745193946608, 51.292838843790271 ], [ 6.070770680265261, 51.292845256063814 ], [ 6.070806349870929, 51.292874970962878 ], [ 6.070966130787796, 51.293008094408535 ], [ 6.07105068074746, 51.29307942880304 ], [ 6.071047395064089, 51.293091727107132 ], [ 6.070890878983, 51.293676878852857 ], [ 6.077596502377059, 51.295258387299803 ], [ 6.078461220859944, 51.295522439289201 ], [ 6.080514837080285, 51.296147930920327 ], [ 6.081227283177405, 51.296393462261506 ], [ 6.081496744919595, 51.29646705803107 ], [ 6.083642401398941, 51.297053049254167 ], [ 6.084547267210105, 51.297389690059681 ], [ 6.08471715843046, 51.297454381702678 ], [ 6.085571587505193, 51.296646528466844 ] ] ] ] } },
{ "type": "Feature", "properties": { "buurtcode": "BU08890001", "buurtnaam": "Offenbeek", "pc6_codes": "5953HE, 5953HG, 5953HH, 5953HJ, 5953HL, 5953HM, 5953HN, 5953HP, 5953HZ, 5953JK, 5953JL, 5953JN, 5953JP, 5953JR, 5953JT, 5953JV, 5953JW, 5953JZ, 5953KA, 5953KB, 5953KC, 5953KD, 5953KE, 5953KG, 5953KH, 5953KJ, 5953KK, 5953KL, 5953KM, 5953KN, 5953KP, 5953KR, 5953KS, 5953KT, 5953KV, 5953KW, 5953KX, 5953KZ, 5953LA, 5953LB, 5953LC, 5953LD, 5953LE, 5953LG, 5953LH, 5953LJ, 5953LK, 5953LL, 5953LM, 5953LN, 5953LP, 5953LR, 5953LS, 5953LT, 5953LV, 5953LW, 5953LX, 5953LZ, 5953MN, 5953MR, 5953MS, 5953MT, 5953MV, 5953MW, 5953MX, 5953NA, 5953NB, 5953NC, 5953ND, 5953NE, 5953NG, 5953NH, 5953NJ, 5953NK, 5953NL, 5953NM, 5953NN, 5953NP, 5953NR, 5953NS, 5953NT, 5953NV, 5953NW, 5953NX, 5953NZ, 5953PA, 5953PB, 5953PT, 5953PV, 5953PW, 5953PX, 5953PZ, 5953RA, 5953RB, 5953RC, 5953RD, 5953RE, 5953RJ, 5953RK, 5953RL, 5953RM, 5953RR, 5953SB, 5953TB, 5953TC, 5953TD, 5953TG, 5953TW", "wijkcode": "WK088900", "gemeentecode": "GM0889", "gemeentenaam": "Beesel", "oppervlakteLandInHa": 247, "AantalInwoners_5": 4755, "Mannen_6": 2405, "Vrouwen_7": 2350, "HuishoudensTotaal_29": 2110, "GemiddeldeHuishoudensgrootte_33": 2.3, "Woningvoorraad_35": 2085, "NieuwbouwWoningen_36": 55, "NietWoningvoorraad_37": 274, "NieuwbouwNietWoningen_38": 13, "GemiddeldeWOZWaardeVanWoningen_39": 281, "PercentageEengezinswoning_40": 87, "PercentageTussenwoningEengezins_41": 32, "PercentageHoekwoningEengezins_42": 18, "PercentageTweeOnderEenKapWoningEe_43": 19, "PercentageVrijstaandeWoningEengezins_44": 18, "PercentageMeergezinswoning_45": 13, "Koopwoningen_47": 63, "HuurwoningenTotaal_48": 37, "InBezitWoningcorporatie_49": 33, "InBezitOverigeVerhuurders_50": 3, "BouwjaarMeerDanTienJaarGeleden_51": 93, "BouwjaarAfgelopenTienJaar_52": 7, "GemiddeldeElektriciteitslevering_53": 2880, "GemiddeldeElektriciteitsteruglevering_54": 1480, "GemiddeldAardgasverbruik_55": 790, "AardgasvrijeWoningen_57": 9, "Aardgaswoningen_58": 85, "WoningenMetZonnestroom_59": 58, "WoningenHoofdzElektrVerwarmd_60": 15, "k_20PersonenMetHoogsteInkomen_80": 13.0, "k_20HuishoudensMetHoogsteInkomen_85": 15.8, "MediaanVermogenVanParticuliereHuish_86": 133.0, "PersonenautoSTotaal_104": 2530, "PersonenautoSBrandstofBenzine_105": 2100, "PersonenautoSOverigeBrandstof_106": 435, "PersonenautoSPerHuishouden_107": 1.2, "Omgevingsadressendichtheid_121": 937, "AantalInstallatiesBijWoningen_5": 894, "OpgesteldVermogenVanZonnepanelen_6": 3815, "installaties_per_woning": 0.4287769784172662, "vermogen_per_woning": 1.829736211031175, "installaties_per_100_woningen": 42.877697841726622, "vermogen_per_huishouden": 1.8080568720379147, "batterijdruk_score": 858.4, "koop_zon_score": 0.3654, "eengezins_zon_score": 0.5046, "betaalkracht_zon_score": 77.14, "overige_brandstof_zon_score": 252.3, "lichte_batterij_kansscore": 0.46638818457433373 }, "geometry": { "type": "MultiPolygon", "coordinates": [ [ [ [ 6.094017893572679, 51.291118704323551 ], [ 6.090749327711918, 51.288707100735444 ], [ 6.092693068676369, 51.28812044843 ], [ 6.093184266508298, 51.288508648737142 ], [ 6.095026087667629, 51.288037665857601 ], [ 6.095803136616906, 51.287838950344309 ], [ 6.096095560077123, 51.287695043527442 ], [ 6.096362672376723, 51.287380739407823 ], [ 6.096472905331194, 51.28718109157365 ], [ 6.096461275174107, 51.287114687626108 ], [ 6.097832868596802, 51.286768072331718 ], [ 6.100544777197635, 51.286288542802417 ], [ 6.102197537962128, 51.285371348438169 ], [ 6.10466828903161, 51.28387547486745 ], [ 6.107067138963187, 51.28283056991981 ], [ 6.110713889436916, 51.28139582616209 ], [ 6.112476663239291, 51.280661231397382 ], [ 6.112702282417951, 51.280243519171222 ], [ 6.111600853377968, 51.278656791812622 ], [ 6.110977007637782, 51.277641259974111 ], [ 6.110861888362167, 51.277427924235241 ], [ 6.110783668236848, 51.277282058161099 ], [ 6.109841980296161, 51.276741264299602 ], [ 6.108068859915123, 51.275447166312006 ], [ 6.106807521809491, 51.274524608235907 ], [ 6.101992564597404, 51.277024311692173 ], [ 6.094771964980287, 51.277385876530779 ], [ 6.093898711166926, 51.277450456132577 ], [ 6.093886669286193, 51.277456389232697 ], [ 6.093882736497904, 51.277453970798973 ], [ 6.091287719760521, 51.277259180207828 ], [ 6.090759523820851, 51.276864719445356 ], [ 6.089613008549311, 51.277491522138114 ], [ 6.086736412507576, 51.279319328829366 ], [ 6.083614451912494, 51.27727959857949 ], [ 6.082610985532205, 51.276984468391163 ], [ 6.080879877771812, 51.276712772100275 ], [ 6.078338780824843, 51.276512158898406 ], [ 6.076134187170094, 51.276394893849755 ], [ 6.075515741244423, 51.276636763629348 ], [ 6.075489507638398, 51.276991985322219 ], [ 6.076191196888729, 51.277132499509975 ], [ 6.076802934096032, 51.277411186258021 ], [ 6.077560534901301, 51.27794687796807 ], [ 6.077928001377868, 51.278643031898611 ], [ 6.078240885010354, 51.279431365070359 ], [ 6.078255382259613, 51.280391419322235 ], [ 6.078303805436076, 51.28122514520971 ], [ 6.078553384850636, 51.282002055467395 ], [ 6.079020018351734, 51.2826178391472 ], [ 6.079879447936634, 51.283244766769116 ], [ 6.081700547522287, 51.285076661640147 ], [ 6.08347446366751, 51.286639139991948 ], [ 6.086932498185234, 51.289858941625361 ], [ 6.087307663164685, 51.290208100386188 ], [ 6.091125733192198, 51.293451092930063 ], [ 6.094017893572679, 51.291118704323551 ] ] ] ] } },
{ "type": "Feature", "properties": { "buurtcode": "BU08890008", "buurtnaam": "Verspreide huizen ten oosten en zuiden van de spoorlijn", "pc6_codes": "5953AE, 5953GE, 5953HP, 5953NC, 5953NR, 5953TE, 5953TH, 5953TJ, 5953TK, 5953TL, 5953TM, 5953TP, 5953TR", "wijkcode": "WK088900", "gemeentecode": "GM0889", "gemeentenaam": "Beesel", "oppervlakteLandInHa": 545, "AantalInwoners_5": 80, "Mannen_6": 45, "Vrouwen_7": 35, "HuishoudensTotaal_29": 35, "GemiddeldeHuishoudensgrootte_33": 2.3, "Woningvoorraad_35": 32, "NieuwbouwWoningen_36": 1, "NietWoningvoorraad_37": 17, "NieuwbouwNietWoningen_38": 0, "GemiddeldeWOZWaardeVanWoningen_39": 478, "PercentageEengezinswoning_40": 100, "PercentageTussenwoningEengezins_41": 0, "PercentageHoekwoningEengezins_42": 0, "PercentageTweeOnderEenKapWoningEe_43": 9, "PercentageVrijstaandeWoningEengezins_44": 91, "PercentageMeergezinswoning_45": 0, "Koopwoningen_47": 88, "HuurwoningenTotaal_48": 13, "InBezitWoningcorporatie_49": 0, "InBezitOverigeVerhuurders_50": 13, "BouwjaarMeerDanTienJaarGeleden_51": 97, "BouwjaarAfgelopenTienJaar_52": 3, "GemiddeldeElektriciteitslevering_53": 4530, "GemiddeldeElektriciteitsteruglevering_54": 3180, "GemiddeldAardgasverbruik_55": 1280, "AardgasvrijeWoningen_57": null, "Aardgaswoningen_58": null, "WoningenMetZonnestroom_59": null, "WoningenHoofdzElektrVerwarmd_60": null, "k_20PersonenMetHoogsteInkomen_80": null, "k_20HuishoudensMetHoogsteInkomen_85": null, "MediaanVermogenVanParticuliereHuish_86": null, "PersonenautoSTotaal_104": 40, "PersonenautoSBrandstofBenzine_105": 30, "PersonenautoSOverigeBrandstof_106": 10, "PersonenautoSPerHuishouden_107": null, "Omgevingsadressendichtheid_121": 245, "AantalInstallatiesBijWoningen_5": 6, "OpgesteldVermogenVanZonnepanelen_6": 41, "installaties_per_woning": 0.1875, "vermogen_per_woning": 1.28125, "installaties_per_100_woningen": 18.75, "vermogen_per_huishouden": 1.1714285714285715, "batterijdruk_score": null, "koop_zon_score": null, "eengezins_zon_score": null, "betaalkracht_zon_score": null, "overige_brandstof_zon_score": null, "lichte_batterij_kansscore": null }, "geometry": { "type": "MultiPolygon", "coordinates": [ [ [ [ 6.089613008549311, 51.277491522138114 ], [ 6.090759523820851, 51.276864719445356 ], [ 6.091287719760521, 51.277259180207828 ], [ 6.093882736497904, 51.277453970798973 ], [ 6.093886669286193, 51.277456389232697 ], [ 6.093898711166926, 51.277450456132577 ], [ 6.094771964980287, 51.277385876530779 ], [ 6.101992564597404, 51.277024311692173 ], [ 6.106807521809491, 51.274524608235907 ], [ 6.108068859915123, 51.275447166312006 ], [ 6.109841980296161, 51.276741264299602 ], [ 6.110783668236848, 51.277282058161099 ], [ 6.110861888362167, 51.277427924235241 ], [ 6.124504628482937, 51.274755247585283 ], [ 6.124502206486936, 51.27472900137775 ], [ 6.124315391304094, 51.274598594238768 ], [ 6.12265767192629, 51.27343977910914 ], [ 6.12022130466061, 51.271735889641 ], [ 6.118768766389924, 51.270719506887843 ], [ 6.116035179047889, 51.268810183801662 ], [ 6.116023094046994, 51.268801746876889 ], [ 6.111865005424971, 51.265896967473317 ], [ 6.109507360000896, 51.26424938379207 ], [ 6.107182349536147, 51.262624491033655 ], [ 6.106187456428288, 51.261937570888662 ], [ 6.104239944614633, 51.260579697013142 ], [ 6.096440176237802, 51.255155049358493 ], [ 6.094802591340534, 51.254017422040441 ], [ 6.08443676398146, 51.259669647573332 ], [ 6.075154689565355, 51.264907094773243 ], [ 6.070650665974783, 51.271965029288047 ], [ 6.070291673672623, 51.27230591248685 ], [ 6.070443816740621, 51.272508114301161 ], [ 6.073540429033546, 51.276891137179639 ], [ 6.075489507638398, 51.276991985322219 ], [ 6.075515741244423, 51.276636763629348 ], [ 6.076134187170094, 51.276394893849755 ], [ 6.078338780824843, 51.276512158898406 ], [ 6.080879877771812, 51.276712772100275 ], [ 6.082610985532205, 51.276984468391163 ], [ 6.083614451912494, 51.27727959857949 ], [ 6.086736412507576, 51.279319328829366 ], [ 6.089613008549311, 51.277491522138114 ] ] ] ] } },
{ "type": "Feature", "properties": { "buurtcode": "BU08890009", "buurtnaam": "Overige verspreide huizen", "pc6_codes": "5953HJ, 5953JM, 5953JS, 5953JW, 5953JX, 5953TA, 5953TB, 5953TV", "wijkcode": "WK088900", "gemeentecode": "GM0889", "gemeentenaam": "Beesel", "oppervlakteLandInHa": 196, "AantalInwoners_5": 70, "Mannen_6": 40, "Vrouwen_7": 30, "HuishoudensTotaal_29": 30, "GemiddeldeHuishoudensgrootte_33": 2.4, "Woningvoorraad_35": 26, "NieuwbouwWoningen_36": 0, "NietWoningvoorraad_37": 13, "NieuwbouwNietWoningen_38": 0, "GemiddeldeWOZWaardeVanWoningen_39": 510, "PercentageEengezinswoning_40": 92, "PercentageTussenwoningEengezins_41": 0, "PercentageHoekwoningEengezins_42": 0, "PercentageTweeOnderEenKapWoningEe_43": 4, "PercentageVrijstaandeWoningEengezins_44": 88, "PercentageMeergezinswoning_45": 8, "Koopwoningen_47": 81, "HuurwoningenTotaal_48": 19, "InBezitWoningcorporatie_49": 0, "InBezitOverigeVerhuurders_50": 19, "BouwjaarMeerDanTienJaarGeleden_51": 96, "BouwjaarAfgelopenTienJaar_52": 4, "GemiddeldeElektriciteitslevering_53": 5210, "GemiddeldeElektriciteitsteruglevering_54": 1290, "GemiddeldAardgasverbruik_55": 1690, "AardgasvrijeWoningen_57": null, "Aardgaswoningen_58": null, "WoningenMetZonnestroom_59": null, "WoningenHoofdzElektrVerwarmd_60": null, "k_20PersonenMetHoogsteInkomen_80": null, "k_20HuishoudensMetHoogsteInkomen_85": null, "MediaanVermogenVanParticuliereHuish_86": null, "PersonenautoSTotaal_104": 35, "PersonenautoSBrandstofBenzine_105": 30, "PersonenautoSOverigeBrandstof_106": 5, "PersonenautoSPerHuishouden_107": null, "Omgevingsadressendichtheid_121": 236, "AantalInstallatiesBijWoningen_5": 5, "OpgesteldVermogenVanZonnepanelen_6": 27, "installaties_per_woning": 0.19230769230769232, "vermogen_per_woning": 1.0384615384615385, "installaties_per_100_woningen": 19.230769230769234, "vermogen_per_huishouden": 0.9, "batterijdruk_score": null, "koop_zon_score": null, "eengezins_zon_score": null, "betaalkracht_zon_score": null, "overige_brandstof_zon_score": null, "lichte_batterij_kansscore": null }, "geometry": { "type": "MultiPolygon", "coordinates": [ [ [ [ 6.093569426858654, 51.295532222386804 ], [ 6.093583992527686, 51.295530273245362 ], [ 6.093595576870437, 51.295526526414143 ], [ 6.093601297964142, 51.295521907279927 ], [ 6.093614217246917, 51.295511761141015 ], [ 6.093633909346606, 51.295479685591502 ], [ 6.093647823704446, 51.295448561993709 ], [ 6.093629894885666, 51.295430486014567 ], [ 6.093652425921382, 51.295395633595092 ], [ 6.093664080996301, 51.295393684134147 ], [ 6.093668260787274, 51.295390458664265 ], [ 6.093756621295198, 51.295381948951508 ], [ 6.093902537991781, 51.295333852534533 ], [ 6.094062930976981, 51.295187121228018 ], [ 6.094197816701959, 51.295140592607673 ], [ 6.094283446517847, 51.295170653048423 ], [ 6.094352511505566, 51.295123409513543 ], [ 6.09458220526346, 51.294738100875719 ], [ 6.094718335246705, 51.294564495089347 ], [ 6.094875801683064, 51.294568131021798 ], [ 6.094930655724854, 51.294565298483768 ], [ 6.095076898478016, 51.294527401148521 ], [ 6.09518431190903, 51.294462413197508 ], [ 6.095281082805053, 51.294384204108319 ], [ 6.095385685545399, 51.294303475291912 ], [ 6.095663711672653, 51.294180161379266 ], [ 6.095712709795068, 51.294150109365248 ], [ 6.095750881311352, 51.294116230998128 ], [ 6.095761625051604, 51.294123042194705 ], [ 6.096882989538449, 51.293303636123376 ], [ 6.097315871598816, 51.292991790500956 ], [ 6.097787266755136, 51.292638151752804 ], [ 6.097857495994266, 51.29258696179452 ], [ 6.098004965522931, 51.292479100555965 ], [ 6.098051597214386, 51.292444594444035 ], [ 6.099692996976206, 51.291239751071885 ], [ 6.100651860090499, 51.290535877181796 ], [ 6.100735344060071, 51.290474590397217 ], [ 6.100926605478803, 51.290334204178194 ], [ 6.101275603265345, 51.290070625800233 ], [ 6.101517007831204, 51.289900815373116 ], [ 6.101519856800986, 51.289898730404765 ], [ 6.103152317753058, 51.288700427264658 ], [ 6.104620411336916, 51.289754708239848 ], [ 6.106342855151504, 51.290991432065191 ], [ 6.107008466659099, 51.291469300354578 ], [ 6.107429189000666, 51.291409535813052 ], [ 6.107520079549393, 51.291396640260906 ], [ 6.109026544047373, 51.291182741677531 ], [ 6.10940513946374, 51.291045682760434 ], [ 6.109466095941329, 51.291020162064839 ], [ 6.109475217064509, 51.29101491877082 ], [ 6.114462058845112, 51.28917535173899 ], [ 6.114545951665631, 51.288806545887475 ], [ 6.120057676399314, 51.285112733564368 ], [ 6.120071161760564, 51.285104468584166 ], [ 6.120092781839545, 51.285068007621071 ], [ 6.120163599734956, 51.284945768779188 ], [ 6.120241419432456, 51.284811440441658 ], [ 6.120290563904486, 51.284733096798824 ], [ 6.120340656709971, 51.284652221233252 ], [ 6.120426771310661, 51.284509615511176 ], [ 6.120519197349704, 51.28435747749829 ], [ 6.120930440589889, 51.283665217293681 ], [ 6.122719353262918, 51.280682210588992 ], [ 6.122752265972316, 51.280627169238457 ], [ 6.12450708130489, 51.279935311320394 ], [ 6.124559493355453, 51.27991465489356 ], [ 6.124552666670684, 51.27981831740712 ], [ 6.124504984344115, 51.278436901443435 ], [ 6.124536544705697, 51.27754110288879 ], [ 6.124500375755569, 51.277061019374315 ], [ 6.124575871569643, 51.277206604235332 ], [ 6.124757904013862, 51.27755000126632 ], [ 6.124512415598725, 51.274839646016581 ], [ 6.124504628482937, 51.274755247585283 ], [ 6.110861888362167, 51.277427924235241 ], [ 6.110977007637782, 51.277641259974111 ], [ 6.111600853377968, 51.278656791812622 ], [ 6.112702282417951, 51.280243519171222 ], [ 6.112476663239291, 51.280661231397382 ], [ 6.110713889436916, 51.28139582616209 ], [ 6.107067138963187, 51.28283056991981 ], [ 6.10466828903161, 51.28387547486745 ], [ 6.102197537962128, 51.285371348438169 ], [ 6.100544777197635, 51.286288542802417 ], [ 6.097832868596802, 51.286768072331718 ], [ 6.096461275174107, 51.287114687626108 ], [ 6.096472905331194, 51.28718109157365 ], [ 6.096362672376723, 51.287380739407823 ], [ 6.096095560077123, 51.287695043527442 ], [ 6.095803136616906, 51.287838950344309 ], [ 6.095026087667629, 51.288037665857601 ], [ 6.093184266508298, 51.288508648737142 ], [ 6.092693068676369, 51.28812044843 ], [ 6.090749327711918, 51.288707100735444 ], [ 6.094017893572679, 51.291118704323551 ], [ 6.091125733192198, 51.293451092930063 ], [ 6.091543570333697, 51.293805960516281 ], [ 6.093297695627006, 51.295436243333981 ], [ 6.093303313724369, 51.295436189470308 ], [ 6.093323959178828, 51.295437996843859 ], [ 6.093369026233371, 51.295441957216461 ], [ 6.093383704460586, 51.295446371652382 ], [ 6.093392692741346, 51.29544999362377 ], [ 6.093396948875945, 51.295451711668655 ], [ 6.093408801985333, 51.29545980178159 ], [ 6.093453289628595, 51.295494022723211 ], [ 6.093489303883155, 51.295512465386935 ], [ 6.093494641830666, 51.295516460077039 ], [ 6.093534319392183, 51.295528866830594 ], [ 6.093548998397835, 51.295532400315849 ], [ 6.093553384862841, 51.295533272594902 ], [ 6.093569426858654, 51.295532222386804 ] ] ] ] } },
{ "type": "Feature", "properties": { "buurtcode": "BU08890100", "buurtnaam": "Beesel", "pc6_codes": "5954AA, 5954AB, 5954AC, 5954AD, 5954AE, 5954AG, 5954AH, 5954AJ, 5954AK, 5954AL, 5954AM, 5954AN, 5954AP, 5954AR, 5954AS, 5954AT, 5954AV, 5954AW, 5954AX, 5954AZ, 5954BA, 5954BB, 5954BC, 5954BD, 5954BE, 5954BG, 5954BH, 5954BJ, 5954BK, 5954BL, 5954BM, 5954BN, 5954BP, 5954BR, 5954BS, 5954BT, 5954BV, 5954BW, 5954BX, 5954BZ, 5954CA, 5954CB, 5954CC, 5954CD, 5954CE, 5954CH, 5954CJ, 5954CK, 5954CL, 5954CM, 5954CX, 5954CZ, 5954DA, 5954EA, 5954ED, 5954GA, 5954GC, 5954GD, 5954NA, 5954NB, 5954NH, 5954NM", "wijkcode": "WK088901", "gemeentecode": "GM0889", "gemeentenaam": "Beesel", "oppervlakteLandInHa": 188, "AantalInwoners_5": 2065, "Mannen_6": 1040, "Vrouwen_7": 1020, "HuishoudensTotaal_29": 935, "GemiddeldeHuishoudensgrootte_33": 2.2, "Woningvoorraad_35": 955, "NieuwbouwWoningen_36": 4, "NietWoningvoorraad_37": 59, "NieuwbouwNietWoningen_38": 0, "GemiddeldeWOZWaardeVanWoningen_39": 348, "PercentageEengezinswoning_40": 92, "PercentageTussenwoningEengezins_41": 17, "PercentageHoekwoningEengezins_42": 11, "PercentageTweeOnderEenKapWoningEe_43": 22, "PercentageVrijstaandeWoningEengezins_44": 42, "PercentageMeergezinswoning_45": 8, "Koopwoningen_47": 78, "HuurwoningenTotaal_48": 22, "InBezitWoningcorporatie_49": 16, "InBezitOverigeVerhuurders_50": 6, "BouwjaarMeerDanTienJaarGeleden_51": 97, "BouwjaarAfgelopenTienJaar_52": 3, "GemiddeldeElektriciteitslevering_53": 3200, "GemiddeldeElektriciteitsteruglevering_54": 1450, "GemiddeldAardgasverbruik_55": 1060, "AardgasvrijeWoningen_57": 4, "Aardgaswoningen_58": 88, "WoningenMetZonnestroom_59": 53, "WoningenHoofdzElektrVerwarmd_60": 11, "k_20PersonenMetHoogsteInkomen_80": 20.9, "k_20HuishoudensMetHoogsteInkomen_85": 24.1, "MediaanVermogenVanParticuliereHuish_86": 271.0, "PersonenautoSTotaal_104": 1270, "PersonenautoSBrandstofBenzine_105": 1030, "PersonenautoSOverigeBrandstof_106": 240, "PersonenautoSPerHuishouden_107": 1.4, "Omgevingsadressendichtheid_121": 294, "AantalInstallatiesBijWoningen_5": 403, "OpgesteldVermogenVanZonnepanelen_6": 1841, "installaties_per_woning": 0.42198952879581153, "vermogen_per_woning": 1.9277486910994763, "installaties_per_100_woningen": 42.198952879581157, "vermogen_per_huishouden": 1.9689839572192513, "batterijdruk_score": 768.5, "koop_zon_score": 0.4134, "eengezins_zon_score": 0.4876, "betaalkracht_zon_score": 143.63, "overige_brandstof_zon_score": 127.2, "lichte_batterij_kansscore": 0.49208171321889893 }, "geometry": { "type": "MultiPolygon", "coordinates": [ [ [ [ 6.052169852337266, 51.273512062565509 ], [ 6.053460527218013, 51.273082194481816 ], [ 6.053513707225988, 51.272705193791154 ], [ 6.052307096429195, 51.271415154535561 ], [ 6.049309510918182, 51.268557457502659 ], [ 6.050126755276805, 51.267802220835236 ], [ 6.051825678273622, 51.26688014190325 ], [ 6.053102102195692, 51.266268049568112 ], [ 6.048846211141163, 51.264757743457061 ], [ 6.048575287958846, 51.264662371014524 ], [ 6.043086730713084, 51.262486648290505 ], [ 6.040816079520716, 51.261404457155201 ], [ 6.038572378633964, 51.260493985807372 ], [ 6.0373508358882, 51.260117664176484 ], [ 6.03667677732887, 51.260067496058355 ], [ 6.035966987840415, 51.260023141473894 ], [ 6.035339216138579, 51.260206420506968 ], [ 6.033957949345261, 51.260801765134737 ], [ 6.032785289590085, 51.261461105770891 ], [ 6.031870651708441, 51.26233895458811 ], [ 6.030555442189693, 51.263357498597337 ], [ 6.026283921500545, 51.266897853316635 ], [ 6.027257031336533, 51.267340404545692 ], [ 6.027453645825666, 51.267445572400106 ], [ 6.027675616539674, 51.267614781713846 ], [ 6.028197738474233, 51.268056321484394 ], [ 6.028543608473721, 51.268624739623228 ], [ 6.028850290692938, 51.269284763996048 ], [ 6.028866014570149, 51.269320866942699 ], [ 6.029097530406166, 51.270035886433682 ], [ 6.029354933576198, 51.270978923848723 ], [ 6.029390215205694, 51.270977897602108 ], [ 6.029398593600181, 51.270977569095031 ], [ 6.032037224048841, 51.2716228204064 ], [ 6.037323437926261, 51.27281843027469 ], [ 6.043666055893321, 51.274209534447898 ], [ 6.047730295997798, 51.274912672938434 ], [ 6.052169852337266, 51.273512062565509 ] ] ] ] } },
{ "type": "Feature", "properties": { "buurtcode": "BU08890101", "buurtnaam": "Bussereind", "pc6_codes": "5954CE, 5954CG, 5954CH, 5954GB, 5954NX, 5954PJ", "wijkcode": "WK088901", "gemeentecode": "GM0889", "gemeentenaam": "Beesel", "oppervlakteLandInHa": 58, "AantalInwoners_5": 135, "Mannen_6": 65, "Vrouwen_7": 70, "HuishoudensTotaal_29": 50, "GemiddeldeHuishoudensgrootte_33": 2.6, "Woningvoorraad_35": 52, "NieuwbouwWoningen_36": 0, "NietWoningvoorraad_37": 11, "NieuwbouwNietWoningen_38": 0, "GemiddeldeWOZWaardeVanWoningen_39": 461, "PercentageEengezinswoning_40": 100, "PercentageTussenwoningEengezins_41": 0, "PercentageHoekwoningEengezins_42": 0, "PercentageTweeOnderEenKapWoningEe_43": 13, "PercentageVrijstaandeWoningEengezins_44": 87, "PercentageMeergezinswoning_45": 0, "Koopwoningen_47": 96, "HuurwoningenTotaal_48": 4, "InBezitWoningcorporatie_49": 0, "InBezitOverigeVerhuurders_50": 4, "BouwjaarMeerDanTienJaarGeleden_51": 94, "BouwjaarAfgelopenTienJaar_52": 6, "GemiddeldeElektriciteitslevering_53": 4320, "GemiddeldeElektriciteitsteruglevering_54": 3060, "GemiddeldAardgasverbruik_55": 1250, "AardgasvrijeWoningen_57": null, "Aardgaswoningen_58": null, "WoningenMetZonnestroom_59": null, "WoningenHoofdzElektrVerwarmd_60": null, "k_20PersonenMetHoogsteInkomen_80": 18.9, "k_20HuishoudensMetHoogsteInkomen_85": null, "MediaanVermogenVanParticuliereHuish_86": null, "PersonenautoSTotaal_104": 60, "PersonenautoSBrandstofBenzine_105": 55, "PersonenautoSOverigeBrandstof_106": 10, "PersonenautoSPerHuishouden_107": 1.2, "Omgevingsadressendichtheid_121": 117, "AantalInstallatiesBijWoningen_5": 26, "OpgesteldVermogenVanZonnepanelen_6": 130, "installaties_per_woning": 0.5, "vermogen_per_woning": 2.5, "installaties_per_100_woningen": 50.0, "vermogen_per_huishouden": 2.6, "batterijdruk_score": null, "koop_zon_score": null, "eengezins_zon_score": null, "betaalkracht_zon_score": null, "overige_brandstof_zon_score": null, "lichte_batterij_kansscore": null }, "geometry": { "type": "MultiPolygon", "coordinates": [ [ [ [ 6.05383333445918, 51.265916660656259 ], [ 6.057099249259156, 51.264872307191972 ], [ 6.059300155361496, 51.264383193225974 ], [ 6.061720429589544, 51.263728434595755 ], [ 6.063866528936167, 51.263233933485807 ], [ 6.0586892061744, 51.257117416995399 ], [ 6.052188389988533, 51.259297803017645 ], [ 6.05177074020851, 51.259640648963931 ], [ 6.051666547490601, 51.260852233114804 ], [ 6.051233498199339, 51.262218226814959 ], [ 6.050764034826918, 51.263127952863485 ], [ 6.050029198469087, 51.263940311223237 ], [ 6.048846211141163, 51.264757743457061 ], [ 6.053102102195692, 51.266268049568112 ], [ 6.05383333445918, 51.265916660656259 ] ] ] ] } },
{ "type": "Feature", "properties": { "buurtcode": "BU08890102", "buurtnaam": "Rijkel", "pc6_codes": "5954NC, 5954ND, 5954NE, 5954NJ, 5954NK", "wijkcode": "WK088901", "gemeentecode": "GM0889", "gemeentenaam": "Beesel", "oppervlakteLandInHa": 79, "AantalInwoners_5": 75, "Mannen_6": 40, "Vrouwen_7": 40, "HuishoudensTotaal_29": 35, "GemiddeldeHuishoudensgrootte_33": 2.4, "Woningvoorraad_35": 33, "NieuwbouwWoningen_36": 0, "NietWoningvoorraad_37": 6, "NieuwbouwNietWoningen_38": 0, "GemiddeldeWOZWaardeVanWoningen_39": 390, "PercentageEengezinswoning_40": 97, "PercentageTussenwoningEengezins_41": 0, "PercentageHoekwoningEengezins_42": 0, "PercentageTweeOnderEenKapWoningEe_43": 30, "PercentageVrijstaandeWoningEengezins_44": 67, "PercentageMeergezinswoning_45": 3, "Koopwoningen_47": 85, "HuurwoningenTotaal_48": 15, "InBezitWoningcorporatie_49": 0, "InBezitOverigeVerhuurders_50": 15, "BouwjaarMeerDanTienJaarGeleden_51": 94, "BouwjaarAfgelopenTienJaar_52": 6, "GemiddeldeElektriciteitslevering_53": 4200, "GemiddeldeElektriciteitsteruglevering_54": 1170, "GemiddeldAardgasverbruik_55": 1240, "AardgasvrijeWoningen_57": null, "Aardgaswoningen_58": null, "WoningenMetZonnestroom_59": null, "WoningenHoofdzElektrVerwarmd_60": null, "k_20PersonenMetHoogsteInkomen_80": null, "k_20HuishoudensMetHoogsteInkomen_85": null, "MediaanVermogenVanParticuliereHuish_86": null, "PersonenautoSTotaal_104": 50, "PersonenautoSBrandstofBenzine_105": 40, "PersonenautoSOverigeBrandstof_106": 10, "PersonenautoSPerHuishouden_107": null, "Omgevingsadressendichtheid_121": 31, "AantalInstallatiesBijWoningen_5": 9, "OpgesteldVermogenVanZonnepanelen_6": 68, "installaties_per_woning": 0.27272727272727271, "vermogen_per_woning": 2.0606060606060606, "installaties_per_100_woningen": 27.27272727272727, "vermogen_per_huishouden": 1.9428571428571428, "batterijdruk_score": null, "koop_zon_score": null, "eengezins_zon_score": null, "betaalkracht_zon_score": null, "overige_brandstof_zon_score": null, "lichte_batterij_kansscore": null }, "geometry": { "type": "MultiPolygon", "coordinates": [ [ [ [ 6.014585584608298, 51.264482118449195 ], [ 6.02007050383755, 51.261180413673983 ], [ 6.023892902368835, 51.258816796921593 ], [ 6.025807176170746, 51.257191935577808 ], [ 6.026975317800473, 51.255905426300046 ], [ 6.026674422411896, 51.255580106455319 ], [ 6.021389608042674, 51.254111253758687 ], [ 6.016658459739257, 51.252956672190606 ], [ 6.016654503816923, 51.252967334765458 ], [ 6.016553980426012, 51.253200100303367 ], [ 6.016458877094936, 51.253407271742432 ], [ 6.016385865223337, 51.253552173726661 ], [ 6.016261505882947, 51.253748635584586 ], [ 6.016082413557563, 51.253976558100888 ], [ 6.015902570212183, 51.254162424924296 ], [ 6.015690805744422, 51.254352158444362 ], [ 6.015470276788443, 51.25454009617642 ], [ 6.015237969061253, 51.254722667742399 ], [ 6.014994211153449, 51.254914442443884 ], [ 6.01478187743018, 51.255076751955443 ], [ 6.01453736127795, 51.255230182763292 ], [ 6.014330089383714, 51.255352292358296 ], [ 6.014073535492682, 51.255485714685378 ], [ 6.013851122402896, 51.255578717794315 ], [ 6.013573680034641, 51.255684925043042 ], [ 6.013296103997281, 51.255785640075104 ], [ 6.012766515012626, 51.255952188219602 ], [ 6.012338108311574, 51.25608146113138 ], [ 6.011950190076962, 51.256197642745242 ], [ 6.011443233830249, 51.256331172560252 ], [ 6.010898520013233, 51.256470475811746 ], [ 6.010684060992462, 51.256521415662903 ], [ 6.0101157878032, 51.256647798514436 ], [ 6.010010718154593, 51.256667292009489 ], [ 6.009857166874376, 51.256697004767823 ], [ 6.009745639361333, 51.256717782064371 ], [ 6.00959379832859, 51.256747925779351 ], [ 6.009415626813866, 51.256790713836978 ], [ 6.009187743455464, 51.256846001490743 ], [ 6.008951065444529, 51.25690669314428 ], [ 6.008460207345781, 51.25703165621578 ], [ 6.008036074412582, 51.257173474941155 ], [ 6.007839968241562, 51.257247215475772 ], [ 6.00765236525671, 51.257337459027283 ], [ 6.007438336512229, 51.257443996397569 ], [ 6.007212427142662, 51.257565077950964 ], [ 6.007042032079689, 51.25767370112515 ], [ 6.006771750690025, 51.257847504931057 ], [ 6.006548276441936, 51.258006973124424 ], [ 6.006347965983484, 51.258173886293292 ], [ 6.006215113266397, 51.258304645989782 ], [ 6.006123627118796, 51.258393620371365 ], [ 6.006035063149622, 51.258482597109285 ], [ 6.005952124952048, 51.258577638376501 ], [ 6.005880084640538, 51.258682994894372 ], [ 6.00578551938956, 51.258814566171154 ], [ 6.005710660159687, 51.258914921723317 ], [ 6.005534408065804, 51.259225924676095 ], [ 6.005426806256085, 51.259569893594453 ], [ 6.005355877717671, 51.259815112352015 ], [ 6.005308626829751, 51.260057966977335 ], [ 6.005285381519202, 51.260252674897501 ], [ 6.005294071448474, 51.260513291075902 ], [ 6.005322634829321, 51.260929014303237 ], [ 6.00536661976974, 51.261208238845711 ], [ 6.005443027004253, 51.261527777390079 ], [ 6.00551703146077, 51.261757366977669 ], [ 6.005643508983665, 51.262052144246283 ], [ 6.005763721252003, 51.262286036403523 ], [ 6.005871947871205, 51.262478948523018 ], [ 6.006107150996525, 51.262834550637983 ], [ 6.00634774069625, 51.263194078763476 ], [ 6.006536460780879, 51.263440774300555 ], [ 6.006736534470457, 51.263689890021993 ], [ 6.007053961219194, 51.264044297204116 ], [ 6.007198917374044, 51.26420424755225 ], [ 6.007356012258288, 51.264361175630825 ], [ 6.007561919990967, 51.264546410144469 ], [ 6.007825082393258, 51.264762188995469 ], [ 6.008095830074468, 51.264965530969228 ], [ 6.008439349181051, 51.26519291572378 ], [ 6.008921221774598, 51.265457035111758 ], [ 6.009017203963445, 51.265504343414555 ], [ 6.009242468976306, 51.265611707857708 ], [ 6.009611847733256, 51.265759056850676 ], [ 6.009900466812041, 51.265922693599833 ], [ 6.010410226941564, 51.266100695973108 ], [ 6.011087423402605, 51.266253806613051 ], [ 6.011774102879783, 51.266375526825705 ], [ 6.014585584608298, 51.264482118449195 ] ] ] ] } },
{ "type": "Feature", "properties": { "buurtcode": "BU08890109", "buurtnaam": "Verspreide huizen", "pc6_codes": "5953AA, 5953TL, 5954AD, 5954AN, 5954AP, 5954AW, 5954BP, 5954BR, 5954BX, 5954CB, 5954CW, 5954NC, 5954NG, 5954NJ, 5954NK, 5954NL, 5954NP, 5954NR, 5954NX, 5954NZ, 5954PA, 5954PB, 5954PE", "wijkcode": "WK088901", "gemeentecode": "GM0889", "gemeentenaam": "Beesel", "oppervlakteLandInHa": 1043, "AantalInwoners_5": 140, "Mannen_6": 65, "Vrouwen_7": 75, "HuishoudensTotaal_29": 60, "GemiddeldeHuishoudensgrootte_33": 2.3, "Woningvoorraad_35": 69, "NieuwbouwWoningen_36": 1, "NietWoningvoorraad_37": 38, "NieuwbouwNietWoningen_38": 0, "GemiddeldeWOZWaardeVanWoningen_39": 432, "PercentageEengezinswoning_40": 99, "PercentageTussenwoningEengezins_41": 14, "PercentageHoekwoningEengezins_42": 10, "PercentageTweeOnderEenKapWoningEe_43": 10, "PercentageVrijstaandeWoningEengezins_44": 64, "PercentageMeergezinswoning_45": 1, "Koopwoningen_47": 87, "HuurwoningenTotaal_48": 13, "InBezitWoningcorporatie_49": 0, "InBezitOverigeVerhuurders_50": 13, "BouwjaarMeerDanTienJaarGeleden_51": 96, "BouwjaarAfgelopenTienJaar_52": 4, "GemiddeldeElektriciteitslevering_53": 3790, "GemiddeldeElektriciteitsteruglevering_54": 1210, "GemiddeldAardgasverbruik_55": 1280, "AardgasvrijeWoningen_57": null, "Aardgaswoningen_58": null, "WoningenMetZonnestroom_59": null, "WoningenHoofdzElektrVerwarmd_60": null, "k_20PersonenMetHoogsteInkomen_80": 24.8, "k_20HuishoudensMetHoogsteInkomen_85": null, "MediaanVermogenVanParticuliereHuish_86": null, "PersonenautoSTotaal_104": 70, "PersonenautoSBrandstofBenzine_105": 50, "PersonenautoSOverigeBrandstof_106": 20, "PersonenautoSPerHuishouden_107": 1.1, "Omgevingsadressendichtheid_121": 66, "AantalInstallatiesBijWoningen_5": 14, "OpgesteldVermogenVanZonnepanelen_6": 77, "installaties_per_woning": 0.20289855072463769, "vermogen_per_woning": 1.1159420289855073, "installaties_per_100_woningen": 20.289855072463769, "vermogen_per_huishouden": 1.2833333333333334, "batterijdruk_score": null, "koop_zon_score": null, "eengezins_zon_score": null, "betaalkracht_zon_score": null, "overige_brandstof_zon_score": null, "lichte_batterij_kansscore": null }, "geometry": { "type": "MultiPolygon", "coordinates": [ [ [ [ 6.042521115894043, 51.282324065580532 ], [ 6.043730672820389, 51.281711332434796 ], [ 6.045874808051907, 51.280308446430695 ], [ 6.04810084641493, 51.278739883078579 ], [ 6.049616582797032, 51.277709325507125 ], [ 6.051354423092325, 51.277159234259599 ], [ 6.053811386146, 51.276509491329641 ], [ 6.056523168987484, 51.275940254298931 ], [ 6.059190149425089, 51.275542004728131 ], [ 6.060625650687788, 51.274819919851076 ], [ 6.062845364963183, 51.27393680062044 ], [ 6.066901186567934, 51.272787861992903 ], [ 6.070187248042889, 51.272405403958786 ], [ 6.070291673672623, 51.27230591248685 ], [ 6.070650665974783, 51.271965029288047 ], [ 6.075154689565355, 51.264907094773243 ], [ 6.08443676398146, 51.259669647573332 ], [ 6.094802591340534, 51.254017422040441 ], [ 6.094630004638371, 51.253897521628964 ], [ 6.092628493206176, 51.252505410222909 ], [ 6.088544751372301, 51.249663116494844 ], [ 6.088126943814451, 51.249372278010462 ], [ 6.08561716478622, 51.247625705473503 ], [ 6.082372402249392, 51.246357206980029 ], [ 6.079103683864544, 51.245078945166462 ], [ 6.075855161577649, 51.243808670582048 ], [ 6.072663656101606, 51.242560091865968 ], [ 6.072535435946514, 51.242598152126483 ], [ 6.072504407817473, 51.24261002073851 ], [ 6.072273129837987, 51.2426986490809 ], [ 6.0721425829901, 51.242749720754645 ], [ 6.071836632942687, 51.24287380032802 ], [ 6.071649317477569, 51.242947983877229 ], [ 6.07119760170627, 51.243123761626393 ], [ 6.070713786142449, 51.243308984997512 ], [ 6.070508804259646, 51.243388619010744 ], [ 6.070275512885876, 51.243484886865971 ], [ 6.070246575686156, 51.243498756130826 ], [ 6.070171179898893, 51.243545285745377 ], [ 6.070000677561292, 51.243575618251256 ], [ 6.068169736986726, 51.244299652398574 ], [ 6.066742424422133, 51.244852503502464 ], [ 6.066709741700707, 51.244866960075655 ], [ 6.066656129771979, 51.244888802065994 ], [ 6.066341239985642, 51.245009809088984 ], [ 6.065956553269279, 51.245161425809066 ], [ 6.065281402813887, 51.245426379063666 ], [ 6.064680739191446, 51.245680089622049 ], [ 6.06411273302056, 51.245922820122324 ], [ 6.063792569797453, 51.246053289359416 ], [ 6.063563598203468, 51.246151046633145 ], [ 6.063251028469077, 51.246284823105945 ], [ 6.062958625587826, 51.246420737786202 ], [ 6.062958276592794, 51.246398051516081 ], [ 6.06296098477824, 51.246312702967586 ], [ 6.062853460286237, 51.246368520367454 ], [ 6.06281405627723, 51.246388677973322 ], [ 6.06275846131847, 51.246417118627484 ], [ 6.062731354729658, 51.246444683632298 ], [ 6.060475667038934, 51.247906279821549 ], [ 6.057886272938634, 51.249583936241521 ], [ 6.057813825298844, 51.24963085423871 ], [ 6.057661384460112, 51.249724913378593 ], [ 6.057579707145078, 51.249779318358186 ], [ 6.055345549203269, 51.251267435410362 ], [ 6.055263313182816, 51.251322210498515 ], [ 6.055122701578548, 51.25141587470479 ], [ 6.055117580393379, 51.251419283987602 ], [ 6.054821169194169, 51.251616730803221 ], [ 6.054614540230967, 51.251754370083141 ], [ 6.054494994427229, 51.251828226676707 ], [ 6.054499623139434, 51.251834267703785 ], [ 6.054536037905542, 51.251853169402615 ], [ 6.054502062148983, 51.251872879512504 ], [ 6.054501038897513, 51.25187343371384 ], [ 6.054474205971763, 51.251887898189793 ], [ 6.054280915640246, 51.251991967259144 ], [ 6.054191291955296, 51.252040275905685 ], [ 6.054183475004008, 51.252044482651968 ], [ 6.054165377605345, 51.252049961873801 ], [ 6.054043672118377, 51.252086759680672 ], [ 6.053887250709881, 51.252123954135946 ], [ 6.053722654418801, 51.252166372905016 ], [ 6.053368607132783, 51.252246183430771 ], [ 6.052915580173138, 51.252336914844953 ], [ 6.052470815887347, 51.252427606210972 ], [ 6.052256570212129, 51.252465129227389 ], [ 6.052149431143024, 51.252481301843744 ], [ 6.051910029963375, 51.25249304373019 ], [ 6.051653949455058, 51.252494507097801 ], [ 6.051521866564503, 51.252500448323836 ], [ 6.051447605516881, 51.252506059158485 ], [ 6.051398123212558, 51.252511528432414 ], [ 6.051332262582149, 51.252527464538595 ], [ 6.051257235434255, 51.252481230995201 ], [ 6.051224041945682, 51.252471047202576 ], [ 6.051149255006401, 51.252440381190347 ], [ 6.050999577223583, 51.252373835988031 ], [ 6.050899847285038, 51.252332938861258 ], [ 6.050791717236836, 51.252281716259304 ], [ 6.050633550934556, 51.252199668031793 ], [ 6.050492078454032, 51.25212790669076 ], [ 6.050308909568897, 51.252030449630709 ], [ 6.050167348723637, 51.251953501741653 ], [ 6.050042466837532, 51.251886822952095 ], [ 6.049934249431042, 51.251830413397677 ], [ 6.049867653336091, 51.251794495252838 ], [ 6.049692826476216, 51.251702185347469 ], [ 6.049559606756271, 51.251630366880981 ], [ 6.049467994061963, 51.251579057973757 ], [ 6.049318021889889, 51.251491783639942 ], [ 6.049209745797393, 51.251430196080911 ], [ 6.048984751818471, 51.251296695381846 ], [ 6.048242913649727, 51.250839535463264 ], [ 6.048067780184108, 51.250726487232249 ], [ 6.047734282427761, 51.250515845732892 ], [ 6.047551005078745, 51.250408020658824 ], [ 6.047105773256117, 51.250133641470576 ], [ 6.046999667795379, 51.250069181052872 ], [ 6.046891515967637, 51.250001846675225 ], [ 6.046878772352113, 51.24999219285457 ], [ 6.046466143899306, 51.249679683681464 ], [ 6.046275058288781, 51.249533445895608 ], [ 6.0460208760872, 51.249319203847058 ], [ 6.045739389723479, 51.249080584862938 ], [ 6.045541526476436, 51.248922851368036 ], [ 6.045361061921952, 51.248777720544311 ], [ 6.045008917060292, 51.248493502928383 ], [ 6.04463686304496, 51.248193980665228 ], [ 6.044317231319069, 51.247938126264032 ], [ 6.043790385690092, 51.247520587264788 ], [ 6.043614475639632, 51.247383670973434 ], [ 6.043424099463332, 51.247238656055387 ], [ 6.043266379185474, 51.247120603406294 ], [ 6.043119051053294, 51.247050088733218 ], [ 6.043078600513351, 51.247038810954528 ], [ 6.042951606285603, 51.247001998035621 ], [ 6.042444328055079, 51.246905448041673 ], [ 6.041861248017147, 51.246793169359854 ], [ 6.041278108278222, 51.24668051955225 ], [ 6.04020449360542, 51.246472677882934 ], [ 6.039833671075875, 51.246399971093894 ], [ 6.038669756527839, 51.246162095397402 ], [ 6.038512033404682, 51.246129342041058 ], [ 6.038450496595281, 51.246118648189395 ], [ 6.038443547461541, 51.24611743763532 ], [ 6.038362475450549, 51.246103733954506 ], [ 6.037993820767112, 51.246229567325017 ], [ 6.037625791006085, 51.24636425019353 ], [ 6.037376050950644, 51.246456849239927 ], [ 6.037284064474793, 51.246490532940918 ], [ 6.03721822208662, 51.246507485718034 ], [ 6.03713930745976, 51.246532799382884 ], [ 6.037007679817513, 51.246566713404533 ], [ 6.036889109661026, 51.246592248485598 ], [ 6.036757731097117, 51.246618502199681 ], [ 6.036586433238414, 51.246652637326008 ], [ 6.036296108785872, 51.246679148785354 ], [ 6.035596724673431, 51.246741137472185 ], [ 6.034989590678932, 51.246786023384381 ], [ 6.034487663779629, 51.246821511336016 ], [ 6.033894166759245, 51.246858576083213 ], [ 6.033405865516258, 51.246902657971667 ], [ 6.032970322564645, 51.246946417873076 ], [ 6.0325877838958, 51.246981890760352 ], [ 6.032521432587657, 51.246990340098527 ], [ 6.032494805288219, 51.24698613718337 ], [ 6.032216955284345, 51.246942751650671 ], [ 6.032187179208139, 51.246934628948296 ], [ 6.032183843634249, 51.246933721581897 ], [ 6.031739648502421, 51.246812585686449 ], [ 6.031208391538082, 51.246666068938659 ], [ 6.030278468576578, 51.24640567118702 ], [ 6.029999706194284, 51.246332585769785 ], [ 6.029536501231455, 51.246186817845846 ], [ 6.029164742421863, 51.246047950223243 ], [ 6.028991571553458, 51.245982378517361 ], [ 6.028659785263449, 51.245859612694503 ], [ 6.028179965295465, 51.245678289673791 ], [ 6.027963513142586, 51.24560430759572 ], [ 6.027928462706469, 51.245585551920314 ], [ 6.027856158383469, 51.245547162766975 ], [ 6.027823764847634, 51.245547359208317 ], [ 6.027821043884056, 51.245547374198338 ], [ 6.027703393485197, 51.245547698678656 ], [ 6.027584575825157, 51.24555263183499 ], [ 6.027465913907485, 51.245555388674916 ], [ 6.027422837252142, 51.245571032989609 ], [ 6.02737399138664, 51.245590960845099 ], [ 6.027401007076139, 51.245632269372166 ], [ 6.027402845766686, 51.245756657988508 ], [ 6.027352452328271, 51.245832910424241 ], [ 6.027247385385505, 51.245874910072274 ], [ 6.027114387685717, 51.245899301070956 ], [ 6.027035905126538, 51.24586768715524 ], [ 6.026834906366138, 51.245751576410655 ], [ 6.02672900084565, 51.245735583192335 ], [ 6.026637761478827, 51.245737055753757 ], [ 6.026545869860692, 51.24577901827243 ], [ 6.026375738394753, 51.245896028461715 ], [ 6.026335735497038, 51.245945202411974 ], [ 6.026323471758085, 51.246011635579521 ], [ 6.026377242002794, 51.246077687823366 ], [ 6.026497321548398, 51.246159987183546 ], [ 6.026551236780277, 51.246234344384305 ], [ 6.026538611706004, 51.246275898018062 ], [ 6.02648601276427, 51.246292780882243 ], [ 6.026105513080363, 51.246419971931324 ], [ 6.026066204846288, 51.246445069435971 ], [ 6.026052523034689, 51.246469423881187 ], [ 6.026053000175352, 51.246502608634799 ], [ 6.026066551410364, 51.246527424717684 ], [ 6.026120003634685, 51.246568606274067 ], [ 6.026186399871747, 51.246593114004007 ], [ 6.026252940689084, 51.246625926734545 ], [ 6.026372428189037, 51.246666736271933 ], [ 6.026425620787477, 51.246691334417491 ], [ 6.026412763807941, 51.24671628663404 ], [ 6.026399776975517, 51.24673296069691 ], [ 6.026347843760409, 51.246750379176653 ], [ 6.026242268745897, 51.246759256244431 ], [ 6.026110487851151, 51.24678485291043 ], [ 6.026031436680326, 51.246801871909199 ], [ 6.025992142400106, 51.24682696931044 ], [ 6.025979169453795, 51.246843625271374 ], [ 6.025978980622877, 51.246876301310202 ], [ 6.026006097320928, 51.246925915435369 ], [ 6.026073058119827, 51.246991895359173 ], [ 6.026126814839247, 51.247057947793948 ], [ 6.026168005239024, 51.247132833524859 ], [ 6.02616891500552, 51.247240148153296 ], [ 6.026156043286579, 51.247265091431878 ], [ 6.026090354696951, 51.24729036085504 ], [ 6.026011230287469, 51.247299110362341 ], [ 6.025919047647178, 51.247283490459168 ], [ 6.025799934440546, 51.247267559937967 ], [ 6.025694170056133, 51.247259861834607 ], [ 6.025628060943328, 51.247292998676066 ], [ 6.025562574115147, 51.247334824422552 ], [ 6.025510595968725, 51.247360395790174 ], [ 6.025475068249422, 51.247390667978038 ], [ 6.025434572390918, 51.247425183261107 ], [ 6.025392594177376, 51.247460219037741 ], [ 6.025313932384548, 51.247469307112027 ], [ 6.025116444896194, 51.247520153706468 ], [ 6.024958137089235, 51.247537615705149 ], [ 6.024892317250718, 51.24755456135771 ], [ 6.024852920531386, 51.247571362087797 ], [ 6.024813855914272, 51.247613051511273 ], [ 6.024813956972394, 51.247654265500231 ], [ 6.024827536398212, 51.247679072581661 ], [ 6.024880858915962, 51.24771194958641 ], [ 6.024947400304792, 51.247744754073111 ], [ 6.025027146646593, 51.247777513062481 ], [ 6.025054045991977, 51.247810525924031 ], [ 6.025028475219496, 51.2478441232197 ], [ 6.024975700190301, 51.247877330372333 ], [ 6.024910140358831, 51.24788623844524 ], [ 6.024685534722342, 51.247887469930831 ], [ 6.02453995406093, 51.247871683204686 ], [ 6.0244873382278, 51.247888565247024 ], [ 6.024435068355767, 51.247930317918346 ], [ 6.02438284206541, 51.248005068926865 ], [ 6.024305792677283, 51.24816311310024 ], [ 6.024253767418702, 51.24822145803185 ], [ 6.02416197005782, 51.248271741929337 ], [ 6.024030054352616, 51.248289067079789 ], [ 6.023937074937715, 51.24825640683143 ], [ 6.023790210974671, 51.248149378909325 ], [ 6.02369687171616, 51.248091820926383 ], [ 6.023617543099681, 51.248059202564647 ], [ 6.023498615945728, 51.248059844369578 ], [ 6.023419792066109, 51.248093454020101 ], [ 6.023367506789373, 51.248135215280151 ], [ 6.023381461139889, 51.248217999487821 ], [ 6.023409900420401, 51.248358854250789 ], [ 6.023397142116776, 51.248392093437218 ], [ 6.023331292077062, 51.248409056342354 ], [ 6.02321249265842, 51.248393175381942 ], [ 6.022987008022624, 51.248361185065164 ], [ 6.022881571473659, 51.248353518560499 ], [ 6.022815836172737, 51.248378759409199 ], [ 6.022803192679957, 51.248420303731244 ], [ 6.022792737235013, 51.248644303670794 ], [ 6.022767234252116, 51.248710808794726 ], [ 6.022675748859025, 51.248761053847687 ], [ 6.022596608586425, 51.248794700617729 ], [ 6.022504533165644, 51.248803464554967 ], [ 6.022306073803843, 51.248787954905339 ], [ 6.022226787716249, 51.248788378900954 ], [ 6.022187374759318, 51.248805187797565 ], [ 6.022148177338172, 51.248838580195738 ], [ 6.022108909844659, 51.248888620577773 ], [ 6.022112617724693, 51.249154045291363 ], [ 6.022099844062922, 51.249187293403125 ], [ 6.02206044503872, 51.249204102178979 ], [ 6.021994492428842, 51.249212750062384 ], [ 6.021809392412506, 51.249188788893477 ], [ 6.021716886531756, 51.249189293668586 ], [ 6.021611134947169, 51.249206572178998 ], [ 6.021558258053996, 51.249206860630196 ], [ 6.021253498294722, 51.249150471759378 ], [ 6.021134852963052, 51.249150983754269 ], [ 6.021069215918296, 51.249184510922305 ], [ 6.021056814562401, 51.249242647406028 ], [ 6.021058266206159, 51.249367208943994 ], [ 6.021019426337224, 51.24942549851496 ], [ 6.020967493010889, 51.249475364832854 ], [ 6.020862211890139, 51.249509116916634 ], [ 6.020782798805665, 51.2495180531903 ], [ 6.020690177501389, 51.249510260936006 ], [ 6.020610786945642, 51.249485614096997 ], [ 6.0205048317217, 51.249469597482033 ], [ 6.020320391921709, 51.249512067982536 ], [ 6.02012340572989, 51.249604369529507 ], [ 6.019925845961747, 51.249655207644871 ], [ 6.019728199952132, 51.24969775804248 ], [ 6.019623160704073, 51.249748092371554 ], [ 6.01959716567757, 51.249781412100553 ], [ 6.019598081681505, 51.249847754859829 ], [ 6.019664526106906, 51.249889147377196 ], [ 6.019784030860871, 51.249929981572137 ], [ 6.019903320571474, 51.249954196170847 ], [ 6.020075230663987, 51.249961557583426 ], [ 6.02023429387345, 51.249993870202026 ], [ 6.020340722895647, 51.250043044876342 ], [ 6.020381169802446, 51.250100902533134 ], [ 6.020408525831514, 51.250167092339019 ], [ 6.020396363366842, 51.250233263603654 ], [ 6.020371759082954, 51.250299817223187 ], [ 6.020360642659821, 51.25031629164522 ], [ 6.020312471983426, 51.250352491888364 ], [ 6.020238510278752, 51.250387025719753 ], [ 6.02017011048695, 51.250412558217953 ], [ 6.020096099020799, 51.250443505621348 ], [ 6.019988156772258, 51.250508786786433 ], [ 6.019866321406848, 51.25060110141613 ], [ 6.019792291292022, 51.250633846523762 ], [ 6.019717733415241, 51.25062527206471 ], [ 6.019608245079014, 51.25057553816012 ], [ 6.019541844679966, 51.250536365649296 ], [ 6.01943248094388, 51.25049562888249 ], [ 6.019372341074662, 51.250495955819588 ], [ 6.019246757676147, 51.250525385216477 ], [ 6.019155469856799, 51.250551041507741 ], [ 6.019015067871693, 51.250544604207541 ], [ 6.018793774229588, 51.250484699119582 ], [ 6.018653089782955, 51.250456716308804 ], [ 6.018466856552672, 51.250450536184516 ], [ 6.018335236263325, 51.250456643970146 ], [ 6.018165981410831, 51.250434191038508 ], [ 6.017990987326279, 51.250409971193925 ], [ 6.017853658986021, 51.250419704991799 ], [ 6.017725309320893, 51.250456338935955 ], [ 6.017600131144915, 51.250516317928337 ], [ 6.017471731530124, 51.250549356266006 ], [ 6.01728050034684, 51.250595319485761 ], [ 6.017132320661773, 51.250648231400312 ], [ 6.017015057095277, 51.250657846528149 ], [ 6.016926043112278, 51.250638552795955 ], [ 6.016589479507883, 51.250576813657041 ], [ 6.016589555072672, 51.250577100895704 ], [ 6.016600565303095, 51.250616377119599 ], [ 6.016627371239583, 51.250711704082548 ], [ 6.016646714342532, 51.25078094943288 ], [ 6.016469576438609, 51.250816533650465 ], [ 6.015998383730678, 51.250911210473355 ], [ 6.01608601280699, 51.251008015457749 ], [ 6.016222952508921, 51.251173202571927 ], [ 6.016342018602691, 51.251316598037974 ], [ 6.01644954540557, 51.251465566071339 ], [ 6.016545221007186, 51.251603667532656 ], [ 6.016611561010937, 51.251729199283176 ], [ 6.01666004112189, 51.251832966447644 ], [ 6.016761970458066, 51.252314413224632 ], [ 6.01675405474358, 51.252519054428035 ], [ 6.016721093643694, 51.252787823807424 ], [ 6.016658459739257, 51.252956672190606 ], [ 6.021389608042674, 51.254111253758687 ], [ 6.026674422411896, 51.255580106455319 ], [ 6.026975317800473, 51.255905426300046 ], [ 6.025807176170746, 51.257191935577808 ], [ 6.023892902368835, 51.258816796921593 ], [ 6.02007050383755, 51.261180413673983 ], [ 6.014585584608298, 51.264482118449195 ], [ 6.011774102879783, 51.266375526825705 ], [ 6.012113528570345, 51.266435691820824 ], [ 6.012654290582366, 51.266509488385132 ], [ 6.0131697613022, 51.266555804398358 ], [ 6.014180667412742, 51.266564211942807 ], [ 6.01442418133, 51.266559033865747 ], [ 6.0144941499981, 51.266551896847048 ], [ 6.014717749027161, 51.266524901423082 ], [ 6.014893532866277, 51.266499943417692 ], [ 6.015054843804397, 51.266475962164101 ], [ 6.015830742412184, 51.266326473665714 ], [ 6.016630999665258, 51.266156533064468 ], [ 6.017133300794573, 51.266054836238709 ], [ 6.017404295870641, 51.266005070537183 ], [ 6.017639210245102, 51.265968731544888 ], [ 6.018592071199893, 51.265871947537029 ], [ 6.018852417718101, 51.265859567508457 ], [ 6.019294279460387, 51.26585580989321 ], [ 6.019980844097439, 51.265859609781963 ], [ 6.020663363379166, 51.26587133795838 ], [ 6.022217212499308, 51.265957142041202 ], [ 6.022812214122723, 51.266012051035204 ], [ 6.023770624952456, 51.266122399433165 ], [ 6.024637330707129, 51.266284668540074 ], [ 6.025006025058414, 51.266388169266179 ], [ 6.025590615019016, 51.266582540407022 ], [ 6.026283921500545, 51.266897853316635 ], [ 6.030555442189693, 51.263357498597337 ], [ 6.031870651708441, 51.26233895458811 ], [ 6.032785289590085, 51.261461105770891 ], [ 6.033957949345261, 51.260801765134737 ], [ 6.035339216138579, 51.260206420506968 ], [ 6.035966987840415, 51.260023141473894 ], [ 6.03667677732887, 51.260067496058355 ], [ 6.0373508358882, 51.260117664176484 ], [ 6.038572378633964, 51.260493985807372 ], [ 6.040816079520716, 51.261404457155201 ], [ 6.043086730713084, 51.262486648290505 ], [ 6.048575287958846, 51.264662371014524 ], [ 6.048846211141163, 51.264757743457061 ], [ 6.050029198469087, 51.263940311223237 ], [ 6.050764034826918, 51.263127952863485 ], [ 6.051233498199339, 51.262218226814959 ], [ 6.051666547490601, 51.260852233114804 ], [ 6.05177074020851, 51.259640648963931 ], [ 6.052188389988533, 51.259297803017645 ], [ 6.0586892061744, 51.257117416995399 ], [ 6.063866528936167, 51.263233933485807 ], [ 6.061720429589544, 51.263728434595755 ], [ 6.059300155361496, 51.264383193225974 ], [ 6.057099249259156, 51.264872307191972 ], [ 6.05383333445918, 51.265916660656259 ], [ 6.053102102195692, 51.266268049568112 ], [ 6.051825678273622, 51.26688014190325 ], [ 6.050126755276805, 51.267802220835236 ], [ 6.049309510918182, 51.268557457502659 ], [ 6.052307096429195, 51.271415154535561 ], [ 6.053513707225988, 51.272705193791154 ], [ 6.053460527218013, 51.273082194481816 ], [ 6.052169852337266, 51.273512062565509 ], [ 6.047730295997798, 51.274912672938434 ], [ 6.043666055893321, 51.274209534447898 ], [ 6.037323437926261, 51.27281843027469 ], [ 6.032037224048841, 51.2716228204064 ], [ 6.029398593600181, 51.270977569095031 ], [ 6.029390215205694, 51.270977897602108 ], [ 6.029354933576198, 51.270978923848723 ], [ 6.029356265934558, 51.27098380380847 ], [ 6.029687411561089, 51.272692535458731 ], [ 6.029852906168584, 51.273292130883533 ], [ 6.030536359006769, 51.274026942787224 ], [ 6.031237818250424, 51.274507055851366 ], [ 6.032069876377737, 51.274997227670411 ], [ 6.033210636994306, 51.275635778013658 ], [ 6.034239387024834, 51.276354537835701 ], [ 6.035585150541632, 51.277400321746683 ], [ 6.0363025169713, 51.277963868668301 ], [ 6.037283964240836, 51.278728547872319 ], [ 6.037602621582757, 51.278969797855247 ], [ 6.037889213494018, 51.279186767260796 ], [ 6.038498686902833, 51.279679100097553 ], [ 6.039913740997251, 51.280732599686743 ], [ 6.040356620905045, 51.281029187154068 ], [ 6.041621191916025, 51.281860502908962 ], [ 6.041979994677598, 51.282093636383813 ], [ 6.042266594952101, 51.282384458581433 ], [ 6.042521115894043, 51.282324065580532 ] ] ] ] } }
]
}
