{
"type": "FeatureCollection",
"name": "Boekel",
"crs": { "type": "name", "properties": { "name": "urn:ogc:def:crs:EPSG::28992" } },
"features": [
{ "type": "Feature", "properties": { "buurtcode": "BU07550000", "buurtnaam": "Boekel", "pc6_codes": "5427AA, 5427AB, 5427AD, 5427AE, 5427AG, 5427AH, 5427AJ, 5427AK, 5427AL, 5427AM, 5427AN, 5427AP, 5427AR, 5427AS, 5427AT, 5427AV, 5427AW, 5427AX, 5427AZ, 5427BA, 5427BB, 5427BC, 5427BD, 5427BE, 5427BG, 5427BM, 5427BN, 5427BP, 5427BR, 5427BS, 5427BW, 5427BX, 5427BZ, 5427CA, 5427CB, 5427CC, 5427CD, 5427CE, 5427CG, 5427CH, 5427CJ, 5427CK, 5427CL, 5427CM, 5427CN, 5427CP, 5427CR, 5427CS, 5427CT, 5427CV, 5427CW, 5427CX, 5427CZ, 5427DB, 5427DC, 5427DD, 5427DE, 5427DG, 5427DZ, 5427EA, 5427EB, 5427EC, 5427ED, 5427EX, 5427GA, 5427GB, 5427GC, 5427GD, 5427GE, 5427GG, 5427GJ, 5427HA, 5427HW, 5427HX, 5427HZ, 5427JA, 5427JB, 5427JC, 5427JD, 5427JE, 5427JG, 5427JH, 5427JJ, 5427JK, 5427JL, 5427JM, 5427JN, 5427JP, 5427JR, 5427JS, 5427JT, 5427JV, 5427LA, 5427MC, 5427NC, 5427ND, 5427PG, 5427PP, 5427PR, 5427PV, 5427RN, 5427SB, 5427SC, 5427SE, 5427SG, 5427SH, 5427SJ, 5427SK, 5427SL, 5427SM, 5427SN, 5427SP, 5427SR, 5427ST, 5427SV, 5427SW, 5427SX, 5427SZ, 5427TA, 5427TB, 5427TC, 5427TD, 5427TE, 5427TG, 5427TH, 5427TJ, 5427TK, 5427TM, 5427TN, 5427TP, 5427TR, 5427TS, 5427TT, 5427TV, 5427TW, 5427TX, 5427TZ, 5427VA, 5427VC, 5427VD, 5427VE, 5427VG, 5427VH, 5427VJ, 5427VK, 5427VL, 5427VM, 5427VN, 5427VP, 5427VR, 5427VS, 5427VT", "wijkcode": "WK075500", "gemeentecode": "GM0755", "gemeentenaam": "Boekel", "oppervlakteLandInHa": 190, "AantalInwoners_5": 5720, "Mannen_6": 2860, "Vrouwen_7": 2855, "HuishoudensTotaal_29": 2540, "GemiddeldeHuishoudensgrootte_33": 2.2, "Woningvoorraad_35": 2635, "NieuwbouwWoningen_36": 2, "NietWoningvoorraad_37": 219, "NieuwbouwNietWoningen_38": 0, "GemiddeldeWOZWaardeVanWoningen_39": 384, "PercentageEengezinswoning_40": 81, "PercentageTussenwoningEengezins_41": 13, "PercentageHoekwoningEengezins_42": 10, "PercentageTweeOnderEenKapWoningEe_43": 31, "PercentageVrijstaandeWoningEengezins_44": 28, "PercentageMeergezinswoning_45": 19, "Koopwoningen_47": 69, "HuurwoningenTotaal_48": 31, "InBezitWoningcorporatie_49": 23, "InBezitOverigeVerhuurders_50": 8, "BouwjaarMeerDanTienJaarGeleden_51": 88, "BouwjaarAfgelopenTienJaar_52": 12, "GemiddeldeElektriciteitslevering_53": 2910, "GemiddeldeElektriciteitsteruglevering_54": 1410, "GemiddeldAardgasverbruik_55": 890, "AardgasvrijeWoningen_57": 11, "Aardgaswoningen_58": 82, "WoningenMetZonnestroom_59": 50, "WoningenHoofdzElektrVerwarmd_60": 15, "k_20PersonenMetHoogsteInkomen_80": 13.4, "k_20HuishoudensMetHoogsteInkomen_85": 19.4, "MediaanVermogenVanParticuliereHuish_86": 298.9, "PersonenautoSTotaal_104": 3340, "PersonenautoSBrandstofBenzine_105": 2735, "PersonenautoSOverigeBrandstof_106": 605, "PersonenautoSPerHuishouden_107": 1.3, "Omgevingsadressendichtheid_121": 809, "AantalInstallatiesBijWoningen_5": 950, "OpgesteldVermogenVanZonnepanelen_6": 4379, "installaties_per_woning": 0.36053130929791272, "vermogen_per_woning": 1.6618595825426945, "installaties_per_100_woningen": 36.053130929791273, "vermogen_per_huishouden": 1.7240157480314962, "batterijdruk_score": 705.0, "koop_zon_score": 0.345, "eengezins_zon_score": 0.405, "betaalkracht_zon_score": 149.45, "overige_brandstof_zon_score": 302.5, "lichte_batterij_kansscore": 0.45136754144253038 }, "geometry": { "type": "MultiPolygon", "coordinates": [ [ [ [ 174597.748499999986961, 402320.929599999974016 ], [ 174625.699, 402290.438100000028498 ], [ 174639.9063, 402293.8126 ], [ 174663.9062, 402462.593799999973271 ], [ 174719.703, 402476.593899999978021 ], [ 174805.203, 402388.0001 ], [ 174852.7946, 402303.745500000019092 ], [ 174896.450099999987287, 402327.2523 ], [ 174931.647999999986496, 402346.205100000021048 ], [ 175002.6476, 402232.232100000022911 ], [ 175006.257600000011735, 402226.437199999985751 ], [ 175149.9062, 402200.093899999978021 ], [ 175203.3934, 402197.273999999975786 ], [ 175188.3249, 402108.2315 ], [ 175188.4999, 402107.8126 ], [ 175189.703100000013364, 402011.8126 ], [ 175164.6262, 401837.083600000012666 ], [ 175195.187199999985751, 401837.083600000012666 ], [ 175190.5725, 401743.9498 ], [ 175274.703100000013364, 401710.093799999973271 ], [ 175363.0937, 401701.0001 ], [ 175597.0937, 401686.0001 ], [ 175744.0938, 401624.406299999973271 ], [ 175941.5937, 401640.8126 ], [ 176219.9062, 401245.406399999978021 ], [ 176124.0937, 401170.8126 ], [ 176053.203100000013364, 401252.593799999973271 ], [ 175918.9999, 401144.8126 ], [ 175737.5, 401297.906299999973271 ], [ 175716.79680000001099, 401246.8126 ], [ 175604.4062, 401131.0001 ], [ 175475.29680000001099, 401005.3126 ], [ 175434.203100000013364, 400974.5 ], [ 175418.203100000013364, 400926.593899999978021 ], [ 175369.703, 400842.093899999978021 ], [ 175304.79680000001099, 400796.8126 ], [ 175128.4062, 400731.093899999978021 ], [ 175122.203100000013364, 400768.593799999973271 ], [ 175068.9063, 400759.0 ], [ 175005.4063, 400763.3126 ], [ 174993.4063, 400960.3125 ], [ 174720.29680000001099, 400953.8126 ], [ 174388.0, 400959.406399999978021 ], [ 174416.9063, 401146.6875 ], [ 174413.203, 401291.593799999973271 ], [ 174296.0937, 401306.6876 ], [ 174114.0937, 401329.906299999973271 ], [ 174045.4063, 401348.6875 ], [ 173985.9063, 401425.6875 ], [ 173904.5, 401595.8125 ], [ 174018.29680000001099, 401691.1876 ], [ 174246.9062, 401910.8126 ], [ 174349.703100000013364, 402020.093899999978021 ], [ 174440.296899999986636, 402250.6875 ], [ 174471.1775, 402256.8996 ], [ 174453.2353, 402504.5002 ], [ 174519.633299999986775, 402543.557900000014342 ], [ 174554.7851, 402563.086699999985285 ], [ 174582.125399999989895, 402566.9925 ], [ 174597.748499999986961, 402320.929599999974016 ] ] ] ] } },
{ "type": "Feature", "properties": { "buurtcode": "BU07550005", "buurtnaam": "Verspreide huizen Logt en Berkhoek", "pc6_codes": "5427EH, 5427EJ, 5427EK, 5427EL, 5427EM, 5427EN, 5427EP, 5427ER, 5427ES, 5427HD, 5427LC, 5427LD, 5427LE", "wijkcode": "WK075500", "gemeentecode": "GM0755", "gemeentenaam": "Boekel", "oppervlakteLandInHa": 216, "AantalInwoners_5": 660, "Mannen_6": 395, "Vrouwen_7": 260, "HuishoudensTotaal_29": 185, "GemiddeldeHuishoudensgrootte_33": 2.4, "Woningvoorraad_35": 174, "NieuwbouwWoningen_36": 0, "NietWoningvoorraad_37": 34, "NieuwbouwNietWoningen_38": 0, "GemiddeldeWOZWaardeVanWoningen_39": 547, "PercentageEengezinswoning_40": 89, "PercentageTussenwoningEengezins_41": 1, "PercentageHoekwoningEengezins_42": 1, "PercentageTweeOnderEenKapWoningEe_43": 15, "PercentageVrijstaandeWoningEengezins_44": 73, "PercentageMeergezinswoning_45": 11, "Koopwoningen_47": 85, "HuurwoningenTotaal_48": 15, "InBezitWoningcorporatie_49": 0, "InBezitOverigeVerhuurders_50": 15, "BouwjaarMeerDanTienJaarGeleden_51": 88, "BouwjaarAfgelopenTienJaar_52": 12, "GemiddeldeElektriciteitslevering_53": 4190, "GemiddeldeElektriciteitsteruglevering_54": 2370, "GemiddeldAardgasverbruik_55": 1140, "AardgasvrijeWoningen_57": 7, "Aardgaswoningen_58": 73, "WoningenMetZonnestroom_59": 52, "WoningenHoofdzElektrVerwarmd_60": 13, "k_20PersonenMetHoogsteInkomen_80": 19.8, "k_20HuishoudensMetHoogsteInkomen_85": 32.3, "MediaanVermogenVanParticuliereHuish_86": 385.3, "PersonenautoSTotaal_104": 270, "PersonenautoSBrandstofBenzine_105": 205, "PersonenautoSOverigeBrandstof_106": 65, "PersonenautoSPerHuishouden_107": 1.5, "Omgevingsadressendichtheid_121": 131, "AantalInstallatiesBijWoningen_5": 48, "OpgesteldVermogenVanZonnepanelen_6": 424, "installaties_per_woning": 0.27586206896551724, "vermogen_per_woning": 2.4367816091954024, "installaties_per_100_woningen": 27.586206896551722, "vermogen_per_huishouden": 2.291891891891892, "batterijdruk_score": 1232.4, "koop_zon_score": 0.442, "eengezins_zon_score": 0.4628, "betaalkracht_zon_score": 200.356, "overige_brandstof_zon_score": 33.8, "lichte_batterij_kansscore": 0.52154515856147976 }, "geometry": { "type": "MultiPolygon", "coordinates": [ [ [ [ 178118.5937, 400374.8126 ], [ 178619.4999, 400511.8126 ], [ 178719.5835, 400156.070100000011735 ], [ 178710.038, 400153.386 ], [ 178708.454, 400152.941 ], [ 178423.62599999998929, 400072.84499999997206 ], [ 178374.078, 400057.429 ], [ 178257.996000000013737, 400023.539999999979045 ], [ 178159.29, 399994.471000000019558 ], [ 178020.519999999989523, 399953.261 ], [ 177938.511, 399929.416000000026543 ], [ 177846.034000000014203, 399902.962 ], [ 177807.788, 399892.467 ], [ 177790.446999999985565, 399887.518999999971129 ], [ 177710.176, 399864.614 ], [ 177555.106999999989057, 399820.367000000027474 ], [ 177528.334, 399812.333999999973457 ], [ 177527.519, 399815.224999999976717 ], [ 177491.976, 399802.414999999979045 ], [ 177490.431000000011409, 399808.862000000022817 ], [ 177437.700000000011642, 399792.185 ], [ 177438.517, 399787.493000000016764 ], [ 177425.217, 399783.137999999977183 ], [ 177418.943, 399781.083999999973457 ], [ 177419.21, 399777.044999999983702 ], [ 177388.872, 399769.50199999997858 ], [ 177369.5262, 399764.602699999988545 ], [ 177332.318999999988591, 399755.18 ], [ 177329.411, 399754.443000000028405 ], [ 177344.60999999998603, 399728.591000000014901 ], [ 177356.99299999998766, 399707.528 ], [ 177349.416, 399701.238000000012107 ], [ 177326.831, 399681.12699999997858 ], [ 177319.159000000014203, 399676.305999999982305 ], [ 177315.992, 399674.316 ], [ 177310.248, 399673.76500000001397 ], [ 177306.461000000010245, 399675.566999999980908 ], [ 177306.036, 399675.770000000018626 ], [ 177298.055, 399682.509000000020023 ], [ 177293.658, 399686.222 ], [ 177285.329999999987194, 399693.943000000028405 ], [ 177275.51500000001397, 399701.354 ], [ 177268.215999999985797, 399707.038999999989755 ], [ 177261.676, 399711.729999999981374 ], [ 177258.7826, 399713.7891 ], [ 177251.615, 399718.89000000001397 ], [ 177245.071999999985565, 399723.830000000016298 ], [ 177237.79, 399727.76500000001397 ], [ 177226.25, 399732.911000000021886 ], [ 177215.458000000013271, 399738.064000000013039 ], [ 177213.397999999986496, 399738.865999999979977 ], [ 177212.714, 399739.186999999976251 ], [ 177207.684, 399741.244 ], [ 177203.797, 399744.287000000011176 ], [ 177193.519999999989523, 399752.336000000010245 ], [ 177175.943999999988591, 399766.104 ], [ 177162.725, 399780.723 ], [ 177146.498, 399798.667000000015832 ], [ 177130.200000000011642, 399816.69 ], [ 177108.884, 399840.261999999987893 ], [ 177107.229, 399842.093 ], [ 177107.193999999988591, 399842.131 ], [ 177102.611, 399840.715000000025611 ], [ 177098.23499999998603, 399839.363000000012107 ], [ 177098.038999999989755, 399839.303000000014435 ], [ 177097.932999999989988, 399839.270000000018626 ], [ 177093.101, 399837.777 ], [ 177075.647, 399827.188000000023749 ], [ 177074.715, 399826.62300000002142 ], [ 177071.356, 399824.585000000020955 ], [ 177057.155, 399815.96999999997206 ], [ 177056.859, 399815.74900000001071 ], [ 176982.886, 399760.369 ], [ 176982.043, 399762.723 ], [ 176966.517, 399749.728 ], [ 176927.582, 399705.601000000024214 ], [ 176927.356, 399705.34499999997206 ], [ 176916.965, 399693.582 ], [ 176893.946, 399667.526000000012573 ], [ 176874.603, 399645.631 ], [ 176845.138, 399629.143999999971129 ], [ 176834.986, 399623.465000000025611 ], [ 176832.604, 399622.131999999983236 ], [ 176789.347, 399597.928000000014435 ], [ 176786.006, 399596.059 ], [ 176641.688, 399515.793 ], [ 176641.445, 399515.658 ], [ 176636.88, 399513.119 ], [ 176600.0, 399512.284999999974389 ], [ 176380.435, 399506.544999999983702 ], [ 176360.608, 399505.979 ], [ 176341.371000000013737, 399505.400000000023283 ], [ 176292.170000000012806, 399504.07 ], [ 176242.238000000012107, 399502.642999999981839 ], [ 176124.926, 399499.420999999972992 ], [ 176096.837, 399498.189000000013039 ], [ 176069.049999999988358, 399496.343 ], [ 176000.00099999998929, 399491.128000000026077 ], [ 175953.098999999987427, 399487.685 ], [ 175903.229, 399483.87699999997858 ], [ 175853.464, 399480.147 ], [ 175803.545000000012806, 399476.382999999972526 ], [ 175785.6905, 399475.071500000020023 ], [ 175759.0, 399518.406299999973271 ], [ 175744.4063, 399566.1875 ], [ 175722.4063, 399607.0 ], [ 175682.703100000013364, 399644.6875 ], [ 175644.9063, 399677.3125 ], [ 175618.9063, 399699.6875 ], [ 175594.296899999986636, 399725.3125 ], [ 175636.5937, 399778.5001 ], [ 175690.0937, 399811.906399999978021 ], [ 175754.703, 399845.906399999978021 ], [ 175832.4062, 399888.093899999978021 ], [ 175898.203, 399927.1876 ], [ 175963.9999, 399968.1876 ], [ 176005.79680000001099, 399991.5001 ], [ 176016.0937, 400000.0001 ], [ 176453.0938, 400193.3126 ], [ 176429.203, 400608.093899999978021 ], [ 176465.9999, 400602.1876 ], [ 176682.29680000001099, 400629.593899999978021 ], [ 176921.5937, 400641.406399999978021 ], [ 177106.79680000001099, 400669.6876 ], [ 177406.79680000001099, 400712.6876 ], [ 177655.4062, 400797.6876 ], [ 177805.79680000001099, 400905.8126 ], [ 178118.5937, 400374.8126 ] ] ] ] } },
{ "type": "Feature", "properties": { "buurtcode": "BU07550006", "buurtnaam": "Verspreide huizen Arendnest-Zijp", "pc6_codes": "5427AM, 5427AN, 5427EG, 5427EJ, 5427HA, 5427HB, 5427HC, 5427HD, 5427HE, 5427HG, 5427HH, 5427HJ, 5427HK, 5427HL, 5427HM, 5427HN, 5427HP, 5427HR, 5427HS, 5427HT, 5427HV, 5427HW, 5427HX, 5427HZ, 5427KA, 5427KB, 5427KC, 5427KD, 5427KE, 5427KG, 5427KH, 5427LA, 5427LB, 5427LC, 5427RN, 5427SL", "wijkcode": "WK075500", "gemeentecode": "GM0755", "gemeentenaam": "Boekel", "oppervlakteLandInHa": 294, "AantalInwoners_5": 1165, "Mannen_6": 605, "Vrouwen_7": 555, "HuishoudensTotaal_29": 405, "GemiddeldeHuishoudensgrootte_33": 2.9, "Woningvoorraad_35": 412, "NieuwbouwWoningen_36": 28, "NietWoningvoorraad_37": 41, "NieuwbouwNietWoningen_38": 0, "GemiddeldeWOZWaardeVanWoningen_39": 458, "PercentageEengezinswoning_40": 98, "PercentageTussenwoningEengezins_41": 31, "PercentageHoekwoningEengezins_42": 13, "PercentageTweeOnderEenKapWoningEe_43": 18, "PercentageVrijstaandeWoningEengezins_44": 35, "PercentageMeergezinswoning_45": 2, "Koopwoningen_47": 83, "HuurwoningenTotaal_48": 17, "InBezitWoningcorporatie_49": 8, "InBezitOverigeVerhuurders_50": 9, "BouwjaarMeerDanTienJaarGeleden_51": 52, "BouwjaarAfgelopenTienJaar_52": 48, "GemiddeldeElektriciteitslevering_53": 3680, "GemiddeldeElektriciteitsteruglevering_54": 2230, "GemiddeldAardgasverbruik_55": 880, "AardgasvrijeWoningen_57": 11, "Aardgaswoningen_58": 69, "WoningenMetZonnestroom_59": 68, "WoningenHoofdzElektrVerwarmd_60": 22, "k_20PersonenMetHoogsteInkomen_80": 21.8, "k_20HuishoudensMetHoogsteInkomen_85": 32.9, "MediaanVermogenVanParticuliereHuish_86": 345.2, "PersonenautoSTotaal_104": 540, "PersonenautoSBrandstofBenzine_105": 400, "PersonenautoSOverigeBrandstof_106": 140, "PersonenautoSPerHuishouden_107": 1.3, "Omgevingsadressendichtheid_121": 509, "AantalInstallatiesBijWoningen_5": 207, "OpgesteldVermogenVanZonnepanelen_6": 1017, "installaties_per_woning": 0.50242718446601942, "vermogen_per_woning": 2.4684466019417477, "installaties_per_100_woningen": 50.242718446601941, "vermogen_per_huishouden": 2.5111111111111111, "batterijdruk_score": 1516.4, "koop_zon_score": 0.5644, "eengezins_zon_score": 0.6664, "betaalkracht_zon_score": 234.736, "overige_brandstof_zon_score": 95.2, "lichte_batterij_kansscore": 0.56482808932478101 }, "geometry": { "type": "MultiPolygon", "coordinates": [ [ [ [ 176983.5, 402353.093899999978021 ], [ 177047.796899999986636, 402179.6876 ], [ 177106.0938, 401879.593899999978021 ], [ 177345.5937, 401935.906399999978021 ], [ 177363.296899999986636, 401678.593999999982771 ], [ 177436.9999, 401678.3126 ], [ 177442.0938, 401523.1876 ], [ 177805.79680000001099, 400905.8126 ], [ 177655.4062, 400797.6876 ], [ 177406.79680000001099, 400712.6876 ], [ 177106.79680000001099, 400669.6876 ], [ 176921.5937, 400641.406399999978021 ], [ 176682.29680000001099, 400629.593899999978021 ], [ 176465.9999, 400602.1876 ], [ 176429.203, 400608.093899999978021 ], [ 176318.29680000001099, 400625.906399999978021 ], [ 176142.9999, 400669.593799999973271 ], [ 175933.796899999986636, 400741.406299999973271 ], [ 175686.4063, 400868.8125 ], [ 175475.29680000001099, 401005.3126 ], [ 175604.4062, 401131.0001 ], [ 175716.79680000001099, 401246.8126 ], [ 175737.5, 401297.906299999973271 ], [ 175918.9999, 401144.8126 ], [ 176053.203100000013364, 401252.593799999973271 ], [ 176124.0937, 401170.8126 ], [ 176219.9062, 401245.406399999978021 ], [ 175941.5937, 401640.8126 ], [ 175744.0938, 401624.406299999973271 ], [ 175597.0937, 401686.0001 ], [ 175363.0937, 401701.0001 ], [ 175274.703100000013364, 401710.093799999973271 ], [ 175190.5725, 401743.9498 ], [ 175195.187199999985751, 401837.083600000012666 ], [ 175164.6262, 401837.083600000012666 ], [ 175189.703100000013364, 402011.8126 ], [ 175188.4999, 402107.8126 ], [ 175188.3249, 402108.2315 ], [ 175203.3934, 402197.273999999975786 ], [ 175641.29680000001099, 402174.1876 ], [ 175916.9999, 402180.6876 ], [ 175980.29680000001099, 402201.1876 ], [ 176013.703, 402220.6876 ], [ 176087.29680000001099, 402227.906399999978021 ], [ 176146.9062, 402238.1876 ], [ 176361.9062, 402321.5001 ], [ 176607.4999, 402395.0001 ], [ 176987.0, 402459.8126 ], [ 176983.5, 402353.093899999978021 ] ] ] ] } },
{ "type": "Feature", "properties": { "buurtcode": "BU07550007", "buurtnaam": "Verspreide huizen Zandhoek en Peelstraat", "pc6_codes": "5427ED, 5427EE, 5427EG, 5427ES, 5427ET, 5427EV, 5427EW, 5427GB, 5427GC, 5427GE, 5427GK, 5427GL, 5427PD, 5427PG, 5427PJ, 5427PK, 5427PL, 5427PM, 5427PN, 5427SL", "wijkcode": "WK075500", "gemeentecode": "GM0755", "gemeentenaam": "Boekel", "oppervlakteLandInHa": 487, "AantalInwoners_5": 640, "Mannen_6": 335, "Vrouwen_7": 310, "HuishoudensTotaal_29": 250, "GemiddeldeHuishoudensgrootte_33": 2.6, "Woningvoorraad_35": 248, "NieuwbouwWoningen_36": 5, "NietWoningvoorraad_37": 42, "NieuwbouwNietWoningen_38": 0, "GemiddeldeWOZWaardeVanWoningen_39": 469, "PercentageEengezinswoning_40": 94, "PercentageTussenwoningEengezins_41": 19, "PercentageHoekwoningEengezins_42": 8, "PercentageTweeOnderEenKapWoningEe_43": 18, "PercentageVrijstaandeWoningEengezins_44": 49, "PercentageMeergezinswoning_45": 6, "Koopwoningen_47": 71, "HuurwoningenTotaal_48": 29, "InBezitWoningcorporatie_49": 0, "InBezitOverigeVerhuurders_50": 29, "BouwjaarMeerDanTienJaarGeleden_51": 53, "BouwjaarAfgelopenTienJaar_52": 47, "GemiddeldeElektriciteitslevering_53": 3980, "GemiddeldeElektriciteitsteruglevering_54": 2750, "GemiddeldAardgasverbruik_55": 860, "AardgasvrijeWoningen_57": 26, "Aardgaswoningen_58": 35, "WoningenMetZonnestroom_59": 63, "WoningenHoofdzElektrVerwarmd_60": 36, "k_20PersonenMetHoogsteInkomen_80": 23.2, "k_20HuishoudensMetHoogsteInkomen_85": 36.6, "MediaanVermogenVanParticuliereHuish_86": 374.1, "PersonenautoSTotaal_104": 335, "PersonenautoSBrandstofBenzine_105": 250, "PersonenautoSOverigeBrandstof_106": 85, "PersonenautoSPerHuishouden_107": 1.4, "Omgevingsadressendichtheid_121": 409, "AantalInstallatiesBijWoningen_5": 99, "OpgesteldVermogenVanZonnepanelen_6": 701, "installaties_per_woning": 0.39919354838709675, "vermogen_per_woning": 2.8266129032258065, "installaties_per_100_woningen": 39.919354838709673, "vermogen_per_huishouden": 2.804, "batterijdruk_score": 1732.5, "koop_zon_score": 0.4473, "eengezins_zon_score": 0.5922, "betaalkracht_zon_score": 235.683, "overige_brandstof_zon_score": 53.55, "lichte_batterij_kansscore": 0.5368648588092787 }, "geometry": { "type": "MultiPolygon", "coordinates": [ [ [ [ 173206.0937, 401292.3126 ], [ 173387.4062, 401272.906399999978021 ], [ 173581.29680000001099, 401260.593899999978021 ], [ 173789.9062, 401247.1876 ], [ 173977.29680000001099, 401299.6876 ], [ 174045.4063, 401348.6875 ], [ 174114.0937, 401329.906299999973271 ], [ 174296.0937, 401306.6876 ], [ 174413.203, 401291.593799999973271 ], [ 174416.9063, 401146.6875 ], [ 174388.0, 400959.406399999978021 ], [ 174720.29680000001099, 400953.8126 ], [ 174993.4063, 400960.3125 ], [ 175005.4063, 400763.3126 ], [ 175068.9063, 400759.0 ], [ 175122.203100000013364, 400768.593799999973271 ], [ 175128.4062, 400731.093899999978021 ], [ 175304.79680000001099, 400796.8126 ], [ 175369.703, 400842.093899999978021 ], [ 175418.203100000013364, 400926.593899999978021 ], [ 175434.203100000013364, 400974.5 ], [ 175475.29680000001099, 401005.3126 ], [ 175686.4063, 400868.8125 ], [ 175933.796899999986636, 400741.406299999973271 ], [ 176142.9999, 400669.593799999973271 ], [ 176318.29680000001099, 400625.906399999978021 ], [ 176429.203, 400608.093899999978021 ], [ 176453.0938, 400193.3126 ], [ 176016.0937, 400000.0001 ], [ 176005.79680000001099, 399991.5001 ], [ 175963.9999, 399968.1876 ], [ 175898.203, 399927.1876 ], [ 175832.4062, 399888.093899999978021 ], [ 175754.703, 399845.906399999978021 ], [ 175690.0937, 399811.906399999978021 ], [ 175636.5937, 399778.5001 ], [ 175594.296899999986636, 399725.3125 ], [ 175618.9063, 399699.6875 ], [ 175644.9063, 399677.3125 ], [ 175682.703100000013364, 399644.6875 ], [ 175722.4063, 399607.0 ], [ 175744.4063, 399566.1875 ], [ 175759.0, 399518.406299999973271 ], [ 175785.6905, 399475.071500000020023 ], [ 175753.695, 399472.721000000019558 ], [ 175703.138, 399468.858 ], [ 175700.785, 399468.708999999973457 ], [ 175687.701, 399467.386999999987893 ], [ 175687.005, 399467.316999999980908 ], [ 175676.695799999986775, 399466.78279999998631 ], [ 175640.748, 399464.919999999983702 ], [ 175593.646, 399462.430999999982305 ], [ 175574.54, 399461.467 ], [ 175557.908, 399461.284999999974389 ], [ 175541.238000000012107, 399462.495 ], [ 175515.423, 399465.608 ], [ 175498.5, 399466.435 ], [ 175490.905, 399466.207 ], [ 175481.888, 399465.936999999976251 ], [ 175481.579, 399465.928000000014435 ], [ 175441.858, 399462.496999999973923 ], [ 175404.234, 399459.232000000018161 ], [ 175392.575000000011642, 399457.721000000019558 ], [ 175381.038, 399455.99 ], [ 175311.506, 399443.582999999984168 ], [ 175291.154, 399439.934 ], [ 175283.229, 399438.74 ], [ 175275.177, 399438.104999999981374 ], [ 175206.294, 399436.059 ], [ 175198.774, 399435.739 ], [ 175098.733, 399430.449000000022352 ], [ 175049.017, 399427.740999999979977 ], [ 174995.862, 399424.293 ], [ 174933.980000000010477, 399421.357000000018161 ], [ 174806.451, 399414.707 ], [ 174752.173, 399411.732000000018161 ], [ 174643.609, 399405.982000000018161 ], [ 174584.123, 399403.159999999974389 ], [ 174492.851, 399398.135 ], [ 174479.161, 399397.381 ], [ 174478.701, 399397.327 ], [ 174417.259, 399390.07 ], [ 174411.238000000012107, 399389.746999999973923 ], [ 174393.753, 399392.729 ], [ 174387.592, 399391.836000000010245 ], [ 174349.674999999988358, 399389.837 ], [ 174272.022999999986496, 399386.153 ], [ 174214.19, 399382.210000000020955 ], [ 174166.666999999986729, 399378.856000000028871 ], [ 174144.998, 399377.327 ], [ 174120.084, 399375.346000000019558 ], [ 174098.468, 399375.520000000018626 ], [ 174007.689000000013039, 399370.212999999988824 ], [ 173968.839, 399370.971000000019558 ], [ 173948.268000000010943, 399365.994 ], [ 173939.409000000014203, 399371.137999999977183 ], [ 173933.258, 399374.484 ], [ 173927.212, 399375.397999999986496 ], [ 173921.604, 399375.532 ], [ 173892.184, 399375.737000000022817 ], [ 173886.327, 399377.23499999998603 ], [ 173843.913999999989755, 399388.085000000020955 ], [ 173835.775, 399404.066999999980908 ], [ 173808.864, 399402.789999999979045 ], [ 173772.655999999988126, 399394.271 ], [ 173760.261, 399394.082999999984168 ], [ 173749.577, 399395.777 ], [ 173730.996000000013737, 399384.431999999971595 ], [ 173725.401000000012573, 399381.053000000014435 ], [ 173724.312, 399380.174999999988358 ], [ 173716.518000000010943, 399371.604 ], [ 173711.553000000014435, 399370.599999999976717 ], [ 173664.799, 399361.150000000023283 ], [ 173447.909000000014203, 399323.65500000002794 ], [ 173363.347, 399309.641 ], [ 173340.723999999987427, 399305.767999999981839 ], [ 173319.937, 399305.457999999984168 ], [ 173317.824, 399305.425999999977648 ], [ 173317.665, 399304.713999999978114 ], [ 173308.831, 399304.545999999972992 ], [ 173300.103, 399340.272 ], [ 173294.141, 399361.99800000002142 ], [ 173285.226, 399393.238000000012107 ], [ 173276.242, 399425.26500000001397 ], [ 173266.685999999986961, 399460.558000000019092 ], [ 173259.203, 399487.343999999982771 ], [ 173250.712, 399517.43 ], [ 173245.582, 399535.804 ], [ 173242.596, 399548.59499999997206 ], [ 173240.606999999989057, 399558.62599999998929 ], [ 173239.894999999989523, 399564.332 ], [ 173239.367, 399569.517 ], [ 173239.085, 399582.397999999986496 ], [ 173238.669, 399596.74800000002142 ], [ 173239.562, 399616.368000000016764 ], [ 173241.307, 399630.028 ], [ 173241.774, 399633.688000000023749 ], [ 173246.616, 399676.800999999977648 ], [ 173247.544, 399684.669999999983702 ], [ 173248.881, 399696.0 ], [ 173251.579999999987194, 399719.348 ], [ 173252.877, 399729.239 ], [ 173253.642, 399735.068000000028405 ], [ 173255.177, 399747.93 ], [ 173255.96, 399754.488000000012107 ], [ 173257.396, 399768.278999999980442 ], [ 173259.394, 399787.635 ], [ 173260.69, 399806.786000000021886 ], [ 173261.38, 399819.60999999998603 ], [ 173261.21, 399825.538 ], [ 173261.112, 399828.924999999988358 ], [ 173260.209, 399840.168 ], [ 173257.027, 399856.043 ], [ 173254.73499999998603, 399866.212 ], [ 173253.449, 399871.919999999983702 ], [ 173249.139, 399887.083999999973457 ], [ 173244.03, 399901.06 ], [ 173237.407, 399917.104 ], [ 173225.596, 399946.793 ], [ 173222.712, 399953.879000000015367 ], [ 173207.505, 399991.242000000027474 ], [ 173204.919, 399997.593 ], [ 173197.519999999989523, 400016.346000000019558 ], [ 173183.78, 400051.153 ], [ 173177.479, 400066.891 ], [ 173187.62599999998929, 400071.316 ], [ 173188.142, 400073.870999999984633 ], [ 173188.122, 400081.754000000015367 ], [ 173188.081, 400098.651000000012573 ], [ 173167.222, 400155.900000000023283 ], [ 173168.101, 400156.26 ], [ 173167.722, 400158.788999999989755 ], [ 173137.028, 400363.522999999986496 ], [ 173135.585, 400373.145000000018626 ], [ 173135.144, 400376.115 ], [ 173131.559, 400400.0 ], [ 173116.567000000010012, 400500.0 ], [ 173107.791, 400558.560999999986961 ], [ 173057.509, 400735.723999999987427 ], [ 173057.41, 400736.071999999985565 ], [ 173053.547, 400749.685 ], [ 173033.884, 400818.968 ], [ 173029.829999999987194, 400833.25 ], [ 173000.0, 400938.354999999981374 ], [ 172955.891, 401093.767 ], [ 172952.234, 401106.653999999980442 ], [ 172936.09, 401163.538999999989755 ], [ 172936.074, 401163.59499999997206 ], [ 172909.481, 401257.295999999972992 ], [ 172902.123, 401283.223 ], [ 172889.077, 401332.957999999984168 ], [ 172888.359, 401335.393999999971129 ], [ 172888.170000000012806, 401336.037000000011176 ], [ 172883.331, 401352.468999999982771 ], [ 172881.941499999986263, 401357.180700000026263 ], [ 173206.0937, 401292.3126 ] ] ] ] } },
{ "type": "Feature", "properties": { "buurtcode": "BU07550008", "buurtnaam": "Verspreide huizen Molenwijk, Elzen en Neerbroek", "pc6_codes": "5427BP, 5427BR, 5427BT, 5427BV, 5427BW, 5427CG, 5427DB, 5427DE, 5427DG, 5427DH, 5427NA, 5427PC, 5427PE, 5427PG, 5427PH, 5427PP, 5427PR, 5427PS, 5427PT, 5427PV, 5427PW, 5427PX, 5427PZ, 5427RA, 5427RB, 5427RC, 5427RD, 5427RE, 5427RG, 5427RH", "wijkcode": "WK075500", "gemeentecode": "GM0755", "gemeentenaam": "Boekel", "oppervlakteLandInHa": 656, "AantalInwoners_5": 925, "Mannen_6": 465, "Vrouwen_7": 465, "HuishoudensTotaal_29": 335, "GemiddeldeHuishoudensgrootte_33": 2.7, "Woningvoorraad_35": 329, "NieuwbouwWoningen_36": 5, "NietWoningvoorraad_37": 98, "NieuwbouwNietWoningen_38": 1, "GemiddeldeWOZWaardeVanWoningen_39": 464, "PercentageEengezinswoning_40": 98, "PercentageTussenwoningEengezins_41": 14, "PercentageHoekwoningEengezins_42": 7, "PercentageTweeOnderEenKapWoningEe_43": 21, "PercentageVrijstaandeWoningEengezins_44": 56, "PercentageMeergezinswoning_45": 2, "Koopwoningen_47": 78, "HuurwoningenTotaal_48": 22, "InBezitWoningcorporatie_49": 5, "InBezitOverigeVerhuurders_50": 16, "BouwjaarMeerDanTienJaarGeleden_51": 86, "BouwjaarAfgelopenTienJaar_52": 14, "GemiddeldeElektriciteitslevering_53": 3930, "GemiddeldeElektriciteitsteruglevering_54": 2120, "GemiddeldAardgasverbruik_55": 1120, "AardgasvrijeWoningen_57": 8, "Aardgaswoningen_58": 76, "WoningenMetZonnestroom_59": 51, "WoningenHoofdzElektrVerwarmd_60": 13, "k_20PersonenMetHoogsteInkomen_80": 18.9, "k_20HuishoudensMetHoogsteInkomen_85": 32.2, "MediaanVermogenVanParticuliereHuish_86": 429.3, "PersonenautoSTotaal_104": 540, "PersonenautoSBrandstofBenzine_105": 425, "PersonenautoSOverigeBrandstof_106": 115, "PersonenautoSPerHuishouden_107": 1.6, "Omgevingsadressendichtheid_121": 339, "AantalInstallatiesBijWoningen_5": 103, "OpgesteldVermogenVanZonnepanelen_6": 695, "installaties_per_woning": 0.31306990881458968, "vermogen_per_woning": 2.1124620060790273, "installaties_per_100_woningen": 31.306990881458969, "vermogen_per_huishouden": 2.0746268656716418, "batterijdruk_score": 1081.2, "koop_zon_score": 0.3978, "eengezins_zon_score": 0.4998, "betaalkracht_zon_score": 218.943, "overige_brandstof_zon_score": 58.65, "lichte_batterij_kansscore": 0.51721237454894264 }, "geometry": { "type": "MultiPolygon", "coordinates": [ [ [ [ 174218.590999999985797, 404478.734 ], [ 174222.209, 404459.305999999982305 ], [ 174225.50099999998929, 404440.256999999983236 ], [ 174228.478, 404423.03000000002794 ], [ 174229.68, 404423.316999999980908 ], [ 174230.986, 404423.441 ], [ 174237.261999999987893, 404424.036000000021886 ], [ 174247.682, 404424.694000000017695 ], [ 174336.121000000013737, 404435.356000000028871 ], [ 174345.0195, 404436.411399999982677 ], [ 174362.0, 404156.906399999978021 ], [ 174387.703100000013364, 404030.6876 ], [ 174423.9062, 403977.6876 ], [ 174498.9999, 403908.6876 ], [ 174552.0937, 403828.593899999978021 ], [ 174608.703, 403724.406399999978021 ], [ 174710.5938, 403283.906399999978021 ], [ 174847.9797, 402576.743000000016764 ], [ 174988.6428, 402580.349800000025425 ], [ 175002.6476, 402232.232100000022911 ], [ 174931.647999999986496, 402346.205100000021048 ], [ 174896.450099999987287, 402327.2523 ], [ 174852.7946, 402303.745500000019092 ], [ 174805.203, 402388.0001 ], [ 174719.703, 402476.593899999978021 ], [ 174663.9062, 402462.593799999973271 ], [ 174639.9063, 402293.8126 ], [ 174625.699, 402290.438100000028498 ], [ 174597.748499999986961, 402320.929599999974016 ], [ 174582.125399999989895, 402566.9925 ], [ 174554.7851, 402563.086699999985285 ], [ 174519.633299999986775, 402543.557900000014342 ], [ 174453.2353, 402504.5002 ], [ 174471.1775, 402256.8996 ], [ 174440.296899999986636, 402250.6875 ], [ 174349.703100000013364, 402020.093899999978021 ], [ 174246.9062, 401910.8126 ], [ 174018.29680000001099, 401691.1876 ], [ 173904.5, 401595.8125 ], [ 173985.9063, 401425.6875 ], [ 174045.4063, 401348.6875 ], [ 173977.29680000001099, 401299.6876 ], [ 173789.9062, 401247.1876 ], [ 173581.29680000001099, 401260.593899999978021 ], [ 173387.4062, 401272.906399999978021 ], [ 173206.0937, 401292.3126 ], [ 172881.941499999986263, 401357.180700000026263 ], [ 172879.69, 401364.815 ], [ 172879.409000000014203, 401365.768999999971129 ], [ 172868.685, 401402.196999999985565 ], [ 172868.484, 401402.902 ], [ 172864.866, 401415.614 ], [ 172862.924, 401422.436999999976251 ], [ 172861.942000000010012, 401425.885 ], [ 172848.863000000012107, 401474.271 ], [ 172840.117, 401506.62400000001071 ], [ 172829.75, 401544.972 ], [ 172817.413, 401590.609 ], [ 172816.739, 401593.104 ], [ 172816.6, 401593.619 ], [ 172745.787000000011176, 401846.838999999978114 ], [ 172730.99299999998766, 401899.739 ], [ 172716.317000000010012, 401952.223 ], [ 172715.973, 401953.398999999975786 ], [ 172715.297, 401955.713999999978114 ], [ 172712.234, 401960.94 ], [ 172710.112, 401964.340000000025611 ], [ 172686.12, 402002.791000000026543 ], [ 172624.071999999985565, 402100.818000000028405 ], [ 172619.707, 402107.757999999972526 ], [ 172619.09, 402108.74 ], [ 172298.459, 402617.451 ], [ 172118.923, 402902.302000000025146 ], [ 172070.75099999998929, 402978.731000000028871 ], [ 172010.361, 403085.400000000023283 ], [ 171886.480000000010477, 403312.771 ], [ 171864.200000000011642, 403354.191999999980908 ], [ 171845.557, 403391.151000000012573 ], [ 171839.170000000012806, 403396.292000000015832 ], [ 171833.41, 403396.541000000026543 ], [ 171833.00099999998929, 403396.444000000017695 ], [ 171825.84, 403394.75099999998929 ], [ 171818.19, 403396.191 ], [ 171815.412000000011176, 403397.826 ], [ 171815.1, 403398.01 ], [ 171808.285, 403415.534999999974389 ], [ 171805.93, 403421.592 ], [ 171802.043, 403429.337999999988824 ], [ 171770.173, 403492.843 ], [ 171760.549999999988358, 403512.022 ], [ 171751.16, 403532.07 ], [ 171748.122, 403541.117000000027474 ], [ 171737.74, 403572.031000000017229 ], [ 171737.706, 403575.954000000027008 ], [ 171737.63, 403584.631 ], [ 171735.74, 403588.352000000013504 ], [ 171719.38, 403612.542000000015832 ], [ 171718.579999999987194, 403631.381999999983236 ], [ 171712.049999999988358, 403641.731000000028871 ], [ 171698.65, 403654.092 ], [ 171677.158, 403679.968 ], [ 171662.28, 403697.881 ], [ 171649.420000000012806, 403720.409999999974389 ], [ 171636.200000000011642, 403740.409999999974389 ], [ 171628.35999999998603, 403754.761 ], [ 171607.049999999988358, 403795.772 ], [ 171581.62, 403852.722 ], [ 171575.692000000010012, 403864.474999999976717 ], [ 171578.065, 403865.326 ], [ 171585.946999999985565, 403866.599999999976717 ], [ 171596.35, 403869.412000000011176 ], [ 171605.005, 403868.686999999976251 ], [ 171635.089, 403866.316 ], [ 171643.166, 403865.348 ], [ 171647.582, 403863.952 ], [ 171676.583000000013271, 403840.174 ], [ 171678.949, 403839.805999999982305 ], [ 171712.74, 403870.033 ], [ 171750.279, 403902.993000000016764 ], [ 171758.702, 403909.01400000002468 ], [ 171767.615, 403913.819000000017695 ], [ 171822.291, 403936.466000000014901 ], [ 171831.74, 403939.543 ], [ 171868.674, 403949.408999999985099 ], [ 171916.408, 403963.931999999971595 ], [ 171964.24, 403978.691 ], [ 172006.465999999985797, 403992.571999999985565 ], [ 172053.983, 404009.224999999976717 ], [ 172054.981, 404009.99800000002142 ], [ 172057.329, 404011.816999999980908 ], [ 172066.041, 404019.099999999976717 ], [ 172067.222, 404020.148999999975786 ], [ 172111.453, 404059.424 ], [ 172118.527, 404064.549 ], [ 172126.935, 404067.365999999979977 ], [ 172156.954999999987194, 404075.272999999986496 ], [ 172187.441, 404083.143999999971129 ], [ 172198.602000000013504, 404084.924999999988358 ], [ 172209.901000000012573, 404085.131 ], [ 172242.723, 404082.659999999974389 ], [ 172276.309, 404084.340000000025611 ], [ 172326.166999999986729, 404086.329000000027008 ], [ 172375.889, 404088.615 ], [ 172425.695, 404091.358 ], [ 172440.098, 404091.253000000026077 ], [ 172454.54, 404091.852000000013504 ], [ 172494.064000000013039, 404090.934 ], [ 172533.845, 404090.12699999997858 ], [ 172548.324, 404090.425999999977648 ], [ 172561.571999999985565, 404090.927000000025146 ], [ 172571.223, 404091.729 ], [ 172634.818, 404097.924999999988358 ], [ 172646.37, 404100.391 ], [ 172693.465999999985797, 404113.941 ], [ 172708.745, 404117.093 ], [ 172716.777, 404116.042000000015832 ], [ 172720.904, 404116.342 ], [ 172725.951, 404116.451 ], [ 172750.818, 404117.031000000017229 ], [ 172789.147, 404117.196 ], [ 172869.192000000010012, 404118.309 ], [ 172923.468, 404119.152 ], [ 172966.18, 404119.568000000028405 ], [ 172985.72, 404119.759000000020023 ], [ 172995.651000000012573, 404120.330000000016298 ], [ 173058.415, 404122.261 ], [ 173121.288999999989755, 404121.079000000027008 ], [ 173171.502, 404123.10999999998603 ], [ 173221.353, 404125.23499999998603 ], [ 173265.384, 404127.386 ], [ 173270.885, 404131.653 ], [ 173273.631, 404133.424 ], [ 173277.321999999985565, 404136.294 ], [ 173279.358, 404143.044 ], [ 173283.87400000001071, 404184.25 ], [ 173285.835, 404205.965000000025611 ], [ 173286.954999999987194, 404234.365 ], [ 173287.883, 404235.979 ], [ 173290.003999999986263, 404236.950000000011642 ], [ 173295.333000000013271, 404237.456 ], [ 173342.829, 404238.669999999983702 ], [ 173383.277, 404239.930999999982305 ], [ 173429.138, 404250.26 ], [ 173430.342, 404250.568000000028405 ], [ 173440.412000000011176, 404253.153 ], [ 173484.50700000001234, 404265.702 ], [ 173527.75700000001234, 404278.087999999988824 ], [ 173571.775, 404290.571999999985565 ], [ 173598.008, 404298.162000000011176 ], [ 173672.340999999985797, 404319.158 ], [ 173711.258, 404330.196999999985565 ], [ 173758.339, 404343.51 ], [ 173765.242, 404346.431999999971595 ], [ 173766.057, 404348.24900000001071 ], [ 173765.529, 404353.495 ], [ 173759.467, 404385.245999999984633 ], [ 173759.258, 404386.341000000014901 ], [ 173762.711000000010245, 404387.166000000026543 ], [ 173854.49900000001071, 404409.103 ], [ 173918.931000000011409, 404424.50199999997858 ], [ 173933.407, 404427.962 ], [ 173952.967, 404432.636999999987893 ], [ 174214.62400000001071, 404495.289999999979045 ], [ 174218.590999999985797, 404478.734 ] ] ] ] } },
{ "type": "Feature", "properties": { "buurtcode": "BU07550009", "buurtnaam": "Verspreide huizen Bovenstehuis en Peelsehuis", "pc6_codes": "5427AS, 5427LN, 5427LP, 5427LR, 5427LS, 5427MA, 5427MB, 5427MC, 5427PW, 5427PX, 5427PZ, 5427RH, 5427RJ, 5427RK, 5427RL, 5427RM, 5427RN", "wijkcode": "WK075500", "gemeentecode": "GM0755", "gemeentenaam": "Boekel", "oppervlakteLandInHa": 508, "AantalInwoners_5": 390, "Mannen_6": 195, "Vrouwen_7": 190, "HuishoudensTotaal_29": 130, "GemiddeldeHuishoudensgrootte_33": 2.9, "Woningvoorraad_35": 137, "NieuwbouwWoningen_36": 26, "NietWoningvoorraad_37": 36, "NieuwbouwNietWoningen_38": 0, "GemiddeldeWOZWaardeVanWoningen_39": 535, "PercentageEengezinswoning_40": 94, "PercentageTussenwoningEengezins_41": 0, "PercentageHoekwoningEengezins_42": 0, "PercentageTweeOnderEenKapWoningEe_43": 8, "PercentageVrijstaandeWoningEengezins_44": 86, "PercentageMeergezinswoning_45": 6, "Koopwoningen_47": 87, "HuurwoningenTotaal_48": 13, "InBezitWoningcorporatie_49": 0, "InBezitOverigeVerhuurders_50": 13, "BouwjaarMeerDanTienJaarGeleden_51": 86, "BouwjaarAfgelopenTienJaar_52": 14, "GemiddeldeElektriciteitslevering_53": 4650, "GemiddeldeElektriciteitsteruglevering_54": 2900, "GemiddeldAardgasverbruik_55": 1230, "AardgasvrijeWoningen_57": 11, "Aardgaswoningen_58": 71, "WoningenMetZonnestroom_59": 54, "WoningenHoofdzElektrVerwarmd_60": 16, "k_20PersonenMetHoogsteInkomen_80": 27.6, "k_20HuishoudensMetHoogsteInkomen_85": 48.9, "MediaanVermogenVanParticuliereHuish_86": 655.9, "PersonenautoSTotaal_104": 210, "PersonenautoSBrandstofBenzine_105": 150, "PersonenautoSOverigeBrandstof_106": 65, "PersonenautoSPerHuishouden_107": 1.6, "Omgevingsadressendichtheid_121": 172, "AantalInstallatiesBijWoningen_5": 35, "OpgesteldVermogenVanZonnepanelen_6": 313, "installaties_per_woning": 0.25547445255474455, "vermogen_per_woning": 2.2846715328467155, "installaties_per_100_woningen": 25.547445255474454, "vermogen_per_huishouden": 2.4076923076923076, "batterijdruk_score": 1566.0, "koop_zon_score": 0.4698, "eengezins_zon_score": 0.5076, "betaalkracht_zon_score": 354.186, "overige_brandstof_zon_score": 35.1, "lichte_batterij_kansscore": 0.55484097385729503 }, "geometry": { "type": "MultiPolygon", "coordinates": [ [ [ [ 175379.052, 404504.223999999987427 ], [ 175379.147, 404503.511999999987893 ], [ 175388.907, 404430.400000000023283 ], [ 175388.965999999985797, 404429.956 ], [ 175397.028, 404369.746999999973923 ], [ 175465.638, 404377.712 ], [ 175537.077, 404386.093 ], [ 175538.049999999988358, 404386.207 ], [ 175637.324, 404397.854 ], [ 175656.068, 404400.053000000014435 ], [ 175681.051, 404403.185 ], [ 175683.848, 404404.217 ], [ 175700.582, 404404.789999999979045 ], [ 175712.24, 404404.822999999974854 ], [ 175734.378999999986263, 404405.207 ], [ 176093.812, 404346.989 ], [ 176093.923, 404346.971000000019558 ], [ 176158.748, 404336.457 ], [ 176158.847, 404336.441 ], [ 176486.853, 404282.287000000011176 ], [ 176611.601, 404261.691999999980908 ], [ 177056.894, 404188.175999999977648 ], [ 177069.883, 404186.032 ], [ 177237.193, 404158.418 ], [ 177298.574499999987893, 404148.286399999982677 ], [ 177254.5938, 403882.906399999978021 ], [ 177147.296899999986636, 403411.8126 ], [ 177129.5938, 403293.3126 ], [ 177115.796899999986636, 403020.406399999978021 ], [ 177005.703, 403034.3126 ], [ 176987.0, 402459.8126 ], [ 176607.4999, 402395.0001 ], [ 176361.9062, 402321.5001 ], [ 176146.9062, 402238.1876 ], [ 176087.29680000001099, 402227.906399999978021 ], [ 176013.703, 402220.6876 ], [ 175980.29680000001099, 402201.1876 ], [ 175916.9999, 402180.6876 ], [ 175641.29680000001099, 402174.1876 ], [ 175203.3934, 402197.273999999975786 ], [ 175149.9062, 402200.093899999978021 ], [ 175006.257600000011735, 402226.437199999985751 ], [ 175002.6476, 402232.232100000022911 ], [ 174988.6428, 402580.349800000025425 ], [ 174847.9797, 402576.743000000016764 ], [ 174710.5938, 403283.906399999978021 ], [ 174608.703, 403724.406399999978021 ], [ 174552.0937, 403828.593899999978021 ], [ 174498.9999, 403908.6876 ], [ 174423.9062, 403977.6876 ], [ 174387.703100000013364, 404030.6876 ], [ 174362.0, 404156.906399999978021 ], [ 174345.0195, 404436.411399999982677 ], [ 174371.886, 404439.598 ], [ 174405.877, 404441.837 ], [ 174407.162000000011176, 404441.919 ], [ 174444.033, 404444.26500000001397 ], [ 174474.905999999988126, 404446.229 ], [ 174497.115, 404447.642 ], [ 174681.907, 404459.397999999986496 ], [ 174711.321999999985565, 404461.075000000011642 ], [ 174761.472, 404464.24800000002142 ], [ 174765.57, 404402.202999999979511 ], [ 174770.979, 404320.316 ], [ 174771.25700000001234, 404316.145000000018626 ], [ 174878.323, 404323.098 ], [ 174881.978, 404325.397999999986496 ], [ 174882.318999999988591, 404325.613000000012107 ], [ 174880.036, 404362.00199999997858 ], [ 174878.442000000010012, 404387.429 ], [ 174877.458000000013271, 404403.131 ], [ 174879.131, 404405.675999999977648 ], [ 174883.336000000010245, 404405.957 ], [ 175049.21, 404417.060999999986961 ], [ 175089.69, 404419.770000000018626 ], [ 175109.454999999987194, 404421.093 ], [ 175278.877, 404431.745999999984633 ], [ 175282.017, 404433.036000000021886 ], [ 175286.114, 404435.652 ], [ 175378.533, 404508.112000000022817 ], [ 175379.052, 404504.223999999987427 ] ] ] ] } },
{ "type": "Feature", "properties": { "buurtcode": "BU07550100", "buurtnaam": "Venhorst", "pc6_codes": "5428GA, 5428GB, 5428GE, 5428GG, 5428GH, 5428GJ, 5428GK, 5428GL, 5428GM, 5428GN, 5428GP, 5428GR, 5428GS, 5428GT, 5428LH, 5428LJ, 5428LK, 5428LL, 5428NK, 5428NL, 5428NM, 5428NP, 5428NW, 5428PA, 5428PB, 5428PC, 5428PD, 5428PE, 5428PG, 5428PH, 5428PJ", "wijkcode": "WK075501", "gemeentecode": "GM0755", "gemeentenaam": "Boekel", "oppervlakteLandInHa": 63, "AantalInwoners_5": 1150, "Mannen_6": 590, "Vrouwen_7": 555, "HuishoudensTotaal_29": 460, "GemiddeldeHuishoudensgrootte_33": 2.5, "Woningvoorraad_35": 460, "NieuwbouwWoningen_36": 6, "NietWoningvoorraad_37": 31, "NieuwbouwNietWoningen_38": 0, "GemiddeldeWOZWaardeVanWoningen_39": 396, "PercentageEengezinswoning_40": 92, "PercentageTussenwoningEengezins_41": 12, "PercentageHoekwoningEengezins_42": 11, "PercentageTweeOnderEenKapWoningEe_43": 22, "PercentageVrijstaandeWoningEengezins_44": 47, "PercentageMeergezinswoning_45": 8, "Koopwoningen_47": 79, "HuurwoningenTotaal_48": 21, "InBezitWoningcorporatie_49": 11, "InBezitOverigeVerhuurders_50": 10, "BouwjaarMeerDanTienJaarGeleden_51": 87, "BouwjaarAfgelopenTienJaar_52": 13, "GemiddeldeElektriciteitslevering_53": 3450, "GemiddeldeElektriciteitsteruglevering_54": 1860, "GemiddeldAardgasverbruik_55": 900, "AardgasvrijeWoningen_57": 12, "Aardgaswoningen_58": 77, "WoningenMetZonnestroom_59": 60, "WoningenHoofdzElektrVerwarmd_60": 20, "k_20PersonenMetHoogsteInkomen_80": 16.7, "k_20HuishoudensMetHoogsteInkomen_85": 24.2, "MediaanVermogenVanParticuliereHuish_86": 331.3, "PersonenautoSTotaal_104": 685, "PersonenautoSBrandstofBenzine_105": 560, "PersonenautoSOverigeBrandstof_106": 125, "PersonenautoSPerHuishouden_107": 1.5, "Omgevingsadressendichtheid_121": 181, "AantalInstallatiesBijWoningen_5": 174, "OpgesteldVermogenVanZonnepanelen_6": 887, "installaties_per_woning": 0.37826086956521737, "vermogen_per_woning": 1.9282608695652175, "installaties_per_100_woningen": 37.826086956521735, "vermogen_per_huishouden": 1.9282608695652175, "batterijdruk_score": 1116.0, "koop_zon_score": 0.474, "eengezins_zon_score": 0.552, "betaalkracht_zon_score": 198.78, "overige_brandstof_zon_score": 75.0, "lichte_batterij_kansscore": 0.51788521168582924 }, "geometry": { "type": "MultiPolygon", "coordinates": [ [ [ [ 179658.9063, 402390.093899999978021 ], [ 179960.5, 402407.1875 ], [ 180000.0, 402288.093799999973271 ], [ 179595.9062, 402138.906399999978021 ], [ 179653.703100000013364, 401985.8126 ], [ 179069.796899999986636, 401782.8125 ], [ 179022.5, 401806.406399999978021 ], [ 178930.0938, 402039.906299999973271 ], [ 178866.9063, 402271.8125 ], [ 178876.4999, 402365.3125 ], [ 178922.29680000001099, 402469.5001 ], [ 179003.4999, 402534.0001 ], [ 179242.0937, 402709.1876 ], [ 179580.703, 402751.5001 ], [ 179658.9063, 402390.093899999978021 ] ] ] ] } },
{ "type": "Feature", "properties": { "buurtcode": "BU07550109", "buurtnaam": "Verspreide huizen Venhorst", "pc6_codes": "5427HJ, 5427LT, 5428GC, 5428GD, 5428GE, 5428GG, 5428GJ, 5428GT, 5428GV, 5428GW, 5428GZ, 5428NA, 5428NB, 5428NC, 5428ND, 5428NE, 5428NG, 5428NH, 5428NJ, 5428NK, 5428NL, 5428NM, 5428NN, 5428NP, 5428NR, 5428NS, 5428NT, 5428NV, 5428NW, 5428NX, 5428NZ, 5428PK", "wijkcode": "WK075501", "gemeentecode": "GM0755", "gemeentenaam": "Boekel", "oppervlakteLandInHa": 1036, "AantalInwoners_5": 650, "Mannen_6": 340, "Vrouwen_7": 315, "HuishoudensTotaal_29": 220, "GemiddeldeHuishoudensgrootte_33": 2.9, "Woningvoorraad_35": 220, "NieuwbouwWoningen_36": 2, "NietWoningvoorraad_37": 70, "NieuwbouwNietWoningen_38": 1, "GemiddeldeWOZWaardeVanWoningen_39": 478, "PercentageEengezinswoning_40": 94, "PercentageTussenwoningEengezins_41": 0, "PercentageHoekwoningEengezins_42": 0, "PercentageTweeOnderEenKapWoningEe_43": 16, "PercentageVrijstaandeWoningEengezins_44": 77, "PercentageMeergezinswoning_45": 6, "Koopwoningen_47": 88, "HuurwoningenTotaal_48": 12, "InBezitWoningcorporatie_49": 0, "InBezitOverigeVerhuurders_50": 11, "BouwjaarMeerDanTienJaarGeleden_51": 96, "BouwjaarAfgelopenTienJaar_52": 4, "GemiddeldeElektriciteitslevering_53": 4550, "GemiddeldeElektriciteitsteruglevering_54": 2460, "GemiddeldAardgasverbruik_55": 1320, "AardgasvrijeWoningen_57": 13, "Aardgaswoningen_58": 44, "WoningenMetZonnestroom_59": 49, "WoningenHoofdzElektrVerwarmd_60": 15, "k_20PersonenMetHoogsteInkomen_80": 15.7, "k_20HuishoudensMetHoogsteInkomen_85": 37.8, "MediaanVermogenVanParticuliereHuish_86": 569.5, "PersonenautoSTotaal_104": 340, "PersonenautoSBrandstofBenzine_105": 250, "PersonenautoSOverigeBrandstof_106": 90, "PersonenautoSPerHuishouden_107": 1.5, "Omgevingsadressendichtheid_121": 77, "AantalInstallatiesBijWoningen_5": 58, "OpgesteldVermogenVanZonnepanelen_6": 517, "installaties_per_woning": 0.26363636363636361, "vermogen_per_woning": 2.35, "installaties_per_100_woningen": 26.36363636363636, "vermogen_per_huishouden": 2.35, "batterijdruk_score": 1205.4, "koop_zon_score": 0.4312, "eengezins_zon_score": 0.4606, "betaalkracht_zon_score": 279.055, "overige_brandstof_zon_score": 44.1, "lichte_batterij_kansscore": 0.53458367276011742 }, "geometry": { "type": "MultiPolygon", "coordinates": [ [ [ [ 177357.209, 404138.609 ], [ 177362.48499999998603, 404137.738000000012107 ], [ 177409.981, 404129.898999999975786 ], [ 177418.941, 404128.419999999983702 ], [ 177698.09, 404082.347 ], [ 177794.114, 404066.613000000012107 ], [ 177843.935999999986961, 404058.450000000011642 ], [ 177897.98499999998603, 404049.593999999982771 ], [ 177949.892, 404041.088999999978114 ], [ 178127.241, 404012.03000000002794 ], [ 178350.034000000014203, 403975.525000000023283 ], [ 178354.833000000013271, 403974.739 ], [ 178364.106999999989057, 403973.202 ], [ 178577.49900000001071, 403937.843999999982771 ], [ 178896.633, 403884.962 ], [ 179189.82, 403836.38 ], [ 179202.666999999986729, 403834.25199999997858 ], [ 179282.307, 403820.972 ], [ 179294.438, 403818.946 ], [ 179425.702, 403797.028 ], [ 179435.24, 403795.811999999976251 ], [ 179439.138, 403795.944000000017695 ], [ 179479.115, 403797.293 ], [ 179487.032, 403797.56 ], [ 179675.888, 403803.936999999976251 ], [ 179678.202, 403804.01500000001397 ], [ 179723.196, 403805.533999999985099 ], [ 179744.005, 403806.23499999998603 ], [ 179750.238000000012107, 403806.446 ], [ 179769.16, 403807.086000000010245 ], [ 179877.788, 403810.753000000026077 ], [ 179909.606, 403811.827 ], [ 179976.432, 403814.083999999973457 ], [ 180035.348, 403816.072999999974854 ], [ 180048.894999999989523, 403816.53000000002794 ], [ 180088.968, 403817.882999999972526 ], [ 180149.921, 403819.941 ], [ 180153.920000000012806, 403820.076 ], [ 180156.557, 403820.164999999979045 ], [ 180159.677, 403802.618000000016764 ], [ 180245.358, 403325.533999999985099 ], [ 180246.823, 403317.379000000015367 ], [ 180248.472, 403308.244 ], [ 180285.166, 403104.936999999976251 ], [ 180322.278, 402898.217 ], [ 180358.50700000001234, 402694.531000000017229 ], [ 180360.670000000012806, 402682.375 ], [ 180378.329999999987194, 402584.452 ], [ 180388.09, 402530.333999999973457 ], [ 180394.038, 402497.354 ], [ 180394.182999999989988, 402496.549999999988358 ], [ 180394.587999999988824, 402494.299999999988358 ], [ 180404.187, 402441.018999999971129 ], [ 180415.028, 402380.846000000019558 ], [ 180436.946, 402259.194000000017695 ], [ 180438.708000000013271, 402249.346000000019558 ], [ 180486.491, 401982.305 ], [ 180528.636, 401747.822999999974854 ], [ 180579.386, 401464.218999999982771 ], [ 180583.207, 401443.135 ], [ 180622.593, 401225.846000000019558 ], [ 180674.498, 400938.94 ], [ 180676.44, 400928.204000000027008 ], [ 180688.873, 400859.075000000011642 ], [ 180702.438, 400782.179 ], [ 180712.662000000011176, 400729.50099999998929 ], [ 180724.051, 400678.601000000024214 ], [ 180736.299999999988358, 400625.989 ], [ 180734.469000000011874, 400625.456 ], [ 180731.533, 400624.788 ], [ 180678.359, 400612.691999999980908 ], [ 180627.052, 400600.847 ], [ 180443.837999999988824, 400559.947999999974854 ], [ 180364.897, 400541.848 ], [ 180253.747, 400516.987000000022817 ], [ 180172.837999999988824, 400498.354999999981374 ], [ 179946.48499999998603, 400446.444000000017695 ], [ 179838.726, 400422.476000000024214 ], [ 179773.701, 400408.527 ], [ 179706.89000000001397, 400393.456 ], [ 179616.12, 400373.287000000011176 ], [ 179518.611, 400351.109 ], [ 179472.904, 400340.132999999972526 ], [ 179464.134, 400338.352000000013504 ], [ 179362.492, 400315.723999999987427 ], [ 179228.99299999998766, 400286.183000000019092 ], [ 179071.842, 400250.931999999971595 ], [ 179038.227000000013504, 400243.392 ], [ 178962.575000000011642, 400227.455000000016298 ], [ 178936.9994, 400219.822800000023562 ], [ 178784.128, 400174.202999999979511 ], [ 178720.689000000013039, 400156.381 ], [ 178719.5835, 400156.070100000011735 ], [ 178619.4999, 400511.8126 ], [ 178118.5937, 400374.8126 ], [ 177805.79680000001099, 400905.8126 ], [ 177442.0938, 401523.1876 ], [ 177436.9999, 401678.3126 ], [ 177363.296899999986636, 401678.593999999982771 ], [ 177345.5937, 401935.906399999978021 ], [ 177106.0938, 401879.593899999978021 ], [ 177047.796899999986636, 402179.6876 ], [ 176983.5, 402353.093899999978021 ], [ 176987.0, 402459.8126 ], [ 177005.703, 403034.3126 ], [ 177115.796899999986636, 403020.406399999978021 ], [ 177129.5938, 403293.3126 ], [ 177147.296899999986636, 403411.8126 ], [ 177254.5938, 403882.906399999978021 ], [ 177298.574499999987893, 404148.286399999982677 ], [ 177327.730000000010477, 404143.473999999987427 ], [ 177357.209, 404138.609 ] ], [ [ 179003.4999, 402534.0001 ], [ 178922.29680000001099, 402469.5001 ], [ 178876.4999, 402365.3125 ], [ 178866.9063, 402271.8125 ], [ 178930.0938, 402039.906299999973271 ], [ 179022.5, 401806.406399999978021 ], [ 179069.796899999986636, 401782.8125 ], [ 179653.703100000013364, 401985.8126 ], [ 179595.9062, 402138.906399999978021 ], [ 180000.0, 402288.093799999973271 ], [ 179960.5, 402407.1875 ], [ 179658.9063, 402390.093899999978021 ], [ 179580.703, 402751.5001 ], [ 179242.0937, 402709.1876 ], [ 179003.4999, 402534.0001 ] ] ] ] } }
]
}
