{
"type": "FeatureCollection",
"name": "Buitenland",
"crs": { "type": "name", "properties": { "name": "urn:ogc:def:crs:OGC:1.3:CRS84" } },
"features": [
{ "type": "Feature", "properties": { "buurtcode": "BU09989999", "buurtnaam": "Buitenland", "pc6_codes": null, "wijkcode": "WK099899", "gemeentecode": "GM0998", "gemeentenaam": "Buitenland", "oppervlakteLandInHa": null, "AantalInwoners_5": null, "Mannen_6": null, "Vrouwen_7": null, "HuishoudensTotaal_29": null, "GemiddeldeHuishoudensgrootte_33": null, "Woningvoorraad_35": null, "NieuwbouwWoningen_36": null, "NietWoningvoorraad_37": null, "NieuwbouwNietWoningen_38": null, "GemiddeldeWOZWaardeVanWoningen_39": null, "PercentageEengezinswoning_40": null, "PercentageTussenwoningEengezins_41": null, "PercentageHoekwoningEengezins_42": null, "PercentageTweeOnderEenKapWoningEe_43": null, "PercentageVrijstaandeWoningEengezins_44": null, "PercentageMeergezinswoning_45": null, "Koopwoningen_47": null, "HuurwoningenTotaal_48": null, "InBezitWoningcorporatie_49": null, "InBezitOverigeVerhuurders_50": null, "BouwjaarMeerDanTienJaarGeleden_51": null, "BouwjaarAfgelopenTienJaar_52": null, "GemiddeldeElektriciteitslevering_53": null, "GemiddeldeElektriciteitsteruglevering_54": null, "GemiddeldAardgasverbruik_55": null, "AardgasvrijeWoningen_57": null, "Aardgaswoningen_58": null, "WoningenMetZonnestroom_59": null, "WoningenHoofdzElektrVerwarmd_60": null, "k_20PersonenMetHoogsteInkomen_80": null, "k_20HuishoudensMetHoogsteInkomen_85": null, "MediaanVermogenVanParticuliereHuish_86": null, "PersonenautoSTotaal_104": null, "PersonenautoSBrandstofBenzine_105": null, "PersonenautoSOverigeBrandstof_106": null, "PersonenautoSPerHuishouden_107": null, "Omgevingsadressendichtheid_121": null, "AantalInstallatiesBijWoningen_5": null, "OpgesteldVermogenVanZonnepanelen_6": null, "installaties_per_woning": null, "vermogen_per_woning": null, "installaties_per_100_woningen": null, "vermogen_per_huishouden": null, "batterijdruk_score": null, "koop_zon_score": null, "eengezins_zon_score": null, "betaalkracht_zon_score": null, "overige_brandstof_zon_score": null, "lichte_batterij_kansscore": null }, "geometry": { "type": "MultiPolygon", "coordinates": [ [ [ [ 4.936354421080694, 51.405341164859195 ], [ 4.936317510353129, 51.405340078357064 ], [ 4.933873114482692, 51.405268266216531 ], [ 4.9330059450797, 51.405243490298155 ], [ 4.932303718963681, 51.405223414275291 ], [ 4.932240989071257, 51.405221632521574 ], [ 4.932160701725248, 51.405219350775845 ], [ 4.928545875135189, 51.405115924370655 ], [ 4.928495113934681, 51.405114475306632 ], [ 4.928591703472547, 51.405160599216806 ], [ 4.928595522450945, 51.405162420984787 ], [ 4.928607768906305, 51.405167979280328 ], [ 4.928716841949355, 51.40521754994024 ], [ 4.928854414285418, 51.405300068640877 ], [ 4.92896693398868, 51.405387162941814 ], [ 4.928999446884171, 51.405398257025752 ], [ 4.929728894886395, 51.405376760596717 ], [ 4.929786439385701, 51.405385435766426 ], [ 4.929976595480994, 51.405469957100593 ], [ 4.930271067874319, 51.405686141516071 ], [ 4.930272637214067, 51.405687298232358 ], [ 4.930714625270663, 51.406012895885652 ], [ 4.930789251062238, 51.406052558931584 ], [ 4.930884135001222, 51.406049784087053 ], [ 4.930991639214649, 51.406006608857417 ], [ 4.931246676306532, 51.405812099357995 ], [ 4.931296796035507, 51.405787216474032 ], [ 4.931366450203129, 51.405777870674378 ], [ 4.931673573684536, 51.405778621083492 ], [ 4.932000374986719, 51.405866998538734 ], [ 4.932007287919468, 51.405869883960193 ], [ 4.932045702309823, 51.405885953059304 ], [ 4.932053760219051, 51.405889319353072 ], [ 4.932204054532053, 51.405950760003968 ], [ 4.932209777967568, 51.40595330818708 ], [ 4.932365169499764, 51.406022489903989 ], [ 4.93241594617338, 51.406061429686503 ], [ 4.932477261044816, 51.406239916933117 ], [ 4.932382177630299, 51.406507772438403 ], [ 4.932357483481132, 51.40654839547561 ], [ 4.932316040313104, 51.406567919364157 ], [ 4.93212847342487, 51.406562980963351 ], [ 4.932119766116758, 51.406562749237835 ], [ 4.931964509520978, 51.40653751404173 ], [ 4.931958942433135, 51.406536575454865 ], [ 4.931908264680312, 51.406528036032277 ], [ 4.931884878494556, 51.406518200870039 ], [ 4.931760276417372, 51.406465795017198 ], [ 4.931652546986012, 51.406473913697688 ], [ 4.931599619196533, 51.406549662459135 ], [ 4.931557700230389, 51.406659971250733 ], [ 4.931525720536239, 51.406696071246053 ], [ 4.931509917464291, 51.40670693091824 ], [ 4.931502565869232, 51.406711980877439 ], [ 4.931359765155311, 51.406777850234278 ], [ 4.9313004536004, 51.406816360218961 ], [ 4.93125790040805, 51.40687498073919 ], [ 4.931237652212072, 51.406988340432711 ], [ 4.931220556792828, 51.407059465017547 ], [ 4.931083926198469, 51.407183695567809 ], [ 4.930398727158505, 51.407491308055995 ], [ 4.929865220525267, 51.407677263505768 ], [ 4.929789836839715, 51.407684338744438 ], [ 4.929430511237638, 51.407699558418301 ], [ 4.92922111587712, 51.407741073770765 ], [ 4.929129278282359, 51.407755005366219 ], [ 4.928884711745676, 51.407749370483096 ], [ 4.928597297452862, 51.407759746499387 ], [ 4.928328024431724, 51.407781249420282 ], [ 4.928145161069034, 51.407814058177919 ], [ 4.927792361258137, 51.407880444854456 ], [ 4.927310021800483, 51.408211741570589 ], [ 4.92730505750272, 51.408215155725557 ], [ 4.927265969674433, 51.408243046712876 ], [ 4.927298167532309, 51.408228521896369 ], [ 4.927331274483802, 51.408223618688517 ], [ 4.929429095374113, 51.408084184270351 ], [ 4.930757983009066, 51.408000043140589 ], [ 4.93084717336982, 51.407992122411315 ], [ 4.930905379874287, 51.407992440010553 ], [ 4.93101824020205, 51.408003398364251 ], [ 4.931318399169993, 51.408012212363566 ], [ 4.931674145087653, 51.408018851661133 ], [ 4.93175108258412, 51.408020284688781 ], [ 4.931808397192336, 51.408023564663203 ], [ 4.931848476979362, 51.408024152595985 ], [ 4.931861942304819, 51.408024348981961 ], [ 4.931909279341915, 51.408025037134074 ], [ 4.931945530927369, 51.408050616971337 ], [ 4.932129061856743, 51.408166839396344 ], [ 4.932172619938124, 51.408180402656832 ], [ 4.932265210770024, 51.408191820057269 ], [ 4.932303521106228, 51.408195466117498 ], [ 4.932331263139475, 51.408198100161187 ], [ 4.932378419716938, 51.408283228333538 ], [ 4.932443329989784, 51.408303166916816 ], [ 4.932465097422541, 51.408325544036238 ], [ 4.932472644730182, 51.408361438824876 ], [ 4.932511719411612, 51.408379263154757 ], [ 4.932570224146424, 51.408405954262598 ], [ 4.932584926852706, 51.408430551027166 ], [ 4.932592549925256, 51.408473277600947 ], [ 4.932632536807906, 51.40851352354548 ], [ 4.932637224964706, 51.408605587263473 ], [ 4.932662662296668, 51.408634720256366 ], [ 4.932872120491052, 51.408716885036384 ], [ 4.932919218352253, 51.408750327079666 ], [ 4.932952072872761, 51.408799623836103 ], [ 4.932954109296708, 51.408970419212771 ], [ 4.932964587444961, 51.408986280327511 ], [ 4.933323531015218, 51.409024801353453 ], [ 4.93374550542974, 51.409070128152329 ], [ 4.933788792014995, 51.409074988578944 ], [ 4.935135591286378, 51.409226167254019 ], [ 4.935716325534644, 51.409291356112909 ], [ 4.935794988694869, 51.409300190936939 ], [ 4.93628851676046, 51.406091026532138 ], [ 4.936391813822598, 51.405363287034923 ], [ 4.936394794866716, 51.405342309678282 ], [ 4.936354421080694, 51.405341164859195 ] ] ], [ [ [ 4.867020357577854, 51.413323193274834 ], [ 4.866942166119097, 51.413310080395455 ], [ 4.866316171939372, 51.413182881057438 ], [ 4.866229223915883, 51.413322314300643 ], [ 4.866066588331351, 51.413582974550451 ], [ 4.866063586649171, 51.413587779162931 ], [ 4.866051433505477, 51.413607230668035 ], [ 4.86608265968702, 51.413604313965045 ], [ 4.866076834839903, 51.413625978034091 ], [ 4.866041975067255, 51.41375568418681 ], [ 4.865962429093758, 51.41392395956197 ], [ 4.865858386534097, 51.414123802103767 ], [ 4.865777535828075, 51.414279091624991 ], [ 4.865854119786049, 51.414285816013795 ], [ 4.865859347016022, 51.414286270840755 ], [ 4.866609923283557, 51.414352122445976 ], [ 4.866997310885651, 51.414386111638443 ], [ 4.867199882943866, 51.414106023470701 ], [ 4.867509574035462, 51.413704676277327 ], [ 4.867512112675763, 51.413701388680387 ], [ 4.867532278483398, 51.413672525442983 ], [ 4.867532804544932, 51.413671772723404 ], [ 4.867818688791466, 51.413262570267619 ], [ 4.867434518420668, 51.413295196483475 ], [ 4.867053965546165, 51.413325680242679 ], [ 4.867020357577854, 51.413323193274834 ] ] ], [ [ [ 4.873871218733865, 51.416109791904454 ], [ 4.873974934253117, 51.416153475600161 ], [ 4.874349092728047, 51.416311086544965 ], [ 4.874570829875337, 51.416402246224827 ], [ 4.874828455881667, 51.416508160997267 ], [ 4.875310267105887, 51.416064789251472 ], [ 4.875010857449314, 51.415972597821948 ], [ 4.874701343908738, 51.41587394319648 ], [ 4.87469143164065, 51.415870789508283 ], [ 4.874688465696447, 51.41586992253746 ], [ 4.874636698502237, 51.415854728664954 ], [ 4.874365428080669, 51.415753220923186 ], [ 4.87416489599816, 51.415676293549559 ], [ 4.874077195773444, 51.415638963668222 ], [ 4.874020176216368, 51.415608959770296 ], [ 4.873950423111529, 51.415573596402069 ], [ 4.873872626476315, 51.415537658265769 ], [ 4.873788011235279, 51.415507263149607 ], [ 4.873727864114391, 51.415486953292557 ], [ 4.873641364192626, 51.415457987988241 ], [ 4.873392682849618, 51.415916582333693 ], [ 4.873586680290914, 51.415986560854634 ], [ 4.873871218733865, 51.416109791904454 ] ] ], [ [ [ 4.840391063202721, 51.41846177386671 ], [ 4.840417693788225, 51.418446887293292 ], [ 4.840503353884871, 51.418400726463538 ], [ 4.840557740285905, 51.418349025709617 ], [ 4.84055898217576, 51.418293390474076 ], [ 4.840516704089752, 51.418246450269208 ], [ 4.840486280524164, 51.418134036802975 ], [ 4.840494382732304, 51.418081759597747 ], [ 4.840534911926332, 51.418046713194457 ], [ 4.840593784213893, 51.418016516826157 ], [ 4.840700173170361, 51.417979981175421 ], [ 4.840873449589807, 51.417940163158555 ], [ 4.841052986197132, 51.417905767511236 ], [ 4.841218719798682, 51.41788353183783 ], [ 4.841321568464239, 51.417890485142912 ], [ 4.8413643375917, 51.417896438144254 ], [ 4.841336566021622, 51.417872182089738 ], [ 4.841309448959914, 51.417848495389656 ], [ 4.841137115538191, 51.417697952351475 ], [ 4.84085742666556, 51.417453610904403 ], [ 4.839564753826396, 51.417896453315436 ], [ 4.838750271318422, 51.418178382798686 ], [ 4.838808525675135, 51.418223600983374 ], [ 4.839984535113798, 51.4187864239573 ], [ 4.839989437956746, 51.418788775071157 ], [ 4.840014438463766, 51.418800739662181 ], [ 4.840083045931128, 51.418792018659452 ], [ 4.840143643446377, 51.418797875943262 ], [ 4.840321292127451, 51.418849316187902 ], [ 4.840388997731108, 51.41886185842398 ], [ 4.840468492086036, 51.418838410536779 ], [ 4.840536957745117, 51.418799539960588 ], [ 4.840560222554989, 51.418753626009163 ], [ 4.84051220669457, 51.418645624547104 ], [ 4.840390475209304, 51.418522805482809 ], [ 4.840372999608483, 51.418481554578364 ], [ 4.840391063202721, 51.41846177386671 ] ] ], [ [ [ 4.891598238305063, 51.424784537267605 ], [ 4.892098209194608, 51.424303690336615 ], [ 4.892306718947633, 51.424102236489652 ], [ 4.89223016052384, 51.424055529363272 ], [ 4.891778677052651, 51.423739633297906 ], [ 4.891702951527002, 51.423656075163223 ], [ 4.89150348998912, 51.423316079374707 ], [ 4.891435762885573, 51.423224285322391 ], [ 4.889367340405053, 51.423453771289324 ], [ 4.890363067856311, 51.423895682002943 ], [ 4.888618085650186, 51.424679857083824 ], [ 4.888586731134374, 51.424693952403771 ], [ 4.889332885173944, 51.42497799483634 ], [ 4.889356639775624, 51.42498704008689 ], [ 4.890123655376706, 51.425282627199557 ], [ 4.890148031557371, 51.425266335429889 ], [ 4.890210311947835, 51.425224685842224 ], [ 4.89057221636955, 51.424982692600906 ], [ 4.890646309893222, 51.424793613366056 ], [ 4.891200456947699, 51.424527833806991 ], [ 4.891446916827753, 51.424726941158177 ], [ 4.891524709080968, 51.424789797972018 ], [ 4.891554180032396, 51.424803406417972 ], [ 4.891598238305063, 51.424784537267605 ] ] ], [ [ [ 4.938326941068706, 51.435887424879155 ], [ 4.938242618164921, 51.435930165812856 ], [ 4.938242386917807, 51.43593028177748 ], [ 4.93817098557398, 51.435966465607443 ], [ 4.937832424214176, 51.43566639275609 ], [ 4.937636634673918, 51.435492855995456 ], [ 4.937093287448564, 51.435043029503369 ], [ 4.936982153617002, 51.434937701523232 ], [ 4.936828704855911, 51.434792209981467 ], [ 4.936532981936935, 51.434491291872895 ], [ 4.93624870103753, 51.434226192631883 ], [ 4.93633580399953, 51.434172686311605 ], [ 4.936408308916768, 51.434112022383061 ], [ 4.936447318469504, 51.434079184188803 ], [ 4.93650442523345, 51.434034101227581 ], [ 4.93657253949408, 51.433995667513479 ], [ 4.936573262512536, 51.43399526580972 ], [ 4.936659013466197, 51.433962068711025 ], [ 4.936748958515215, 51.433941022616573 ], [ 4.936859111454336, 51.433926975816945 ], [ 4.936924009608994, 51.433922911637133 ], [ 4.936991898340729, 51.43392182526253 ], [ 4.937127178717897, 51.433926302187636 ], [ 4.937223320513231, 51.433933055012567 ], [ 4.937341275297057, 51.433944476139381 ], [ 4.93750944183378, 51.433968225535558 ], [ 4.938656146833131, 51.434146841850293 ], [ 4.938771964915227, 51.434156275779394 ], [ 4.938865262288916, 51.434159870239434 ], [ 4.939042629064549, 51.434154888620462 ], [ 4.939363042198065, 51.434141269255292 ], [ 4.939936781348705, 51.434116880890706 ], [ 4.939924258437039, 51.434072608015491 ], [ 4.939922020790578, 51.434064689298225 ], [ 4.939904271834419, 51.434001951379805 ], [ 4.939684521818141, 51.433224944254725 ], [ 4.939469222528308, 51.433212343035706 ], [ 4.939417703101037, 51.432290712771724 ], [ 4.939414548474256, 51.432234152143344 ], [ 4.939806251458172, 51.432294711035254 ], [ 4.939851809502897, 51.43218030550748 ], [ 4.939857308737585, 51.432166510809104 ], [ 4.940084608598461, 51.431595730453594 ], [ 4.939366362374081, 51.431462359866039 ], [ 4.939365845590928, 51.431462267994689 ], [ 4.939312061253842, 51.431452281749081 ], [ 4.939239875226786, 51.431438872013914 ], [ 4.939267115908861, 51.431397412388179 ], [ 4.939697383510108, 51.430742557482183 ], [ 4.938249579440218, 51.43036620801184 ], [ 4.938024701383424, 51.430269081511156 ], [ 4.937610387075463, 51.430090127869548 ], [ 4.937653162799867, 51.430054067818958 ], [ 4.936152714522353, 51.42946508401586 ], [ 4.935979816063458, 51.4294707975778 ], [ 4.935961131968322, 51.429484388299862 ], [ 4.935747070544926, 51.429640558663372 ], [ 4.93558906191988, 51.429755830824739 ], [ 4.934879193413818, 51.430273721496626 ], [ 4.934875905430524, 51.430276117749315 ], [ 4.934875789504959, 51.430276207187887 ], [ 4.934875456375003, 51.430276448594164 ], [ 4.93487534053861, 51.430276529044313 ], [ 4.934875224702214, 51.430276609494484 ], [ 4.934872762309269, 51.430278406697838 ], [ 4.934683433262649, 51.430416531595291 ], [ 4.93449495760601, 51.430554039271051 ], [ 4.934430123591265, 51.430601338468001 ], [ 4.934384867078665, 51.430597297665507 ], [ 4.934304047200278, 51.430597792991762 ], [ 4.934141198150488, 51.43059023942007 ], [ 4.934080673682131, 51.430588745968407 ], [ 4.933963823355269, 51.430582898863285 ], [ 4.933881365560862, 51.430574578509486 ], [ 4.933797640473402, 51.43056355653269 ], [ 4.933740781505232, 51.430554975994845 ], [ 4.933736157741101, 51.430570221009873 ], [ 4.933598527627168, 51.431021211511549 ], [ 4.933096257770123, 51.430917711410771 ], [ 4.932521577782299, 51.43079928424725 ], [ 4.932340216802571, 51.430761912081486 ], [ 4.931719504763355, 51.430633998091892 ], [ 4.931074286014305, 51.430501023173498 ], [ 4.931055013647822, 51.430497046694192 ], [ 4.931047752382922, 51.430495553133042 ], [ 4.930942981165122, 51.430473956894389 ], [ 4.930839555168879, 51.430333776549269 ], [ 4.930723429959533, 51.430083253818538 ], [ 4.930594387719884, 51.429973984401997 ], [ 4.930471201648078, 51.430072558890288 ], [ 4.929387436915547, 51.430939776175052 ], [ 4.929213458981781, 51.430810373775742 ], [ 4.929149057775767, 51.430762480323899 ], [ 4.928994392895776, 51.430647436615068 ], [ 4.928890155725931, 51.430569912292313 ], [ 4.928840342407441, 51.430532862529475 ], [ 4.928812938378975, 51.43051244018033 ], [ 4.928512297315484, 51.430679798802025 ], [ 4.928267750119204, 51.430817174910416 ], [ 4.928086954718872, 51.430963880060894 ], [ 4.927962814541538, 51.431082133642242 ], [ 4.927842465429102, 51.431223683018814 ], [ 4.927723196182612, 51.431372157903155 ], [ 4.927678397983467, 51.431422498566846 ], [ 4.92752854353379, 51.431694808403897 ], [ 4.927399425057653, 51.431921356862361 ], [ 4.927352948642421, 51.431995421230383 ], [ 4.927297345715013, 51.432076101323965 ], [ 4.927209508346149, 51.432187485919741 ], [ 4.926847435344543, 51.432640711710626 ], [ 4.92667949615412, 51.432851735360117 ], [ 4.926619445881722, 51.432931139147847 ], [ 4.926601841103442, 51.432965586663492 ], [ 4.926588717141625, 51.43301200697276 ], [ 4.926584590649156, 51.433030435708538 ], [ 4.926582090218232, 51.433041643864932 ], [ 4.926581329471677, 51.433088472527942 ], [ 4.926589503152311, 51.433119246500645 ], [ 4.92660330143834, 51.433148424689989 ], [ 4.926626343309436, 51.433187886598802 ], [ 4.926656642823961, 51.43323492774239 ], [ 4.926880101480227, 51.433592754846522 ], [ 4.926751165182221, 51.433517063790013 ], [ 4.926748291639538, 51.433515380533635 ], [ 4.926663076976267, 51.433480617129412 ], [ 4.926577799779745, 51.433452055689877 ], [ 4.926509387792545, 51.433433808009362 ], [ 4.926418979593075, 51.433414934103162 ], [ 4.926334829700532, 51.433402916334927 ], [ 4.92623996034537, 51.433398586531546 ], [ 4.926084525817293, 51.433396444308457 ], [ 4.926074674739083, 51.433437699942971 ], [ 4.926014950113172, 51.433688017817616 ], [ 4.926009138339555, 51.43371237248256 ], [ 4.925987337157818, 51.433863028547862 ], [ 4.925597741125277, 51.433839123874968 ], [ 4.92540785842519, 51.43382747814416 ], [ 4.925245009140577, 51.43397505893229 ], [ 4.924961123588117, 51.433877727556286 ], [ 4.924944485144902, 51.433872025665245 ], [ 4.925041337641867, 51.433723374932185 ], [ 4.925220700404946, 51.433447625529332 ], [ 4.925245563894419, 51.433409395703563 ], [ 4.92460964456423, 51.433423685500514 ], [ 4.924199770383825, 51.433454149932288 ], [ 4.923474638937186, 51.43352992250729 ], [ 4.922743894109773, 51.433634162750451 ], [ 4.922553116447442, 51.433642751595436 ], [ 4.922569431762732, 51.43368717631531 ], [ 4.922594395052442, 51.43375509624736 ], [ 4.922574026095459, 51.433905218079417 ], [ 4.922415724124538, 51.434071329987596 ], [ 4.922239300973874, 51.434102069982274 ], [ 4.921931993448758, 51.434155604876238 ], [ 4.921611589507169, 51.434211423797976 ], [ 4.921303560019013, 51.434265097980315 ], [ 4.920999232302132, 51.434318129957752 ], [ 4.920685856552715, 51.434372724977493 ], [ 4.920682341271891, 51.434373340140056 ], [ 4.92045526152287, 51.434412899670072 ], [ 4.920376429358712, 51.434427856304531 ], [ 4.919979184248485, 51.434503219591448 ], [ 4.919985840849997, 51.434513223819017 ], [ 4.919089883382298, 51.434794578212035 ], [ 4.918839364556239, 51.434892359952585 ], [ 4.918530676431788, 51.434996739036301 ], [ 4.91829977326086, 51.435116710869714 ], [ 4.918279793276277, 51.435128316030664 ], [ 4.918120372850165, 51.435220889217717 ], [ 4.917974894107804, 51.43521500092632 ], [ 4.917257470606577, 51.434620227873921 ], [ 4.917215719478306, 51.434585605622374 ], [ 4.9159514180508, 51.434924688067042 ], [ 4.915818169105024, 51.435005983978662 ], [ 4.915814637816772, 51.435008136016343 ], [ 4.915808154184818, 51.435012082877869 ], [ 4.915694095442376, 51.435081671842035 ], [ 4.915623079184683, 51.435102652387442 ], [ 4.915589944006776, 51.435112442118587 ], [ 4.915099130298509, 51.435318719135878 ], [ 4.915069028450164, 51.435331370444004 ], [ 4.915012031392915, 51.435355319713985 ], [ 4.91510198817099, 51.435389931049706 ], [ 4.915293674366287, 51.435447246006753 ], [ 4.917076908196699, 51.435885726888159 ], [ 4.917115236448257, 51.435857701387413 ], [ 4.917852302258789, 51.435318867955424 ], [ 4.91795017149233, 51.43525562080675 ], [ 4.918056044453865, 51.435281035390815 ], [ 4.91839486014732, 51.435519701571273 ], [ 4.918397927906317, 51.43552205997441 ], [ 4.918573334950313, 51.435656706738399 ], [ 4.919171807293981, 51.436116081554765 ], [ 4.919479766726897, 51.436390288356812 ], [ 4.919557166933692, 51.436459201124642 ], [ 4.920106658307025, 51.43629421012529 ], [ 4.920203616657316, 51.43638996940895 ], [ 4.920605571726572, 51.436278947588313 ], [ 4.921205736148757, 51.436896359795639 ], [ 4.919843526722185, 51.438046665653211 ], [ 4.919797203045056, 51.43808578816288 ], [ 4.919935908393599, 51.438204771134671 ], [ 4.919951747807247, 51.438218362706749 ], [ 4.921025652583571, 51.43893067873492 ], [ 4.921303294809309, 51.439114826506142 ], [ 4.921252441352565, 51.439141230327571 ], [ 4.920638738632473, 51.43945994827552 ], [ 4.92055506103551, 51.439386804395347 ], [ 4.920214039735836, 51.439542025196545 ], [ 4.921200655903922, 51.44040395031967 ], [ 4.920955786703109, 51.440438981407723 ], [ 4.920928447777506, 51.440442890173678 ], [ 4.920805897772236, 51.440460423013072 ], [ 4.920656397578463, 51.440481812047473 ], [ 4.920656037465734, 51.440481864540644 ], [ 4.919466695761319, 51.440637014528768 ], [ 4.919462332336932, 51.440637536368357 ], [ 4.919189624383706, 51.440670240928448 ], [ 4.920478468847143, 51.441463307022097 ], [ 4.920479140601963, 51.4414637231935 ], [ 4.920641436364082, 51.441575284971385 ], [ 4.921540369198895, 51.442193178987026 ], [ 4.921778726440659, 51.442109356435566 ], [ 4.92187143031131, 51.442076755187472 ], [ 4.921900531923825, 51.442066525110491 ], [ 4.922025650956744, 51.442237361674472 ], [ 4.922031852087643, 51.442247049352616 ], [ 4.92204855881335, 51.44227310256592 ], [ 4.922053259298132, 51.44228043818466 ], [ 4.922111479145641, 51.442368311025092 ], [ 4.922191187448546, 51.442478831348161 ], [ 4.922325664832597, 51.442617983391258 ], [ 4.922369392387842, 51.442663002690999 ], [ 4.922351278726881, 51.442676144079705 ], [ 4.922259380939058, 51.442745261428954 ], [ 4.922195150971626, 51.44279525291828 ], [ 4.921776426038264, 51.443120596332854 ], [ 4.921680155492774, 51.443195178958277 ], [ 4.921662336951759, 51.443208959622687 ], [ 4.921559093569241, 51.443288808737378 ], [ 4.921441043763596, 51.443369146988061 ], [ 4.921360332711787, 51.443413049748884 ], [ 4.921264981711373, 51.443453837814296 ], [ 4.921299429509101, 51.443508887921098 ], [ 4.921465077009922, 51.443776165892388 ], [ 4.920863356875198, 51.444791744706734 ], [ 4.921124930866911, 51.444827486369526 ], [ 4.921537263243607, 51.444862300969916 ], [ 4.921241703060423, 51.445308673648221 ], [ 4.921052127832417, 51.445237084875522 ], [ 4.920681194549855, 51.445489994755754 ], [ 4.920678978246427, 51.445491505003673 ], [ 4.920465603147417, 51.445636989543758 ], [ 4.92035464158265, 51.445712662898394 ], [ 4.920287282089885, 51.445758613844674 ], [ 4.920001001283153, 51.445270005557887 ], [ 4.919968993962484, 51.445221068238801 ], [ 4.919899806980239, 51.445150678592285 ], [ 4.919865622224322, 51.445166811439968 ], [ 4.919301245234268, 51.44543313550318 ], [ 4.919135973269866, 51.44551650009906 ], [ 4.919067146009984, 51.445551208456806 ], [ 4.918883730123675, 51.445664360713913 ], [ 4.918798960979182, 51.445710582518693 ], [ 4.918680835060981, 51.445727276980932 ], [ 4.918619157737421, 51.445736665360457 ], [ 4.918302789186956, 51.445784815156074 ], [ 4.918302807553349, 51.445784847589522 ], [ 4.91858814017022, 51.446278457630264 ], [ 4.918744240833932, 51.446359983500486 ], [ 4.9192572421501, 51.446860740090784 ], [ 4.919429701940722, 51.446932442941652 ], [ 4.919559828485021, 51.446818959462099 ], [ 4.919693887866868, 51.446702048881846 ], [ 4.919801558974649, 51.446608124698969 ], [ 4.919870054222523, 51.446548380771269 ], [ 4.919970916894007, 51.446460424700078 ], [ 4.920135875853349, 51.446316554059052 ], [ 4.920300412759884, 51.446173059027444 ], [ 4.920303112444707, 51.446170705773291 ], [ 4.920545547132529, 51.44595926105783 ], [ 4.920549944832633, 51.445955440424186 ], [ 4.920859906152447, 51.446148140781162 ], [ 4.920872413244052, 51.446155921122589 ], [ 4.920927733469979, 51.446190029920217 ], [ 4.921005808925277, 51.446221488004667 ], [ 4.921012685316853, 51.446224257055654 ], [ 4.921356275066788, 51.446385297018921 ], [ 4.921492566248094, 51.446449185002741 ], [ 4.92175416322087, 51.446568161589603 ], [ 4.921981316587934, 51.446707584643939 ], [ 4.922503889310582, 51.447077667870737 ], [ 4.922772945135923, 51.447255818137137 ], [ 4.923034805735979, 51.447377938952698 ], [ 4.924021805018571, 51.446313361756765 ], [ 4.923988205301529, 51.446304545229701 ], [ 4.923977560128752, 51.446301752407685 ], [ 4.923923530867144, 51.44628757835153 ], [ 4.923729823575801, 51.446236750666216 ], [ 4.923566158387275, 51.446193799337017 ], [ 4.923620907213535, 51.446142870555562 ], [ 4.922380677448184, 51.445783320620471 ], [ 4.922209043516363, 51.445733567075379 ], [ 4.922205256755404, 51.445732509287581 ], [ 4.922095010159176, 51.445701741782983 ], [ 4.923027998331769, 51.445362893046607 ], [ 4.923471752183485, 51.445208341887863 ], [ 4.923791177102014, 51.445100576525839 ], [ 4.924311756944259, 51.444930057483774 ], [ 4.924103725914517, 51.44492474679538 ], [ 4.924086555358452, 51.444924310120939 ], [ 4.923852293842924, 51.44491834657844 ], [ 4.923829902234211, 51.444917862171323 ], [ 4.923104611079676, 51.444902342019965 ], [ 4.923732819125644, 51.443894048017974 ], [ 4.924130994849421, 51.44406156180758 ], [ 4.92429476292666, 51.443926570521079 ], [ 4.924660896607481, 51.444123501579654 ], [ 4.92505385750735, 51.444334865857599 ], [ 4.925390256586949, 51.444515631851658 ], [ 4.925453415903365, 51.444549769521906 ], [ 4.925830665261492, 51.444412833993773 ], [ 4.926567841303356, 51.444144104425547 ], [ 4.926953780311487, 51.44400477260222 ], [ 4.927169248586267, 51.443926979140265 ], [ 4.927834517389933, 51.443686803187262 ], [ 4.927942448886829, 51.443653160424191 ], [ 4.928054990166626, 51.443618816593791 ], [ 4.92796807563519, 51.44358661832689 ], [ 4.927824197809493, 51.443533296838396 ], [ 4.927802157585602, 51.44352512915362 ], [ 4.927648692920569, 51.44346827306763 ], [ 4.927389757193207, 51.443372331474166 ], [ 4.92673900477164, 51.443131221040133 ], [ 4.925977645662785, 51.442849121414703 ], [ 4.9257902378656, 51.44277967923346 ], [ 4.926019146261257, 51.442570165251894 ], [ 4.926080674099455, 51.44251384186699 ], [ 4.926277611279088, 51.442333585435385 ], [ 4.926454004007589, 51.442172142020212 ], [ 4.926521100090612, 51.44219380023663 ], [ 4.926542380927363, 51.442160320065973 ], [ 4.926824452232158, 51.441716460642866 ], [ 4.926853025760519, 51.441671512510872 ], [ 4.926268117155084, 51.441693653339691 ], [ 4.926253801901855, 51.441644248293294 ], [ 4.926129277339473, 51.4412141816792 ], [ 4.926444002871453, 51.441311784611024 ], [ 4.926526602267738, 51.441307885960256 ], [ 4.92656888105267, 51.441180591676556 ], [ 4.927212992543152, 51.440322454766331 ], [ 4.927375432079891, 51.440031767947815 ], [ 4.926891865473328, 51.439833815864098 ], [ 4.926974109691046, 51.439793600752587 ], [ 4.927313002013095, 51.439476643357999 ], [ 4.927470245666997, 51.439315734191432 ], [ 4.927514486385504, 51.439277256629801 ], [ 4.927599093427271, 51.439203674975289 ], [ 4.927753187566399, 51.439069656502838 ], [ 4.927948112667604, 51.438885685963903 ], [ 4.927977749092583, 51.438857721581449 ], [ 4.927977894360732, 51.438857578332325 ], [ 4.928147856871196, 51.438697176737016 ], [ 4.92830017595279, 51.438553424683249 ], [ 4.928390234004138, 51.438706768158042 ], [ 4.928527931276441, 51.438941206993611 ], [ 4.928528228232519, 51.438941711533538 ], [ 4.928627719199758, 51.439111136898205 ], [ 4.92868609076012, 51.439210521698925 ], [ 4.928686175696126, 51.439210656864589 ], [ 4.928686769615285, 51.439211665943638 ], [ 4.928756466212179, 51.439331940228151 ], [ 4.928810341621339, 51.439392206026412 ], [ 4.928810626099591, 51.439392521751806 ], [ 4.928863036652809, 51.439451154798583 ], [ 4.928863363826237, 51.439451515635504 ], [ 4.928905818540724, 51.439499017382921 ], [ 4.928907070160531, 51.439500415561987 ], [ 4.928948600518408, 51.439546879951536 ], [ 4.928949667251308, 51.439548070661751 ], [ 4.929011038454362, 51.439616734370475 ], [ 4.929028120079727, 51.439635839710974 ], [ 4.929080540602398, 51.439673501829958 ], [ 4.929081026073541, 51.439673854298931 ], [ 4.929170045605344, 51.439737799471509 ], [ 4.929170902395944, 51.439738414072615 ], [ 4.929222609101019, 51.43977556995258 ], [ 4.929226623772802, 51.439778246392059 ], [ 4.929227966760804, 51.439779141553473 ], [ 4.929320633240999, 51.439840889677171 ], [ 4.929321519070923, 51.439841477424665 ], [ 4.929430230202326, 51.439913931148375 ], [ 4.929430473166203, 51.439914084911038 ], [ 4.929509952985511, 51.439967053032412 ], [ 4.929511181648437, 51.439967875831776 ], [ 4.9295690878734, 51.440006467111353 ], [ 4.929569730835142, 51.440006892106176 ], [ 4.929629508789294, 51.44004673114938 ], [ 4.929629851708841, 51.440046957213895 ], [ 4.929699945236461, 51.440093668152905 ], [ 4.929538523228791, 51.440271579711379 ], [ 4.929538276020877, 51.440271848405828 ], [ 4.929451797964794, 51.440367150044331 ], [ 4.929352898896333, 51.440476146760929 ], [ 4.929352448074853, 51.440476639376115 ], [ 4.929262929529862, 51.44057529075728 ], [ 4.92912153142893, 51.440731131917012 ], [ 4.929064323451978, 51.440796166021407 ], [ 4.928892640196239, 51.440991348833371 ], [ 4.928858914379865, 51.44102969742498 ], [ 4.928831763970671, 51.441127883293753 ], [ 4.928794464122427, 51.441262730550491 ], [ 4.92875713429225, 51.441397676553798 ], [ 4.928706504549986, 51.441580750248662 ], [ 4.928701892179978, 51.441597442302538 ], [ 4.928756089998477, 51.441600172083945 ], [ 4.92882649699346, 51.441607280128778 ], [ 4.928944002777494, 51.441622213560855 ], [ 4.928985064397307, 51.441629655715843 ], [ 4.929040464564893, 51.441641558659114 ], [ 4.929107755519347, 51.44165818242589 ], [ 4.929281474453762, 51.441704347506871 ], [ 4.929346437248261, 51.441723658639376 ], [ 4.929415402015413, 51.441745502297046 ], [ 4.929498362752223, 51.441777288482626 ], [ 4.929910370933166, 51.441956971686508 ], [ 4.929908662994965, 51.441989576348618 ], [ 4.929884950440918, 51.442440559221914 ], [ 4.929887317964966, 51.442476973124876 ], [ 4.929950758545245, 51.442474668884785 ], [ 4.930457117391376, 51.44245628309298 ], [ 4.930455975536037, 51.442524296844496 ], [ 4.930455749260706, 51.442538264548105 ], [ 4.930454348112413, 51.442603445813738 ], [ 4.930477912370745, 51.442605938043023 ], [ 4.930504977492485, 51.442574852836472 ], [ 4.930618506964634, 51.442628061283351 ], [ 4.930853592473233, 51.442737385643731 ], [ 4.930867923867624, 51.442744048447203 ], [ 4.930936259123898, 51.44277583933372 ], [ 4.930998194794111, 51.442804647850217 ], [ 4.930956529201643, 51.442828664831907 ], [ 4.930918866563608, 51.442855124423964 ], [ 4.930905090044768, 51.442866306555871 ], [ 4.930981264162905, 51.442889525785951 ], [ 4.931009513968835, 51.442898139615991 ], [ 4.931027911757677, 51.442903793571922 ], [ 4.931209957784051, 51.442959363621448 ], [ 4.931481558238111, 51.44302784046409 ], [ 4.931627953828407, 51.443059782921146 ], [ 4.931980354775294, 51.443149338099559 ], [ 4.932019494540308, 51.443159288546944 ], [ 4.932137259030122, 51.443193473755244 ], [ 4.932241655594201, 51.443223885371239 ], [ 4.932267376956615, 51.443230790156363 ], [ 4.932294331254985, 51.443238104237388 ], [ 4.932298749564318, 51.44323929899145 ], [ 4.932315232068295, 51.443245205952962 ], [ 4.932379805050925, 51.443182850665828 ], [ 4.932397001260526, 51.443166243466521 ], [ 4.932525752974366, 51.443184803629372 ], [ 4.932846124577248, 51.443230986307334 ], [ 4.933122487827037, 51.44327082158366 ], [ 4.933129230752166, 51.443248034258779 ], [ 4.933176519665912, 51.443088289608568 ], [ 4.933683760583217, 51.443153821599708 ], [ 4.933730304412567, 51.443159836185714 ], [ 4.933696687191109, 51.443285818338737 ], [ 4.933473975911045, 51.444013134895656 ], [ 4.93346112508471, 51.444032500728937 ], [ 4.933403692450211, 51.444094300103046 ], [ 4.933395671469267, 51.444100983543557 ], [ 4.933264738314154, 51.444210164601273 ], [ 4.933295893806089, 51.444244892631971 ], [ 4.933411760102183, 51.444381972867141 ], [ 4.93346421753179, 51.44444428938472 ], [ 4.933761328610358, 51.444798074464558 ], [ 4.933873824262837, 51.444927230995084 ], [ 4.934055092301181, 51.445127306366608 ], [ 4.934247370593819, 51.445334165775577 ], [ 4.934469630332225, 51.4455639726974 ], [ 4.934614595090815, 51.445697569063086 ], [ 4.934716877696995, 51.445783718730162 ], [ 4.934791993904031, 51.445838841559556 ], [ 4.93485597004991, 51.4458859211394 ], [ 4.935108462692011, 51.446055798863824 ], [ 4.935545754768251, 51.446346571463351 ], [ 4.93561805188284, 51.446308945485292 ], [ 4.935623257214905, 51.446306242021919 ], [ 4.935623223191008, 51.446303868849412 ], [ 4.935622245853279, 51.446248619956791 ], [ 4.935644784213642, 51.446225659898609 ], [ 4.935733120698942, 51.446135700240291 ], [ 4.935790166638811, 51.446069313949749 ], [ 4.935840905621361, 51.446000656042855 ], [ 4.935885200946752, 51.445929006895817 ], [ 4.93590799137306, 51.445883467917973 ], [ 4.935908240710191, 51.445882983487358 ], [ 4.935919510718856, 51.44585615057894 ], [ 4.936136232029909, 51.445340060947935 ], [ 4.936137366374344, 51.445337359705725 ], [ 4.936169142614458, 51.445261698009148 ], [ 4.935505432494984, 51.445001332630987 ], [ 4.935212132851921, 51.444885410243245 ], [ 4.935180038745783, 51.444872611748657 ], [ 4.935198381098453, 51.444836125369683 ], [ 4.935199085339658, 51.444834734834338 ], [ 4.935203164540848, 51.444826633753046 ], [ 4.935203531267994, 51.444825916069945 ], [ 4.935277516234776, 51.444678786384976 ], [ 4.93547703245983, 51.444282029442924 ], [ 4.935561303594034, 51.444294238770297 ], [ 4.935667795216913, 51.444309671096057 ], [ 4.935787084864227, 51.444326959573523 ], [ 4.935978293270047, 51.444354665363122 ], [ 4.936189596576822, 51.444385288953839 ], [ 4.93650536906071, 51.444430850513953 ], [ 4.936728679203183, 51.444463407138748 ], [ 4.936753160033327, 51.44440502054826 ], [ 4.936783922170158, 51.44433166488971 ], [ 4.936882900316713, 51.444388406560719 ], [ 4.937166749484955, 51.444500063575987 ], [ 4.937345661267701, 51.444561247894917 ], [ 4.937506847479871, 51.444596655697843 ], [ 4.937507838096475, 51.444596848279403 ], [ 4.9377579398147, 51.444646252275192 ], [ 4.938117566875628, 51.444717299759631 ], [ 4.93812027510184, 51.44470959779796 ], [ 4.938274957942488, 51.444270685961556 ], [ 4.938291220641081, 51.444224546129924 ], [ 4.938397364258979, 51.443923362436379 ], [ 4.938561053396679, 51.443458866791708 ], [ 4.939028268136659, 51.443573561113162 ], [ 4.939077714524812, 51.443399907764899 ], [ 4.939157912127427, 51.443118237296297 ], [ 4.939157956779419, 51.443118084658281 ], [ 4.93919804748494, 51.442977303304062 ], [ 4.939198137053425, 51.44297697106262 ], [ 4.939225832473331, 51.442879710787068 ], [ 4.939225921776384, 51.442879405510922 ], [ 4.939281833601136, 51.442683062214094 ], [ 4.93933921982967, 51.442481538014754 ], [ 4.939392240838282, 51.44229531393708 ], [ 4.939512195824342, 51.441873984096539 ], [ 4.939525409531676, 51.441827598686658 ], [ 4.938885129882244, 51.441849680235357 ], [ 4.938873010739463, 51.441895854048198 ], [ 4.938785138008423, 51.44222962085589 ], [ 4.938785003255463, 51.442230159665662 ], [ 4.938750039100823, 51.442362960560764 ], [ 4.938749964355534, 51.442363247914869 ], [ 4.938715014820803, 51.442496003911131 ], [ 4.938714984904821, 51.442496120650446 ], [ 4.938679990246627, 51.442629056238069 ], [ 4.938644965466736, 51.442762108553161 ], [ 4.938609940834993, 51.442895124902577 ], [ 4.938575050224571, 51.44302765636133 ], [ 4.938574900995001, 51.443028204103939 ], [ 4.938539875686391, 51.443161247394968 ], [ 4.93853983103229, 51.443161400032785 ], [ 4.938493762705263, 51.443336405478142 ], [ 4.938493643213821, 51.443336854458295 ], [ 4.938467792292582, 51.443435047499655 ], [ 4.938408534933203, 51.4434199881374 ], [ 4.93817361823007, 51.443364342798567 ], [ 4.937822598083352, 51.44329674433471 ], [ 4.937860051501477, 51.443202137688139 ], [ 4.937860169669564, 51.443201823535411 ], [ 4.937894023825563, 51.443116290688515 ], [ 4.937926077908758, 51.443035335185925 ], [ 4.937958132054818, 51.442954361697097 ], [ 4.937990156611387, 51.442873459995837 ], [ 4.938022240269643, 51.442792387726065 ], [ 4.938054338019309, 51.442711333479195 ], [ 4.938086391796392, 51.442630350964478 ], [ 4.938119050222383, 51.442547842672901 ], [ 4.938146973512631, 51.44247729821236 ], [ 4.938150321805511, 51.442468852642392 ], [ 4.938163199425043, 51.442436299842306 ], [ 4.938159633213814, 51.442401166910038 ], [ 4.938155673861083, 51.442362140317883 ], [ 4.938141974163149, 51.442227031002233 ], [ 4.938110970326594, 51.441921211862734 ], [ 4.938106433915342, 51.44187652909654 ], [ 4.937810330215541, 51.441885906160969 ], [ 4.937691185735161, 51.441890930477243 ], [ 4.937544958808687, 51.441900164948308 ], [ 4.937427486105272, 51.441910678600252 ], [ 4.937132512333315, 51.441943968489142 ], [ 4.936458542177749, 51.442020019330897 ], [ 4.936359905682983, 51.442031099041564 ], [ 4.936300003726758, 51.442037833933917 ], [ 4.936170582753816, 51.442049288925077 ], [ 4.936008510636093, 51.442060797320373 ], [ 4.935794527541958, 51.442070936170538 ], [ 4.934617328754553, 51.442105208485529 ], [ 4.93426960410791, 51.442112758386905 ], [ 4.934268991926276, 51.442074490713487 ], [ 4.934267744871689, 51.441995896844411 ], [ 4.934279961126716, 51.44182317962634 ], [ 4.934189518757571, 51.441820221839556 ], [ 4.934039142105299, 51.44150608189765 ], [ 4.933850314937251, 51.441111585370791 ], [ 4.93374059316852, 51.440882385259378 ], [ 4.933864416086745, 51.440881086540763 ], [ 4.934090110876243, 51.440878727080431 ], [ 4.934261115322196, 51.440876936959654 ], [ 4.934265660841228, 51.440876891679885 ], [ 4.934266308146435, 51.44087688520338 ], [ 4.934620846007173, 51.440873173007844 ], [ 4.934899850124972, 51.440870254658847 ], [ 4.93489972598878, 51.440855224913001 ], [ 4.934895921079956, 51.440409581673705 ], [ 4.934893728528767, 51.440153671170265 ], [ 4.934888684148531, 51.439560454052987 ], [ 4.936425728642845, 51.439665907243295 ], [ 4.936419928490289, 51.439612491399224 ], [ 4.936374579638234, 51.439195146256317 ], [ 4.934581874399403, 51.43915755521931 ], [ 4.934628011380227, 51.438798541868763 ], [ 4.934660262716894, 51.438548778409078 ], [ 4.936342680377382, 51.438595919831187 ], [ 4.936356006849208, 51.438474379883353 ], [ 4.936430736417992, 51.437792392026353 ], [ 4.939038729769457, 51.4379893139008 ], [ 4.9388566779683, 51.438673830382001 ], [ 4.938785774916114, 51.439316885924214 ], [ 4.939881181554282, 51.439446213836121 ], [ 4.939976246209268, 51.439197498734913 ], [ 4.940362008001829, 51.438020177122013 ], [ 4.940363950066226, 51.438014260943319 ], [ 4.940230573186526, 51.437887727280525 ], [ 4.939449706932344, 51.437146843710273 ], [ 4.939468640675307, 51.437109513982115 ], [ 4.939485491710318, 51.437076302117035 ], [ 4.939971361228494, 51.436118548463021 ], [ 4.939297451346669, 51.436029401670787 ], [ 4.939278617169874, 51.436058093522959 ], [ 4.938852522761186, 51.435981670435517 ], [ 4.938847367999254, 51.436008617016412 ], [ 4.938326941068706, 51.435887424879155 ] ], [ [ 4.935409753368877, 51.432107658438341 ], [ 4.9354012244782, 51.432194861712517 ], [ 4.935390304631422, 51.432324527804226 ], [ 4.935388859810305, 51.432362940337548 ], [ 4.935385816105548, 51.432443701901377 ], [ 4.935381874613512, 51.43254250050822 ], [ 4.935381225622339, 51.4325586508672 ], [ 4.935379099817902, 51.432657069985332 ], [ 4.93538250559484, 51.432722611517242 ], [ 4.935384293558354, 51.432756955652287 ], [ 4.935396880323026, 51.432865409302487 ], [ 4.935405853636004, 51.432917668967214 ], [ 4.935419595060052, 51.432982171858143 ], [ 4.935428313060492, 51.433018115862353 ], [ 4.935469472110243, 51.433187759006692 ], [ 4.935494931004504, 51.433303363623928 ], [ 4.935503749135332, 51.433356791222295 ], [ 4.935508407709201, 51.433409124062763 ], [ 4.935506937115483, 51.43345595001044 ], [ 4.935502133703732, 51.433490807954925 ], [ 4.934114279428172, 51.433429247385064 ], [ 4.934128933530832, 51.432945922608944 ], [ 4.934148085171279, 51.432313868620746 ], [ 4.934180442485349, 51.431951925386883 ], [ 4.935415145809641, 51.43205253303308 ], [ 4.935409753368877, 51.432107658438341 ] ], [ [ 4.932384043143716, 51.436463400141747 ], [ 4.932106834070151, 51.436457744089154 ], [ 4.931352234531432, 51.436442340321427 ], [ 4.931329228433166, 51.436441872919602 ], [ 4.931305925632897, 51.43635602874037 ], [ 4.931289605841965, 51.436276593885303 ], [ 4.931275974514195, 51.436172809885406 ], [ 4.931270469454651, 51.436061776705927 ], [ 4.931283934134415, 51.43577958101254 ], [ 4.931299538645299, 51.435542247783125 ], [ 4.931306130580221, 51.435443936069156 ], [ 4.931308747990313, 51.435340395322875 ], [ 4.93130730998877, 51.435254097227777 ], [ 4.931298367073889, 51.435127320212466 ], [ 4.931284662390837, 51.435002142575144 ], [ 4.931252771037678, 51.434725432595542 ], [ 4.931251067959198, 51.434665650420669 ], [ 4.931329128971908, 51.434655582329263 ], [ 4.931385705509996, 51.434648288703961 ], [ 4.931539638117676, 51.434628485314128 ], [ 4.931635996124241, 51.434613670466639 ], [ 4.931719824994165, 51.434600604395236 ], [ 4.931985764594756, 51.434554181274912 ], [ 4.932004642343686, 51.43489167647737 ], [ 4.932013051837888, 51.435041822233032 ], [ 4.932016528841415, 51.43510408323219 ], [ 4.932019409701425, 51.435155474447093 ], [ 4.932026768226004, 51.435287018273797 ], [ 4.93242005283862, 51.435291607864464 ], [ 4.932376275765599, 51.434490175670426 ], [ 4.932571608670222, 51.434457588408236 ], [ 4.932733080727671, 51.434431520660382 ], [ 4.932787323809964, 51.435293092572792 ], [ 4.932791433034688, 51.435358403209769 ], [ 4.93278440383328, 51.435431652525608 ], [ 4.932774052987543, 51.43553947780336 ], [ 4.93276349529294, 51.435650735995182 ], [ 4.932752839208959, 51.435761760093534 ], [ 4.932739873315802, 51.435896739331838 ], [ 4.932697797556214, 51.436334779387963 ], [ 4.932684862244983, 51.436469543004229 ], [ 4.932384043143716, 51.436463400141747 ] ], [ [ 4.935374029976751, 51.437521697762243 ], [ 4.93541770958621, 51.43683082617715 ], [ 4.935452265761385, 51.436284045602392 ], [ 4.935458797884794, 51.436180717701717 ], [ 4.936238818600359, 51.436232714635835 ], [ 4.936802884172892, 51.436270317935879 ], [ 4.936688947717732, 51.436652081741791 ], [ 4.936627282579106, 51.436852473590164 ], [ 4.936613722235899, 51.436909041657529 ], [ 4.936567280953211, 51.437102759646145 ], [ 4.936478328052313, 51.437546462625683 ], [ 4.935374029976751, 51.437521697762243 ] ], [ [ 4.930689572306084, 51.437155599835798 ], [ 4.930718341004497, 51.437054588386331 ], [ 4.930748499623308, 51.436987110586713 ], [ 4.930793071871095, 51.436916453185866 ], [ 4.930846652100104, 51.436826612943179 ], [ 4.930907165258743, 51.436725168278898 ], [ 4.930995446856221, 51.436669962661703 ], [ 4.931214410375422, 51.4366339643963 ], [ 4.931302279625497, 51.436619934624936 ], [ 4.931391877444387, 51.436605623897805 ], [ 4.931526431122758, 51.436913746081665 ], [ 4.931632460754604, 51.437169262164716 ], [ 4.931546742299347, 51.437168019627485 ], [ 4.930689572306084, 51.437155599835798 ] ], [ [ 4.932386579785647, 51.440030461502808 ], [ 4.932323260954036, 51.440025243910213 ], [ 4.932030163666396, 51.44000108978247 ], [ 4.931635305491658, 51.439968555664301 ], [ 4.930710647624019, 51.439892348866799 ], [ 4.930689493593221, 51.439890603190186 ], [ 4.930634754607757, 51.439886092402439 ], [ 4.930834170698049, 51.439361926631072 ], [ 4.930834217084044, 51.439361603215737 ], [ 4.930919845095748, 51.438777450454218 ], [ 4.931142084168503, 51.438788836073705 ], [ 4.931142486682154, 51.438788855624331 ], [ 4.932160812838701, 51.438838889409404 ], [ 4.93222311594669, 51.438841954812446 ], [ 4.932259761965175, 51.438931356436463 ], [ 4.932284576639293, 51.438995723071613 ], [ 4.932302197395982, 51.439045949247557 ], [ 4.932323068950402, 51.439116322997215 ], [ 4.932337318244659, 51.439172918071499 ], [ 4.932350907083864, 51.439238049926729 ], [ 4.932365516213308, 51.439345073550093 ], [ 4.932372729220815, 51.439443798652064 ], [ 4.932389080310415, 51.439981662082985 ], [ 4.932386579785647, 51.440030461502808 ] ], [ [ 4.923819140177642, 51.437978681354963 ], [ 4.923937533008412, 51.438103376659434 ], [ 4.924187446361715, 51.438349043689939 ], [ 4.924718480155208, 51.438969039649216 ], [ 4.924747912584942, 51.439144258134242 ], [ 4.923277604222068, 51.439834335341878 ], [ 4.924862041154665, 51.440725031376438 ], [ 4.924355466238577, 51.441073712415559 ], [ 4.924305407905765, 51.441108174684246 ], [ 4.924594002139816, 51.441299971479893 ], [ 4.925014442534946, 51.44161031272705 ], [ 4.925079023059189, 51.441692672166901 ], [ 4.92511767499458, 51.441741957992839 ], [ 4.924994467702133, 51.441750369002008 ], [ 4.924843881910721, 51.441763705143224 ], [ 4.924595781861868, 51.44179067711638 ], [ 4.924260772134071, 51.441835101663365 ], [ 4.924168146972751, 51.441848846614718 ], [ 4.924120177145106, 51.441856027094879 ], [ 4.924099449861614, 51.441823540222956 ], [ 4.923984685305447, 51.441643713252262 ], [ 4.92399621803666, 51.441641152275423 ], [ 4.923939776619059, 51.44156200657482 ], [ 4.923957803505473, 51.441557314068696 ], [ 4.923780331812985, 51.441399844793949 ], [ 4.923513681289418, 51.441184789254059 ], [ 4.923416942448462, 51.441106768573377 ], [ 4.923194648385485, 51.440927484211812 ], [ 4.923082603185608, 51.440837123687992 ], [ 4.92297071544747, 51.440746880535599 ], [ 4.922848471078176, 51.440648290413215 ], [ 4.922724329942522, 51.440548164515228 ], [ 4.92260046032769, 51.440448264283987 ], [ 4.92248744745351, 51.440357117301147 ], [ 4.922363364883125, 51.440257045178853 ], [ 4.922322921925214, 51.440224425516966 ], [ 4.922459821004129, 51.440184700946809 ], [ 4.922460066786919, 51.44018457608238 ], [ 4.922666886250271, 51.440076590084466 ], [ 4.922713735979572, 51.440052138259368 ], [ 4.921503560288311, 51.439249738799973 ], [ 4.921554177800226, 51.439221086727194 ], [ 4.922325959983625, 51.438784251733644 ], [ 4.922280774476842, 51.438758453636758 ], [ 4.922320660440071, 51.437682113499569 ], [ 4.923698807711187, 51.437648763864459 ], [ 4.923736381377729, 51.437814936277434 ], [ 4.923819140177642, 51.437978681354963 ] ] ], [ [ [ 4.918778584277772, 51.444026358963747 ], [ 4.918878333610801, 51.444005815375775 ], [ 4.918843216362676, 51.443927975250226 ], [ 4.918802108771708, 51.443836789667287 ], [ 4.918755993916667, 51.443779363887195 ], [ 4.918626143021575, 51.443617655412886 ], [ 4.918546403799713, 51.443608705981617 ], [ 4.918540658538217, 51.443579918743993 ], [ 4.918484197397376, 51.443573309947112 ], [ 4.91852455826665, 51.443439089448873 ], [ 4.918222126193998, 51.443433020567753 ], [ 4.918147168295698, 51.443958833913243 ], [ 4.91826529316377, 51.444035479716057 ], [ 4.918372573235454, 51.444105088545363 ], [ 4.918778584277772, 51.444026358963747 ] ] ], [ [ [ 4.925478623838293, 51.445131381528107 ], [ 4.92542662109177, 51.445179931020704 ], [ 4.925352298162666, 51.445249309096958 ], [ 4.925339388138554, 51.445261365917901 ], [ 4.925326768610499, 51.44527314523431 ], [ 4.925228614772847, 51.445364775069685 ], [ 4.925097800487916, 51.445486891354548 ], [ 4.925014603407461, 51.445564566695346 ], [ 4.924171885538781, 51.446351260778982 ], [ 4.92550447994397, 51.446651372513074 ], [ 4.926648100754933, 51.445613496195527 ], [ 4.926915720211484, 51.445370605006588 ], [ 4.926926524173716, 51.445360804883258 ], [ 4.926917639764419, 51.445358576578592 ], [ 4.926771561174699, 51.445321901370207 ], [ 4.926692459640183, 51.44530206561442 ], [ 4.926559925519152, 51.445268841347691 ], [ 4.926419111356535, 51.44522513925768 ], [ 4.926263912431248, 51.445167267774707 ], [ 4.926099863028442, 51.445088507108323 ], [ 4.925933235104298, 51.445008747250561 ], [ 4.925719218801844, 51.444906777228987 ], [ 4.925690162302953, 51.444933907376694 ], [ 4.925597600885956, 51.445020310177249 ], [ 4.925517353486775, 51.445095228991022 ], [ 4.925478623838293, 51.445131381528107 ] ] ], [ [ [ 4.927872291384091, 51.448199489036057 ], [ 4.927765220131789, 51.448275148764807 ], [ 4.927620043136077, 51.448377732604065 ], [ 4.927588747398652, 51.448399847645817 ], [ 4.927446612306946, 51.448500276949794 ], [ 4.927350435252167, 51.448568239861324 ], [ 4.927405606870041, 51.448593607867338 ], [ 4.927598586197331, 51.448682350259759 ], [ 4.927690256875811, 51.448724589996338 ], [ 4.927905919896712, 51.448823677394181 ], [ 4.927915356357121, 51.448828011171244 ], [ 4.928152885095129, 51.448937242610548 ], [ 4.928248462339027, 51.448857375518848 ], [ 4.928367077667518, 51.448758237057547 ], [ 4.928410020402836, 51.448722351815064 ], [ 4.92861843697426, 51.44854816805865 ], [ 4.928646044781198, 51.44852510341822 ], [ 4.928736948911674, 51.44844913668301 ], [ 4.928744260692477, 51.448443026057824 ], [ 4.928830681759663, 51.44837079895624 ], [ 4.928911139914389, 51.448303564124274 ], [ 4.929041720915619, 51.44819442249365 ], [ 4.929125471637765, 51.448124431891173 ], [ 4.928973150526463, 51.448062305676558 ], [ 4.928956316676395, 51.448055444056578 ], [ 4.928765658065357, 51.44797767935038 ], [ 4.928568409882075, 51.447897227753678 ], [ 4.928502751414432, 51.447870443796383 ], [ 4.92839825383896, 51.447827821686069 ], [ 4.928173248003803, 51.447986829644336 ], [ 4.92800006641509, 51.44810920500089 ], [ 4.927872291384091, 51.448199489036057 ] ] ], [ [ [ 4.836181625914676, 51.44877069151255 ], [ 4.836209042827129, 51.448789913267248 ], [ 4.836433068141001, 51.448597395863281 ], [ 4.836664185177255, 51.448398799069977 ], [ 4.836636956829565, 51.448379452467321 ], [ 4.836541807639763, 51.44831183889233 ], [ 4.836224933567267, 51.448046790324533 ], [ 4.835744788080163, 51.448459357913926 ], [ 4.835842439710447, 51.448532898625537 ], [ 4.836044912661666, 51.448674836082247 ], [ 4.836181625914676, 51.44877069151255 ] ] ], [ [ [ 4.930087205660218, 51.449016780622891 ], [ 4.929887425898745, 51.449202245808635 ], [ 4.929883025960244, 51.449206336447162 ], [ 4.929752191069385, 51.449327783676807 ], [ 4.929741184013433, 51.449338005737474 ], [ 4.929656264387839, 51.449416828180922 ], [ 4.929612512080374, 51.449457438810605 ], [ 4.929506376285534, 51.449555971287296 ], [ 4.929490867600542, 51.449570364449094 ], [ 4.929501601422675, 51.449575898693901 ], [ 4.929580330553283, 51.449616486178229 ], [ 4.929674015703568, 51.449664781699177 ], [ 4.929703340565926, 51.44967990793107 ], [ 4.929773525756932, 51.449716102229431 ], [ 4.929850896476651, 51.449773115718166 ], [ 4.929982461606362, 51.449870044958445 ], [ 4.930000112195442, 51.44988304897165 ], [ 4.930057405180731, 51.449925269019495 ], [ 4.930093434701688, 51.449951819200272 ], [ 4.930139689050447, 51.449985906062643 ], [ 4.930216917913499, 51.450042810884163 ], [ 4.930280794695748, 51.450089874590425 ], [ 4.930364221709339, 51.450151342916918 ], [ 4.930387670408609, 51.450168621262939 ], [ 4.930422614944511, 51.450194376080496 ], [ 4.93047655279945, 51.450234119860255 ], [ 4.930500515679333, 51.450251777724567 ], [ 4.930564335955627, 51.450298796108349 ], [ 4.930589270005466, 51.450317167868199 ], [ 4.930703629807334, 51.450401435676895 ], [ 4.930736889626885, 51.450425943356677 ], [ 4.930874284764456, 51.450274363282773 ], [ 4.930947338825045, 51.450193758739729 ], [ 4.931019752556701, 51.450113861763093 ], [ 4.931092238771067, 51.450033884125929 ], [ 4.931165131840625, 51.449953476571679 ], [ 4.931237995701847, 51.449873086835645 ], [ 4.931309099160093, 51.449794640746148 ], [ 4.931457065850468, 51.449631379897347 ], [ 4.931501897809136, 51.449581918835982 ], [ 4.931511735633721, 51.449572060585808 ], [ 4.93155352824668, 51.449530174178548 ], [ 4.931580862007778, 51.449502775180129 ], [ 4.931770409704124, 51.449312808747578 ], [ 4.931790041601351, 51.449293127985882 ], [ 4.9318131608768, 51.449269964187486 ], [ 4.931798715907675, 51.449264370731846 ], [ 4.931652174349238, 51.449207609932031 ], [ 4.931504959659412, 51.449150585643856 ], [ 4.931486029373142, 51.449143257777997 ], [ 4.931461496062772, 51.449133750721195 ], [ 4.931184536483409, 51.44902646638036 ], [ 4.931035101818996, 51.448968578886685 ], [ 4.930796118900279, 51.448876003880251 ], [ 4.930707774157257, 51.448841779626477 ], [ 4.930483452177467, 51.448754879310819 ], [ 4.930447455298662, 51.448740931661497 ], [ 4.930402932045583, 51.448723687699399 ], [ 4.930381513886912, 51.448743576969079 ], [ 4.930374500398471, 51.448750084370708 ], [ 4.930119053488188, 51.448986873792812 ], [ 4.930087205660218, 51.449016780622891 ] ] ], [ [ [ 4.940907297854262, 51.436265961365905 ], [ 4.942189609257092, 51.436454670292378 ], [ 4.942260805234529, 51.436290455843171 ], [ 4.942270648170872, 51.436267751725076 ], [ 4.942425573198321, 51.435910453504469 ], [ 4.942433076508371, 51.435893160697653 ], [ 4.942553159821204, 51.435616233140564 ], [ 4.942579089029087, 51.435493904568339 ], [ 4.942754989876893, 51.435114627326428 ], [ 4.942755665500749, 51.435113182703844 ], [ 4.942496586257879, 51.435061588758032 ], [ 4.941837791501788, 51.434883704920686 ], [ 4.941653683311556, 51.434830696320994 ], [ 4.941565157225386, 51.434805207635485 ], [ 4.941529749677248, 51.434795013951138 ], [ 4.941519725446466, 51.434792126218262 ], [ 4.940998710174218, 51.434642116661479 ], [ 4.940985452394857, 51.434741859567602 ], [ 4.940981322910609, 51.434772927029741 ], [ 4.940956916968717, 51.434959620858564 ], [ 4.940936383136951, 51.435250239955359 ], [ 4.940724826141485, 51.435236307073801 ], [ 4.940405605962671, 51.435246321269915 ], [ 4.940319966386786, 51.435341544231058 ], [ 4.94019070967368, 51.435484959772943 ], [ 4.939971361228494, 51.436118548463021 ], [ 4.94082641288852, 51.436242712594442 ], [ 4.940867787613059, 51.436248722556527 ], [ 4.940867101481321, 51.436260045812837 ], [ 4.940907297854262, 51.436265961365905 ] ] ], [ [ [ 4.941325396218394, 51.438036859775636 ], [ 4.94108494197233, 51.438459870260502 ], [ 4.941065727160787, 51.438493666575816 ], [ 4.941052541714497, 51.438516852196933 ], [ 4.941025257155619, 51.438497871417887 ], [ 4.941011214449312, 51.438541044832021 ], [ 4.940759668419823, 51.439314745937338 ], [ 4.942264970243554, 51.439534158395702 ], [ 4.942147790475659, 51.439817388847786 ], [ 4.942054325561954, 51.440043289241835 ], [ 4.94305317071717, 51.44015708180558 ], [ 4.943068184170635, 51.440158792880815 ], [ 4.943117189866956, 51.440164372646109 ], [ 4.942755862052413, 51.439754366688781 ], [ 4.942538260326227, 51.439546975344662 ], [ 4.942434930573964, 51.439461934133796 ], [ 4.942340647184484, 51.439384334079179 ], [ 4.942174780035287, 51.439270083350543 ], [ 4.941912103093554, 51.439098563975655 ], [ 4.94184411624189, 51.439050034726741 ], [ 4.94185521294904, 51.439022742157398 ], [ 4.941860753974887, 51.43900910932755 ], [ 4.941900012788523, 51.438912503779044 ], [ 4.942226513694092, 51.438109153403268 ], [ 4.94222682316815, 51.438108390535945 ], [ 4.941373761529962, 51.437951785857273 ], [ 4.941325396218394, 51.438036859775636 ] ] ], [ [ [ 4.941528205515851, 51.439733864544181 ], [ 4.939857415007238, 51.439508415069625 ], [ 4.939760880827988, 51.439760180627879 ], [ 4.941434979222704, 51.439986542972797 ], [ 4.941528205515851, 51.439733864544181 ] ] ], [ [ [ 4.939532315362262, 51.442502521623467 ], [ 4.939474942578039, 51.442704225742752 ], [ 4.939418999701722, 51.442900883618286 ], [ 4.939418910223305, 51.442901206871454 ], [ 4.939391243880411, 51.442998476292033 ], [ 4.939391035538089, 51.442999185607093 ], [ 4.939351196902718, 51.443139257878684 ], [ 4.939351092421792, 51.443139643995771 ], [ 4.939270998248782, 51.443421153192489 ], [ 4.939214518948463, 51.443619669586688 ], [ 4.939947186293471, 51.443756862072668 ], [ 4.940237984667739, 51.443028266110169 ], [ 4.940233835308845, 51.443027495160472 ], [ 4.939910057534769, 51.442967234295722 ], [ 4.940265963331272, 51.441851641640383 ], [ 4.940281945402625, 51.441801555276633 ], [ 4.939726269601178, 51.441820728534957 ], [ 4.939712623641243, 51.441868676359391 ], [ 4.939584905169162, 51.442317653113939 ], [ 4.939532315362262, 51.442502521623467 ] ] ], [ [ [ 4.949058256074475, 51.445543956616966 ], [ 4.949126755411651, 51.445533490126465 ], [ 4.949209228252187, 51.445520891761092 ], [ 4.949308187369452, 51.445446746063865 ], [ 4.949404371092217, 51.445332050453672 ], [ 4.949504029741881, 51.445325781528055 ], [ 4.949621420846598, 51.445318392482285 ], [ 4.949674517193661, 51.445196703622088 ], [ 4.949691061524464, 51.444986697744795 ], [ 4.949772512971349, 51.444997969367002 ], [ 4.949787734709099, 51.444955689240679 ], [ 4.949600412198948, 51.444929638664696 ], [ 4.949647761197682, 51.444777276508958 ], [ 4.948940920572007, 51.444731747890025 ], [ 4.948977589672548, 51.444689503458029 ], [ 4.949827020906885, 51.443711357165206 ], [ 4.949876603804772, 51.443654266429427 ], [ 4.949272479357224, 51.44369883269961 ], [ 4.949083895392615, 51.443699832789875 ], [ 4.949057716105352, 51.443698377205045 ], [ 4.948748495471344, 51.443681224882326 ], [ 4.948419341672032, 51.443686190112629 ], [ 4.948144642334128, 51.443697471658623 ], [ 4.948117505314359, 51.443731230324197 ], [ 4.948047682568906, 51.443818095920108 ], [ 4.948073030732524, 51.444038686221454 ], [ 4.948011554202044, 51.444037070621974 ], [ 4.946826245012622, 51.444005853528317 ], [ 4.946499269601373, 51.443987576564702 ], [ 4.946491995162034, 51.443987171566569 ], [ 4.946335797799691, 51.443978439596741 ], [ 4.946031219652085, 51.443961412667726 ], [ 4.946026044177946, 51.443961123440289 ], [ 4.945977754139399, 51.443958424027329 ], [ 4.945805239263857, 51.443948693024815 ], [ 4.945823753223731, 51.443834156005366 ], [ 4.944030844246315, 51.443658992685791 ], [ 4.944023702217307, 51.4436582914064 ], [ 4.943956319672391, 51.443651707407497 ], [ 4.943904065472865, 51.44378894751479 ], [ 4.943969579929909, 51.443795362650548 ], [ 4.943997012968594, 51.443798046613793 ], [ 4.945801103252616, 51.443974744865372 ], [ 4.945776383163797, 51.444165690064985 ], [ 4.945728961735913, 51.444531857702287 ], [ 4.945706996641988, 51.444701464934361 ], [ 4.945706421514865, 51.444705894230658 ], [ 4.945937810773203, 51.444711533363339 ], [ 4.945912713922391, 51.445193956541395 ], [ 4.946424058087599, 51.445194971971716 ], [ 4.946866674511613, 51.445195851724407 ], [ 4.947708251398314, 51.44520199013327 ], [ 4.947718778739729, 51.445736233293765 ], [ 4.947890682035562, 51.44566092523678 ], [ 4.948126300192468, 51.445586485857397 ], [ 4.948259641250647, 51.445557054760236 ], [ 4.948370342201832, 51.445548392369034 ], [ 4.948514909917609, 51.445548126855186 ], [ 4.948715900085608, 51.445574140630114 ], [ 4.948845131382157, 51.445568154152816 ], [ 4.949002505798595, 51.445552475424513 ], [ 4.949058256074475, 51.445543956616966 ] ] ], [ [ [ 4.942115624847335, 51.445549156822224 ], [ 4.942315427246831, 51.445136524234854 ], [ 4.941185421367821, 51.444882772433338 ], [ 4.940996405854538, 51.445265242025521 ], [ 4.940981591145256, 51.445294488837739 ], [ 4.942115624847335, 51.445549156822224 ] ] ], [ [ [ 4.931662026235106, 51.446877996103048 ], [ 4.931582271243514, 51.446948938948069 ], [ 4.931528714168952, 51.44699656821836 ], [ 4.931514824078493, 51.447008927510808 ], [ 4.931611678674156, 51.447050663059692 ], [ 4.931683367186753, 51.447081558702514 ], [ 4.931689010613468, 51.447083989724504 ], [ 4.931707702648237, 51.44709204472305 ], [ 4.931955670315282, 51.447198864219921 ], [ 4.931959565767631, 51.447200596273667 ], [ 4.931947045408607, 51.447212646352142 ], [ 4.931896368300952, 51.447261428600484 ], [ 4.931845168029803, 51.447310730135833 ], [ 4.931792646072146, 51.447361284922714 ], [ 4.93174172157939, 51.447410317825174 ], [ 4.931690826105591, 51.44745931486375 ], [ 4.931638695875051, 51.44750950257005 ], [ 4.931587538649111, 51.447558759217138 ], [ 4.931536671792494, 51.447607738322965 ], [ 4.931512197016143, 51.447631301270476 ], [ 4.931588614720558, 51.447662637905516 ], [ 4.931728585150127, 51.447720038331582 ], [ 4.931861249348014, 51.447774443783395 ], [ 4.932137080196803, 51.447887555867865 ], [ 4.93219653599907, 51.447911931563581 ], [ 4.932317066548864, 51.447961363332489 ], [ 4.932365051380422, 51.447977694209257 ], [ 4.932451788264873, 51.44800721879723 ], [ 4.932528905323932, 51.448033469880841 ], [ 4.932653892790849, 51.448076015269706 ], [ 4.932987179579994, 51.448189456945585 ], [ 4.933071336590501, 51.448218108106445 ], [ 4.933191622583964, 51.448259052595567 ], [ 4.93320651853208, 51.448264126283782 ], [ 4.933258417920981, 51.448281793370079 ], [ 4.933264467405357, 51.448275255080539 ], [ 4.933265761629853, 51.448273857862667 ], [ 4.933280623538947, 51.448257798760487 ], [ 4.933364589041071, 51.44816704185984 ], [ 4.933438011348841, 51.448087677652531 ], [ 4.93351304738696, 51.448006584835419 ], [ 4.933587719690387, 51.447925877074674 ], [ 4.933661969918746, 51.447845635043471 ], [ 4.933746500897282, 51.447754277817999 ], [ 4.933761944206626, 51.447737582709514 ], [ 4.933930190807107, 51.44755573680002 ], [ 4.933966922807096, 51.447516032134203 ], [ 4.93407377367097, 51.447400554530105 ], [ 4.934036241411821, 51.447394898680535 ], [ 4.93394392610345, 51.447380994102616 ], [ 4.93380190269303, 51.447356262620033 ], [ 4.933734800906628, 51.447334069278092 ], [ 4.93367033761407, 51.44730694231469 ], [ 4.933588857363236, 51.447258077202626 ], [ 4.933555081301217, 51.447237820020817 ], [ 4.933518150951747, 51.447204957270564 ], [ 4.93346263142822, 51.447182575083794 ], [ 4.933439349052088, 51.447173190157407 ], [ 4.933314788564597, 51.447132723674301 ], [ 4.933166497832274, 51.447084542249549 ], [ 4.933017691183872, 51.44703619682933 ], [ 4.932964380129941, 51.447018874699374 ], [ 4.932769217261033, 51.446955463097233 ], [ 4.932712938309613, 51.446937176483971 ], [ 4.932688777815203, 51.446929325070968 ], [ 4.932667355979284, 51.446922365220196 ], [ 4.932520821379613, 51.446875645994027 ], [ 4.932399065550732, 51.44683682541455 ], [ 4.932392930712886, 51.44683462622055 ], [ 4.932267510996985, 51.446789633902497 ], [ 4.932142062850002, 51.446744632349201 ], [ 4.932016944625454, 51.446699748801215 ], [ 4.931906848243172, 51.44666025407367 ], [ 4.931850069678999, 51.446710756326013 ], [ 4.931789430328528, 51.446764686193923 ], [ 4.931667396376049, 51.44687322603631 ], [ 4.931662026235106, 51.446877996103048 ] ] ], [ [ [ 4.952757886465435, 51.451634121660994 ], [ 4.951262887933738, 51.451042659013225 ], [ 4.951786753238714, 51.450509512295412 ], [ 4.951912850160357, 51.450546926503968 ], [ 4.952327350034602, 51.450210178813684 ], [ 4.952352301846099, 51.450189912187916 ], [ 4.95240058135822, 51.450150721187597 ], [ 4.952105476119217, 51.450020093178786 ], [ 4.951281825830927, 51.449664569863629 ], [ 4.951106992605407, 51.449594073942578 ], [ 4.951018833268724, 51.449561295022505 ], [ 4.950869592211992, 51.449507433736784 ], [ 4.950714693885399, 51.449458494933062 ], [ 4.950636838107036, 51.449437439669893 ], [ 4.950545810288333, 51.449412829452825 ], [ 4.950382593258754, 51.449376353491736 ], [ 4.950249756054226, 51.449352215779442 ], [ 4.949464514936782, 51.44922414964411 ], [ 4.94848681607528, 51.449064253782069 ], [ 4.948349653985963, 51.449041266186619 ], [ 4.948269817861922, 51.449025864826098 ], [ 4.948284429004152, 51.448966611780804 ], [ 4.948336287529925, 51.448756181614627 ], [ 4.948193466542715, 51.448215688289167 ], [ 4.948131164097469, 51.448187229153184 ], [ 4.948083273037494, 51.447437995642836 ], [ 4.948081786275146, 51.44741463718799 ], [ 4.948053875710815, 51.44739706696884 ], [ 4.947952814620367, 51.447333432602932 ], [ 4.947458503408245, 51.447347724100894 ], [ 4.946850574970687, 51.44736528827751 ], [ 4.946381516136368, 51.447378843517093 ], [ 4.946376192164927, 51.447378994195901 ], [ 4.946325927505982, 51.447400107759506 ], [ 4.946186795273524, 51.447462413731877 ], [ 4.946063805426934, 51.447506623205996 ], [ 4.945974598865329, 51.447523364698533 ], [ 4.945793462705159, 51.447540927031206 ], [ 4.945627501761685, 51.447551175693015 ], [ 4.945448514269092, 51.447554813002505 ], [ 4.945228312414038, 51.447580765939691 ], [ 4.945103951734733, 51.447617868073301 ], [ 4.945008793672899, 51.447659341400872 ], [ 4.945008215841474, 51.447659590897665 ], [ 4.944986791873446, 51.447668929975343 ], [ 4.944905182287776, 51.447710634326505 ], [ 4.944898951316415, 51.447713819710387 ], [ 4.94486765190103, 51.447729817987394 ], [ 4.94476140723173, 51.447784121038161 ], [ 4.946119500853542, 51.448204102733143 ], [ 4.946233939778312, 51.448239492534732 ], [ 4.94637091317651, 51.448281628026066 ], [ 4.946346760011127, 51.448333671749168 ], [ 4.945994357761372, 51.449093060978996 ], [ 4.945881934967314, 51.449073588720857 ], [ 4.945828653351069, 51.449064362507656 ], [ 4.945521731607422, 51.449011210341297 ], [ 4.945202172492063, 51.448955861190122 ], [ 4.944524681237408, 51.44882682142245 ], [ 4.944524408444372, 51.448826766455099 ], [ 4.944018970407152, 51.448730502083329 ], [ 4.944012810401278, 51.448729328128721 ], [ 4.943813432398811, 51.448702053980568 ], [ 4.943532970415812, 51.44866368475774 ], [ 4.943493499587634, 51.447614363600117 ], [ 4.943491135440881, 51.447551343219736 ], [ 4.943490300473245, 51.447529245608386 ], [ 4.943488404633494, 51.447478703443558 ], [ 4.943356573933481, 51.447455550449178 ], [ 4.943144318902124, 51.447418787944152 ], [ 4.941645872579409, 51.447162649666517 ], [ 4.941484480105285, 51.447132370441565 ], [ 4.941391316866437, 51.447112329180499 ], [ 4.941400291050941, 51.447055194768325 ], [ 4.941400367370001, 51.447054745620413 ], [ 4.941415578589575, 51.446958524813823 ], [ 4.941487445256726, 51.446504146390623 ], [ 4.941500953781063, 51.446418723591428 ], [ 4.941468739746207, 51.446420838777101 ], [ 4.94138450536512, 51.446426368752462 ], [ 4.941132742453921, 51.446404202252459 ], [ 4.940699369362139, 51.446366041655288 ], [ 4.94053853649365, 51.446656213564445 ], [ 4.940479719930013, 51.446761516834812 ], [ 4.940475839239374, 51.446768522225142 ], [ 4.940451456586597, 51.446812554859505 ], [ 4.940204424342582, 51.446728822278274 ], [ 4.939722403096698, 51.446565716331357 ], [ 4.93974840884765, 51.446510265319041 ], [ 4.939797522735766, 51.446405842074931 ], [ 4.939965768788671, 51.446048121863306 ], [ 4.940146999131061, 51.445662783650711 ], [ 4.94019463672217, 51.445562030998651 ], [ 4.940370139146699, 51.445188328959375 ], [ 4.940132468514054, 51.445162969278691 ], [ 4.939974658395092, 51.445498446519636 ], [ 4.939922799087961, 51.445608666077213 ], [ 4.939749706942879, 51.445976614874247 ], [ 4.939749104482848, 51.445977906950191 ], [ 4.939749001763722, 51.445978113298551 ], [ 4.939582165533226, 51.44633274646651 ], [ 4.939532625255793, 51.446438066864943 ], [ 4.939506914034929, 51.446492799856657 ], [ 4.939081529303769, 51.446348874828622 ], [ 4.939069378123995, 51.446404055295424 ], [ 4.939068038523417, 51.446410090618308 ], [ 4.938993606988583, 51.446748385532715 ], [ 4.938908814458626, 51.447133741854394 ], [ 4.937680262683297, 51.446969609381988 ], [ 4.937658469320068, 51.446966693974254 ], [ 4.936844659571825, 51.446857956295275 ], [ 4.936728035997384, 51.4468423780922 ], [ 4.936429603708539, 51.446881729353485 ], [ 4.936424043833042, 51.446882462938326 ], [ 4.936238596115539, 51.446906915156724 ], [ 4.936375573819035, 51.447048927899772 ], [ 4.936455969814354, 51.447137867888109 ], [ 4.936580426836643, 51.447280730908815 ], [ 4.936662455445279, 51.44737631078187 ], [ 4.936788485581999, 51.447523152692646 ], [ 4.936638485821786, 51.447520749007545 ], [ 4.935964202126867, 51.447509631678223 ], [ 4.935661621221393, 51.447501135593036 ], [ 4.935660600177089, 51.447501104676469 ], [ 4.935263606610354, 51.447489968095603 ], [ 4.935261693895649, 51.447489915745251 ], [ 4.935256171521535, 51.447489759529574 ], [ 4.934844034856676, 51.447478185352594 ], [ 4.934809649432338, 51.447477216119921 ], [ 4.934737426983883, 51.447475192333158 ], [ 4.934698051158576, 51.447474095855803 ], [ 4.934697623045228, 51.447494031334578 ], [ 4.934697034366406, 51.447521444865011 ], [ 4.934667245274124, 51.447580565501006 ], [ 4.9346072591708, 51.447667434287801 ], [ 4.934576893602931, 51.447706363840751 ], [ 4.934419848158485, 51.447907741828587 ], [ 4.934297772177908, 51.448064257420164 ], [ 4.934257747148187, 51.448112506738731 ], [ 4.934092754218685, 51.448311381528725 ], [ 4.933926842506256, 51.448511367128653 ], [ 4.933762414408312, 51.44870956948845 ], [ 4.933596936623611, 51.448909025969066 ], [ 4.933431865005949, 51.449107998400777 ], [ 4.933266864676298, 51.449306889978381 ], [ 4.933082133093322, 51.44952956080693 ], [ 4.933089827583264, 51.449531199737592 ], [ 4.933109494608414, 51.449535375142666 ], [ 4.933357772234955, 51.449588179161985 ], [ 4.933580698627885, 51.449635589729574 ], [ 4.93359134223795, 51.449637231099885 ], [ 4.933871438429321, 51.44968033292966 ], [ 4.933915090429363, 51.449687046304135 ], [ 4.93411283837638, 51.449705935511865 ], [ 4.934175961341591, 51.44971196931305 ], [ 4.934440700161881, 51.449737257304697 ], [ 4.934610837881433, 51.449753512711318 ], [ 4.935328318314474, 51.449822054616057 ], [ 4.935928428737105, 51.449897554120994 ], [ 4.935952179452251, 51.449900513370451 ], [ 4.936058174897114, 51.449902010757945 ], [ 4.937230339067664, 51.449918571531455 ], [ 4.937274472344892, 51.450111191621289 ], [ 4.93788466023896, 51.450088912889605 ], [ 4.93794112783459, 51.450402389505314 ], [ 4.939183133717708, 51.450381113936707 ], [ 4.939398113073469, 51.450377426546417 ], [ 4.939438361571718, 51.450410030476291 ], [ 4.939479344421316, 51.450441109115211 ], [ 4.939734883928467, 51.450444201415891 ], [ 4.941081052241792, 51.450460455574856 ], [ 4.941070181092547, 51.450574580594228 ], [ 4.941049788102365, 51.450788426761761 ], [ 4.941502496204706, 51.45079563047944 ], [ 4.941503603817114, 51.45079564369766 ], [ 4.941517081125422, 51.450795910890776 ], [ 4.942999784454585, 51.450825599006969 ], [ 4.94300053242494, 51.450825610842244 ], [ 4.943040043805719, 51.450826399406374 ], [ 4.943042654092282, 51.450809510423909 ], [ 4.943112044385814, 51.450361683527497 ], [ 4.94315239355892, 51.450366511206695 ], [ 4.943519286944279, 51.450410405409933 ], [ 4.943526557831345, 51.450411277993894 ], [ 4.943935094587255, 51.45046014716258 ], [ 4.943935655014243, 51.450460212212391 ], [ 4.944780952818413, 51.450561325149849 ], [ 4.944998607588361, 51.450587363488943 ], [ 4.945072474691229, 51.450596874796062 ], [ 4.945494024965047, 51.450651154094231 ], [ 4.945510692139753, 51.45065330256449 ], [ 4.946409265783529, 51.450771126660669 ], [ 4.946573269060672, 51.450771116681238 ], [ 4.946656779621834, 51.450748959950189 ], [ 4.946581244367525, 51.450928270714151 ], [ 4.947359245604216, 51.451108104290036 ], [ 4.947623939874476, 51.450572740787571 ], [ 4.948344032016644, 51.450969428789961 ], [ 4.948695782682347, 51.451163200609756 ], [ 4.94868433249611, 51.451186977864253 ], [ 4.948899341123237, 51.451298707002636 ], [ 4.949153758755974, 51.451381639769885 ], [ 4.949558482828011, 51.451441045705323 ], [ 4.949699817480855, 51.451461800300358 ], [ 4.950622353184667, 51.451649075072005 ], [ 4.950379951039765, 51.452203225354403 ], [ 4.949961071145755, 51.452136937792559 ], [ 4.949585303456026, 51.452929598451703 ], [ 4.949538209506671, 51.453112909851896 ], [ 4.949432258574652, 51.453525250355199 ], [ 4.951448233958057, 51.4537107175138 ], [ 4.951469263926742, 51.453712647707256 ], [ 4.951513461291225, 51.453137890382251 ], [ 4.951560704286315, 51.452665796249789 ], [ 4.951602447504651, 51.452543165309706 ], [ 4.951670715230624, 51.452445082807415 ], [ 4.951721108011381, 51.4523958325384 ], [ 4.951738943963785, 51.452381157481682 ], [ 4.951906110958283, 51.452291533663754 ], [ 4.952181841264419, 51.452132381558926 ], [ 4.952340701937517, 51.452020505901856 ], [ 4.952374333644432, 51.451996828905749 ], [ 4.952540882790707, 51.451866123159888 ], [ 4.952652523186258, 51.451760471241414 ], [ 4.952757886465435, 51.451634121660994 ] ], [ [ 4.942023293860611, 51.448006518991484 ], [ 4.942202305099334, 51.44948855364148 ], [ 4.941650449003977, 51.449475392131333 ], [ 4.941571367406698, 51.447941333538679 ], [ 4.942023293860611, 51.448006518991484 ] ] ], [ [ [ 4.943497231407137, 51.452792187561037 ], [ 4.943038289826637, 51.452718387996278 ], [ 4.943038031310825, 51.452718342068671 ], [ 4.942866305630515, 51.452690731123177 ], [ 4.942818228256535, 51.45268299751833 ], [ 4.942813218851787, 51.45273933812144 ], [ 4.942809268383684, 51.45275053209469 ], [ 4.942757292812811, 51.452897597446963 ], [ 4.942749043764483, 51.452994015686684 ], [ 4.942749011484598, 51.452994375115118 ], [ 4.942709409182442, 51.453074979547615 ], [ 4.942663729550373, 51.45316798332076 ], [ 4.942769219212454, 51.453326857275442 ], [ 4.942986285006137, 51.453340762232031 ], [ 4.943125191664351, 51.453349659335558 ], [ 4.943369072888058, 51.45336527458651 ], [ 4.943667180978088, 51.453394003283684 ], [ 4.944472997791121, 51.453483174983148 ], [ 4.944473473930302, 51.453478592510017 ], [ 4.944788937990952, 51.453512867322409 ], [ 4.944840753542777, 51.453335741991509 ], [ 4.944928818657374, 51.453034654860708 ], [ 4.94423220841865, 51.452915608578181 ], [ 4.943497231407137, 51.452792187561037 ] ] ], [ [ [ 4.949791217727816, 51.454304485020245 ], [ 4.949236088756905, 51.454251347215937 ], [ 4.949350876302529, 51.453789664680528 ], [ 4.949022649777706, 51.453765421741828 ], [ 4.94875491065295, 51.45499075560231 ], [ 4.949042549657565, 51.455032375045398 ], [ 4.94959067476171, 51.455111644833664 ], [ 4.949791217727816, 51.454304485020245 ] ] ], [ [ [ 4.942094919168393, 51.455239258320013 ], [ 4.940622363697864, 51.45532513973739 ], [ 4.940715846045024, 51.45562995642311 ], [ 4.941631150805065, 51.455568455955898 ], [ 4.942094919168393, 51.455239258320013 ] ] ] ] } }
]
}
