{
"type": "FeatureCollection",
"name": "Geertruidenberg",
"crs": { "type": "name", "properties": { "name": "urn:ogc:def:crs:OGC:1.3:CRS84" } },
"features": [
{ "type": "Feature", "properties": { "buurtcode": "BU07790000", "buurtnaam": "Raamsdonksveer", "pc6_codes": "4941AA, 4941AB, 4941AC, 4941AD, 4941AE, 4941AG, 4941AH, 4941AJ, 4941AK, 4941AL, 4941AM, 4941AN, 4941AP, 4941AR, 4941AS, 4941AT, 4941AV, 4941AW, 4941AX, 4941AZ, 4941BA, 4941BB, 4941BC, 4941BD, 4941BE, 4941BG, 4941BH, 4941BJ, 4941BM, 4941BN, 4941BP, 4941BR, 4941BS, 4941BT, 4941BV, 4941BW, 4941BX, 4941CA, 4941CB, 4941CC, 4941DA, 4941DB, 4941DC, 4941DD, 4941DE, 4941DG, 4941DH, 4941DJ, 4941DK, 4941DM, 4941DN, 4941DP, 4941DR, 4941DS, 4941DT, 4941DV, 4941DW, 4941DX, 4941DZ, 4941EA, 4941EB, 4941EC, 4941ED, 4941EE, 4941EH, 4941EJ, 4941EK, 4941EL, 4941EM, 4941EN, 4941EP, 4941ER, 4941GC, 4941GD, 4941GE, 4941GG, 4941GH, 4941GJ, 4941GK, 4941GL, 4941GM, 4941GN, 4941GP, 4941GR, 4941GS, 4941GT, 4941GV, 4941GW, 4941GX, 4941GZ, 4941HA, 4941HB, 4941HC, 4941HD, 4941HX, 4941HZ, 4941JA, 4941JB, 4941JC, 4941JD, 4941JE, 4941JG, 4941JH, 4941JJ, 4941JK, 4941JL, 4941JM, 4941JN, 4941JP, 4941JR, 4941JT, 4941JV, 4941JW, 4941JX, 4941JZ, 4941KH, 4941KN, 4941KP, 4941KR, 4941KS, 4941KT, 4941KV, 4941KW, 4941KX, 4941LM, 4941LN, 4941LR, 4941LS, 4941LT, 4941MA, 4941MB, 4941RA, 4941RB, 4941RC, 4941RD, 4941RE, 4941RG, 4941RH, 4941RK, 4941RL, 4941RX, 4941RZ, 4941WB, 4941WC, 4941WD, 4941WE, 4941WG, 4941WH, 4941WJ, 4941WK, 4941WL, 4941WN, 4941WP, 4941WR, 4941WS, 4941WT, 4941XA, 4941XB, 4941XC, 4941XD, 4941XE, 4941XG, 4941XH, 4941XJ, 4941XK, 4941XL, 4941XM, 4941XN, 4941XP, 4941ZA, 4941ZB, 4941ZC, 4941ZD, 4941ZE, 4941ZG, 4941ZH, 4941ZJ, 4941ZK, 4941ZL, 4941ZM, 4941ZN, 4941ZP, 4941ZR, 4941ZS, 4941ZT, 4941ZV", "wijkcode": "WK077900", "gemeentecode": "GM0779", "gemeentenaam": "Geertruidenberg", "oppervlakteLandInHa": 170, "AantalInwoners_5": 6790, "Mannen_6": 3300, "Vrouwen_7": 3485, "HuishoudensTotaal_29": 3170, "GemiddeldeHuishoudensgrootte_33": 2.1, "Woningvoorraad_35": 3197, "NieuwbouwWoningen_36": 7, "NietWoningvoorraad_37": 297, "NieuwbouwNietWoningen_38": 6, "GemiddeldeWOZWaardeVanWoningen_39": 348, "PercentageEengezinswoning_40": 76, "PercentageTussenwoningEengezins_41": 27, "PercentageHoekwoningEengezins_42": 16, "PercentageTweeOnderEenKapWoningEe_43": 18, "PercentageVrijstaandeWoningEengezins_44": 14, "PercentageMeergezinswoning_45": 24, "Koopwoningen_47": 54, "HuurwoningenTotaal_48": 46, "InBezitWoningcorporatie_49": 39, "InBezitOverigeVerhuurders_50": 7, "BouwjaarMeerDanTienJaarGeleden_51": 96, "BouwjaarAfgelopenTienJaar_52": 4, "GemiddeldeElektriciteitslevering_53": 2580, "GemiddeldeElektriciteitsteruglevering_54": 790, "GemiddeldAardgasverbruik_55": 790, "AardgasvrijeWoningen_57": 10, "Aardgaswoningen_58": 85, "WoningenMetZonnestroom_59": 38, "WoningenHoofdzElektrVerwarmd_60": 14, "k_20PersonenMetHoogsteInkomen_80": 17.5, "k_20HuishoudensMetHoogsteInkomen_85": 19.1, "MediaanVermogenVanParticuliereHuish_86": 131.8, "PersonenautoSTotaal_104": 3445, "PersonenautoSBrandstofBenzine_105": 2860, "PersonenautoSOverigeBrandstof_106": 585, "PersonenautoSPerHuishouden_107": 1.1, "Omgevingsadressendichtheid_121": 1409, "AantalInstallatiesBijWoningen_5": 736, "OpgesteldVermogenVanZonnepanelen_6": 2656, "installaties_per_woning": 0.23021582733812951, "vermogen_per_woning": 0.83077885517672823, "installaties_per_100_woningen": 23.021582733812952, "vermogen_per_huishouden": 0.83785488958990539, "batterijdruk_score": 300.2, "koop_zon_score": 0.2052, "eengezins_zon_score": 0.2888, "betaalkracht_zon_score": 50.084, "overige_brandstof_zon_score": 222.3, "lichte_batterij_kansscore": 0.3691214342683245 }, "geometry": { "type": "MultiPolygon", "coordinates": [ [ [ [ 4.871059643389385, 51.699650754126296 ], [ 4.871300169659223, 51.699478782176222 ], [ 4.873564732868685, 51.699069213408421 ], [ 4.87405718160645, 51.699124657771158 ], [ 4.876108551585382, 51.698712607563074 ], [ 4.876059009520501, 51.698618041287048 ], [ 4.876118843661671, 51.698607216630506 ], [ 4.876941937173499, 51.69841341025279 ], [ 4.877883223782672, 51.698062480042424 ], [ 4.878537402344836, 51.697843727038197 ], [ 4.879264663677284, 51.69768641539784 ], [ 4.880016511681871, 51.697529207493083 ], [ 4.881458540859654, 51.697229792635795 ], [ 4.883061929266525, 51.696793512226414 ], [ 4.884469320567031, 51.696287598791621 ], [ 4.885174234521253, 51.695923843011933 ], [ 4.886287359491151, 51.695228566465019 ], [ 4.88592733246429, 51.694218197737094 ], [ 4.88560989271491, 51.693242414114493 ], [ 4.884975924439401, 51.691222591650543 ], [ 4.884728114821799, 51.690552997955962 ], [ 4.884116114440093, 51.689836336975425 ], [ 4.883719823717087, 51.689404021800982 ], [ 4.883305740446048, 51.688926405048811 ], [ 4.882856680529684, 51.688323637422002 ], [ 4.882660061688048, 51.687971672709857 ], [ 4.882498926318236, 51.68771030787201 ], [ 4.882453230210264, 51.687370508295785 ], [ 4.882486059751976, 51.687222898902625 ], [ 4.878027917954427, 51.686455581567358 ], [ 4.877932285898785, 51.686851789033547 ], [ 4.87783665214623, 51.687247997302556 ], [ 4.8776868464533, 51.687598745283232 ], [ 4.877518847978071, 51.687949414808891 ], [ 4.877315237672349, 51.688231671094819 ], [ 4.877128947204674, 51.68857102372472 ], [ 4.87692508899624, 51.688864795404271 ], [ 4.876722251585909, 51.68906784157457 ], [ 4.876322071657384, 51.688986604082857 ], [ 4.875923043424429, 51.688803686171362 ], [ 4.875725213023941, 51.688553387568469 ], [ 4.875251413445805, 51.688528846208087 ], [ 4.874851482398217, 51.688436368042382 ], [ 4.874305474386357, 51.688343249896633 ], [ 4.8738321793399, 51.68828443576858 ], [ 4.873340837350321, 51.688203068933632 ], [ 4.872958086065939, 51.688190153461569 ], [ 4.872611830595012, 51.688177115724031 ], [ 4.872192716677602, 51.688152802190245 ], [ 4.871828141504957, 51.68815119874666 ], [ 4.87153669465125, 51.68812716404075 ], [ 4.871172780581385, 51.688057584793391 ], [ 4.870846120058435, 51.687931427772128 ], [ 4.870107613016084, 51.68792676512394 ], [ 4.869072250824315, 51.688271904365948 ], [ 4.867675597134497, 51.688780318727623 ], [ 4.860609821445482, 51.691672329297226 ], [ 4.860702243288126, 51.691789314978124 ], [ 4.860247246458903, 51.691942885218062 ], [ 4.859745699375964, 51.692066750537641 ], [ 4.859291266730675, 51.692171443808903 ], [ 4.858945294847464, 51.692354432058508 ], [ 4.858441807780608, 51.692643730043365 ], [ 4.858110965442123, 51.692875379494218 ], [ 4.858515456217602, 51.693022710414461 ], [ 4.858997341455791, 51.693248476947886 ], [ 4.859525785040684, 51.693503383880405 ], [ 4.860054462124528, 51.693729075433893 ], [ 4.860614554838688, 51.693935524465864 ], [ 4.861204933358507, 51.694249128368014 ], [ 4.861795660644642, 51.694523685920956 ], [ 4.862338600204774, 51.694875833927881 ], [ 4.862726291775146, 51.695149476900205 ], [ 4.863129018391716, 51.695452398936872 ], [ 4.863453897189583, 51.69573530888799 ], [ 4.863840924695444, 51.696057820909473 ], [ 4.864104558348995, 51.696243546982757 ], [ 4.864461645492529, 51.696449070802174 ], [ 4.864896592399925, 51.696684153768274 ], [ 4.865471219204352, 51.696997384303188 ], [ 4.866030485122029, 51.697291161434585 ], [ 4.866558007405662, 51.697623839675927 ], [ 4.866914668898031, 51.697887780219034 ], [ 4.867099236982731, 51.698131293136186 ], [ 4.867283358216341, 51.698443060833611 ], [ 4.867378398564647, 51.698787298188471 ], [ 4.867483914234417, 51.699301804349375 ], [ 4.867511655954542, 51.699759505959889 ], [ 4.868247856664618, 51.699794791279402 ], [ 4.868684979697577, 51.699805153531194 ], [ 4.869214750126628, 51.699856934476955 ], [ 4.869584543003411, 51.699973735784951 ], [ 4.870112487251921, 51.700165671658574 ], [ 4.871059643389385, 51.699650754126296 ] ] ] ] } },
{ "type": "Feature", "properties": { "buurtcode": "BU07790001", "buurtnaam": "Hooipolder en De Hoeven", "pc6_codes": "4941GB, 4941GC, 4941GG, 4941JS, 4941KA, 4941KB, 4941KC, 4941KE, 4941KG, 4941KJ, 4941KK, 4941KL, 4941KM, 4941KP, 4941LA, 4941LB, 4941LC, 4941LD, 4941LE, 4941LG, 4941LH, 4941LJ, 4941LK, 4941LL, 4941LM, 4941LP, 4941RJ, 4941TE, 4941TG, 4941TK, 4941TL, 4941TM, 4941TN, 4941VA, 4941VB, 4941VD, 4941VE, 4941VG, 4941VH, 4941VJ, 4941VX, 4942AA, 4942AB, 4942AE, 4942AG, 4942AH, 4942AJ, 4942AK, 4942AL, 4942AM, 4942AN, 4942AP, 4942AR, 4942AS, 4942AT, 4942AV, 4942AW, 4942AX, 4942AZ, 4942BA, 4942BB, 4942BC, 4942BD, 4942BE, 4942BG, 4942BH, 4942BJ, 4942BK, 4942BL, 4942BM, 4942BN, 4942BP, 4942BR, 4942BS, 4942BT, 4942BV, 4942BW, 4942BX, 4942BZ, 4942CA, 4942CB, 4942CC, 4942CD, 4942CE, 4942CG, 4942CH, 4942CJ, 4942CK, 4942CL, 4942CM, 4942CP, 4942CR, 4942DA, 4942DB, 4942DC, 4942DD, 4942DE, 4942DG, 4942DH, 4942DJ, 4942DK, 4942DL, 4942DM, 4942DN, 4942DP, 4942DR, 4942DS, 4942EA, 4942EB, 4942EC, 4942ED, 4942EE, 4942EG, 4942VA, 4942VB, 4942VC, 4942VD, 4942VE, 4942VG, 4942VH, 4942VJ, 4942VK, 4942VL, 4942VM, 4942VN, 4942VR, 4942VS", "wijkcode": "WK077900", "gemeentecode": "GM0779", "gemeentenaam": "Geertruidenberg", "oppervlakteLandInHa": 137, "AantalInwoners_5": 5645, "Mannen_6": 2835, "Vrouwen_7": 2810, "HuishoudensTotaal_29": 2345, "GemiddeldeHuishoudensgrootte_33": 2.4, "Woningvoorraad_35": 2378, "NieuwbouwWoningen_36": 0, "NietWoningvoorraad_37": 94, "NieuwbouwNietWoningen_38": 0, "GemiddeldeWOZWaardeVanWoningen_39": 354, "PercentageEengezinswoning_40": 88, "PercentageTussenwoningEengezins_41": 48, "PercentageHoekwoningEengezins_42": 26, "PercentageTweeOnderEenKapWoningEe_43": 6, "PercentageVrijstaandeWoningEengezins_44": 8, "PercentageMeergezinswoning_45": 12, "Koopwoningen_47": 71, "HuurwoningenTotaal_48": 29, "InBezitWoningcorporatie_49": 26, "InBezitOverigeVerhuurders_50": 3, "BouwjaarMeerDanTienJaarGeleden_51": 100, "BouwjaarAfgelopenTienJaar_52": 0, "GemiddeldeElektriciteitslevering_53": 2820, "GemiddeldeElektriciteitsteruglevering_54": 970, "GemiddeldAardgasverbruik_55": 840, "AardgasvrijeWoningen_57": 5, "Aardgaswoningen_58": 90, "WoningenMetZonnestroom_59": 44, "WoningenHoofdzElektrVerwarmd_60": 9, "k_20PersonenMetHoogsteInkomen_80": 19.0, "k_20HuishoudensMetHoogsteInkomen_85": 22.4, "MediaanVermogenVanParticuliereHuish_86": 195.4, "PersonenautoSTotaal_104": 3035, "PersonenautoSBrandstofBenzine_105": 2535, "PersonenautoSOverigeBrandstof_106": 495, "PersonenautoSPerHuishouden_107": 1.3, "Omgevingsadressendichtheid_121": 1283, "AantalInstallatiesBijWoningen_5": 659, "OpgesteldVermogenVanZonnepanelen_6": 2669, "installaties_per_woning": 0.27712363330529854, "vermogen_per_woning": 1.122371740958789, "installaties_per_100_woningen": 27.712363330529854, "vermogen_per_huishouden": 1.1381663113006397, "batterijdruk_score": 426.8, "koop_zon_score": 0.3124, "eengezins_zon_score": 0.3872, "betaalkracht_zon_score": 85.976, "overige_brandstof_zon_score": 217.8, "lichte_batterij_kansscore": 0.44272823769868319 }, "geometry": { "type": "MultiPolygon", "coordinates": [ [ [ [ 4.876665103191556, 51.707631658420112 ], [ 4.877681546085217, 51.707424849917736 ], [ 4.879239035284533, 51.706847352161319 ], [ 4.880076792319692, 51.706455481287833 ], [ 4.880877149669113, 51.706040971272692 ], [ 4.880996627953639, 51.706029698914968 ], [ 4.882760519869278, 51.705106935312564 ], [ 4.883019467099288, 51.705034539040646 ], [ 4.883913051170921, 51.704958188660925 ], [ 4.888072968259054, 51.704894245042631 ], [ 4.88826775100096, 51.703623273910644 ], [ 4.888207665017395, 51.701990458560765 ], [ 4.887760684323863, 51.700147851761002 ], [ 4.887278888726527, 51.698585426314722 ], [ 4.886621359500535, 51.696312146616549 ], [ 4.886431866629835, 51.695657694063989 ], [ 4.886392774736451, 51.695524382802546 ], [ 4.886287359491151, 51.695228566465019 ], [ 4.885174234521253, 51.695923843011933 ], [ 4.884469320567031, 51.696287598791621 ], [ 4.883061929266525, 51.696793512226414 ], [ 4.881458540859654, 51.697229792635795 ], [ 4.880016511681871, 51.697529207493083 ], [ 4.879264663677284, 51.69768641539784 ], [ 4.878537402344836, 51.697843727038197 ], [ 4.877883223782672, 51.698062480042424 ], [ 4.876941937173499, 51.69841341025279 ], [ 4.876118843661671, 51.698607216630506 ], [ 4.876059009520501, 51.698618041287048 ], [ 4.876108551585382, 51.698712607563074 ], [ 4.87405718160645, 51.699124657771158 ], [ 4.873564732868685, 51.699069213408421 ], [ 4.871300169659223, 51.699478782176222 ], [ 4.871059643389385, 51.699650754126296 ], [ 4.870112487251921, 51.700165671658574 ], [ 4.869584543003411, 51.699973735784951 ], [ 4.869214750126628, 51.699856934476955 ], [ 4.868684979697577, 51.699805153531194 ], [ 4.868247856664618, 51.699794791279402 ], [ 4.867511655954542, 51.699759505959889 ], [ 4.867526476928622, 51.700003949521545 ], [ 4.867478848756878, 51.700372272587011 ], [ 4.867480979331531, 51.700816377578185 ], [ 4.867271544760772, 51.701791558183018 ], [ 4.867024508983082, 51.702900558779753 ], [ 4.866972554503463, 51.703015495057791 ], [ 4.866761726590815, 51.703481125808501 ], [ 4.866530120026107, 51.703994134638528 ], [ 4.866130857959061, 51.704745720036897 ], [ 4.864734935028983, 51.706239763387273 ], [ 4.863464420485407, 51.707389131340349 ], [ 4.866914013127749, 51.707721631094209 ], [ 4.870918230147242, 51.707773611733849 ], [ 4.873811433415399, 51.707808795351916 ], [ 4.876665103191556, 51.707631658420112 ] ] ] ] } },
{ "type": "Feature", "properties": { "buurtcode": "BU07790002", "buurtnaam": "Industrieterrein Dombosch", "pc6_codes": "4941SB, 4941SC, 4941SE, 4941SG, 4941SH, 4941SJ, 4941SK, 4941SL, 4941VK, 4941VL, 4941VM, 4941VN, 4941VP, 4941VR, 4941VS, 4941VT, 4941VV, 4941VW, 4941VX, 4941VZ", "wijkcode": "WK077900", "gemeentecode": "GM0779", "gemeentenaam": "Geertruidenberg", "oppervlakteLandInHa": 248, "AantalInwoners_5": 40, "Mannen_6": 25, "Vrouwen_7": 15, "HuishoudensTotaal_29": 20, "GemiddeldeHuishoudensgrootte_33": 2.0, "Woningvoorraad_35": 26, "NieuwbouwWoningen_36": 0, "NietWoningvoorraad_37": 380, "NieuwbouwNietWoningen_38": 2, "GemiddeldeWOZWaardeVanWoningen_39": 370, "PercentageEengezinswoning_40": 62, "PercentageTussenwoningEengezins_41": 0, "PercentageHoekwoningEengezins_42": 4, "PercentageTweeOnderEenKapWoningEe_43": 19, "PercentageVrijstaandeWoningEengezins_44": 35, "PercentageMeergezinswoning_45": 38, "Koopwoningen_47": 42, "HuurwoningenTotaal_48": 58, "InBezitWoningcorporatie_49": 0, "InBezitOverigeVerhuurders_50": 58, "BouwjaarMeerDanTienJaarGeleden_51": 96, "BouwjaarAfgelopenTienJaar_52": 4, "GemiddeldeElektriciteitslevering_53": 3670, "GemiddeldeElektriciteitsteruglevering_54": 1290, "GemiddeldAardgasverbruik_55": 1270, "AardgasvrijeWoningen_57": null, "Aardgaswoningen_58": null, "WoningenMetZonnestroom_59": null, "WoningenHoofdzElektrVerwarmd_60": null, "k_20PersonenMetHoogsteInkomen_80": null, "k_20HuishoudensMetHoogsteInkomen_85": null, "MediaanVermogenVanParticuliereHuish_86": null, "PersonenautoSTotaal_104": 350, "PersonenautoSBrandstofBenzine_105": 125, "PersonenautoSOverigeBrandstof_106": 220, "PersonenautoSPerHuishouden_107": null, "Omgevingsadressendichtheid_121": 455, "AantalInstallatiesBijWoningen_5": null, "OpgesteldVermogenVanZonnepanelen_6": null, "installaties_per_woning": null, "vermogen_per_woning": null, "installaties_per_100_woningen": null, "vermogen_per_huishouden": null, "batterijdruk_score": null, "koop_zon_score": null, "eengezins_zon_score": null, "betaalkracht_zon_score": null, "overige_brandstof_zon_score": null, "lichte_batterij_kansscore": null }, "geometry": { "type": "MultiPolygon", "coordinates": [ [ [ [ 4.880509628864861, 51.720145141683354 ], [ 4.883045505182598, 51.72007139610826 ], [ 4.883591569242107, 51.720057609309443 ], [ 4.883711873909339, 51.720053757742349 ], [ 4.883833259374216, 51.720047717471942 ], [ 4.88631456597666, 51.71993079109594 ], [ 4.886971017731233, 51.71990009428476 ], [ 4.888650915565102, 51.719823793230489 ], [ 4.889081112485504, 51.719802180170049 ], [ 4.889440620575814, 51.719787860699796 ], [ 4.889790103060083, 51.71977584360409 ], [ 4.890017175016661, 51.719769778031349 ], [ 4.890031386041479, 51.719768490924771 ], [ 4.889243113985677, 51.717390685507567 ], [ 4.888517166726279, 51.716295482037317 ], [ 4.886080238813822, 51.714211525172566 ], [ 4.888504965720123, 51.713598844376378 ], [ 4.888495773161504, 51.709666004799779 ], [ 4.888411793101738, 51.707810339158584 ], [ 4.888530073046832, 51.706555244269211 ], [ 4.888095418450892, 51.705475039133773 ], [ 4.888068136993406, 51.704925773639317 ], [ 4.888072968259054, 51.704894245042631 ], [ 4.883913051170921, 51.704958188660925 ], [ 4.883019467099288, 51.705034539040646 ], [ 4.882760519869278, 51.705106935312564 ], [ 4.880996627953639, 51.706029698914968 ], [ 4.880877149669113, 51.706040971272692 ], [ 4.880076792319692, 51.706455481287833 ], [ 4.879239035284533, 51.706847352161319 ], [ 4.877681546085217, 51.707424849917736 ], [ 4.876665103191556, 51.707631658420112 ], [ 4.873811433415399, 51.707808795351916 ], [ 4.870918230147242, 51.707773611733849 ], [ 4.866914013127749, 51.707721631094209 ], [ 4.863464420485407, 51.707389131340349 ], [ 4.862818132901113, 51.70797218765869 ], [ 4.860878950039366, 51.709633694665023 ], [ 4.858070343692696, 51.711749387106167 ], [ 4.857737937573714, 51.711967264134906 ], [ 4.857035029375401, 51.712315486053207 ], [ 4.856112748202634, 51.71261074373335 ], [ 4.855238226840924, 51.712775594403276 ], [ 4.853876678770593, 51.712894405182901 ], [ 4.841592415924564, 51.713449477687838 ], [ 4.843814196303772, 51.713929205479303 ], [ 4.847745228891234, 51.715044377732156 ], [ 4.850316750667207, 51.715628691722372 ], [ 4.85299383029607, 51.71609295556177 ], [ 4.861049727951332, 51.717488968172233 ], [ 4.861830705669561, 51.71762101830943 ], [ 4.862099091891493, 51.717673024914752 ], [ 4.864985063200268, 51.718338656732989 ], [ 4.865315941394805, 51.718422304697889 ], [ 4.867549455526623, 51.718986908777985 ], [ 4.867834751106959, 51.719061035252537 ], [ 4.868132450889365, 51.719126245322066 ], [ 4.869335512267662, 51.719344463194645 ], [ 4.870795106686478, 51.719629038751741 ], [ 4.871030991038857, 51.719671407589296 ], [ 4.872020978396228, 51.719827716292421 ], [ 4.872313246505906, 51.719872703379167 ], [ 4.873054920980748, 51.719998267651114 ], [ 4.874762267230309, 51.71997726946131 ], [ 4.874829773960125, 51.719978966837651 ], [ 4.875169882950857, 51.719987518318831 ], [ 4.876187062402275, 51.720010025072703 ], [ 4.87722075669907, 51.720046518226852 ], [ 4.877476413285638, 51.720054632565677 ], [ 4.877808202008754, 51.720063176151506 ], [ 4.879156351040578, 51.720108173502503 ], [ 4.879968109492753, 51.720134188132327 ], [ 4.880371263894181, 51.720147590535355 ], [ 4.880414608418981, 51.720148793687841 ], [ 4.880509628864861, 51.720145141683354 ] ] ] ] } },
{ "type": "Feature", "properties": { "buurtcode": "BU07790009", "buurtnaam": "Verspreide huizen Raamsdonksveer", "pc6_codes": "4931PD, 4941ED, 4941EG, 4941WV, 4941WX, 4941WZ", "wijkcode": "WK077900", "gemeentecode": "GM0779", "gemeentenaam": "Geertruidenberg", "oppervlakteLandInHa": 347, "AantalInwoners_5": 75, "Mannen_6": 35, "Vrouwen_7": 45, "HuishoudensTotaal_29": 10, "GemiddeldeHuishoudensgrootte_33": 2.8, "Woningvoorraad_35": 70, "NieuwbouwWoningen_36": 0, "NietWoningvoorraad_37": 15, "NieuwbouwNietWoningen_38": 0, "GemiddeldeWOZWaardeVanWoningen_39": null, "PercentageEengezinswoning_40": 17, "PercentageTussenwoningEengezins_41": 0, "PercentageHoekwoningEengezins_42": 0, "PercentageTweeOnderEenKapWoningEe_43": 3, "PercentageVrijstaandeWoningEengezins_44": 14, "PercentageMeergezinswoning_45": 83, "Koopwoningen_47": 23, "HuurwoningenTotaal_48": 77, "InBezitWoningcorporatie_49": 73, "InBezitOverigeVerhuurders_50": 4, "BouwjaarMeerDanTienJaarGeleden_51": 99, "BouwjaarAfgelopenTienJaar_52": 1, "GemiddeldeElektriciteitslevering_53": 4030, "GemiddeldeElektriciteitsteruglevering_54": 1520, "GemiddeldAardgasverbruik_55": 1130, "AardgasvrijeWoningen_57": null, "Aardgaswoningen_58": null, "WoningenMetZonnestroom_59": null, "WoningenHoofdzElektrVerwarmd_60": null, "k_20PersonenMetHoogsteInkomen_80": null, "k_20HuishoudensMetHoogsteInkomen_85": null, "MediaanVermogenVanParticuliereHuish_86": null, "PersonenautoSTotaal_104": 25, "PersonenautoSBrandstofBenzine_105": 20, "PersonenautoSOverigeBrandstof_106": 5, "PersonenautoSPerHuishouden_107": null, "Omgevingsadressendichtheid_121": 525, "AantalInstallatiesBijWoningen_5": null, "OpgesteldVermogenVanZonnepanelen_6": null, "installaties_per_woning": null, "vermogen_per_woning": null, "installaties_per_100_woningen": null, "vermogen_per_huishouden": null, "batterijdruk_score": null, "koop_zon_score": null, "eengezins_zon_score": null, "betaalkracht_zon_score": null, "overige_brandstof_zon_score": null, "lichte_batterij_kansscore": null }, "geometry": { "type": "MultiPolygon", "coordinates": [ [ [ [ 4.864896592399925, 51.696684153768274 ], [ 4.864461645492529, 51.696449070802174 ], [ 4.864104558348995, 51.696243546982757 ], [ 4.863840924695444, 51.696057820909473 ], [ 4.863453897189583, 51.69573530888799 ], [ 4.863129018391716, 51.695452398936872 ], [ 4.862726291775146, 51.695149476900205 ], [ 4.862338600204774, 51.694875833927881 ], [ 4.861795660644642, 51.694523685920956 ], [ 4.861204933358507, 51.694249128368014 ], [ 4.860614554838688, 51.693935524465864 ], [ 4.860054462124528, 51.693729075433893 ], [ 4.859525785040684, 51.693503383880405 ], [ 4.858997341455791, 51.693248476947886 ], [ 4.858515456217602, 51.693022710414461 ], [ 4.858110965442123, 51.692875379494218 ], [ 4.858441807780608, 51.692643730043365 ], [ 4.858945294847464, 51.692354432058508 ], [ 4.859291266730675, 51.692171443808903 ], [ 4.859745699375964, 51.692066750537641 ], [ 4.860247246458903, 51.691942885218062 ], [ 4.860702243288126, 51.691789314978124 ], [ 4.860609821445482, 51.691672329297226 ], [ 4.867675597134497, 51.688780318727623 ], [ 4.869072250824315, 51.688271904365948 ], [ 4.870107613016084, 51.68792676512394 ], [ 4.870846120058435, 51.687931427772128 ], [ 4.871172780581385, 51.688057584793391 ], [ 4.87153669465125, 51.68812716404075 ], [ 4.871828141504957, 51.68815119874666 ], [ 4.872192716677602, 51.688152802190245 ], [ 4.872611830595012, 51.688177115724031 ], [ 4.872958086065939, 51.688190153461569 ], [ 4.873340837350321, 51.688203068933632 ], [ 4.8738321793399, 51.68828443576858 ], [ 4.874305474386357, 51.688343249896633 ], [ 4.874851482398217, 51.688436368042382 ], [ 4.875251413445805, 51.688528846208087 ], [ 4.875725213023941, 51.688553387568469 ], [ 4.875923043424429, 51.688803686171362 ], [ 4.876322071657384, 51.688986604082857 ], [ 4.876722251585909, 51.68906784157457 ], [ 4.87692508899624, 51.688864795404271 ], [ 4.877128947204674, 51.68857102372472 ], [ 4.877315237672349, 51.688231671094819 ], [ 4.877518847978071, 51.687949414808891 ], [ 4.8776868464533, 51.687598745283232 ], [ 4.87783665214623, 51.687247997302556 ], [ 4.877932285898785, 51.686851789033547 ], [ 4.878027917954427, 51.686455581567358 ], [ 4.882486059751976, 51.687222898902625 ], [ 4.882667889067156, 51.686945314663447 ], [ 4.882711194975383, 51.686790165708381 ], [ 4.882798203556671, 51.686454309341904 ], [ 4.88272013426578, 51.685988248934947 ], [ 4.882646965837533, 51.685082608113312 ], [ 4.882578815686579, 51.683737388167302 ], [ 4.881978531787079, 51.681587918248248 ], [ 4.881225044282004, 51.678273751405641 ], [ 4.880500457474365, 51.674207897443836 ], [ 4.880474984671419, 51.674198386893742 ], [ 4.88040262373349, 51.673786617967572 ], [ 4.880292930287339, 51.672907960278188 ], [ 4.880269922311855, 51.672545788511457 ], [ 4.880236055617034, 51.671965621688891 ], [ 4.880231078043262, 51.671848540824172 ], [ 4.880228766894692, 51.671835461307737 ], [ 4.879974282049985, 51.671938007599984 ], [ 4.879713313398465, 51.672043161618653 ], [ 4.879408483433246, 51.672165988946631 ], [ 4.87938712751606, 51.672176610828181 ], [ 4.879345956852614, 51.67219707026095 ], [ 4.879135606754573, 51.672282637781016 ], [ 4.879098428023162, 51.672297757203914 ], [ 4.878993644682899, 51.67234038518788 ], [ 4.87879083074099, 51.672422883706659 ], [ 4.878658485328095, 51.672476429809343 ], [ 4.878624368716117, 51.672490474751328 ], [ 4.878596076010253, 51.672502136015389 ], [ 4.878291698486483, 51.672618376421887 ], [ 4.87764508780517, 51.672893503156587 ], [ 4.876640396856085, 51.673286812743427 ], [ 4.87655024558928, 51.673331452878323 ], [ 4.876466023260497, 51.673628394551415 ], [ 4.876410240205878, 51.673812301954214 ], [ 4.87634080720495, 51.673988689199042 ], [ 4.876240042095256, 51.674148661241844 ], [ 4.876055299279463, 51.674400337553053 ], [ 4.875955252974874, 51.674546416018906 ], [ 4.875862134347327, 51.674660210413663 ], [ 4.87578711305542, 51.67473331120091 ], [ 4.875645541430999, 51.674755443204027 ], [ 4.875564685180935, 51.674762739348033 ], [ 4.875320416655668, 51.674777671781726 ], [ 4.87504243715292, 51.674798640487246 ], [ 4.87486507298964, 51.674821630736318 ], [ 4.874650398277125, 51.674844232718257 ], [ 4.874339390869562, 51.674855545203343 ], [ 4.874148130675984, 51.674869763502343 ], [ 4.873924690380396, 51.674893970680039 ], [ 4.873738518786737, 51.674908201623552 ], [ 4.873611030279875, 51.674914770620802 ], [ 4.873436430558309, 51.674919550815517 ], [ 4.873187643038221, 51.674938890389789 ], [ 4.872986136086547, 51.674957816821518 ], [ 4.872793300475343, 51.67499736502954 ], [ 4.872572904560654, 51.675035982839091 ], [ 4.872433740566863, 51.675062301272746 ], [ 4.872261333165953, 51.675097983383836 ], [ 4.872151449280661, 51.675125230210547 ], [ 4.872073233617251, 51.675168445263651 ], [ 4.871924867221469, 51.67529061366259 ], [ 4.871574505470978, 51.675589787330821 ], [ 4.871528137149649, 51.675633151220104 ], [ 4.871429216015368, 51.675705595690459 ], [ 4.871327749727237, 51.675779332222831 ], [ 4.871248286866432, 51.675820177216195 ], [ 4.871151001955513, 51.675859352635051 ], [ 4.871047608577578, 51.675876326023754 ], [ 4.870925202274758, 51.675884496507777 ], [ 4.870680074404344, 51.675880305597644 ], [ 4.870435587062592, 51.675868135068328 ], [ 4.870257401819152, 51.675852301687662 ], [ 4.870054407785499, 51.675840205638465 ], [ 4.869944928087796, 51.675831803150842 ], [ 4.869854443064682, 51.675833776487401 ], [ 4.869726911506477, 51.675845096076621 ], [ 4.86954431579882, 51.675879938180266 ], [ 4.8693118761514, 51.675933130178457 ], [ 4.869200743499714, 51.675957986727418 ], [ 4.868963205702254, 51.676006840928316 ], [ 4.868694621114136, 51.676047314596488 ], [ 4.868561939987262, 51.676062565132483 ], [ 4.868367986977063, 51.676087845105386 ], [ 4.868098345662543, 51.676103126492109 ], [ 4.867886761087139, 51.6761101074975 ], [ 4.867659958876772, 51.676111474609378 ], [ 4.867370571801317, 51.676108770295741 ], [ 4.86711069739343, 51.676104452528897 ], [ 4.866849596370326, 51.676096164734325 ], [ 4.866560449300217, 51.67608768876164 ], [ 4.866365477965625, 51.676090785858548 ], [ 4.866203491181655, 51.676105912382987 ], [ 4.866056635957079, 51.676135353050292 ], [ 4.865854569423523, 51.676190839617817 ], [ 4.86570113719982, 51.676237688572527 ], [ 4.865525920044932, 51.67629552331605 ], [ 4.865381370766389, 51.676345575430425 ], [ 4.865221609400256, 51.676397051687708 ], [ 4.865218489277484, 51.676398062489412 ], [ 4.865167748625076, 51.676411256408016 ], [ 4.865154204196181, 51.676414782512204 ], [ 4.865113686969539, 51.67642532537814 ], [ 4.86486704858699, 51.676489177743662 ], [ 4.86458537304814, 51.67656094507096 ], [ 4.864296576245636, 51.6766333181234 ], [ 4.864081885746875, 51.676688601459787 ], [ 4.863891474901379, 51.676738446886937 ], [ 4.863644222506187, 51.676793835607299 ], [ 4.863470382745224, 51.676842172423996 ], [ 4.863194324545557, 51.676915399721935 ], [ 4.862889932846536, 51.676998144370479 ], [ 4.862652138912071, 51.677066786684456 ], [ 4.862398848467984, 51.677187511319339 ], [ 4.862162931955803, 51.677314776147803 ], [ 4.862068061024146, 51.677364255880839 ], [ 4.861918001802166, 51.677449928080712 ], [ 4.86178326543056, 51.677579407680547 ], [ 4.861690722656066, 51.677648699585333 ], [ 4.861578634277714, 51.677755134754513 ], [ 4.861496209912911, 51.677830808926139 ], [ 4.861427420244012, 51.677918876699415 ], [ 4.861348692513557, 51.678004868373648 ], [ 4.861281296715525, 51.678103584899937 ], [ 4.861238617110685, 51.678222870588762 ], [ 4.861203360662079, 51.678295592356328 ], [ 4.861132793697326, 51.678423265024271 ], [ 4.861127639152709, 51.678432599072572 ], [ 4.861015740900909, 51.678522396538703 ], [ 4.860874614892506, 51.678606516549522 ], [ 4.860680649534183, 51.678708609899282 ], [ 4.860505337424582, 51.678771982744742 ], [ 4.860349328009672, 51.678820386145325 ], [ 4.860102204744296, 51.678869538858564 ], [ 4.859875019315067, 51.678902583245097 ], [ 4.859658091215255, 51.678930118397943 ], [ 4.859308384326688, 51.678969090584985 ], [ 4.858948384724813, 51.679027664531525 ], [ 4.858690749786711, 51.679118698991523 ], [ 4.858489819307377, 51.679193836242149 ], [ 4.85832324300193, 51.679273883289589 ], [ 4.858165516877069, 51.67935871609356 ], [ 4.858034955647601, 51.679410404366706 ], [ 4.857956568534185, 51.679468961903765 ], [ 4.857802440496909, 51.679583536000976 ], [ 4.857707277999405, 51.679658358941474 ], [ 4.857614391158707, 51.679756158138325 ], [ 4.857473624710797, 51.679874162970641 ], [ 4.857392786411951, 51.679922120396746 ], [ 4.857249303487477, 51.679988005371968 ], [ 4.857084337684131, 51.680038745911382 ], [ 4.856823583821346, 51.680111326411094 ], [ 4.856657413629986, 51.680201826759863 ], [ 4.85658048893072, 51.680242673342924 ], [ 4.856524790591087, 51.68031925611659 ], [ 4.856515687929833, 51.680414881254144 ], [ 4.856561188342247, 51.680554501627398 ], [ 4.856626334247927, 51.680677285317181 ], [ 4.856675945697867, 51.680901687386559 ], [ 4.856675652492179, 51.680905730958315 ], [ 4.856640848026294, 51.681397963442308 ], [ 4.856621778599261, 51.681667860623662 ], [ 4.856573567955571, 51.681674203946166 ], [ 4.856570628159384, 51.681674586128956 ], [ 4.856308908640353, 51.68170904019658 ], [ 4.856078285024777, 51.681769926540369 ], [ 4.855806493633367, 51.68186285901934 ], [ 4.855166114836176, 51.682081828149364 ], [ 4.854913063106867, 51.682168317912897 ], [ 4.854622736755348, 51.682288884468178 ], [ 4.853558892162479, 51.682733026223993 ], [ 4.852516087638971, 51.68325490750189 ], [ 4.852519584681986, 51.683268568261816 ], [ 4.852203421557991, 51.683437837340904 ], [ 4.852023762279503, 51.683531208832242 ], [ 4.851851317245599, 51.683623417530313 ], [ 4.851684223800372, 51.683709349387989 ], [ 4.851683553223865, 51.683713472120246 ], [ 4.851671029735161, 51.683719652996764 ], [ 4.851599515005271, 51.683755793022478 ], [ 4.851500799967052, 51.683794397341366 ], [ 4.851469905964827, 51.683812062590555 ], [ 4.851350396098582, 51.683859263710275 ], [ 4.851171765300494, 51.683926553494828 ], [ 4.851129178901087, 51.683942466287149 ], [ 4.851060272424384, 51.683964658522491 ], [ 4.850964741630465, 51.683987070400057 ], [ 4.850772352570681, 51.684040166405069 ], [ 4.850649313709604, 51.684072672156745 ], [ 4.850604937354302, 51.684082194605985 ], [ 4.850462401026203, 51.684116300707899 ], [ 4.850429521830016, 51.684119628651302 ], [ 4.850378593517721, 51.684126819890324 ], [ 4.850304622588071, 51.684134606603664 ], [ 4.850202446658856, 51.684144205516226 ], [ 4.850063153428142, 51.684160878998199 ], [ 4.850026787348008, 51.684161925694191 ], [ 4.84994788116071, 51.684165186226188 ], [ 4.849895592546426, 51.684167580056211 ], [ 4.849623475677612, 51.684179706608063 ], [ 4.849396476176339, 51.684189334104765 ], [ 4.849359505500729, 51.684192580041262 ], [ 4.849117037467708, 51.684192113601767 ], [ 4.848923232306023, 51.684190153467746 ], [ 4.848556384957587, 51.684191289466519 ], [ 4.848136907479654, 51.684190698979286 ], [ 4.848101021614176, 51.684192700086342 ], [ 4.848048245098202, 51.684194767254183 ], [ 4.847694442146389, 51.684228562498149 ], [ 4.847414632489904, 51.684253924750479 ], [ 4.847342343795782, 51.684257609525304 ], [ 4.847189956681965, 51.684282030396076 ], [ 4.846985555307, 51.684314894240252 ], [ 4.84667320179788, 51.684361398781739 ], [ 4.846620241741259, 51.684367913851133 ], [ 4.846421473758245, 51.684426645137158 ], [ 4.846236597234636, 51.68448334588534 ], [ 4.846211207673906, 51.684491543140808 ], [ 4.846040544406343, 51.684564048387287 ], [ 4.845650497053503, 51.684724868675502 ], [ 4.84546491357474, 51.684799371497071 ], [ 4.845443978224492, 51.684811139712387 ], [ 4.845407120906536, 51.684832631927506 ], [ 4.845375913706045, 51.684850833448387 ], [ 4.845304074352312, 51.684892981565341 ], [ 4.845062225390302, 51.685034872160664 ], [ 4.844959278381584, 51.685095284878244 ], [ 4.84492760357674, 51.685113861639756 ], [ 4.844674099856721, 51.685262735608966 ], [ 4.844326770466517, 51.685468414064481 ], [ 4.843961662076446, 51.68568400444213 ], [ 4.843586203131036, 51.685902619776542 ], [ 4.843391291040159, 51.686017453140998 ], [ 4.843391262918852, 51.686017386494299 ], [ 4.843391193012691, 51.686017427517633 ], [ 4.842840396017533, 51.686823176109094 ], [ 4.842574425609313, 51.687331484970201 ], [ 4.842204612714961, 51.68814998099716 ], [ 4.84201640522188, 51.688832805800494 ], [ 4.842046667129761, 51.689640803186911 ], [ 4.842354392429931, 51.69064896561764 ], [ 4.842684338011242, 51.691483075885941 ], [ 4.843137572659827, 51.692044444847305 ], [ 4.843571305915729, 51.692556003390109 ], [ 4.844186084521047, 51.69298132194708 ], [ 4.844722330609406, 51.693294477088926 ], [ 4.845617266604284, 51.693708725630003 ], [ 4.846675403021217, 51.693838049961862 ], [ 4.847733700613676, 51.6939920833711 ], [ 4.848552266097124, 51.694095287069665 ], [ 4.849532125634297, 51.694099788388975 ], [ 4.850371695821122, 51.694128357529713 ], [ 4.851449492064765, 51.694307446798334 ], [ 4.852526417255453, 51.694560959904855 ], [ 4.854524679236564, 51.695213875458691 ], [ 4.857048101176221, 51.69600312105834 ], [ 4.857737646756906, 51.696224775162726 ], [ 4.859236876132059, 51.696706817052814 ], [ 4.860681261411258, 51.696884101762805 ], [ 4.861798421336659, 51.69685484801856 ], [ 4.863116131767574, 51.696906255202414 ], [ 4.86421395042405, 51.696956666140494 ], [ 4.864891507397353, 51.696948453047774 ], [ 4.865471219204352, 51.696997384303188 ], [ 4.864896592399925, 51.696684153768274 ] ] ] ] } },
{ "type": "Feature", "properties": { "buurtcode": "BU07790100", "buurtnaam": "Raamsdonk", "pc6_codes": "4944AA, 4944AB, 4944AC, 4944AD, 4944AE, 4944AG, 4944AH, 4944AJ, 4944AK, 4944AL, 4944AM, 4944AN, 4944AP, 4944AR, 4944AS, 4944AT, 4944AV, 4944AZ, 4944BT, 4944BV, 4944BW, 4944BX, 4944BZ, 4944VA, 4944VB, 4944VC, 4944VD, 4944VE, 4944VG, 4944VH, 4944VJ, 4944VK, 4944VL, 4944VM, 4944VN, 4944VP, 4944VR, 4944VS, 4944VT, 4944VV, 4944VW, 4944VX, 4944VZ, 4944WB, 4944WC, 4944WD, 4944WE, 4944XA, 4944XB, 4944XC, 4944XD, 4944XE, 4944XG, 4944XH, 4944XJ, 4944XK, 4944XL, 4944XM, 4944XN", "wijkcode": "WK077901", "gemeentecode": "GM0779", "gemeentenaam": "Geertruidenberg", "oppervlakteLandInHa": 176, "AantalInwoners_5": 2115, "Mannen_6": 1090, "Vrouwen_7": 1020, "HuishoudensTotaal_29": 900, "GemiddeldeHuishoudensgrootte_33": 2.3, "Woningvoorraad_35": 905, "NieuwbouwWoningen_36": 3, "NietWoningvoorraad_37": 63, "NieuwbouwNietWoningen_38": 0, "GemiddeldeWOZWaardeVanWoningen_39": 415, "PercentageEengezinswoning_40": 92, "PercentageTussenwoningEengezins_41": 27, "PercentageHoekwoningEengezins_42": 16, "PercentageTweeOnderEenKapWoningEe_43": 15, "PercentageVrijstaandeWoningEengezins_44": 34, "PercentageMeergezinswoning_45": 8, "Koopwoningen_47": 74, "HuurwoningenTotaal_48": 26, "InBezitWoningcorporatie_49": 21, "InBezitOverigeVerhuurders_50": 6, "BouwjaarMeerDanTienJaarGeleden_51": 91, "BouwjaarAfgelopenTienJaar_52": 9, "GemiddeldeElektriciteitslevering_53": 3170, "GemiddeldeElektriciteitsteruglevering_54": 1390, "GemiddeldAardgasverbruik_55": 920, "AardgasvrijeWoningen_57": 8, "Aardgaswoningen_58": 85, "WoningenMetZonnestroom_59": 51, "WoningenHoofdzElektrVerwarmd_60": 12, "k_20PersonenMetHoogsteInkomen_80": 20.2, "k_20HuishoudensMetHoogsteInkomen_85": 26.9, "MediaanVermogenVanParticuliereHuish_86": 263.9, "PersonenautoSTotaal_104": 1270, "PersonenautoSBrandstofBenzine_105": 995, "PersonenautoSOverigeBrandstof_106": 275, "PersonenautoSPerHuishouden_107": 1.4, "Omgevingsadressendichtheid_121": 267, "AantalInstallatiesBijWoningen_5": 308, "OpgesteldVermogenVanZonnepanelen_6": 1710, "installaties_per_woning": 0.34033149171270716, "vermogen_per_woning": 1.8895027624309393, "installaties_per_100_woningen": 34.033149171270715, "vermogen_per_huishouden": 1.9, "batterijdruk_score": 708.9, "koop_zon_score": 0.3774, "eengezins_zon_score": 0.4692, "betaalkracht_zon_score": 134.589, "overige_brandstof_zon_score": 140.25, "lichte_batterij_kansscore": 0.47896766772902638 }, "geometry": { "type": "MultiPolygon", "coordinates": [ [ [ [ 4.907605269689933, 51.694210073411917 ], [ 4.908304189240554, 51.693630637782555 ], [ 4.909206204470452, 51.693002308959116 ], [ 4.91097408632204, 51.691995479735226 ], [ 4.913371247719804, 51.690826004930464 ], [ 4.916324466029262, 51.689856467418338 ], [ 4.919867368583723, 51.688763087592186 ], [ 4.923261877311151, 51.6883190038781 ], [ 4.927181374590581, 51.688138678252074 ], [ 4.929109051903745, 51.688135088216214 ], [ 4.929144578496058, 51.68803635593698 ], [ 4.929265076875916, 51.687701542609872 ], [ 4.929273364920329, 51.687678519203729 ], [ 4.929428567765852, 51.687229434226424 ], [ 4.929454968371302, 51.687155668925968 ], [ 4.929689734672183, 51.686503311238219 ], [ 4.92972201939563, 51.686418171286775 ], [ 4.929965325100104, 51.685709919178585 ], [ 4.930364709644731, 51.684595000964926 ], [ 4.930244381311936, 51.684613830191452 ], [ 4.93028417927145, 51.68452906994078 ], [ 4.930332292525446, 51.684378347657017 ], [ 4.930362399500575, 51.684280902591631 ], [ 4.930363167053502, 51.684280788733027 ], [ 4.930498035380839, 51.684259714990006 ], [ 4.930759869475176, 51.683510185725964 ], [ 4.930635215429761, 51.683514905232897 ], [ 4.92742002267007, 51.683720864073919 ], [ 4.925891632756294, 51.684142657612298 ], [ 4.924234863548302, 51.684521788860287 ], [ 4.922833247850233, 51.684705002809942 ], [ 4.921805915921671, 51.684623398755605 ], [ 4.920193291826038, 51.684507431681268 ], [ 4.917878570086385, 51.684193410125765 ], [ 4.914919622803598, 51.683671974342587 ], [ 4.91191095258308, 51.682932567945464 ], [ 4.909311871437441, 51.682312450202041 ], [ 4.907956839972818, 51.684231605132403 ], [ 4.907338466248929, 51.684590304188205 ], [ 4.90645148708018, 51.684784417125819 ], [ 4.905504251171123, 51.684790358309854 ], [ 4.903115074026085, 51.684537815780573 ], [ 4.899528129952618, 51.683808340317043 ], [ 4.895914050283305, 51.683049989483919 ], [ 4.894561887568837, 51.682793470553122 ], [ 4.89276765309587, 51.682902762835944 ], [ 4.890416485523073, 51.683165282771959 ], [ 4.889609635755615, 51.683691063462263 ], [ 4.889224555631727, 51.684252340790017 ], [ 4.889170669482258, 51.685073449870039 ], [ 4.889476192098017, 51.685562943233236 ], [ 4.890112880850354, 51.686050192192269 ], [ 4.891078751593278, 51.686325631630666 ], [ 4.892425587591344, 51.686415877208873 ], [ 4.896221938526196, 51.686388593196476 ], [ 4.89920589776407, 51.68699712124144 ], [ 4.902951162756919, 51.687968267935339 ], [ 4.903456632052512, 51.689110788140624 ], [ 4.902255482815538, 51.691083320626326 ], [ 4.900202581200235, 51.69409610756626 ], [ 4.902568780413851, 51.694239626622895 ], [ 4.90417228616476, 51.694687815214152 ], [ 4.907266683756377, 51.695045471099128 ], [ 4.907605269689933, 51.694210073411917 ] ] ] ] } },
{ "type": "Feature", "properties": { "buurtcode": "BU07790109", "buurtnaam": "Verspreide huizen Raamsdonk", "pc6_codes": "4941TA, 4941TB, 4941TC, 4941TV, 4941TW, 4941WX, 4944AR, 4944AV, 4944AW, 4944AX, 4944BA, 4944CA, 4944SB, 4944VA, 4944VB, 4944XH, 4944XJ, 4944XK, 4944XM, 4944XN", "wijkcode": "WK077901", "gemeentecode": "GM0779", "gemeentenaam": "Geertruidenberg", "oppervlakteLandInHa": 1113, "AantalInwoners_5": 170, "Mannen_6": 95, "Vrouwen_7": 70, "HuishoudensTotaal_29": 65, "GemiddeldeHuishoudensgrootte_33": 2.6, "Woningvoorraad_35": 55, "NieuwbouwWoningen_36": 1, "NietWoningvoorraad_37": 55, "NieuwbouwNietWoningen_38": 1, "GemiddeldeWOZWaardeVanWoningen_39": 748, "PercentageEengezinswoning_40": 98, "PercentageTussenwoningEengezins_41": 0, "PercentageHoekwoningEengezins_42": 0, "PercentageTweeOnderEenKapWoningEe_43": 7, "PercentageVrijstaandeWoningEengezins_44": 91, "PercentageMeergezinswoning_45": 2, "Koopwoningen_47": 87, "HuurwoningenTotaal_48": 13, "InBezitWoningcorporatie_49": 0, "InBezitOverigeVerhuurders_50": 13, "BouwjaarMeerDanTienJaarGeleden_51": 84, "BouwjaarAfgelopenTienJaar_52": 16, "GemiddeldeElektriciteitslevering_53": 4490, "GemiddeldeElektriciteitsteruglevering_54": 3560, "GemiddeldAardgasverbruik_55": 1430, "AardgasvrijeWoningen_57": null, "Aardgaswoningen_58": null, "WoningenMetZonnestroom_59": null, "WoningenHoofdzElektrVerwarmd_60": null, "k_20PersonenMetHoogsteInkomen_80": 30.2, "k_20HuishoudensMetHoogsteInkomen_85": null, "MediaanVermogenVanParticuliereHuish_86": null, "PersonenautoSTotaal_104": 125, "PersonenautoSBrandstofBenzine_105": 90, "PersonenautoSOverigeBrandstof_106": 35, "PersonenautoSPerHuishouden_107": 2.0, "Omgevingsadressendichtheid_121": 149, "AantalInstallatiesBijWoningen_5": 9, "OpgesteldVermogenVanZonnepanelen_6": 76, "installaties_per_woning": 0.16363636363636364, "vermogen_per_woning": 1.3818181818181818, "installaties_per_100_woningen": 16.363636363636363, "vermogen_per_huishouden": 1.1692307692307693, "batterijdruk_score": null, "koop_zon_score": null, "eengezins_zon_score": null, "betaalkracht_zon_score": null, "overige_brandstof_zon_score": null, "lichte_batterij_kansscore": null }, "geometry": { "type": "MultiPolygon", "coordinates": [ [ [ [ 4.918382170620171, 51.718877445688321 ], [ 4.918490394598773, 51.718576733639814 ], [ 4.918509732805843, 51.71853024106322 ], [ 4.919058426080758, 51.716982045061108 ], [ 4.919299444718818, 51.716388573676689 ], [ 4.919348757394025, 51.716244863105331 ], [ 4.919354143652115, 51.716229172539506 ], [ 4.92022198122845, 51.71369975471093 ], [ 4.920225487132086, 51.713689539655284 ], [ 4.920264410087166, 51.713576123796138 ], [ 4.920749674441654, 51.712161659723854 ], [ 4.920862661606517, 51.711832317651513 ], [ 4.920935952120294, 51.711618644633838 ], [ 4.92100704075165, 51.711409224303623 ], [ 4.921106856799543, 51.711115171862595 ], [ 4.921276024019496, 51.71065498102336 ], [ 4.921409570055352, 51.71027585137147 ], [ 4.921483064125653, 51.710067203428949 ], [ 4.921561008930275, 51.709771905021185 ], [ 4.921635050137628, 51.7095591513595 ], [ 4.921852056474168, 51.708935512189669 ], [ 4.922057338712053, 51.708349748973433 ], [ 4.922153553631603, 51.708075196447602 ], [ 4.922482183697378, 51.707137155172489 ], [ 4.922537957403883, 51.706977972447412 ], [ 4.922538702828955, 51.706975827126939 ], [ 4.922714801519355, 51.706473100540613 ], [ 4.922878632244442, 51.706008005293839 ], [ 4.923204124433918, 51.705078156039853 ], [ 4.923629068454059, 51.70386680765067 ], [ 4.923630931159122, 51.703861502753718 ], [ 4.923630975847089, 51.703861377090014 ], [ 4.92393590117962, 51.702993043236482 ], [ 4.924016922806187, 51.702761817027877 ], [ 4.924028929823637, 51.702727914522249 ], [ 4.924039687159764, 51.702710096682708 ], [ 4.924075984515597, 51.70258986472691 ], [ 4.9243234082404, 51.701913451974484 ], [ 4.924609166071001, 51.701083574708932 ], [ 4.924914316982784, 51.70017248923098 ], [ 4.925172770954085, 51.699414888043592 ], [ 4.925424515107005, 51.698684585181226 ], [ 4.92589069979121, 51.697374731669441 ], [ 4.925918599794888, 51.697304020252417 ], [ 4.925917192308479, 51.697303034952249 ], [ 4.92596670382243, 51.697158396384822 ], [ 4.925981612298136, 51.697114851321608 ], [ 4.926016990323324, 51.697011486727128 ], [ 4.926024116460533, 51.696990679176579 ], [ 4.926906542000745, 51.694412682855358 ], [ 4.926908360265092, 51.694407404694537 ], [ 4.926939858160049, 51.694315377178576 ], [ 4.926954749833399, 51.694271876861201 ], [ 4.926957871572209, 51.694262728829024 ], [ 4.927045204244881, 51.694006043378216 ], [ 4.927059736832567, 51.693965121368393 ], [ 4.928092206823472, 51.690948404288207 ], [ 4.928150394438014, 51.690808230132227 ], [ 4.928208588609018, 51.690671651418434 ], [ 4.928234745314638, 51.690612348135211 ], [ 4.928440528644134, 51.69001635500306 ], [ 4.928523673935838, 51.68978647312052 ], [ 4.928753266996421, 51.689130681477678 ], [ 4.929051412880866, 51.68829527727253 ], [ 4.929109051903745, 51.688135088216214 ], [ 4.927181374590581, 51.688138678252074 ], [ 4.923261877311151, 51.6883190038781 ], [ 4.919867368583723, 51.688763087592186 ], [ 4.916324466029262, 51.689856467418338 ], [ 4.913371247719804, 51.690826004930464 ], [ 4.91097408632204, 51.691995479735226 ], [ 4.909206204470452, 51.693002308959116 ], [ 4.908304189240554, 51.693630637782555 ], [ 4.907605269689933, 51.694210073411917 ], [ 4.907266683756377, 51.695045471099128 ], [ 4.90417228616476, 51.694687815214152 ], [ 4.902568780413851, 51.694239626622895 ], [ 4.900202581200235, 51.69409610756626 ], [ 4.902255482815538, 51.691083320626326 ], [ 4.903456632052512, 51.689110788140624 ], [ 4.902951162756919, 51.687968267935339 ], [ 4.89920589776407, 51.68699712124144 ], [ 4.896221938526196, 51.686388593196476 ], [ 4.892425587591344, 51.686415877208873 ], [ 4.891078751593278, 51.686325631630666 ], [ 4.890112880850354, 51.686050192192269 ], [ 4.889476192098017, 51.685562943233236 ], [ 4.889170669482258, 51.685073449870039 ], [ 4.889224555631727, 51.684252340790017 ], [ 4.889609635755615, 51.683691063462263 ], [ 4.890416485523073, 51.683165282771959 ], [ 4.89276765309587, 51.682902762835944 ], [ 4.894561887568837, 51.682793470553122 ], [ 4.895914050283305, 51.683049989483919 ], [ 4.899528129952618, 51.683808340317043 ], [ 4.903115074026085, 51.684537815780573 ], [ 4.905504251171123, 51.684790358309854 ], [ 4.90645148708018, 51.684784417125819 ], [ 4.907338466248929, 51.684590304188205 ], [ 4.907956839972818, 51.684231605132403 ], [ 4.909311871437441, 51.682312450202041 ], [ 4.91191095258308, 51.682932567945464 ], [ 4.914919622803598, 51.683671974342587 ], [ 4.917878570086385, 51.684193410125765 ], [ 4.920193291826038, 51.684507431681268 ], [ 4.921805915921671, 51.684623398755605 ], [ 4.922833247850233, 51.684705002809942 ], [ 4.924234863548302, 51.684521788860287 ], [ 4.925891632756294, 51.684142657612298 ], [ 4.92742002267007, 51.683720864073919 ], [ 4.930635215429761, 51.683514905232897 ], [ 4.930759869475176, 51.683510185725964 ], [ 4.930923878794552, 51.68304067487329 ], [ 4.931375800447342, 51.681794193471397 ], [ 4.931420244389596, 51.681672633506295 ], [ 4.931623295807373, 51.681092722468243 ], [ 4.932159347335619, 51.679594254436338 ], [ 4.932609284883809, 51.678326852785553 ], [ 4.932682752770336, 51.678117649018681 ], [ 4.932759171311791, 51.677911144250487 ], [ 4.932915582320577, 51.677463074803924 ], [ 4.933102512380231, 51.676941389769738 ], [ 4.933121478557839, 51.676884016995039 ], [ 4.933124602358353, 51.676875283172905 ], [ 4.933169421303806, 51.676749975707665 ], [ 4.931620464146964, 51.676414752464339 ], [ 4.931246867774851, 51.67633470211382 ], [ 4.930292872656183, 51.67612171113791 ], [ 4.930172425702362, 51.676091506817535 ], [ 4.930013985106986, 51.676052578919574 ], [ 4.929792107060725, 51.676041959946701 ], [ 4.928164201584048, 51.67569108382169 ], [ 4.926190089476699, 51.675249466774503 ], [ 4.926063533362567, 51.675193580611037 ], [ 4.925282763006863, 51.675026865849482 ], [ 4.925073922745686, 51.674980298856354 ], [ 4.925133295466924, 51.674684654320913 ], [ 4.925138848818269, 51.674430927149565 ], [ 4.925115855941009, 51.674196358975273 ], [ 4.925155624833628, 51.673853833251812 ], [ 4.925102464763635, 51.673246306535823 ], [ 4.925032353795809, 51.673009296248587 ], [ 4.924367549668831, 51.673258766106571 ], [ 4.924289395618521, 51.673295517359769 ], [ 4.924167804711451, 51.673383943275432 ], [ 4.924163319486775, 51.673385705292027 ], [ 4.924005697375544, 51.673440595806568 ], [ 4.923787849137475, 51.673524937277165 ], [ 4.923579165568293, 51.67360789441954 ], [ 4.923311540397515, 51.673695022175352 ], [ 4.923197072090957, 51.673721552601357 ], [ 4.92303457873112, 51.673754984622114 ], [ 4.922547126418563, 51.673849616605352 ], [ 4.922177493984715, 51.673930548347002 ], [ 4.921859268911025, 51.674004546216068 ], [ 4.921506634661235, 51.674092599460494 ], [ 4.920804273801895, 51.674249892150229 ], [ 4.920504156456066, 51.674339580701613 ], [ 4.920130988734766, 51.674424716570073 ], [ 4.919751990120042, 51.674528362545175 ], [ 4.919415146352224, 51.674633514982723 ], [ 4.919117175744331, 51.674735990403406 ], [ 4.918784911779557, 51.674841159337667 ], [ 4.918505255978498, 51.674939445841765 ], [ 4.917979188423796, 51.675121121047006 ], [ 4.91773162612493, 51.675206743455142 ], [ 4.917520963660367, 51.675258437408104 ], [ 4.917292144913449, 51.675298705490945 ], [ 4.917102378460412, 51.675317826816574 ], [ 4.917024670960588, 51.675323195703989 ], [ 4.916765555257861, 51.675311314904299 ], [ 4.916569290239944, 51.675296324355948 ], [ 4.916372995813854, 51.675284173768986 ], [ 4.916170040881935, 51.675253542395332 ], [ 4.915933059859309, 51.675200041497455 ], [ 4.915791823614921, 51.675163976976712 ], [ 4.915662097321026, 51.67511943739855 ], [ 4.915589165501332, 51.675104941695842 ], [ 4.915511732817683, 51.675078401024734 ], [ 4.915404450805047, 51.675041636834493 ], [ 4.915167442092917, 51.674990983666575 ], [ 4.914930255777882, 51.674958791961821 ], [ 4.914572230516594, 51.674904800137213 ], [ 4.914341571764955, 51.674902448889696 ], [ 4.914222452619268, 51.674936052807119 ], [ 4.914123905908233, 51.674968310510152 ], [ 4.913780883195998, 51.675048918793102 ], [ 4.913649673605644, 51.675147784698915 ], [ 4.913559520321481, 51.675249665899329 ], [ 4.913443927967585, 51.675382679646177 ], [ 4.913316571640834, 51.675549721606018 ], [ 4.913198426345279, 51.675706868261557 ], [ 4.91313345651314, 51.675804590438446 ], [ 4.913002273487972, 51.676088289079537 ], [ 4.91295039838161, 51.67624427458572 ], [ 4.912884802815041, 51.676400213491995 ], [ 4.912842227603666, 51.676540623347293 ], [ 4.912827006239995, 51.676590017178299 ], [ 4.912638493818921, 51.676568804351383 ], [ 4.912433995452287, 51.676545791613464 ], [ 4.912245974386386, 51.676524634077026 ], [ 4.91210132061431, 51.676511013858388 ], [ 4.909625767308005, 51.676261578220085 ], [ 4.906551547577783, 51.675953096263797 ], [ 4.906844076585309, 51.675186945099732 ], [ 4.90687515643656, 51.675105554578046 ], [ 4.906928567621481, 51.674952445366742 ], [ 4.906931915195132, 51.674943524384446 ], [ 4.906748553063719, 51.674925613006153 ], [ 4.905290904533703, 51.674783203602402 ], [ 4.904884811939512, 51.674742278524157 ], [ 4.904000618651435, 51.674653466482944 ], [ 4.902500077882415, 51.674502953276992 ], [ 4.898767571956131, 51.674128556696459 ], [ 4.898721093632635, 51.674183337414256 ], [ 4.898659553379477, 51.674248589979115 ], [ 4.898552219306511, 51.67435605090121 ], [ 4.898406879436934, 51.674469923812474 ], [ 4.89829268123201, 51.674544861890702 ], [ 4.898110084953122, 51.674427076295522 ], [ 4.898048299173572, 51.674464094174965 ], [ 4.897875933198746, 51.674544865214244 ], [ 4.897739718116285, 51.674599486308679 ], [ 4.897536434838276, 51.674663462682645 ], [ 4.897348579722792, 51.674709822566328 ], [ 4.89716972978704, 51.67475097045854 ], [ 4.897140503082255, 51.674755737991028 ], [ 4.896835552044419, 51.674774461306761 ], [ 4.89658665140089, 51.674774587425944 ], [ 4.895890941497523, 51.674750925160652 ], [ 4.895069412678732, 51.674721633563983 ], [ 4.894645220139608, 51.674708093158998 ], [ 4.893404209437403, 51.674661717240561 ], [ 4.891818593643602, 51.674607516067681 ], [ 4.890496414105485, 51.674560783927731 ], [ 4.890221512619957, 51.674551060514553 ], [ 4.889583247067666, 51.674528826953498 ], [ 4.888639129194698, 51.674496767053846 ], [ 4.888482834161342, 51.674491202785426 ], [ 4.88707813167587, 51.674441177246244 ], [ 4.886194357401942, 51.674408240699975 ], [ 4.885316215757556, 51.674377236200122 ], [ 4.88379106354718, 51.67432184603318 ], [ 4.882450589887636, 51.674275753320849 ], [ 4.881708048257025, 51.674251202642182 ], [ 4.880581160912871, 51.674214998862254 ], [ 4.880500510742367, 51.674207917449358 ], [ 4.880500457474365, 51.674207897443836 ], [ 4.881225044282004, 51.678273751405641 ], [ 4.881978531787079, 51.681587918248248 ], [ 4.882578815686579, 51.683737388167302 ], [ 4.882646965837533, 51.685082608113312 ], [ 4.88272013426578, 51.685988248934947 ], [ 4.882798203556671, 51.686454309341904 ], [ 4.882711194975383, 51.686790165708381 ], [ 4.882667889067156, 51.686945314663447 ], [ 4.882486059751976, 51.687222898902625 ], [ 4.882453230210264, 51.687370508295785 ], [ 4.882498926318236, 51.68771030787201 ], [ 4.882660061688048, 51.687971672709857 ], [ 4.882856680529684, 51.688323637422002 ], [ 4.883305740446048, 51.688926405048811 ], [ 4.883719823717087, 51.689404021800982 ], [ 4.884116114440093, 51.689836336975425 ], [ 4.884728114821799, 51.690552997955962 ], [ 4.884975924439401, 51.691222591650543 ], [ 4.88560989271491, 51.693242414114493 ], [ 4.88592733246429, 51.694218197737094 ], [ 4.886287359491151, 51.695228566465019 ], [ 4.886392774736451, 51.695524382802546 ], [ 4.886431866629835, 51.695657694063989 ], [ 4.886621359500535, 51.696312146616549 ], [ 4.887278888726527, 51.698585426314722 ], [ 4.887760684323863, 51.700147851761002 ], [ 4.888207665017395, 51.701990458560765 ], [ 4.88826775100096, 51.703623273910644 ], [ 4.888072968259054, 51.704894245042631 ], [ 4.888068136993406, 51.704925773639317 ], [ 4.888095418450892, 51.705475039133773 ], [ 4.888530073046832, 51.706555244269211 ], [ 4.888411793101738, 51.707810339158584 ], [ 4.888495773161504, 51.709666004799779 ], [ 4.888504965720123, 51.713598844376378 ], [ 4.886080238813822, 51.714211525172566 ], [ 4.888517166726279, 51.716295482037317 ], [ 4.889243113985677, 51.717390685507567 ], [ 4.890031386041479, 51.719768490924771 ], [ 4.890926012858586, 51.71968743825925 ], [ 4.891230848701158, 51.719662221284672 ], [ 4.891249627363599, 51.719658786206381 ], [ 4.894480861944934, 51.719067805686521 ], [ 4.89506895732149, 51.719012129382278 ], [ 4.896162773619854, 51.718908584475912 ], [ 4.897668604769766, 51.718775515680811 ], [ 4.898922712655292, 51.718697162356058 ], [ 4.899103624803471, 51.718690077890415 ], [ 4.900263545201248, 51.718667029296718 ], [ 4.901550378059507, 51.718672368868205 ], [ 4.902004503514162, 51.71867947221692 ], [ 4.902971982058562, 51.718688695982564 ], [ 4.903611104117901, 51.71869917300215 ], [ 4.904027346509897, 51.718708727868638 ], [ 4.906723819999379, 51.718814742355477 ], [ 4.909979648338238, 51.719046620915805 ], [ 4.911412248456759, 51.719188272315982 ], [ 4.912723493583788, 51.71931379274637 ], [ 4.9139669268367, 51.719449433479376 ], [ 4.915940140821258, 51.7196733354549 ], [ 4.917991152319771, 51.719959366144877 ], [ 4.918382170620171, 51.718877445688321 ] ] ] ] } },
{ "type": "Feature", "properties": { "buurtcode": "BU07790200", "buurtnaam": "Geertruidenberg-Kom", "pc6_codes": "4931AD, 4931AE, 4931AG, 4931AH, 4931AJ, 4931AK, 4931AM, 4931AN, 4931AP, 4931AR, 4931AS, 4931AT, 4931AV, 4931AW, 4931AX, 4931AZ, 4931BA, 4931BB, 4931BC, 4931BD, 4931BE, 4931BG, 4931BH, 4931BJ, 4931BK, 4931BM, 4931BN, 4931BP, 4931BR, 4931BS, 4931BT, 4931BV, 4931BW, 4931BX, 4931BZ, 4931CL, 4931CM, 4931CN, 4931CP, 4931CR, 4931CS, 4931CT, 4931CV, 4931CW, 4931CX, 4931CZ, 4931DA, 4931DB, 4931DC, 4931DD, 4931DE, 4931DG, 4931DH, 4931DJ, 4931DK, 4931DL, 4931DM, 4931DN, 4931DP, 4931DR, 4931KA, 4931KB, 4931KD, 4931KE, 4931KG, 4931KH, 4931KJ, 4931KK, 4931KL, 4931KM, 4931KN, 4931KP, 4931KR, 4931KS, 4931KT, 4931KV, 4931KW, 4931NJ, 4931NK", "wijkcode": "WK077902", "gemeentecode": "GM0779", "gemeentenaam": "Geertruidenberg", "oppervlakteLandInHa": 56, "AantalInwoners_5": 3045, "Mannen_6": 1495, "Vrouwen_7": 1550, "HuishoudensTotaal_29": 1415, "GemiddeldeHuishoudensgrootte_33": 2.1, "Woningvoorraad_35": 1566, "NieuwbouwWoningen_36": 2, "NietWoningvoorraad_37": 177, "NieuwbouwNietWoningen_38": 0, "GemiddeldeWOZWaardeVanWoningen_39": 333, "PercentageEengezinswoning_40": 62, "PercentageTussenwoningEengezins_41": 40, "PercentageHoekwoningEengezins_42": 15, "PercentageTweeOnderEenKapWoningEe_43": 5, "PercentageVrijstaandeWoningEengezins_44": 3, "PercentageMeergezinswoning_45": 38, "Koopwoningen_47": 56, "HuurwoningenTotaal_48": 44, "InBezitWoningcorporatie_49": 28, "InBezitOverigeVerhuurders_50": 16, "BouwjaarMeerDanTienJaarGeleden_51": 81, "BouwjaarAfgelopenTienJaar_52": 19, "GemiddeldeElektriciteitslevering_53": 2400, "GemiddeldeElektriciteitsteruglevering_54": 570, "GemiddeldAardgasverbruik_55": 730, "AardgasvrijeWoningen_57": 14, "Aardgaswoningen_58": 78, "WoningenMetZonnestroom_59": 30, "WoningenHoofdzElektrVerwarmd_60": 13, "k_20PersonenMetHoogsteInkomen_80": 20.7, "k_20HuishoudensMetHoogsteInkomen_85": 19.7, "MediaanVermogenVanParticuliereHuish_86": 157.2, "PersonenautoSTotaal_104": 1565, "PersonenautoSBrandstofBenzine_105": 1255, "PersonenautoSOverigeBrandstof_106": 310, "PersonenautoSPerHuishouden_107": 1.1, "Omgevingsadressendichtheid_121": 1496, "AantalInstallatiesBijWoningen_5": 295, "OpgesteldVermogenVanZonnepanelen_6": 951, "installaties_per_woning": 0.18837803320561941, "vermogen_per_woning": 0.60727969348659006, "installaties_per_100_woningen": 18.837803320561942, "vermogen_per_huishouden": 0.6720848056537102, "batterijdruk_score": 171.0, "koop_zon_score": 0.168, "eengezins_zon_score": 0.186, "betaalkracht_zon_score": 47.16, "overige_brandstof_zon_score": 93.0, "lichte_batterij_kansscore": 0.31792000030553186 }, "geometry": { "type": "MultiPolygon", "coordinates": [ [ [ [ 4.866530120026107, 51.703994134638528 ], [ 4.866761726590815, 51.703481125808501 ], [ 4.866972554503463, 51.703015495057791 ], [ 4.867024508983082, 51.702900558779753 ], [ 4.867271544760772, 51.701791558183018 ], [ 4.867480979331531, 51.700816377578185 ], [ 4.867478848756878, 51.700372272587011 ], [ 4.867526476928622, 51.700003949521545 ], [ 4.867511655954542, 51.699759505959889 ], [ 4.867483914234417, 51.699301804349375 ], [ 4.867378398564647, 51.698787298188471 ], [ 4.867283358216341, 51.698443060833611 ], [ 4.867099236982731, 51.698131293136186 ], [ 4.866914668898031, 51.697887780219034 ], [ 4.866558007405662, 51.697623839675927 ], [ 4.866030485122029, 51.697291161434585 ], [ 4.865471219204352, 51.696997384303188 ], [ 4.864891507397353, 51.696948453047774 ], [ 4.86421395042405, 51.696956666140494 ], [ 4.863116131767574, 51.696906255202414 ], [ 4.861798421336659, 51.69685484801856 ], [ 4.860681261411258, 51.696884101762805 ], [ 4.859236876132059, 51.696706817052814 ], [ 4.857737646756906, 51.696224775162726 ], [ 4.856563854602832, 51.698221967913661 ], [ 4.852185277411131, 51.69772368959088 ], [ 4.853734190210243, 51.699827917730786 ], [ 4.853061772409066, 51.700057716732069 ], [ 4.852525165045142, 51.70053784638344 ], [ 4.853664476391565, 51.701206515900004 ], [ 4.854270761100628, 51.701555338275 ], [ 4.85456431523358, 51.701935037778306 ], [ 4.854547121574168, 51.702905733624668 ], [ 4.854361259708049, 51.703332692411699 ], [ 4.856957503523343, 51.702759365628602 ], [ 4.858485680116534, 51.70333536614703 ], [ 4.860110700898911, 51.703043252771444 ], [ 4.860780428710709, 51.703055253307461 ], [ 4.862571345858494, 51.703804849175619 ], [ 4.866130857959061, 51.704745720036897 ], [ 4.866530120026107, 51.703994134638528 ] ] ] ] } },
{ "type": "Feature", "properties": { "buurtcode": "BU07790201", "buurtnaam": "Geertruidenberg-West", "pc6_codes": "4931CA, 4931CB, 4931CC, 4931CD, 4931CE, 4931CG, 4931CH, 4931CJ, 4931CK, 4931EA, 4931EB, 4931EC, 4931ED, 4931EE, 4931EG, 4931EH, 4931EJ, 4931EK, 4931EL, 4931EM, 4931EN, 4931EP, 4931ER, 4931ES, 4931ET, 4931EV, 4931EW, 4931GA, 4931GB, 4931GC, 4931GD, 4931HA, 4931HB, 4931HC, 4931HD, 4931HE, 4931HG, 4931HH, 4931HJ, 4931HK, 4931HL, 4931HM, 4931HN, 4931HP, 4931HR, 4931HS, 4931HT, 4931HV, 4931HW, 4931HX, 4931VA, 4931VB, 4931VC, 4931VD, 4931VE, 4931VG, 4931VH, 4931VJ, 4931VK, 4931VL, 4931VM, 4931VN, 4931VP, 4931VR, 4931VS, 4931XA", "wijkcode": "WK077902", "gemeentecode": "GM0779", "gemeentenaam": "Geertruidenberg", "oppervlakteLandInHa": 56, "AantalInwoners_5": 2420, "Mannen_6": 1210, "Vrouwen_7": 1210, "HuishoudensTotaal_29": 1145, "GemiddeldeHuishoudensgrootte_33": 2.1, "Woningvoorraad_35": 1235, "NieuwbouwWoningen_36": 0, "NietWoningvoorraad_37": 239, "NieuwbouwNietWoningen_38": 0, "GemiddeldeWOZWaardeVanWoningen_39": 282, "PercentageEengezinswoning_40": 71, "PercentageTussenwoningEengezins_41": 44, "PercentageHoekwoningEengezins_42": 19, "PercentageTweeOnderEenKapWoningEe_43": 2, "PercentageVrijstaandeWoningEengezins_44": 5, "PercentageMeergezinswoning_45": 29, "Koopwoningen_47": 59, "HuurwoningenTotaal_48": 41, "InBezitWoningcorporatie_49": 38, "InBezitOverigeVerhuurders_50": 3, "BouwjaarMeerDanTienJaarGeleden_51": 98, "BouwjaarAfgelopenTienJaar_52": 2, "GemiddeldeElektriciteitslevering_53": 2460, "GemiddeldeElektriciteitsteruglevering_54": 630, "GemiddeldAardgasverbruik_55": 620, "AardgasvrijeWoningen_57": 21, "Aardgaswoningen_58": 69, "WoningenMetZonnestroom_59": 36, "WoningenHoofdzElektrVerwarmd_60": 5, "k_20PersonenMetHoogsteInkomen_80": 13.9, "k_20HuishoudensMetHoogsteInkomen_85": 11.7, "MediaanVermogenVanParticuliereHuish_86": 120.8, "PersonenautoSTotaal_104": 1270, "PersonenautoSBrandstofBenzine_105": 1065, "PersonenautoSOverigeBrandstof_106": 205, "PersonenautoSPerHuishouden_107": 1.1, "Omgevingsadressendichtheid_121": 897, "AantalInstallatiesBijWoningen_5": 260, "OpgesteldVermogenVanZonnepanelen_6": 977, "installaties_per_woning": 0.21052631578947367, "vermogen_per_woning": 0.79109311740890687, "installaties_per_100_woningen": 21.052631578947366, "vermogen_per_huishouden": 0.85327510917030569, "batterijdruk_score": 226.8, "koop_zon_score": 0.2124, "eengezins_zon_score": 0.2556, "betaalkracht_zon_score": 43.488, "overige_brandstof_zon_score": 73.8, "lichte_batterij_kansscore": 0.35379893331194606 }, "geometry": { "type": "MultiPolygon", "coordinates": [ [ [ [ 4.847622186333417, 51.705009975788862 ], [ 4.848839098464421, 51.704746194539503 ], [ 4.851296880839605, 51.704215052621016 ], [ 4.852022993873519, 51.70385686066728 ], [ 4.85286405918955, 51.703688228798271 ], [ 4.854361259708049, 51.703332692411699 ], [ 4.854547121574168, 51.702905733624668 ], [ 4.85456431523358, 51.701935037778306 ], [ 4.854270761100628, 51.701555338275 ], [ 4.853664476391565, 51.701206515900004 ], [ 4.852525165045142, 51.70053784638344 ], [ 4.853061772409066, 51.700057716732069 ], [ 4.853734190210243, 51.699827917730786 ], [ 4.852185277411131, 51.69772368959088 ], [ 4.851928078584147, 51.697694706547026 ], [ 4.844323736046, 51.69686871290741 ], [ 4.844235140217359, 51.698346936757638 ], [ 4.843367344647278, 51.698817625213358 ], [ 4.842757912466618, 51.699576021696501 ], [ 4.842462291730572, 51.699978294029016 ], [ 4.842203576730373, 51.701143930957045 ], [ 4.842123498222494, 51.701740180535531 ], [ 4.842171498829515, 51.702071018316197 ], [ 4.84220812351964, 51.702492531945637 ], [ 4.842288513815092, 51.702752454197444 ], [ 4.842451765857874, 51.703057704055468 ], [ 4.842533017653655, 51.703246280874858 ], [ 4.842685565028427, 51.703389404384268 ], [ 4.84365733421796, 51.704422555675222 ], [ 4.8446284441573, 51.705231541094193 ], [ 4.84581716412487, 51.705493216266532 ], [ 4.846962420051837, 51.705808330383292 ], [ 4.848513381285358, 51.706063782662142 ], [ 4.847622186333417, 51.705009975788862 ] ] ] ] } },
{ "type": "Feature", "properties": { "buurtcode": "BU07790202", "buurtnaam": "Geertruidenberg-Noord", "pc6_codes": "4931HE, 4931RA, 4931RB, 4931RC, 4931RD, 4931RE, 4931RG, 4931RH, 4931RJ, 4931RK, 4931RM, 4931RN, 4931RP, 4931RR, 4931RS, 4931RT, 4931RV, 4931RW, 4931RX, 4931RZ, 4931XA, 4931XB, 4931XC, 4931XD, 4931XE, 4931XG, 4931XH, 4931XJ, 4931XK, 4931XL, 4931XM, 4931XN, 4931XP, 4931XR, 4931XS, 4931XT, 4931XV, 4931XW, 4931XX, 4931ZA, 4931ZB", "wijkcode": "WK077902", "gemeentecode": "GM0779", "gemeentenaam": "Geertruidenberg", "oppervlakteLandInHa": 32, "AantalInwoners_5": 1695, "Mannen_6": 860, "Vrouwen_7": 835, "HuishoudensTotaal_29": 690, "GemiddeldeHuishoudensgrootte_33": 2.4, "Woningvoorraad_35": 686, "NieuwbouwWoningen_36": 0, "NietWoningvoorraad_37": 64, "NieuwbouwNietWoningen_38": 0, "GemiddeldeWOZWaardeVanWoningen_39": 325, "PercentageEengezinswoning_40": 98, "PercentageTussenwoningEengezins_41": 63, "PercentageHoekwoningEengezins_42": 28, "PercentageTweeOnderEenKapWoningEe_43": 5, "PercentageVrijstaandeWoningEengezins_44": 3, "PercentageMeergezinswoning_45": 2, "Koopwoningen_47": 73, "HuurwoningenTotaal_48": 27, "InBezitWoningcorporatie_49": 24, "InBezitOverigeVerhuurders_50": 3, "BouwjaarMeerDanTienJaarGeleden_51": 100, "BouwjaarAfgelopenTienJaar_52": 0, "GemiddeldeElektriciteitslevering_53": 2760, "GemiddeldeElektriciteitsteruglevering_54": 890, "GemiddeldAardgasverbruik_55": 350, "AardgasvrijeWoningen_57": 57, "Aardgaswoningen_58": 41, "WoningenMetZonnestroom_59": 45, "WoningenHoofdzElektrVerwarmd_60": 9, "k_20PersonenMetHoogsteInkomen_80": 16.3, "k_20HuishoudensMetHoogsteInkomen_85": 19.7, "MediaanVermogenVanParticuliereHuish_86": 175.3, "PersonenautoSTotaal_104": 855, "PersonenautoSBrandstofBenzine_105": 725, "PersonenautoSOverigeBrandstof_106": 125, "PersonenautoSPerHuishouden_107": 1.2, "Omgevingsadressendichtheid_121": 973, "AantalInstallatiesBijWoningen_5": 177, "OpgesteldVermogenVanZonnepanelen_6": 665, "installaties_per_woning": 0.25801749271137026, "vermogen_per_woning": 0.96938775510204078, "installaties_per_100_woningen": 25.801749271137027, "vermogen_per_huishouden": 0.96376811594202894, "batterijdruk_score": 400.5, "koop_zon_score": 0.3285, "eengezins_zon_score": 0.441, "betaalkracht_zon_score": 78.885, "overige_brandstof_zon_score": 56.25, "lichte_batterij_kansscore": 0.45989098369160131 }, "geometry": { "type": "MultiPolygon", "coordinates": [ [ [ [ 4.859764789160999, 51.706587154808119 ], [ 4.860596964457747, 51.70586366102907 ], [ 4.861421071638165, 51.704917936728776 ], [ 4.862571345858494, 51.703804849175619 ], [ 4.860780428710709, 51.703055253307461 ], [ 4.860110700898911, 51.703043252771444 ], [ 4.858485680116534, 51.70333536614703 ], [ 4.856957503523343, 51.702759365628602 ], [ 4.854361259708049, 51.703332692411699 ], [ 4.85286405918955, 51.703688228798271 ], [ 4.852022993873519, 51.70385686066728 ], [ 4.851296880839605, 51.704215052621016 ], [ 4.848839098464421, 51.704746194539503 ], [ 4.847622186333417, 51.705009975788862 ], [ 4.848513381285358, 51.706063782662142 ], [ 4.84923398616395, 51.706182540933952 ], [ 4.852296259483659, 51.706620712600021 ], [ 4.85395087355775, 51.70693808230714 ], [ 4.856212170788468, 51.707291605499343 ], [ 4.858591841255168, 51.707713314249432 ], [ 4.859764789160999, 51.706587154808119 ] ] ] ] } },
{ "type": "Feature", "properties": { "buurtcode": "BU07790203", "buurtnaam": "Industrieterrein Dongeoever Amerkant", "pc6_codes": "4931AA, 4931KB, 4931NC, 4931RG", "wijkcode": "WK077902", "gemeentecode": "GM0779", "gemeentenaam": "Geertruidenberg", "oppervlakteLandInHa": 94, "AantalInwoners_5": 20, "Mannen_6": 15, "Vrouwen_7": 15, "HuishoudensTotaal_29": 10, "GemiddeldeHuishoudensgrootte_33": 2.3, "Woningvoorraad_35": 9, "NieuwbouwWoningen_36": 0, "NietWoningvoorraad_37": 15, "NieuwbouwNietWoningen_38": 1, "GemiddeldeWOZWaardeVanWoningen_39": null, "PercentageEengezinswoning_40": null, "PercentageTussenwoningEengezins_41": null, "PercentageHoekwoningEengezins_42": null, "PercentageTweeOnderEenKapWoningEe_43": null, "PercentageVrijstaandeWoningEengezins_44": null, "PercentageMeergezinswoning_45": null, "Koopwoningen_47": null, "HuurwoningenTotaal_48": null, "InBezitWoningcorporatie_49": null, "InBezitOverigeVerhuurders_50": null, "BouwjaarMeerDanTienJaarGeleden_51": null, "BouwjaarAfgelopenTienJaar_52": null, "GemiddeldeElektriciteitslevering_53": 3790, "GemiddeldeElektriciteitsteruglevering_54": 1610, "GemiddeldAardgasverbruik_55": 1260, "AardgasvrijeWoningen_57": null, "Aardgaswoningen_58": null, "WoningenMetZonnestroom_59": null, "WoningenHoofdzElektrVerwarmd_60": null, "k_20PersonenMetHoogsteInkomen_80": null, "k_20HuishoudensMetHoogsteInkomen_85": null, "MediaanVermogenVanParticuliereHuish_86": null, "PersonenautoSTotaal_104": 25, "PersonenautoSBrandstofBenzine_105": 15, "PersonenautoSOverigeBrandstof_106": 10, "PersonenautoSPerHuishouden_107": null, "Omgevingsadressendichtheid_121": 1008, "AantalInstallatiesBijWoningen_5": 0, "OpgesteldVermogenVanZonnepanelen_6": 0, "installaties_per_woning": 0.0, "vermogen_per_woning": 0.0, "installaties_per_100_woningen": 0.0, "vermogen_per_huishouden": 0.0, "batterijdruk_score": null, "koop_zon_score": null, "eengezins_zon_score": null, "betaalkracht_zon_score": null, "overige_brandstof_zon_score": null, "lichte_batterij_kansscore": null }, "geometry": { "type": "MultiPolygon", "coordinates": [ [ [ [ 4.853876678770593, 51.712894405182901 ], [ 4.855238226840924, 51.712775594403276 ], [ 4.856112748202634, 51.71261074373335 ], [ 4.857035029375401, 51.712315486053207 ], [ 4.857737937573714, 51.711967264134906 ], [ 4.858070343692696, 51.711749387106167 ], [ 4.860878950039366, 51.709633694665023 ], [ 4.862818132901113, 51.70797218765869 ], [ 4.863464420485407, 51.707389131340349 ], [ 4.864734935028983, 51.706239763387273 ], [ 4.866130857959061, 51.704745720036897 ], [ 4.862571345858494, 51.703804849175619 ], [ 4.861421071638165, 51.704917936728776 ], [ 4.860596964457747, 51.70586366102907 ], [ 4.859764789160999, 51.706587154808119 ], [ 4.858591841255168, 51.707713314249432 ], [ 4.856212170788468, 51.707291605499343 ], [ 4.85395087355775, 51.70693808230714 ], [ 4.852296259483659, 51.706620712600021 ], [ 4.84923398616395, 51.706182540933952 ], [ 4.848513381285358, 51.706063782662142 ], [ 4.846962420051837, 51.705808330383292 ], [ 4.84581716412487, 51.705493216266532 ], [ 4.8446284441573, 51.705231541094193 ], [ 4.84365733421796, 51.704422555675222 ], [ 4.842685565028427, 51.703389404384268 ], [ 4.829766917632179, 51.711585815448998 ], [ 4.829767777739159, 51.711585881562357 ], [ 4.829781154387571, 51.711586484515664 ], [ 4.830325287292021, 51.711667452783956 ], [ 4.831233314473391, 51.711796410229383 ], [ 4.832397612435571, 51.711959697444605 ], [ 4.833324477522662, 51.712080260516565 ], [ 4.834277045497902, 51.712218555280259 ], [ 4.835021733359872, 51.71232860030068 ], [ 4.835597581288408, 51.712420722532329 ], [ 4.836220696970906, 51.71251101477452 ], [ 4.836904719393342, 51.712611863763087 ], [ 4.838292589456684, 51.712843961306973 ], [ 4.840489058244089, 51.713211222710029 ], [ 4.840723017400051, 51.713261742583882 ], [ 4.841592415924564, 51.713449477687838 ], [ 4.853876678770593, 51.712894405182901 ] ] ] ] } },
{ "type": "Feature", "properties": { "buurtcode": "BU07790209", "buurtnaam": "Verspreide huizen Geertruidenberg", "pc6_codes": "4931BP, 4931NA, 4931NB, 4931NC, 4931ND, 4931NE, 4931NH, 4931NJ, 4931NK, 4931PA", "wijkcode": "WK077902", "gemeentecode": "GM0779", "gemeentenaam": "Geertruidenberg", "oppervlakteLandInHa": 232, "AantalInwoners_5": 50, "Mannen_6": 25, "Vrouwen_7": 20, "HuishoudensTotaal_29": 25, "GemiddeldeHuishoudensgrootte_33": 2.0, "Woningvoorraad_35": 29, "NieuwbouwWoningen_36": 0, "NietWoningvoorraad_37": 43, "NieuwbouwNietWoningen_38": 0, "GemiddeldeWOZWaardeVanWoningen_39": 335, "PercentageEengezinswoning_40": 72, "PercentageTussenwoningEengezins_41": 34, "PercentageHoekwoningEengezins_42": 10, "PercentageTweeOnderEenKapWoningEe_43": 0, "PercentageVrijstaandeWoningEengezins_44": 28, "PercentageMeergezinswoning_45": 28, "Koopwoningen_47": 38, "HuurwoningenTotaal_48": 62, "InBezitWoningcorporatie_49": 14, "InBezitOverigeVerhuurders_50": 48, "BouwjaarMeerDanTienJaarGeleden_51": 100, "BouwjaarAfgelopenTienJaar_52": 0, "GemiddeldeElektriciteitslevering_53": 2720, "GemiddeldeElektriciteitsteruglevering_54": 420, "GemiddeldAardgasverbruik_55": 780, "AardgasvrijeWoningen_57": null, "Aardgaswoningen_58": null, "WoningenMetZonnestroom_59": null, "WoningenHoofdzElektrVerwarmd_60": null, "k_20PersonenMetHoogsteInkomen_80": null, "k_20HuishoudensMetHoogsteInkomen_85": null, "MediaanVermogenVanParticuliereHuish_86": null, "PersonenautoSTotaal_104": 20, "PersonenautoSBrandstofBenzine_105": 15, "PersonenautoSOverigeBrandstof_106": 5, "PersonenautoSPerHuishouden_107": null, "Omgevingsadressendichtheid_121": 617, "AantalInstallatiesBijWoningen_5": 0, "OpgesteldVermogenVanZonnepanelen_6": 0, "installaties_per_woning": 0.0, "vermogen_per_woning": 0.0, "installaties_per_100_woningen": 0.0, "vermogen_per_huishouden": 0.0, "batterijdruk_score": null, "koop_zon_score": null, "eengezins_zon_score": null, "betaalkracht_zon_score": null, "overige_brandstof_zon_score": null, "lichte_batterij_kansscore": null }, "geometry": { "type": "MultiPolygon", "coordinates": [ [ [ [ 4.842685565028427, 51.703389404384268 ], [ 4.842533017653655, 51.703246280874858 ], [ 4.842451765857874, 51.703057704055468 ], [ 4.842288513815092, 51.702752454197444 ], [ 4.84220812351964, 51.702492531945637 ], [ 4.842171498829515, 51.702071018316197 ], [ 4.842123498222494, 51.701740180535531 ], [ 4.842203576730373, 51.701143930957045 ], [ 4.842462291730572, 51.699978294029016 ], [ 4.842757912466618, 51.699576021696501 ], [ 4.843367344647278, 51.698817625213358 ], [ 4.844235140217359, 51.698346936757638 ], [ 4.844323736046, 51.69686871290741 ], [ 4.851928078584147, 51.697694706547026 ], [ 4.852185277411131, 51.69772368959088 ], [ 4.856563854602832, 51.698221967913661 ], [ 4.857737646756906, 51.696224775162726 ], [ 4.857048101176221, 51.69600312105834 ], [ 4.854524679236564, 51.695213875458691 ], [ 4.852526417255453, 51.694560959904855 ], [ 4.851449492064765, 51.694307446798334 ], [ 4.850371695821122, 51.694128357529713 ], [ 4.849532125634297, 51.694099788388975 ], [ 4.848552266097124, 51.694095287069665 ], [ 4.847733700613676, 51.6939920833711 ], [ 4.846675403021217, 51.693838049961862 ], [ 4.845617266604284, 51.693708725630003 ], [ 4.844722330609406, 51.693294477088926 ], [ 4.844186084521047, 51.69298132194708 ], [ 4.843571305915729, 51.692556003390109 ], [ 4.843137572659827, 51.692044444847305 ], [ 4.842684338011242, 51.691483075885941 ], [ 4.842354392429931, 51.69064896561764 ], [ 4.842046667129761, 51.689640803186911 ], [ 4.84201640522188, 51.688832805800494 ], [ 4.842204612714961, 51.68814998099716 ], [ 4.842574425609313, 51.687331484970201 ], [ 4.842840396017533, 51.686823176109094 ], [ 4.843391193012691, 51.686017427517633 ], [ 4.843391262918852, 51.686017386494299 ], [ 4.843276627894177, 51.685746838164768 ], [ 4.843239517883467, 51.685659268989049 ], [ 4.843193422650648, 51.685550471773055 ], [ 4.843150674054482, 51.685449600111731 ], [ 4.84309899164163, 51.68528835497478 ], [ 4.8430537235658, 51.685151714636859 ], [ 4.843013995554949, 51.6850318009689 ], [ 4.842929743960964, 51.684731457543421 ], [ 4.842824817314398, 51.684539106735599 ], [ 4.842658200108207, 51.684234011763905 ], [ 4.842555590798139, 51.684053563484959 ], [ 4.842483799206954, 51.683917419782816 ], [ 4.842528372875787, 51.683932485343171 ], [ 4.842424460372796, 51.683626144517383 ], [ 4.842402623282871, 51.683551832465412 ], [ 4.842326914011992, 51.68327157301438 ], [ 4.84229377301905, 51.683100876740077 ], [ 4.84228140406994, 51.682975229450278 ], [ 4.842265579104914, 51.682855597478252 ], [ 4.842254215781672, 51.682701685481739 ], [ 4.842246743909309, 51.682544034321637 ], [ 4.842250225107025, 51.682352187271832 ], [ 4.842254921517735, 51.682214331849821 ], [ 4.842247502485572, 51.682093130002215 ], [ 4.842349072414516, 51.68153545079138 ], [ 4.842354822213661, 51.681449393000264 ], [ 4.842529878049936, 51.680966931095789 ], [ 4.84281018955047, 51.680377840152538 ], [ 4.84281667888789, 51.680289116133011 ], [ 4.84296686894398, 51.679908963932235 ], [ 4.843012197730501, 51.679815206937405 ], [ 4.842685569176063, 51.679733502668071 ], [ 4.842367931391759, 51.67965404692626 ], [ 4.84163363125869, 51.681041752248845 ], [ 4.841254701108326, 51.681712240622616 ], [ 4.841061053152609, 51.682016907841366 ], [ 4.840843582722309, 51.68235907223319 ], [ 4.840382788072343, 51.68301258278062 ], [ 4.840093690888884, 51.68340579062636 ], [ 4.83983105243871, 51.683755849931792 ], [ 4.839624346900553, 51.684020732799006 ], [ 4.838960392330226, 51.68478854059579 ], [ 4.838384878524435, 51.685411582991357 ], [ 4.837972354855784, 51.685833204700806 ], [ 4.837686566797621, 51.686101920017784 ], [ 4.83753833956652, 51.686241286046744 ], [ 4.837262710991054, 51.686493472895172 ], [ 4.837000357872046, 51.686733514838011 ], [ 4.836887602756174, 51.686833424589068 ], [ 4.836681661016931, 51.687013920204187 ], [ 4.83623622538122, 51.687404316287406 ], [ 4.835783558127831, 51.687803638350779 ], [ 4.835551353870907, 51.688009509221928 ], [ 4.835203915625579, 51.688317361467661 ], [ 4.835028886374601, 51.688464139529465 ], [ 4.834880591789872, 51.688605344573858 ], [ 4.834751746258147, 51.688731261539971 ], [ 4.83438287328284, 51.689077436848116 ], [ 4.833920097540475, 51.68952130583957 ], [ 4.833797643711643, 51.689644474451441 ], [ 4.833580406742837, 51.689867841183343 ], [ 4.833320656251652, 51.690143716079952 ], [ 4.833011636227249, 51.69048629596611 ], [ 4.832728045095934, 51.690822298846903 ], [ 4.832465933721297, 51.691143589432698 ], [ 4.832207191730616, 51.691461075211379 ], [ 4.831942031028427, 51.691790997284059 ], [ 4.831839660147872, 51.691934932996524 ], [ 4.83175540504197, 51.692053417701061 ], [ 4.831679111607322, 51.692160695272634 ], [ 4.831302784599946, 51.692704414568198 ], [ 4.831152354676938, 51.692932552205114 ], [ 4.831004189041619, 51.693166974492101 ], [ 4.830877387264321, 51.693372932051915 ], [ 4.830721772002342, 51.693642473296414 ], [ 4.830615472179244, 51.693834712372201 ], [ 4.830488805395079, 51.694062314871182 ], [ 4.830368656399715, 51.694278496646227 ], [ 4.830245705939207, 51.694511842328396 ], [ 4.830142248518489, 51.694718413437613 ], [ 4.830044369547386, 51.69490531680789 ], [ 4.829974336637345, 51.695024982464503 ], [ 4.829973655170989, 51.695026291568936 ], [ 4.82988077398776, 51.695207762450451 ], [ 4.829880684994225, 51.695207941800476 ], [ 4.829845294860702, 51.695292204013512 ], [ 4.829774741341495, 51.695415291756362 ], [ 4.829676969180936, 51.695596802122495 ], [ 4.829657248089485, 51.69563488314941 ], [ 4.829579902809935, 51.69578435615216 ], [ 4.829487304246349, 51.695962592142152 ], [ 4.82927492236949, 51.696369819297203 ], [ 4.829083083557022, 51.696779975364613 ], [ 4.828931194579165, 51.697124335671404 ], [ 4.828743811240971, 51.697580822028229 ], [ 4.828580995077273, 51.698006081733865 ], [ 4.828447720075888, 51.698389819622697 ], [ 4.828196438515495, 51.699204126828697 ], [ 4.828100169540749, 51.699536706582464 ], [ 4.827982941790222, 51.699925194598862 ], [ 4.827981051591214, 51.699931828201812 ], [ 4.827874012621052, 51.700308050259153 ], [ 4.827755933650823, 51.700673810616962 ], [ 4.827641400822227, 51.701052117986684 ], [ 4.827528900342015, 51.701434371980703 ], [ 4.827374782311862, 51.701947257040999 ], [ 4.827291449660443, 51.702236518587718 ], [ 4.827207764199315, 51.702537832184539 ], [ 4.827122239603093, 51.702833366201048 ], [ 4.827034267757115, 51.703121994143146 ], [ 4.826942041019163, 51.703416507221121 ], [ 4.826859244349295, 51.703716943908674 ], [ 4.82674583071582, 51.704071408761486 ], [ 4.826669174338864, 51.704358292802844 ], [ 4.826569747104401, 51.704681256195386 ], [ 4.826481580903858, 51.705004821698459 ], [ 4.826387004769304, 51.705294523117722 ], [ 4.826302641458223, 51.705583050888805 ], [ 4.826232418770982, 51.705818523296649 ], [ 4.826142351576408, 51.706136344653657 ], [ 4.826071935831171, 51.706369748640654 ], [ 4.825992415591402, 51.706627926672212 ], [ 4.825849897241833, 51.707104443069738 ], [ 4.825764009652382, 51.707374185804063 ], [ 4.825721996959432, 51.707523178301777 ], [ 4.825684736074593, 51.707621533456084 ], [ 4.825643059487914, 51.707708460823206 ], [ 4.825580907505926, 51.707804943857944 ], [ 4.825520535728404, 51.707883880536642 ], [ 4.825446810012111, 51.707962789116912 ], [ 4.825400619401378, 51.708008886230822 ], [ 4.825330726961062, 51.70806220442001 ], [ 4.825224852821434, 51.708132922832384 ], [ 4.825109180841117, 51.708210830020974 ], [ 4.824982022935045, 51.708290884206463 ], [ 4.824891525425056, 51.708348966131325 ], [ 4.82472210943989, 51.70848100540271 ], [ 4.824681593887909, 51.708519740797421 ], [ 4.824435689493193, 51.708824462144882 ], [ 4.824296365768816, 51.708997103295879 ], [ 4.824133546679021, 51.709540937703544 ], [ 4.823900656085817, 51.710318790991757 ], [ 4.823712621515172, 51.710946760556766 ], [ 4.823610411152638, 51.71128815268461 ], [ 4.823872089147668, 51.711290255927814 ], [ 4.824178996345061, 51.711291317503679 ], [ 4.824475683443075, 51.71129276963967 ], [ 4.824659603637181, 51.71129607069313 ], [ 4.824768614179272, 51.711299587201175 ], [ 4.825059264090696, 51.71131180426071 ], [ 4.825498150407729, 51.711329899759505 ], [ 4.826111366770094, 51.711355776733633 ], [ 4.826758775482248, 51.711380411806552 ], [ 4.827125660698987, 51.7113964579544 ], [ 4.827518554466172, 51.711422451783825 ], [ 4.828076917148283, 51.711463795585196 ], [ 4.828941615654989, 51.711528070468809 ], [ 4.829616125113442, 51.711574157915692 ], [ 4.829766917632179, 51.711585815448998 ], [ 4.842685565028427, 51.703389404384268 ] ] ] ] } }
]
}
