{
"type": "FeatureCollection",
"name": "Hattem",
"crs": { "type": "name", "properties": { "name": "urn:ogc:def:crs:EPSG::28992" } },
"features": [
{ "type": "Feature", "properties": { "buurtcode": "BU02440000", "buurtnaam": "Binnenstad", "pc6_codes": "8051BM, 8051EA, 8051ED, 8051EG, 8051EH, 8051EJ, 8051EK, 8051EL, 8051EM, 8051EN, 8051ER, 8051ES, 8051ET, 8051EV, 8051EW, 8051EX, 8051EZ, 8051GA, 8051GB, 8051GC, 8051GD, 8051GE, 8051GG, 8051GH, 8051GJ, 8051GK, 8051GL, 8051GM, 8051GN, 8051GP, 8051GR, 8051GS, 8051GT, 8051GV, 8051GW, 8051GX, 8051GZ, 8051ND, 8051NE, 8051VE, 8051VH, 8051VJ, 8051VK", "wijkcode": "WK024400", "gemeentecode": "GM0244", "gemeentenaam": "Hattem", "oppervlakteLandInHa": 15, "AantalInwoners_5": 695, "Mannen_6": 340, "Vrouwen_7": 355, "HuishoudensTotaal_29": 405, "GemiddeldeHuishoudensgrootte_33": 1.7, "Woningvoorraad_35": 416, "NieuwbouwWoningen_36": 9, "NietWoningvoorraad_37": 123, "NieuwbouwNietWoningen_38": 0, "GemiddeldeWOZWaardeVanWoningen_39": 332, "PercentageEengezinswoning_40": 56, "PercentageTussenwoningEengezins_41": 29, "PercentageHoekwoningEengezins_42": 14, "PercentageTweeOnderEenKapWoningEe_43": 5, "PercentageVrijstaandeWoningEengezins_44": 8, "PercentageMeergezinswoning_45": 44, "Koopwoningen_47": 55, "HuurwoningenTotaal_48": 45, "InBezitWoningcorporatie_49": 12, "InBezitOverigeVerhuurders_50": 33, "BouwjaarMeerDanTienJaarGeleden_51": 99, "BouwjaarAfgelopenTienJaar_52": 1, "GemiddeldeElektriciteitslevering_53": 2190, "GemiddeldeElektriciteitsteruglevering_54": 220, "GemiddeldAardgasverbruik_55": 970, "AardgasvrijeWoningen_57": 2, "Aardgaswoningen_58": 93, "WoningenMetZonnestroom_59": 12, "WoningenHoofdzElektrVerwarmd_60": 2, "k_20PersonenMetHoogsteInkomen_80": 17.6, "k_20HuishoudensMetHoogsteInkomen_85": 14.2, "MediaanVermogenVanParticuliereHuish_86": 132.0, "PersonenautoSTotaal_104": 355, "PersonenautoSBrandstofBenzine_105": 250, "PersonenautoSOverigeBrandstof_106": 100, "PersonenautoSPerHuishouden_107": 0.9, "Omgevingsadressendichtheid_121": 1009, "AantalInstallatiesBijWoningen_5": 27, "OpgesteldVermogenVanZonnepanelen_6": 97, "installaties_per_woning": 0.064903846153846159, "vermogen_per_woning": 0.23317307692307693, "installaties_per_100_woningen": 6.4903846153846159, "vermogen_per_huishouden": 0.23950617283950618, "batterijdruk_score": 26.4, "koop_zon_score": 0.066, "eengezins_zon_score": 0.0672, "betaalkracht_zon_score": 15.84, "overige_brandstof_zon_score": 12.0, "lichte_batterij_kansscore": 0.25411365275414677 }, "geometry": { "type": "MultiPolygon", "coordinates": [ [ [ [ 201365.4063, 498984.5 ], [ 201429.9063, 498901.1875 ], [ 201574.29680000001099, 498720.406399999978021 ], [ 201523.5938, 498679.406299999973271 ], [ 201485.5, 498545.3125 ], [ 201396.203, 498529.593899999978021 ], [ 201332.0937, 498525.8125 ], [ 201250.9063, 498556.093799999973271 ], [ 201132.5, 498638.3126 ], [ 201084.703100000013364, 498742.8125 ], [ 201080.622800000011921, 498829.581799999985378 ], [ 201065.401600000011967, 498901.338899999973364 ], [ 201124.298100000014529, 498900.000300000014249 ], [ 201185.871600000013132, 498900.000400000018999 ], [ 201250.122299999988172, 498912.04739999998128 ], [ 201288.8627, 498906.397799999976996 ], [ 201317.796899999986636, 498913.093899999978021 ], [ 201333.4999, 498998.093799999973271 ], [ 201365.4063, 498984.5 ] ] ] ] } },
{ "type": "Feature", "properties": { "buurtcode": "BU02440001", "buurtnaam": "Zandkamp en omgeving", "pc6_codes": "8051ED, 8051EE, 8051EP, 8051HA, 8051HB, 8051HC, 8051HD, 8051HE, 8051HG, 8051HH, 8051HJ, 8051HK, 8051HL, 8051HM, 8051HN, 8051HP, 8051HR, 8051HS, 8051HT, 8051HV, 8051HW, 8051HX, 8051HZ, 8051JA, 8051JB, 8051JC, 8051JE, 8051JG, 8051JH, 8051JJ, 8051JK, 8051JL, 8051JS, 8051JT, 8051LA, 8051LB, 8051LH, 8051MR, 8051MT, 8051ND, 8051NE, 8051VA, 8051VB, 8051VC, 8051VD, 8051VE, 8051VG, 8051VJ, 8051VK, 8051VL, 8051VM, 8051VN, 8051VP, 8051VR, 8051VS, 8051VT, 8051VV, 8051VW, 8051VX, 8051VZ, 8051XA, 8051XB, 8051XD, 8051XE, 8051XG, 8051XH, 8051XJ, 8051XK, 8051XL, 8051XM, 8051XN, 8051XP, 8051XR, 8051XS, 8051XT, 8051XV, 8051XW, 8051XX, 8051ZA, 8051ZB, 8051ZC, 8051ZD, 8051ZE, 8051ZG", "wijkcode": "WK024400", "gemeentecode": "GM0244", "gemeentenaam": "Hattem", "oppervlakteLandInHa": 71, "AantalInwoners_5": 3090, "Mannen_6": 1455, "Vrouwen_7": 1630, "HuishoudensTotaal_29": 1385, "GemiddeldeHuishoudensgrootte_33": 2.1, "Woningvoorraad_35": 1542, "NieuwbouwWoningen_36": 0, "NietWoningvoorraad_37": 178, "NieuwbouwNietWoningen_38": 0, "GemiddeldeWOZWaardeVanWoningen_39": 325, "PercentageEengezinswoning_40": 67, "PercentageTussenwoningEengezins_41": 28, "PercentageHoekwoningEengezins_42": 16, "PercentageTweeOnderEenKapWoningEe_43": 12, "PercentageVrijstaandeWoningEengezins_44": 12, "PercentageMeergezinswoning_45": 33, "Koopwoningen_47": 48, "HuurwoningenTotaal_48": 52, "InBezitWoningcorporatie_49": 45, "InBezitOverigeVerhuurders_50": 7, "BouwjaarMeerDanTienJaarGeleden_51": 92, "BouwjaarAfgelopenTienJaar_52": 8, "GemiddeldeElektriciteitslevering_53": 2270, "GemiddeldeElektriciteitsteruglevering_54": 760, "GemiddeldAardgasverbruik_55": 820, "AardgasvrijeWoningen_57": 6, "Aardgaswoningen_58": 88, "WoningenMetZonnestroom_59": 35, "WoningenHoofdzElektrVerwarmd_60": 12, "k_20PersonenMetHoogsteInkomen_80": 13.4, "k_20HuishoudensMetHoogsteInkomen_85": 14.9, "MediaanVermogenVanParticuliereHuish_86": 144.1, "PersonenautoSTotaal_104": 1480, "PersonenautoSBrandstofBenzine_105": 1185, "PersonenautoSOverigeBrandstof_106": 295, "PersonenautoSPerHuishouden_107": 1.1, "Omgevingsadressendichtheid_121": 1164, "AantalInstallatiesBijWoningen_5": 310, "OpgesteldVermogenVanZonnepanelen_6": 1207, "installaties_per_woning": 0.20103761348897536, "vermogen_per_woning": 0.78274967574578469, "installaties_per_100_woningen": 20.103761348897535, "vermogen_per_huishouden": 0.87148014440433208, "batterijdruk_score": 266.0, "koop_zon_score": 0.168, "eengezins_zon_score": 0.2345, "betaalkracht_zon_score": 50.435, "overige_brandstof_zon_score": 103.25, "lichte_batterij_kansscore": 0.32713873882819622 }, "geometry": { "type": "MultiPolygon", "coordinates": [ [ [ [ 200875.0937, 499527.6876 ], [ 200946.4999, 499432.5001 ], [ 200984.0938, 499291.593899999978021 ], [ 201026.9062, 499195.8126 ], [ 201089.29680000001099, 499129.093899999978021 ], [ 201202.703, 499053.8126 ], [ 201333.4999, 498998.093799999973271 ], [ 201317.796899999986636, 498913.093899999978021 ], [ 201288.8627, 498906.397799999976996 ], [ 201250.122299999988172, 498912.04739999998128 ], [ 201185.871600000013132, 498900.000400000018999 ], [ 201124.298100000014529, 498900.000300000014249 ], [ 201065.401600000011967, 498901.338899999973364 ], [ 201080.622800000011921, 498829.581799999985378 ], [ 201084.703100000013364, 498742.8125 ], [ 201132.5, 498638.3126 ], [ 201250.9063, 498556.093799999973271 ], [ 201332.0937, 498525.8125 ], [ 201396.203, 498529.593899999978021 ], [ 201485.5, 498545.3125 ], [ 201431.796899999986636, 498349.093899999978021 ], [ 201195.796899999986636, 498375.3125 ], [ 201059.703100000013364, 498454.593799999973271 ], [ 200771.5937, 498569.093899999978021 ], [ 200443.5937, 498617.406399999978021 ], [ 200248.9063, 498663.3126 ], [ 200241.9582, 498749.391400000022259 ], [ 200242.8476, 498760.434799999988172 ], [ 200247.5362, 498818.651399999973364 ], [ 200258.302, 498872.0124 ], [ 200266.2592, 498908.990700000023935 ], [ 200288.25889999998617, 498938.947700000018813 ], [ 200321.9606, 498960.9474 ], [ 200348.6411, 498972.6494 ], [ 200365.1482, 498982.403600000019651 ], [ 200456.703, 499054.6876 ], [ 200292.9063, 499190.6875 ], [ 200454.4999, 499323.3126 ], [ 200570.0, 499375.093799999973271 ], [ 200567.7085, 499379.813000000023749 ], [ 200582.1827, 499381.880699999979697 ], [ 200573.056099999987055, 499415.7794 ], [ 200719.9247, 499489.213899999973364 ], [ 200802.49900000001071, 499543.712899999984074 ], [ 200848.9113, 499575.409099999989849 ], [ 200875.0937, 499527.6876 ] ] ] ] } },
{ "type": "Feature", "properties": { "buurtcode": "BU02440002", "buurtnaam": "Ten oosten van Apeldoornseweg", "pc6_codes": "8051AA, 8051AB, 8051AT, 8051AV, 8051AW, 8051AX, 8051AZ, 8051BA, 8051BB, 8051BC, 8051BD, 8051BE, 8051BG, 8051BH, 8051BJ, 8051BK, 8051BL, 8051BN, 8051BP, 8051BT, 8051BV, 8051BW, 8051BX, 8051BZ, 8051CB, 8051CC, 8051CD, 8051CE, 8051CG, 8051CH, 8051CJ, 8051CK, 8051CL, 8051CM, 8051CN, 8051CP, 8051CR, 8051CS, 8051CT, 8051CV, 8051CW, 8051CX, 8051CZ, 8051DA, 8051DB, 8051DC, 8051DD, 8051DE, 8051DG, 8051DH, 8051DJ, 8051DK, 8051DL, 8051DM, 8051DN, 8051DP, 8051DR, 8051DS, 8051DT, 8051DV, 8051DW, 8051DX, 8051DZ, 8051EA, 8051EB, 8051EC, 8051EE", "wijkcode": "WK024400", "gemeentecode": "GM0244", "gemeentenaam": "Hattem", "oppervlakteLandInHa": 146, "AantalInwoners_5": 1920, "Mannen_6": 955, "Vrouwen_7": 960, "HuishoudensTotaal_29": 725, "GemiddeldeHuishoudensgrootte_33": 2.6, "Woningvoorraad_35": 734, "NieuwbouwWoningen_36": 53, "NietWoningvoorraad_37": 104, "NieuwbouwNietWoningen_38": 1, "GemiddeldeWOZWaardeVanWoningen_39": 414, "PercentageEengezinswoning_40": 98, "PercentageTussenwoningEengezins_41": 38, "PercentageHoekwoningEengezins_42": 22, "PercentageTweeOnderEenKapWoningEe_43": 17, "PercentageVrijstaandeWoningEengezins_44": 22, "PercentageMeergezinswoning_45": 2, "Koopwoningen_47": 84, "HuurwoningenTotaal_48": 16, "InBezitWoningcorporatie_49": 13, "InBezitOverigeVerhuurders_50": 3, "BouwjaarMeerDanTienJaarGeleden_51": 86, "BouwjaarAfgelopenTienJaar_52": 14, "GemiddeldeElektriciteitslevering_53": 3220, "GemiddeldeElektriciteitsteruglevering_54": 1290, "GemiddeldAardgasverbruik_55": 910, "AardgasvrijeWoningen_57": 14, "Aardgaswoningen_58": 80, "WoningenMetZonnestroom_59": 53, "WoningenHoofdzElektrVerwarmd_60": 20, "k_20PersonenMetHoogsteInkomen_80": 22.0, "k_20HuishoudensMetHoogsteInkomen_85": 28.1, "MediaanVermogenVanParticuliereHuish_86": 196.8, "PersonenautoSTotaal_104": 1010, "PersonenautoSBrandstofBenzine_105": 740, "PersonenautoSOverigeBrandstof_106": 270, "PersonenautoSPerHuishouden_107": 1.4, "Omgevingsadressendichtheid_121": 505, "AantalInstallatiesBijWoningen_5": 210, "OpgesteldVermogenVanZonnepanelen_6": 888, "installaties_per_woning": 0.28610354223433243, "vermogen_per_woning": 1.2098092643051772, "installaties_per_100_woningen": 28.610354223433244, "vermogen_per_huishouden": 1.2248275862068965, "batterijdruk_score": 683.7, "koop_zon_score": 0.4452, "eengezins_zon_score": 0.5194, "betaalkracht_zon_score": 104.304, "overige_brandstof_zon_score": 143.1, "lichte_batterij_kansscore": 0.51199344252277645 }, "geometry": { "type": "MultiPolygon", "coordinates": [ [ [ [ 201769.29680000001099, 498523.406399999978021 ], [ 201834.4062, 498514.5001 ], [ 201992.0938, 498448.906299999973271 ], [ 202114.0938, 498359.8125 ], [ 202229.5937, 498268.093799999973271 ], [ 202259.703100000013364, 498011.406299999973271 ], [ 202308.0938, 497866.1876 ], [ 202278.4063, 497721.406399999978021 ], [ 202112.5937, 497333.3126 ], [ 202284.4062, 497319.5001 ], [ 202215.796899999986636, 497038.6875 ], [ 201970.9999, 496774.8126 ], [ 201962.4999, 496776.5001 ], [ 201565.5937, 496856.593899999978021 ], [ 201135.0938, 496950.0001 ], [ 201115.4063, 497051.8125 ], [ 201145.9063, 497351.593899999978021 ], [ 201257.9063, 497747.406399999978021 ], [ 201264.703100000013364, 497750.906399999978021 ], [ 201428.4063, 498336.5 ], [ 201431.796899999986636, 498349.093899999978021 ], [ 201485.5, 498545.3125 ], [ 201523.5938, 498679.406299999973271 ], [ 201574.29680000001099, 498720.406399999978021 ], [ 201769.29680000001099, 498523.406399999978021 ] ] ] ] } },
{ "type": "Feature", "properties": { "buurtcode": "BU02440003", "buurtnaam": "Hogenkamp en omgeving", "pc6_codes": "8051LB, 8051LG, 8051LJ, 8051LK, 8051LL, 8051LM, 8051LN, 8051LP, 8051LS, 8051LV, 8051LW, 8051LX, 8051LZ, 8051MA, 8051MB, 8051MC, 8051MD, 8051ME, 8051MG, 8051MH, 8051MJ, 8051MK, 8051ML, 8051MN, 8051MP, 8051MS, 8051MT, 8051MV, 8051MX, 8051MZ, 8051NA, 8051NB, 8051NC, 8051NE, 8051NH, 8051PP, 8051SW, 8051SZ, 8051ZH, 8051ZJ, 8051ZK, 8051ZL, 8051ZM, 8051ZN, 8051ZP, 8051ZR, 8051ZS, 8051ZT, 8051ZV, 8051ZW, 8051ZZ", "wijkcode": "WK024400", "gemeentecode": "GM0244", "gemeentenaam": "Hattem", "oppervlakteLandInHa": 59, "AantalInwoners_5": 1900, "Mannen_6": 935, "Vrouwen_7": 970, "HuishoudensTotaal_29": 780, "GemiddeldeHuishoudensgrootte_33": 2.4, "Woningvoorraad_35": 777, "NieuwbouwWoningen_36": 0, "NietWoningvoorraad_37": 41, "NieuwbouwNietWoningen_38": 0, "GemiddeldeWOZWaardeVanWoningen_39": 381, "PercentageEengezinswoning_40": 98, "PercentageTussenwoningEengezins_41": 39, "PercentageHoekwoningEengezins_42": 25, "PercentageTweeOnderEenKapWoningEe_43": 13, "PercentageVrijstaandeWoningEengezins_44": 21, "PercentageMeergezinswoning_45": 2, "Koopwoningen_47": 74, "HuurwoningenTotaal_48": 26, "InBezitWoningcorporatie_49": 24, "InBezitOverigeVerhuurders_50": 2, "BouwjaarMeerDanTienJaarGeleden_51": 100, "BouwjaarAfgelopenTienJaar_52": 0, "GemiddeldeElektriciteitslevering_53": 2570, "GemiddeldeElektriciteitsteruglevering_54": 1270, "GemiddeldAardgasverbruik_55": 1000, "AardgasvrijeWoningen_57": 1, "Aardgaswoningen_58": 94, "WoningenMetZonnestroom_59": 61, "WoningenHoofdzElektrVerwarmd_60": 6, "k_20PersonenMetHoogsteInkomen_80": 17.3, "k_20HuishoudensMetHoogsteInkomen_85": 21.5, "MediaanVermogenVanParticuliereHuish_86": 240.8, "PersonenautoSTotaal_104": 985, "PersonenautoSBrandstofBenzine_105": 780, "PersonenautoSOverigeBrandstof_106": 205, "PersonenautoSPerHuishouden_107": 1.3, "Omgevingsadressendichtheid_121": 1003, "AantalInstallatiesBijWoningen_5": 235, "OpgesteldVermogenVanZonnepanelen_6": 888, "installaties_per_woning": 0.30244530244530243, "vermogen_per_woning": 1.1428571428571428, "installaties_per_100_woningen": 30.244530244530242, "vermogen_per_huishouden": 1.1384615384615384, "batterijdruk_score": 774.7, "koop_zon_score": 0.4514, "eengezins_zon_score": 0.5978, "betaalkracht_zon_score": 146.888, "overige_brandstof_zon_score": 125.05, "lichte_batterij_kansscore": 0.50626935178236465 }, "geometry": { "type": "MultiPolygon", "coordinates": [ [ [ [ 200443.5937, 498617.406399999978021 ], [ 200771.5937, 498569.093899999978021 ], [ 201059.703100000013364, 498454.593799999973271 ], [ 201195.796899999986636, 498375.3125 ], [ 201431.796899999986636, 498349.093899999978021 ], [ 201428.4063, 498336.5 ], [ 201264.703100000013364, 497750.906399999978021 ], [ 201257.9063, 497747.406399999978021 ], [ 201261.4062, 497759.6875 ], [ 201079.0, 497762.1875 ], [ 201046.4063, 497943.593799999973271 ], [ 201094.9999, 498065.3125 ], [ 200962.203100000013364, 498069.0 ], [ 200946.9062, 498204.6875 ], [ 200855.79680000001099, 498284.906299999973271 ], [ 200745.79680000001099, 498327.1876 ], [ 200676.0937, 498315.093899999978021 ], [ 200587.5937, 498261.3126 ], [ 200449.9062, 498186.3126 ], [ 200488.5937, 498119.6876 ], [ 200295.9062, 497997.8126 ], [ 200233.203, 498053.8125 ], [ 200011.203, 498037.5001 ], [ 199989.0938, 498061.1875 ], [ 199999.29680000001099, 498075.093899999978021 ], [ 199931.5, 498147.593799999973271 ], [ 199989.5937, 498203.5001 ], [ 200152.4063, 498423.906399999978021 ], [ 200161.4062, 498428.406399999978021 ], [ 200245.4063, 498521.5 ], [ 200256.5938, 498566.8125 ], [ 200248.9063, 498663.3126 ], [ 200443.5937, 498617.406399999978021 ] ] ] ] } },
{ "type": "Feature", "properties": { "buurtcode": "BU02440004", "buurtnaam": "Villapark", "pc6_codes": "8051AB, 8051AC, 8051AD, 8051AE, 8051AG, 8051AH, 8051AJ, 8051AK, 8051AL, 8051AM, 8051AN, 8051AP, 8051AR, 8051AS, 8051CA, 8051CC, 8051NG, 8051NJ, 8051NL, 8051NM, 8051NN, 8051NP, 8051NS, 8051NT, 8051NV, 8051NW, 8051NX, 8051NZ, 8051PA, 8051PB, 8051PC, 8051PD, 8051PE, 8051PG, 8051PH, 8051PJ", "wijkcode": "WK024400", "gemeentecode": "GM0244", "gemeentenaam": "Hattem", "oppervlakteLandInHa": 162, "AantalInwoners_5": 790, "Mannen_6": 415, "Vrouwen_7": 375, "HuishoudensTotaal_29": 330, "GemiddeldeHuishoudensgrootte_33": 2.3, "Woningvoorraad_35": 358, "NieuwbouwWoningen_36": 0, "NietWoningvoorraad_37": 39, "NieuwbouwNietWoningen_38": 0, "GemiddeldeWOZWaardeVanWoningen_39": 803, "PercentageEengezinswoning_40": 80, "PercentageTussenwoningEengezins_41": 0, "PercentageHoekwoningEengezins_42": 0, "PercentageTweeOnderEenKapWoningEe_43": 10, "PercentageVrijstaandeWoningEengezins_44": 70, "PercentageMeergezinswoning_45": 20, "Koopwoningen_47": 87, "HuurwoningenTotaal_48": 13, "InBezitWoningcorporatie_49": 0, "InBezitOverigeVerhuurders_50": 13, "BouwjaarMeerDanTienJaarGeleden_51": 98, "BouwjaarAfgelopenTienJaar_52": 2, "GemiddeldeElektriciteitslevering_53": 4090, "GemiddeldeElektriciteitsteruglevering_54": 1190, "GemiddeldAardgasverbruik_55": 1470, "AardgasvrijeWoningen_57": 3, "Aardgaswoningen_58": 84, "WoningenMetZonnestroom_59": 45, "WoningenHoofdzElektrVerwarmd_60": 13, "k_20PersonenMetHoogsteInkomen_80": 45.7, "k_20HuishoudensMetHoogsteInkomen_85": 48.5, "MediaanVermogenVanParticuliereHuish_86": 818.0, "PersonenautoSTotaal_104": 550, "PersonenautoSBrandstofBenzine_105": 360, "PersonenautoSOverigeBrandstof_106": 190, "PersonenautoSPerHuishouden_107": 1.7, "Omgevingsadressendichtheid_121": 281, "AantalInstallatiesBijWoningen_5": 101, "OpgesteldVermogenVanZonnepanelen_6": 536, "installaties_per_woning": 0.28212290502793297, "vermogen_per_woning": 1.4972067039106145, "installaties_per_100_woningen": 28.212290502793298, "vermogen_per_huishouden": 1.6242424242424243, "batterijdruk_score": 535.5, "koop_zon_score": 0.3915, "eengezins_zon_score": 0.36, "betaalkracht_zon_score": 368.1, "overige_brandstof_zon_score": 85.5, "lichte_batterij_kansscore": 0.46169588251282123 }, "geometry": { "type": "MultiPolygon", "coordinates": [ [ [ [ 201079.0, 497762.1875 ], [ 201261.4062, 497759.6875 ], [ 201257.9063, 497747.406399999978021 ], [ 201145.9063, 497351.593899999978021 ], [ 201115.4063, 497051.8125 ], [ 201135.0938, 496950.0001 ], [ 201565.5937, 496856.593899999978021 ], [ 201962.4999, 496776.5001 ], [ 201976.0, 496611.0001 ], [ 202024.703, 496622.8126 ], [ 202033.5938, 496525.093899999978021 ], [ 202145.79680000001099, 496538.093899999978021 ], [ 202151.0938, 496493.093899999978021 ], [ 202201.9062, 496493.406399999978021 ], [ 202217.9999, 496377.5001 ], [ 202023.29680000001099, 496326.6876 ], [ 202026.0509, 496260.098699999973178 ], [ 202015.313, 496256.572999999974854 ], [ 202012.939000000013039, 496255.793 ], [ 201985.022999999986496, 496247.835000000020955 ], [ 201949.397999999986496, 496238.233 ], [ 201926.855000000010477, 496232.017999999981839 ], [ 201899.823, 496224.545999999972992 ], [ 201882.61799999998766, 496219.857000000018161 ], [ 201879.633, 496219.043 ], [ 201879.321, 496218.957999999984168 ], [ 201878.264, 496218.669999999983702 ], [ 201852.606, 496211.678000000014435 ], [ 201848.432999999989988, 496210.891 ], [ 201824.278, 496209.635 ], [ 201815.681000000011409, 496209.184 ], [ 201815.306000000011409, 496209.164999999979045 ], [ 201815.252, 496209.162000000011176 ], [ 201809.159000000014203, 496208.838999999978114 ], [ 201799.481, 496208.325000000011642 ], [ 201774.99299999998766, 496206.981000000028871 ], [ 201748.467, 496205.526000000012573 ], [ 201696.920000000012806, 496201.207999999984168 ], [ 201644.208000000013271, 496195.738000000012107 ], [ 201591.691, 496190.24900000001071 ], [ 201539.587999999988824, 496184.94 ], [ 201509.601, 496182.392999999981839 ], [ 201495.128, 496181.226000000024214 ], [ 201493.911, 496181.113000000012107 ], [ 201469.996000000013737, 496178.816 ], [ 201441.068, 496176.347 ], [ 201342.547, 496167.94 ], [ 201331.987499999988358, 496167.085299999976996 ], [ 201302.203100000013364, 496333.1875 ], [ 200976.0, 496219.0 ], [ 200831.703, 496263.8126 ], [ 200716.29680000001099, 496254.6876 ], [ 200491.703, 496249.6876 ], [ 200162.203100000013364, 496244.6876 ], [ 200129.797, 496279.0001 ], [ 200132.4999, 496338.8125 ], [ 200207.4999, 496466.0001 ], [ 200054.5938, 496555.8126 ], [ 200152.29680000001099, 496861.906399999978021 ], [ 200355.5938, 496826.406399999978021 ], [ 200373.9999, 496957.593799999973271 ], [ 200504.4062, 496981.6876 ], [ 200719.0, 497017.593899999978021 ], [ 200689.4063, 497483.593899999978021 ], [ 200693.5937, 497621.8125 ], [ 201073.203, 497762.3126 ], [ 201079.0, 497762.1875 ] ] ] ] } },
{ "type": "Feature", "properties": { "buurtcode": "BU02440005", "buurtnaam": "De Hilst", "pc6_codes": "8051HK, 8051HL, 8051JC, 8051JM, 8051JP, 8051JR, 8051JV, 8051JX, 8051JZ, 8051KA, 8051KB, 8051KC, 8051KD, 8051KE, 8051KK, 8051KL, 8051KN, 8051KP, 8051KR, 8051KS, 8051KT, 8051KV, 8051KW, 8051KX, 8051KZ, 8051LC, 8051LD, 8051LE, 8051PT, 8051PV, 8051RA, 8051RB, 8051SB, 8051SJ, 8051SX, 8051TA, 8052AA, 8052AB, 8052AC, 8052AD, 8052AE, 8052AG, 8052AH, 8052AJ, 8052AK, 8052AL, 8052AM, 8052AN, 8052AP, 8052AR, 8052AS, 8052AT, 8052AV, 8052AW, 8052AX, 8052AZ, 8052BA, 8052BB, 8052BC, 8052BD, 8052BE, 8052BG, 8052BH, 8052BJ, 8052BK, 8052BN, 8052BP, 8052BR, 8052BS, 8052BT, 8052BV, 8052BW, 8052BZ, 8052CA, 8052CB, 8052CC, 8052CD, 8052CE, 8052CG, 8052CH, 8052CJ, 8052CK, 8052CL, 8052CM, 8052CN", "wijkcode": "WK024400", "gemeentecode": "GM0244", "gemeentenaam": "Hattem", "oppervlakteLandInHa": 79, "AantalInwoners_5": 3220, "Mannen_6": 1610, "Vrouwen_7": 1610, "HuishoudensTotaal_29": 1290, "GemiddeldeHuishoudensgrootte_33": 2.5, "Woningvoorraad_35": 1292, "NieuwbouwWoningen_36": 2, "NietWoningvoorraad_37": 41, "NieuwbouwNietWoningen_38": 0, "GemiddeldeWOZWaardeVanWoningen_39": 409, "PercentageEengezinswoning_40": 88, "PercentageTussenwoningEengezins_41": 38, "PercentageHoekwoningEengezins_42": 21, "PercentageTweeOnderEenKapWoningEe_43": 11, "PercentageVrijstaandeWoningEengezins_44": 18, "PercentageMeergezinswoning_45": 12, "Koopwoningen_47": 66, "HuurwoningenTotaal_48": 34, "InBezitWoningcorporatie_49": 31, "InBezitOverigeVerhuurders_50": 3, "BouwjaarMeerDanTienJaarGeleden_51": 87, "BouwjaarAfgelopenTienJaar_52": 13, "GemiddeldeElektriciteitslevering_53": 2650, "GemiddeldeElektriciteitsteruglevering_54": 1300, "GemiddeldAardgasverbruik_55": 860, "AardgasvrijeWoningen_57": 3, "Aardgaswoningen_58": 92, "WoningenMetZonnestroom_59": 58, "WoningenHoofdzElektrVerwarmd_60": 8, "k_20PersonenMetHoogsteInkomen_80": 20.7, "k_20HuishoudensMetHoogsteInkomen_85": 26.6, "MediaanVermogenVanParticuliereHuish_86": 252.3, "PersonenautoSTotaal_104": 1610, "PersonenautoSBrandstofBenzine_105": 1260, "PersonenautoSOverigeBrandstof_106": 355, "PersonenautoSPerHuishouden_107": 1.2, "Omgevingsadressendichtheid_121": 932, "AantalInstallatiesBijWoningen_5": 504, "OpgesteldVermogenVanZonnepanelen_6": 1863, "installaties_per_woning": 0.39009287925696595, "vermogen_per_woning": 1.4419504643962848, "installaties_per_100_woningen": 39.009287925696597, "vermogen_per_huishouden": 1.4441860465116279, "batterijdruk_score": 754.0, "koop_zon_score": 0.3828, "eengezins_zon_score": 0.5104, "betaalkracht_zon_score": 146.334, "overige_brandstof_zon_score": 205.9, "lichte_batterij_kansscore": 0.46778182225557619 }, "geometry": { "type": "MultiPolygon", "coordinates": [ [ [ [ 200759.0, 499750.406399999978021 ], [ 200800.9062, 499662.906399999978021 ], [ 200848.9113, 499575.409099999989849 ], [ 200802.49900000001071, 499543.712899999984074 ], [ 200719.9247, 499489.213899999973364 ], [ 200573.056099999987055, 499415.7794 ], [ 200582.1827, 499381.880699999979697 ], [ 200567.7085, 499379.813000000023749 ], [ 200570.0, 499375.093799999973271 ], [ 200454.4999, 499323.3126 ], [ 200292.9063, 499190.6875 ], [ 200456.703, 499054.6876 ], [ 200365.1482, 498982.403600000019651 ], [ 200348.6411, 498972.6494 ], [ 200321.9606, 498960.9474 ], [ 200288.25889999998617, 498938.947700000018813 ], [ 200266.2592, 498908.990700000023935 ], [ 200258.302, 498872.0124 ], [ 200247.5362, 498818.651399999973364 ], [ 200242.8476, 498760.434799999988172 ], [ 200241.9582, 498749.391400000022259 ], [ 200248.9063, 498663.3126 ], [ 200256.5938, 498566.8125 ], [ 200245.4063, 498521.5 ], [ 200161.4062, 498428.406399999978021 ], [ 200152.4063, 498423.906399999978021 ], [ 199971.0938, 498513.093799999973271 ], [ 199960.9063, 498522.406299999973271 ], [ 199888.5937, 498553.906299999973271 ], [ 199828.5, 498571.6876 ], [ 199809.0, 498592.1875 ], [ 199812.203100000013364, 498650.593799999973271 ], [ 199819.5938, 498749.6875 ], [ 199830.5938, 498832.8125 ], [ 199842.5938, 498944.5 ], [ 199848.4062, 499009.8125 ], [ 199779.9999, 499025.8126 ], [ 199730.796899999986636, 499045.3125 ], [ 199740.5, 499126.593799999973271 ], [ 199759.4063, 499229.3125 ], [ 199766.1331, 499281.278400000010151 ], [ 199700.9572, 499325.716499999980442 ], [ 199852.8938, 499449.57819999998901 ], [ 199966.8464, 499561.879299999971408 ], [ 200113.828799999988405, 499702.255699999979697 ], [ 200236.205500000010943, 499811.520599999988917 ], [ 200263.834, 499768.1287 ], [ 200412.748, 499831.071699999971315 ], [ 200430.559199999988778, 499778.7513 ], [ 200744.296899999986636, 499892.906399999978021 ], [ 200759.0, 499750.406399999978021 ] ] ] ] } },
{ "type": "Feature", "properties": { "buurtcode": "BU02440008", "buurtnaam": "Verspreide huizen bosgebied", "pc6_codes": "8051AD, 8051NR, 8051PB, 8051PE, 8051PG, 8051PJ, 8051PK, 8051PL, 8051PM, 8051PW, 8051PX", "wijkcode": "WK024400", "gemeentecode": "GM0244", "gemeentenaam": "Hattem", "oppervlakteLandInHa": 321, "AantalInwoners_5": 55, "Mannen_6": 25, "Vrouwen_7": 25, "HuishoudensTotaal_29": 20, "GemiddeldeHuishoudensgrootte_33": 2.6, "Woningvoorraad_35": 21, "NieuwbouwWoningen_36": 0, "NietWoningvoorraad_37": 126, "NieuwbouwNietWoningen_38": 0, "GemiddeldeWOZWaardeVanWoningen_39": 881, "PercentageEengezinswoning_40": 90, "PercentageTussenwoningEengezins_41": 0, "PercentageHoekwoningEengezins_42": 0, "PercentageTweeOnderEenKapWoningEe_43": 0, "PercentageVrijstaandeWoningEengezins_44": 90, "PercentageMeergezinswoning_45": 10, "Koopwoningen_47": 86, "HuurwoningenTotaal_48": 14, "InBezitWoningcorporatie_49": 0, "InBezitOverigeVerhuurders_50": 14, "BouwjaarMeerDanTienJaarGeleden_51": 86, "BouwjaarAfgelopenTienJaar_52": 14, "GemiddeldeElektriciteitslevering_53": 5590, "GemiddeldeElektriciteitsteruglevering_54": 2060, "GemiddeldAardgasverbruik_55": 1960, "AardgasvrijeWoningen_57": null, "Aardgaswoningen_58": null, "WoningenMetZonnestroom_59": null, "WoningenHoofdzElektrVerwarmd_60": null, "k_20PersonenMetHoogsteInkomen_80": null, "k_20HuishoudensMetHoogsteInkomen_85": null, "MediaanVermogenVanParticuliereHuish_86": null, "PersonenautoSTotaal_104": 55, "PersonenautoSBrandstofBenzine_105": 40, "PersonenautoSOverigeBrandstof_106": 20, "PersonenautoSPerHuishouden_107": null, "Omgevingsadressendichtheid_121": 77, "AantalInstallatiesBijWoningen_5": 3, "OpgesteldVermogenVanZonnepanelen_6": 24, "installaties_per_woning": 0.14285714285714285, "vermogen_per_woning": 1.1428571428571428, "installaties_per_100_woningen": 14.285714285714285, "vermogen_per_huishouden": 1.2, "batterijdruk_score": null, "koop_zon_score": null, "eengezins_zon_score": null, "betaalkracht_zon_score": null, "overige_brandstof_zon_score": null, "lichte_batterij_kansscore": null }, "geometry": { "type": "MultiPolygon", "coordinates": [ [ [ [ 200412.703100000013364, 497427.8126 ], [ 200689.4063, 497483.593899999978021 ], [ 200719.0, 497017.593899999978021 ], [ 200504.4062, 496981.6876 ], [ 200373.9999, 496957.593799999973271 ], [ 200355.5938, 496826.406399999978021 ], [ 200152.29680000001099, 496861.906399999978021 ], [ 200054.5938, 496555.8126 ], [ 200207.4999, 496466.0001 ], [ 200132.4999, 496338.8125 ], [ 200129.797, 496279.0001 ], [ 200162.203100000013364, 496244.6876 ], [ 200491.703, 496249.6876 ], [ 200716.29680000001099, 496254.6876 ], [ 200831.703, 496263.8126 ], [ 200976.0, 496219.0 ], [ 201302.203100000013364, 496333.1875 ], [ 201331.987499999988358, 496167.085299999976996 ], [ 201326.09, 496166.608 ], [ 201226.662000000011176, 496160.935 ], [ 200961.785, 496146.322999999974854 ], [ 200822.055, 496085.028 ], [ 200782.7596, 496067.626500000013039 ], [ 200770.158, 496062.045999999972992 ], [ 200672.87, 496018.826 ], [ 200599.234, 495985.544 ], [ 200595.147999999986496, 495983.696999999985565 ], [ 200201.943999999988591, 495806.371999999973923 ], [ 200194.383, 495802.972 ], [ 200189.278, 495800.675999999977648 ], [ 200183.582, 495798.114 ], [ 199865.121000000013737, 495654.799999999988358 ], [ 199858.233, 495651.700000000011642 ], [ 199674.047, 495569.972 ], [ 199662.408, 495564.808000000019092 ], [ 199261.185999999986961, 495390.24900000001071 ], [ 199257.358, 495388.582 ], [ 199251.035, 495385.827999999979511 ], [ 199249.595, 495385.191999999980908 ], [ 199076.366, 495308.653999999980442 ], [ 199073.155999999988126, 495307.213999999978114 ], [ 199006.511, 495309.833999999973457 ], [ 198993.952, 495310.327999999979511 ], [ 198747.665, 495318.113000000012107 ], [ 198651.36799999998766, 495322.115 ], [ 198597.628999999986263, 495323.939000000013039 ], [ 198285.99900000001071, 495334.261999999987893 ], [ 198282.715, 495334.37599999998929 ], [ 198205.158, 495337.076 ], [ 198206.356, 495340.369 ], [ 198235.894999999989523, 495421.571 ], [ 198236.519, 495423.286000000021886 ], [ 198241.946999999985565, 495441.674999999988358 ], [ 198250.671, 495469.84499999997206 ], [ 198251.10999999998603, 495471.26 ], [ 198285.672, 495559.294999999983702 ], [ 198315.318999999988591, 495625.553000000014435 ], [ 198394.342, 495786.042000000015832 ], [ 198398.780999999988126, 495794.364 ], [ 198430.415, 495854.221000000019558 ], [ 198489.545000000012806, 495962.971000000019558 ], [ 198560.829, 496100.25199999997858 ], [ 198597.87599999998929, 496176.397 ], [ 198653.8449, 496292.347400000027847 ], [ 198657.492, 496299.903 ], [ 198688.454999999987194, 496366.526000000012573 ], [ 198697.176, 496390.076 ], [ 198697.536, 496390.895000000018626 ], [ 198710.1237, 496418.3455 ], [ 198760.203, 496442.1876 ], [ 198845.703, 496541.093899999978021 ], [ 198918.79680000001099, 496657.906399999978021 ], [ 198989.0937, 496812.1876 ], [ 199055.296899999986636, 496948.093899999978021 ], [ 199107.5938, 497090.5 ], [ 199150.703100000013364, 497205.093799999973271 ], [ 199176.4999, 497253.093899999978021 ], [ 199230.4999, 497317.3126 ], [ 199368.203100000013364, 497253.6876 ], [ 199499.79680000001099, 497211.6875 ], [ 199633.9062, 497168.406399999978021 ], [ 199671.0, 497257.593899999978021 ], [ 199699.203, 497348.8125 ], [ 199721.4062, 497408.3126 ], [ 199791.703, 497395.5001 ], [ 199819.5937, 497390.8126 ], [ 199861.4999, 497394.1876 ], [ 199909.703, 497382.906399999978021 ], [ 199962.0937, 497357.593799999973271 ], [ 199945.5937, 497299.593899999978021 ], [ 199996.29680000001099, 497274.906299999973271 ], [ 200061.0937, 497376.5001 ], [ 200149.203, 497424.0001 ], [ 200236.0937, 497462.5001 ], [ 200295.5937, 497509.3126 ], [ 200395.703, 497553.8126 ], [ 200412.703100000013364, 497427.8126 ] ] ] ] } },
{ "type": "Feature", "properties": { "buurtcode": "BU02440009", "buurtnaam": "Verspreide huizen Hoenwaard", "pc6_codes": "8051CA, 8051CB, 8051CH, 8051EN, 8051ER, 8051SG, 8051SH", "wijkcode": "WK024400", "gemeentecode": "GM0244", "gemeentenaam": "Hattem", "oppervlakteLandInHa": 401, "AantalInwoners_5": 75, "Mannen_6": 40, "Vrouwen_7": 35, "HuishoudensTotaal_29": 30, "GemiddeldeHuishoudensgrootte_33": 2.4, "Woningvoorraad_35": 25, "NieuwbouwWoningen_36": 0, "NietWoningvoorraad_37": 9, "NieuwbouwNietWoningen_38": 0, "GemiddeldeWOZWaardeVanWoningen_39": 453, "PercentageEengezinswoning_40": 92, "PercentageTussenwoningEengezins_41": 0, "PercentageHoekwoningEengezins_42": 0, "PercentageTweeOnderEenKapWoningEe_43": 0, "PercentageVrijstaandeWoningEengezins_44": 92, "PercentageMeergezinswoning_45": 8, "Koopwoningen_47": 68, "HuurwoningenTotaal_48": 32, "InBezitWoningcorporatie_49": 0, "InBezitOverigeVerhuurders_50": 32, "BouwjaarMeerDanTienJaarGeleden_51": 92, "BouwjaarAfgelopenTienJaar_52": 8, "GemiddeldeElektriciteitslevering_53": 5090, "GemiddeldeElektriciteitsteruglevering_54": 2630, "GemiddeldAardgasverbruik_55": 1470, "AardgasvrijeWoningen_57": null, "Aardgaswoningen_58": null, "WoningenMetZonnestroom_59": null, "WoningenHoofdzElektrVerwarmd_60": null, "k_20PersonenMetHoogsteInkomen_80": null, "k_20HuishoudensMetHoogsteInkomen_85": null, "MediaanVermogenVanParticuliereHuish_86": null, "PersonenautoSTotaal_104": 35, "PersonenautoSBrandstofBenzine_105": 25, "PersonenautoSOverigeBrandstof_106": 5, "PersonenautoSPerHuishouden_107": null, "Omgevingsadressendichtheid_121": 164, "AantalInstallatiesBijWoningen_5": 7, "OpgesteldVermogenVanZonnepanelen_6": 71, "installaties_per_woning": 0.28, "vermogen_per_woning": 2.84, "installaties_per_100_woningen": 28.000000000000004, "vermogen_per_huishouden": 2.3666666666666667, "batterijdruk_score": null, "koop_zon_score": null, "eengezins_zon_score": null, "betaalkracht_zon_score": null, "overige_brandstof_zon_score": null, "lichte_batterij_kansscore": null }, "geometry": { "type": "MultiPolygon", "coordinates": [ [ [ [ 200939.666999999986729, 500235.427000000025146 ], [ 200949.351, 500215.958999999973457 ], [ 200953.75099999998929, 500207.261 ], [ 200957.230000000010477, 500200.60999999998603 ], [ 200966.506, 500183.960000000020955 ], [ 200966.813, 500183.458999999973457 ], [ 200998.038, 500132.597 ], [ 201004.158, 500123.005 ], [ 201010.006, 500113.332 ], [ 201015.636999999987893, 500104.354 ], [ 201021.315, 500095.553000000014435 ], [ 201032.291, 500078.142999999981839 ], [ 201036.842, 500070.61099999997532 ], [ 201044.109, 500059.326 ], [ 201051.655, 500048.207999999984168 ], [ 201065.267, 500027.810999999986961 ], [ 201078.326, 500008.277 ], [ 201093.836000000010245, 499985.731000000028871 ], [ 201112.351, 499960.433000000019092 ], [ 201124.352000000013504, 499944.527 ], [ 201133.647, 499933.391 ], [ 201154.304, 499908.74 ], [ 201191.193999999988591, 499865.450000000011642 ], [ 201206.884, 499847.12699999997858 ], [ 201216.916999999986729, 499836.471000000019558 ], [ 201238.98499999998603, 499812.23599999997532 ], [ 201255.21, 499794.272999999986496 ], [ 201274.527, 499774.006999999983236 ], [ 201292.703, 499757.045999999972992 ], [ 201310.142, 499740.629000000015367 ], [ 201320.722, 499730.810999999986961 ], [ 201334.181000000011409, 499718.193000000028405 ], [ 201346.711000000010245, 499706.401000000012573 ], [ 201359.245, 499694.783 ], [ 201365.954, 499689.136999999987893 ], [ 201384.421, 499673.82 ], [ 201395.689000000013039, 499664.559 ], [ 201420.366, 499644.892999999981839 ], [ 201433.207, 499634.331 ], [ 201453.862, 499617.483 ], [ 201480.174999999988358, 499595.789999999979045 ], [ 201501.077, 499579.981000000028871 ], [ 201528.393000000010943, 499560.694000000017695 ], [ 201568.244, 499533.358 ], [ 201595.655999999988126, 499515.604 ], [ 201636.837999999988824, 499489.688000000023749 ], [ 201671.063, 499469.00099999998929 ], [ 201700.973, 499451.348999999987427 ], [ 201731.684, 499434.212 ], [ 201759.450000000011642, 499419.756 ], [ 201795.813, 499401.782 ], [ 201821.546, 499389.375 ], [ 201850.522999999986496, 499375.756 ], [ 201879.777, 499363.028 ], [ 201904.557, 499352.599999999976717 ], [ 201935.00099999998929, 499339.632999999972526 ], [ 201944.931000000011409, 499336.129000000015367 ], [ 201974.258, 499325.449000000022352 ], [ 201988.201, 499320.313000000023749 ], [ 202001.303000000014435, 499315.596000000019558 ], [ 202015.328, 499310.756999999983236 ], [ 202051.403, 499298.701 ], [ 202092.413999999989755, 499285.886 ], [ 202202.530999999988126, 499249.25199999997858 ], [ 202288.261, 499218.843 ], [ 202329.793, 499204.11099999997532 ], [ 202364.965999999985797, 499189.75 ], [ 202473.738000000012107, 499147.772 ], [ 202530.019, 499117.51500000001397 ], [ 202598.54, 499081.162000000011176 ], [ 202621.86799999998766, 499066.674999999988358 ], [ 202658.287000000011176, 499043.620999999984633 ], [ 202675.113000000012107, 499032.829000000027008 ], [ 202686.912000000011176, 499025.272 ], [ 202697.913, 499018.120999999984633 ], [ 202702.813, 499014.363000000012107 ], [ 202727.785, 498995.565 ], [ 202743.549999999988358, 498983.256999999983236 ], [ 202764.193999999988591, 498967.539999999979045 ], [ 202768.919, 498963.908 ], [ 202773.791999999986729, 498959.950000000011642 ], [ 202779.236, 498955.462 ], [ 202784.057, 498951.15500000002794 ], [ 202805.258, 498933.135 ], [ 202831.50099999998929, 498910.106000000028871 ], [ 202856.21, 498889.561999999976251 ], [ 202877.312, 498871.517999999981839 ], [ 202884.916999999986729, 498864.966000000014901 ], [ 202889.911, 498860.407 ], [ 202906.182, 498845.347 ], [ 202952.916, 498802.729999999981374 ], [ 202993.901000000012573, 498764.253000000026077 ], [ 203033.941, 498726.357000000018161 ], [ 203039.104, 498720.973 ], [ 203058.71, 498699.967 ], [ 203082.48499999998603, 498674.533 ], [ 203111.028, 498643.777 ], [ 203119.116, 498633.901000000012573 ], [ 203131.853, 498618.958999999973457 ], [ 203144.593, 498603.691 ], [ 203157.912000000011176, 498588.131 ], [ 203166.347, 498578.206 ], [ 203184.291999999986729, 498558.657 ], [ 203210.25700000001234, 498530.01500000001397 ], [ 203238.108, 498496.929 ], [ 203262.097, 498467.651000000012573 ], [ 203290.277, 498431.81 ], [ 203315.738000000012107, 498397.865999999979977 ], [ 203342.002, 498357.645000000018626 ], [ 203360.824, 498327.693000000028405 ], [ 203376.189000000013039, 498301.414999999979045 ], [ 203376.211000000010245, 498301.380300000018906 ], [ 203387.048, 498284.159999999974389 ], [ 203399.446999999985565, 498263.819000000017695 ], [ 203418.684, 498230.864 ], [ 203428.269999999989523, 498213.759000000020023 ], [ 203447.298, 498178.556999999971595 ], [ 203462.203, 498148.794999999983702 ], [ 203471.87599999998929, 498128.194000000017695 ], [ 203479.386999999987893, 498109.022 ], [ 203483.764, 498096.788 ], [ 203502.682999999989988, 498046.560999999986961 ], [ 203519.231, 497999.495999999984633 ], [ 203529.859, 497964.728 ], [ 203540.91, 497923.539999999979045 ], [ 203549.136, 497888.19 ], [ 203554.128, 497862.129000000015367 ], [ 203559.676, 497820.911000000021886 ], [ 203563.437, 497788.142999999981839 ], [ 203564.46, 497776.966000000014901 ], [ 203566.894, 497743.620999999984633 ], [ 203569.443, 497696.174 ], [ 203570.117, 497678.35999999998603 ], [ 203572.351, 497619.321999999985565 ], [ 203575.187, 497527.670999999972992 ], [ 203577.834, 497465.419999999983702 ], [ 203582.193999999988591, 497394.379000000015367 ], [ 203584.871000000013737, 497363.664999999979045 ], [ 203592.096, 497280.767999999981839 ], [ 203598.437, 497228.674999999988358 ], [ 203611.541, 497137.951 ], [ 203621.092, 497081.565 ], [ 203625.218, 497060.474999999976717 ], [ 203629.475, 497038.712999999988824 ], [ 203637.060999999986961, 497004.94 ], [ 203645.288, 496966.847 ], [ 203658.908, 496890.86099999997532 ], [ 203663.280999999988126, 496863.322999999974854 ], [ 203671.831, 496802.038999999989755 ], [ 203677.13, 496759.99900000001071 ], [ 203683.178000000014435, 496678.996999999973923 ], [ 203684.816, 496659.777 ], [ 203688.704999999987194, 496604.636999999987893 ], [ 203690.807, 496565.608 ], [ 203692.241, 496531.291000000026543 ], [ 203693.11799999998766, 496485.534999999974389 ], [ 203658.386999999987893, 496484.990999999979977 ], [ 203644.303000000014435, 496484.572999999974854 ], [ 203639.755, 496484.438000000023749 ], [ 203638.182999999989988, 496484.608 ], [ 203592.316, 496494.338999999978114 ], [ 203570.775, 496499.722 ], [ 203568.615, 496500.261999999987893 ], [ 203537.621000000013737, 496508.006999999983236 ], [ 203502.484, 496500.065 ], [ 203465.128, 496487.25 ], [ 203456.184, 496484.245 ], [ 203386.769, 496435.052000000025146 ], [ 203323.446999999985565, 496389.444000000017695 ], [ 203300.883, 496369.153 ], [ 203257.315, 496339.397999999986496 ], [ 203256.034000000014203, 496338.522999999986496 ], [ 203247.5, 496336.158 ], [ 203126.746000000013737, 496250.923 ], [ 203109.411, 496239.01500000001397 ], [ 203106.1398, 496246.0515 ], [ 203102.101, 496254.739 ], [ 203059.772999999986496, 496345.783999999985099 ], [ 203011.060999999986961, 496428.585000000020955 ], [ 203001.13200000001234, 496449.777 ], [ 202998.952, 496459.506999999983236 ], [ 202986.522, 496509.745999999984633 ], [ 202965.043, 496572.157 ], [ 202945.419, 496564.15500000002794 ], [ 202941.503999999986263, 496562.559 ], [ 202924.222, 496561.56 ], [ 202923.611, 496561.278999999980442 ], [ 202833.481999999989057, 496519.882999999972526 ], [ 202823.549999999988358, 496514.858 ], [ 202819.975, 496512.538999999989755 ], [ 202796.693999999988591, 496490.313000000023749 ], [ 202793.19, 496487.88900000002468 ], [ 202678.919, 496445.634000000020023 ], [ 202662.788, 496440.967 ], [ 202660.563, 496441.033999999985099 ], [ 202632.99, 496447.550999999977648 ], [ 202628.106, 496447.558000000019092 ], [ 202623.191, 496446.331 ], [ 202509.46, 496411.35999999998603 ], [ 202475.807999999989988, 496400.903999999980442 ], [ 202406.352000000013504, 496379.457999999984168 ], [ 202337.04, 496358.056999999971595 ], [ 202281.715, 496340.901000000012573 ], [ 202281.663999999989755, 496340.885 ], [ 202266.891, 496336.304 ], [ 202259.085, 496334.093 ], [ 202240.486, 496329.316999999980908 ], [ 202218.712999999988824, 496322.536000000021886 ], [ 202214.721, 496321.427000000025146 ], [ 202197.449, 496315.441999999980908 ], [ 202181.25099999998929, 496310.635 ], [ 202166.654, 496305.723 ], [ 202165.981, 496305.50199999997858 ], [ 202151.256, 496300.661000000021886 ], [ 202035.131, 496263.049999999988358 ], [ 202028.280999999988126, 496260.831 ], [ 202026.0509, 496260.098699999973178 ], [ 202023.29680000001099, 496326.6876 ], [ 202217.9999, 496377.5001 ], [ 202201.9062, 496493.406399999978021 ], [ 202151.0938, 496493.093899999978021 ], [ 202145.79680000001099, 496538.093899999978021 ], [ 202033.5938, 496525.093899999978021 ], [ 202024.703, 496622.8126 ], [ 201976.0, 496611.0001 ], [ 201962.4999, 496776.5001 ], [ 201970.9999, 496774.8126 ], [ 202215.796899999986636, 497038.6875 ], [ 202284.4062, 497319.5001 ], [ 202112.5937, 497333.3126 ], [ 202278.4063, 497721.406399999978021 ], [ 202308.0938, 497866.1876 ], [ 202259.703100000013364, 498011.406299999973271 ], [ 202229.5937, 498268.093799999973271 ], [ 202114.0938, 498359.8125 ], [ 201992.0938, 498448.906299999973271 ], [ 201834.4062, 498514.5001 ], [ 201769.29680000001099, 498523.406399999978021 ], [ 201574.29680000001099, 498720.406399999978021 ], [ 201429.9063, 498901.1875 ], [ 201365.4063, 498984.5 ], [ 201333.4999, 498998.093799999973271 ], [ 201202.703, 499053.8126 ], [ 201089.29680000001099, 499129.093899999978021 ], [ 201026.9062, 499195.8126 ], [ 200984.0938, 499291.593899999978021 ], [ 200946.4999, 499432.5001 ], [ 200875.0937, 499527.6876 ], [ 200848.9113, 499575.409099999989849 ], [ 200800.9062, 499662.906399999978021 ], [ 200759.0, 499750.406399999978021 ], [ 200744.296899999986636, 499892.906399999978021 ], [ 200714.5, 499989.0 ], [ 200714.9999, 500000.0 ], [ 200752.9062, 500081.0001 ], [ 200827.4999, 500181.6876 ], [ 200918.79680000001099, 500245.6876 ], [ 200930.891800000012154, 500252.2305 ], [ 200939.666999999986729, 500235.427000000025146 ] ] ] ] } },
{ "type": "Feature", "properties": { "buurtcode": "BU02440108", "buurtnaam": "Verspreide huizen Koeweg en Molecaten", "pc6_codes": "8051KC, 8051KE, 8051KH, 8051KJ, 8051KL, 8051KM, 8051KP, 8051KR, 8051KW, 8051KX, 8051KZ, 8051LE, 8051LG, 8051LT, 8051MV, 8051NE, 8051NH, 8051NK, 8051NL, 8051NR, 8051PM, 8051PN, 8051PR, 8051PS, 8051PT, 8051PV, 8051SK", "wijkcode": "WK024401", "gemeentecode": "GM0244", "gemeentenaam": "Hattem", "oppervlakteLandInHa": 303, "AantalInwoners_5": 455, "Mannen_6": 225, "Vrouwen_7": 235, "HuishoudensTotaal_29": 160, "GemiddeldeHuishoudensgrootte_33": 2.8, "Woningvoorraad_35": 166, "NieuwbouwWoningen_36": 0, "NietWoningvoorraad_37": 19, "NieuwbouwNietWoningen_38": 0, "GemiddeldeWOZWaardeVanWoningen_39": 638, "PercentageEengezinswoning_40": 95, "PercentageTussenwoningEengezins_41": 1, "PercentageHoekwoningEengezins_42": 1, "PercentageTweeOnderEenKapWoningEe_43": 22, "PercentageVrijstaandeWoningEengezins_44": 72, "PercentageMeergezinswoning_45": 5, "Koopwoningen_47": 90, "HuurwoningenTotaal_48": 10, "InBezitWoningcorporatie_49": 2, "InBezitOverigeVerhuurders_50": 8, "BouwjaarMeerDanTienJaarGeleden_51": 95, "BouwjaarAfgelopenTienJaar_52": 5, "GemiddeldeElektriciteitslevering_53": 3820, "GemiddeldeElektriciteitsteruglevering_54": 1400, "GemiddeldAardgasverbruik_55": 1270, "AardgasvrijeWoningen_57": null, "Aardgaswoningen_58": null, "WoningenMetZonnestroom_59": null, "WoningenHoofdzElektrVerwarmd_60": null, "k_20PersonenMetHoogsteInkomen_80": 24.5, "k_20HuishoudensMetHoogsteInkomen_85": 42.3, "MediaanVermogenVanParticuliereHuish_86": 608.8, "PersonenautoSTotaal_104": 165, "PersonenautoSBrandstofBenzine_105": 120, "PersonenautoSOverigeBrandstof_106": 45, "PersonenautoSPerHuishouden_107": 1.0, "Omgevingsadressendichtheid_121": 538, "AantalInstallatiesBijWoningen_5": 51, "OpgesteldVermogenVanZonnepanelen_6": 235, "installaties_per_woning": 0.30722891566265059, "vermogen_per_woning": 1.4156626506024097, "installaties_per_100_woningen": 30.722891566265059, "vermogen_per_huishouden": 1.46875, "batterijdruk_score": null, "koop_zon_score": null, "eengezins_zon_score": null, "betaalkracht_zon_score": null, "overige_brandstof_zon_score": null, "lichte_batterij_kansscore": null }, "geometry": { "type": "MultiPolygon", "coordinates": [ [ [ [ 200050.79680000001099, 500120.093899999978021 ], [ 200075.9062, 500061.1876 ], [ 200099.4999, 500028.406399999978021 ], [ 200116.9999, 500000.0001 ], [ 200119.4999, 499994.8126 ], [ 200236.205500000010943, 499811.520599999988917 ], [ 200113.828799999988405, 499702.255699999979697 ], [ 199966.8464, 499561.879299999971408 ], [ 199852.8938, 499449.57819999998901 ], [ 199700.9572, 499325.716499999980442 ], [ 199766.1331, 499281.278400000010151 ], [ 199759.4063, 499229.3125 ], [ 199740.5, 499126.593799999973271 ], [ 199730.796899999986636, 499045.3125 ], [ 199779.9999, 499025.8126 ], [ 199848.4062, 499009.8125 ], [ 199842.5938, 498944.5 ], [ 199830.5938, 498832.8125 ], [ 199819.5938, 498749.6875 ], [ 199812.203100000013364, 498650.593799999973271 ], [ 199809.0, 498592.1875 ], [ 199828.5, 498571.6876 ], [ 199888.5937, 498553.906299999973271 ], [ 199960.9063, 498522.406299999973271 ], [ 199971.0938, 498513.093799999973271 ], [ 200152.4063, 498423.906399999978021 ], [ 199989.5937, 498203.5001 ], [ 199931.5, 498147.593799999973271 ], [ 199999.29680000001099, 498075.093899999978021 ], [ 199989.0938, 498061.1875 ], [ 200011.203, 498037.5001 ], [ 200233.203, 498053.8125 ], [ 200295.9062, 497997.8126 ], [ 200488.5937, 498119.6876 ], [ 200449.9062, 498186.3126 ], [ 200587.5937, 498261.3126 ], [ 200676.0937, 498315.093899999978021 ], [ 200745.79680000001099, 498327.1876 ], [ 200855.79680000001099, 498284.906299999973271 ], [ 200946.9062, 498204.6875 ], [ 200962.203100000013364, 498069.0 ], [ 201094.9999, 498065.3125 ], [ 201046.4063, 497943.593799999973271 ], [ 201079.0, 497762.1875 ], [ 201073.203, 497762.3126 ], [ 200693.5937, 497621.8125 ], [ 200689.4063, 497483.593899999978021 ], [ 200412.703100000013364, 497427.8126 ], [ 200395.703, 497553.8126 ], [ 200295.5937, 497509.3126 ], [ 200236.0937, 497462.5001 ], [ 200149.203, 497424.0001 ], [ 200061.0937, 497376.5001 ], [ 199996.29680000001099, 497274.906299999973271 ], [ 199945.5937, 497299.593899999978021 ], [ 199962.0937, 497357.593799999973271 ], [ 199909.703, 497382.906399999978021 ], [ 199861.4999, 497394.1876 ], [ 199819.5937, 497390.8126 ], [ 199791.703, 497395.5001 ], [ 199721.4062, 497408.3126 ], [ 199699.203, 497348.8125 ], [ 199671.0, 497257.593899999978021 ], [ 199633.9062, 497168.406399999978021 ], [ 199499.79680000001099, 497211.6875 ], [ 199368.203100000013364, 497253.6876 ], [ 199230.4999, 497317.3126 ], [ 199176.4999, 497253.093899999978021 ], [ 199150.703100000013364, 497205.093799999973271 ], [ 199107.5938, 497090.5 ], [ 199055.296899999986636, 496948.093899999978021 ], [ 198989.0937, 496812.1876 ], [ 198918.79680000001099, 496657.906399999978021 ], [ 198845.703, 496541.093899999978021 ], [ 198760.203, 496442.1876 ], [ 198710.1237, 496418.3455 ], [ 198720.275, 496440.483 ], [ 198739.454, 496484.928000000014435 ], [ 198763.49900000001071, 496533.73599999997532 ], [ 198764.941, 496537.302000000025146 ], [ 198764.972, 496537.379000000015367 ], [ 198768.602000000013504, 496546.662000000011176 ], [ 198793.535, 496610.60999999998603 ], [ 198828.473, 496699.808000000019092 ], [ 198844.980000000010477, 496744.311999999976251 ], [ 198882.295000000012806, 496857.194000000017695 ], [ 198920.535, 496999.903999999980442 ], [ 198950.092, 497098.994 ], [ 198971.801, 497165.976000000024214 ], [ 198979.703, 497199.278999999980442 ], [ 198982.248, 497208.733 ], [ 199006.718, 497299.642999999981839 ], [ 199014.587999999988824, 497339.012999999977183 ], [ 199013.548, 497386.441 ], [ 199012.875, 497390.379000000015367 ], [ 199001.407, 497414.017 ], [ 198970.435, 497479.452999999979511 ], [ 198946.391, 497559.585000000020955 ], [ 198946.405999999988126, 497559.738000000012107 ], [ 198947.483, 497570.666000000026543 ], [ 198950.215999999985797, 497601.689000000013039 ], [ 198956.437, 497635.857000000018161 ], [ 198956.494, 497636.121999999973923 ], [ 198961.119, 497657.587 ], [ 198971.144, 497700.195 ], [ 198985.631, 497742.418 ], [ 198998.674, 497770.329000000027008 ], [ 199015.068, 497804.080000000016298 ], [ 199057.173, 497871.74 ], [ 199085.471, 497915.881999999983236 ], [ 199110.413999999989755, 497999.028999999980442 ], [ 199115.462, 498031.147999999986496 ], [ 199119.4, 498062.397 ], [ 199123.261999999987893, 498098.631 ], [ 199127.61799999998766, 498124.593999999982771 ], [ 199127.791999999986729, 498125.814000000013039 ], [ 199128.166999999986729, 498128.429 ], [ 199129.006, 498135.26 ], [ 199129.38200000001234, 498135.311999999976251 ], [ 199129.59, 498136.582999999984168 ], [ 199136.511999999987893, 498178.977000000013504 ], [ 199140.708000000013271, 498204.677000000025146 ], [ 199146.396, 498235.805 ], [ 199149.752, 498254.168 ], [ 199149.25099999998929, 498261.659999999974389 ], [ 199148.128, 498303.406000000017229 ], [ 199140.602000000013504, 498398.5 ], [ 199140.329999999987194, 498400.619 ], [ 199139.723, 498403.787000000011176 ], [ 199138.693999999988591, 498408.357000000018161 ], [ 199129.459, 498449.384000000020023 ], [ 199122.381, 498492.13 ], [ 199121.421, 498497.929 ], [ 199111.935999999986961, 498540.25099999998929 ], [ 199099.88, 498594.038999999989755 ], [ 199075.456, 498689.276000000012573 ], [ 199056.123, 498751.457 ], [ 199054.525, 498756.597 ], [ 199046.545000000012806, 498782.262999999977183 ], [ 199043.169, 498791.229 ], [ 199012.928000000014435, 498873.913 ], [ 198984.271, 498934.837999999988824 ], [ 198978.401000000012573, 498947.593999999982771 ], [ 198953.193999999988591, 499001.489 ], [ 198924.171, 499061.726000000024214 ], [ 198893.5863, 499118.9484 ], [ 198883.404, 499137.99900000001071 ], [ 198875.25099999998929, 499152.00099999998929 ], [ 198875.060999999986961, 499152.31 ], [ 198865.885, 499167.266 ], [ 198864.1748, 499170.239899999985937 ], [ 198932.9999, 499231.906399999978021 ], [ 199079.5937, 499367.6876 ], [ 199242.9062, 499516.0001 ], [ 199373.79680000001099, 499648.093899999978021 ], [ 199426.0937, 499694.593899999978021 ], [ 199532.203, 499790.6876 ], [ 199602.4062, 499863.8126 ], [ 199647.29680000001099, 499892.5001 ], [ 199718.9999, 499949.6876 ], [ 199773.9999, 499994.3126 ], [ 199779.9062, 500000.0001 ], [ 199856.9999, 500045.406399999978021 ], [ 199934.703, 500093.906399999978021 ], [ 199978.29680000001099, 500121.1876 ], [ 200014.29680000001099, 500144.1876 ], [ 200046.9062, 500160.906399999978021 ], [ 200050.79680000001099, 500120.093899999978021 ] ] ] ] } },
{ "type": "Feature", "properties": { "buurtcode": "BU02440109", "buurtnaam": "Verspreide huizen Gelderse Dijk en omgeving", "pc6_codes": "8051KE, 8051KG, 8051SB, 8051SC, 8051SE, 8051SG, 8051SK, 8051SL, 8051SM, 8051SN, 8051SP, 8051SR, 8051ST, 8051SV, 8051TB, 8051TC, 8051TD, 8051TE, 8052CH, 8052CJ, 8052CK", "wijkcode": "WK024401", "gemeentecode": "GM0244", "gemeentenaam": "Hattem", "oppervlakteLandInHa": 750, "AantalInwoners_5": 430, "Mannen_6": 230, "Vrouwen_7": 205, "HuishoudensTotaal_29": 160, "GemiddeldeHuishoudensgrootte_33": 2.7, "Woningvoorraad_35": 162, "NieuwbouwWoningen_36": 0, "NietWoningvoorraad_37": 127, "NieuwbouwNietWoningen_38": 2, "GemiddeldeWOZWaardeVanWoningen_39": 568, "PercentageEengezinswoning_40": 91, "PercentageTussenwoningEengezins_41": 7, "PercentageHoekwoningEengezins_42": 6, "PercentageTweeOnderEenKapWoningEe_43": 18, "PercentageVrijstaandeWoningEengezins_44": 61, "PercentageMeergezinswoning_45": 9, "Koopwoningen_47": 87, "HuurwoningenTotaal_48": 13, "InBezitWoningcorporatie_49": 4, "InBezitOverigeVerhuurders_50": 9, "BouwjaarMeerDanTienJaarGeleden_51": 79, "BouwjaarAfgelopenTienJaar_52": 21, "GemiddeldeElektriciteitslevering_53": 3730, "GemiddeldeElektriciteitsteruglevering_54": 1930, "GemiddeldAardgasverbruik_55": 1160, "AardgasvrijeWoningen_57": 9, "Aardgaswoningen_58": 77, "WoningenMetZonnestroom_59": 58, "WoningenHoofdzElektrVerwarmd_60": 18, "k_20PersonenMetHoogsteInkomen_80": 28.1, "k_20HuishoudensMetHoogsteInkomen_85": 46.0, "MediaanVermogenVanParticuliereHuish_86": 508.7, "PersonenautoSTotaal_104": 305, "PersonenautoSBrandstofBenzine_105": 220, "PersonenautoSOverigeBrandstof_106": 90, "PersonenautoSPerHuishouden_107": 1.9, "Omgevingsadressendichtheid_121": 219, "AantalInstallatiesBijWoningen_5": 63, "OpgesteldVermogenVanZonnepanelen_6": 334, "installaties_per_woning": 0.3888888888888889, "vermogen_per_woning": 2.0617283950617282, "installaties_per_100_woningen": 38.888888888888893, "vermogen_per_huishouden": 2.0875, "batterijdruk_score": 1119.4, "koop_zon_score": 0.5046, "eengezins_zon_score": 0.5278, "betaalkracht_zon_score": 295.046, "overige_brandstof_zon_score": 52.2, "lichte_batterij_kansscore": 0.52928785746430207 }, "geometry": { "type": "MultiPolygon", "coordinates": [ [ [ [ 198517.079999999987194, 502615.463999999978114 ], [ 198542.884, 502600.392 ], [ 198575.011999999987893, 502582.856000000028871 ], [ 198609.367, 502566.275000000023283 ], [ 198662.938, 502544.717 ], [ 198739.897999999986496, 502514.73499999998603 ], [ 198778.409000000014203, 502500.047000000020489 ], [ 198806.307999999989988, 502489.053000000014435 ], [ 198894.055, 502461.379000000015367 ], [ 198982.182, 502428.916000000026543 ], [ 199000.0, 502422.12 ], [ 199092.721, 502386.755 ], [ 199192.437, 502341.354999999981374 ], [ 199221.502, 502328.452 ], [ 199265.87400000001071, 502307.560999999986961 ], [ 199307.445, 502287.357000000018161 ], [ 199355.771, 502263.449000000022352 ], [ 199447.022999999986496, 502212.642999999981839 ], [ 199485.439000000013039, 502190.944000000017695 ], [ 199532.902, 502160.311999999976251 ], [ 199586.413999999989755, 502122.924999999988358 ], [ 199622.23499999998603, 502095.87400000001071 ], [ 199660.478, 502066.569000000017695 ], [ 199674.825000000011642, 502054.814000000013039 ], [ 199683.589, 502047.870999999984633 ], [ 199743.53, 502000.386999999987893 ], [ 199743.7145, 502000.2353 ], [ 199836.642, 501923.829000000027008 ], [ 199919.968, 501853.972 ], [ 199975.366, 501810.882999999972526 ], [ 200050.0, 501752.07 ], [ 200089.538, 501720.913 ], [ 200189.41, 501640.09499999997206 ], [ 200219.707, 501616.06 ], [ 200241.845, 501597.150000000023283 ], [ 200293.2961, 501551.989699999976438 ], [ 200306.384, 501540.50199999997858 ], [ 200323.812, 501525.520000000018626 ], [ 200383.464, 501462.784999999974389 ], [ 200402.611, 501440.231000000028871 ], [ 200414.689000000013039, 501425.147 ], [ 200433.198, 501402.031000000017229 ], [ 200476.958000000013271, 501332.028 ], [ 200513.15, 501265.62699999997858 ], [ 200524.689000000013039, 501243.042000000015832 ], [ 200524.971, 501242.490999999979977 ], [ 200532.217, 501228.338999999978114 ], [ 200532.665, 501227.462 ], [ 200575.113000000012107, 501144.351000000024214 ], [ 200580.856, 501133.593 ], [ 200618.318, 501051.169 ], [ 200636.095, 501011.291000000026543 ], [ 200642.026000000012573, 500998.786000000021886 ], [ 200674.172, 500923.495 ], [ 200692.931000000011409, 500878.90500000002794 ], [ 200732.89000000001397, 500759.224999999976717 ], [ 200738.721, 500742.438000000023749 ], [ 200769.938, 500640.218999999982771 ], [ 200801.861, 500546.935999999986961 ], [ 200815.973300000012387, 500512.093700000026729 ], [ 200817.151000000012573, 500509.185999999986961 ], [ 200819.208000000013271, 500504.108 ], [ 200827.927, 500478.289999999979045 ], [ 200833.087, 500466.445 ], [ 200840.670000000012806, 500449.038999999989755 ], [ 200840.677, 500449.022999999986496 ], [ 200841.200000000011642, 500447.822999999974854 ], [ 200842.449, 500444.909999999974389 ], [ 200854.089, 500417.772 ], [ 200870.348, 500380.038 ], [ 200886.045000000012806, 500346.028 ], [ 200899.081, 500318.161000000021886 ], [ 200906.727000000013504, 500301.913 ], [ 200914.951, 500284.490999999979977 ], [ 200918.778, 500276.734 ], [ 200922.949, 500268.278 ], [ 200930.397999999986496, 500253.175999999977648 ], [ 200930.891800000012154, 500252.2305 ], [ 200918.79680000001099, 500245.6876 ], [ 200827.4999, 500181.6876 ], [ 200752.9062, 500081.0001 ], [ 200714.9999, 500000.0 ], [ 200714.5, 499989.0 ], [ 200744.296899999986636, 499892.906399999978021 ], [ 200430.559199999988778, 499778.7513 ], [ 200412.748, 499831.071699999971315 ], [ 200263.834, 499768.1287 ], [ 200236.205500000010943, 499811.520599999988917 ], [ 200119.4999, 499994.8126 ], [ 200116.9999, 500000.0001 ], [ 200099.4999, 500028.406399999978021 ], [ 200075.9062, 500061.1876 ], [ 200050.79680000001099, 500120.093899999978021 ], [ 200046.9062, 500160.906399999978021 ], [ 200014.29680000001099, 500144.1876 ], [ 199978.29680000001099, 500121.1876 ], [ 199934.703, 500093.906399999978021 ], [ 199856.9999, 500045.406399999978021 ], [ 199779.9062, 500000.0001 ], [ 199773.9999, 499994.3126 ], [ 199718.9999, 499949.6876 ], [ 199647.29680000001099, 499892.5001 ], [ 199602.4062, 499863.8126 ], [ 199532.203, 499790.6876 ], [ 199426.0937, 499694.593899999978021 ], [ 199373.79680000001099, 499648.093899999978021 ], [ 199242.9062, 499516.0001 ], [ 199079.5937, 499367.6876 ], [ 198932.9999, 499231.906399999978021 ], [ 198864.1748, 499170.239899999985937 ], [ 198835.151000000012573, 499220.708999999973457 ], [ 198825.979, 499234.271 ], [ 198812.761999999987893, 499254.310999999986961 ], [ 198809.378, 499259.441 ], [ 198781.381, 499301.963999999978114 ], [ 198751.846, 499338.705000000016298 ], [ 198720.931000000011409, 499376.597 ], [ 198686.162000000011176, 499413.819000000017695 ], [ 198682.196999999985565, 499418.23499999998603 ], [ 198669.623, 499432.238000000012107 ], [ 198666.025, 499436.245 ], [ 198665.886, 499436.400000000023283 ], [ 198655.384, 499447.473999999987427 ], [ 198595.021, 499519.162000000011176 ], [ 198593.731999999989057, 499520.68 ], [ 198566.965999999985797, 499552.208800000022165 ], [ 198524.924, 499601.732000000018161 ], [ 198504.842, 499621.439000000013039 ], [ 198488.60999999998603, 499636.756 ], [ 198446.798, 499667.218 ], [ 198420.74, 499682.054 ], [ 198420.143000000010943, 499682.402 ], [ 198414.104, 499686.704000000027008 ], [ 198400.394999999989523, 499693.401000000012573 ], [ 198388.715, 499698.696999999985565 ], [ 198374.695, 499704.243000000016764 ], [ 198361.767, 499708.98499999998603 ], [ 198351.576, 499712.414999999979045 ], [ 198349.296, 499713.181999999971595 ], [ 198337.325000000011642, 499716.825000000011642 ], [ 198323.106999999989057, 499720.832 ], [ 198309.59, 499723.770000000018626 ], [ 198297.199, 499726.311999999976251 ], [ 198282.621000000013737, 499728.710000000020955 ], [ 198271.695, 499730.074000000022352 ], [ 198265.252, 499730.879000000015367 ], [ 198242.973, 499733.582 ], [ 198221.595, 499735.153999999980442 ], [ 198206.106, 499736.210000000020955 ], [ 198150.87, 499740.629000000015367 ], [ 198150.389, 499740.667000000015832 ], [ 198125.791, 499742.538 ], [ 198108.095, 499743.829000000027008 ], [ 198104.385, 499744.099999999976717 ], [ 198079.916, 499745.825000000011642 ], [ 198060.07, 499747.077 ], [ 198042.547, 499748.069000000017695 ], [ 198033.432999999989988, 499748.553000000014435 ], [ 198023.625, 499748.596000000019558 ], [ 198014.423, 499748.507999999972526 ], [ 197983.784000000014203, 499745.603 ], [ 197960.229, 499736.496999999973923 ], [ 197958.767, 499735.931999999971595 ], [ 197915.621000000013737, 499708.798 ], [ 197879.266, 499679.324000000022352 ], [ 197857.71, 499661.24800000002142 ], [ 197816.10999999998603, 499625.436999999976251 ], [ 197791.772, 499605.104 ], [ 197762.50099999998929, 499580.158 ], [ 197717.241, 499632.732000000018161 ], [ 197702.87400000001071, 499647.412000000011176 ], [ 197750.034000000014203, 499686.289999999979045 ], [ 197782.321999999985565, 499712.907 ], [ 197819.827, 499745.18 ], [ 197855.666, 499781.403999999980442 ], [ 197884.492, 499825.631999999983236 ], [ 197895.739, 499870.48499999998603 ], [ 197903.222, 499920.73599999997532 ], [ 197913.030999999988126, 500017.37300000002142 ], [ 197914.831, 500037.26500000001397 ], [ 197919.49299999998766, 500120.375 ], [ 197921.93, 500171.231000000028871 ], [ 197921.832, 500236.731000000028871 ], [ 197921.135, 500270.691 ], [ 197912.774, 500314.826 ], [ 197910.649, 500325.636999999987893 ], [ 197887.661, 500371.745 ], [ 197831.34, 500443.193000000028405 ], [ 197743.72, 500557.903999999980442 ], [ 197705.116, 500609.479999999981374 ], [ 197708.01500000001397, 500611.691999999980908 ], [ 197618.856, 500718.102000000013504 ], [ 197522.522, 500831.386999999987893 ], [ 197495.785, 500862.827999999979511 ], [ 197455.284000000014203, 500910.417000000015832 ], [ 197434.616, 500935.161000000021886 ], [ 197380.299999999988358, 500995.011999999987893 ], [ 197364.71, 501011.62 ], [ 197344.833000000013271, 501032.275000000023283 ], [ 197302.255, 501075.778 ], [ 197280.869, 501097.143999999971129 ], [ 197243.516, 501133.479999999981374 ], [ 197208.221, 501166.473 ], [ 197149.913, 501218.84499999997206 ], [ 197076.046, 501281.506999999983236 ], [ 197007.929, 501335.591000000014901 ], [ 196995.516, 501344.821999999985565 ], [ 196981.587, 501354.621999999973923 ], [ 196959.959, 501370.478 ], [ 196901.329999999987194, 501412.542000000015832 ], [ 196833.565, 501458.82 ], [ 196791.84, 501485.118000000016764 ], [ 196766.73499999998603, 501501.356000000028871 ], [ 196746.878, 501512.934 ], [ 196713.261999999987893, 501533.142999999981839 ], [ 196672.672, 501556.311999999976251 ], [ 196667.481999999989057, 501558.74800000002142 ], [ 196664.763, 501560.136 ], [ 196664.797, 501560.157 ], [ 196665.46, 501560.968 ], [ 196667.279, 501563.191 ], [ 196671.856, 501568.087 ], [ 196688.939000000013039, 501587.417000000015832 ], [ 196699.869, 501599.674 ], [ 196706.734, 501607.884000000020023 ], [ 196709.99299999998766, 501611.48499999998603 ], [ 196711.636, 501613.300999999977648 ], [ 196716.226, 501618.37400000001071 ], [ 196717.267, 501619.523999999975786 ], [ 196728.51500000001397, 501632.066999999980908 ], [ 196731.106999999989057, 501634.957999999984168 ], [ 196731.144999999989523, 501634.995999999984633 ], [ 196733.647, 501637.511999999987893 ], [ 196735.853, 501639.962999999988824 ], [ 196735.913999999989755, 501640.03000000002794 ], [ 196742.503999999986263, 501647.349999999976717 ], [ 196747.704, 501653.12599999998929 ], [ 196759.636, 501665.852000000013504 ], [ 196777.386, 501684.395000000018626 ], [ 196828.915, 501737.896 ], [ 196839.79, 501749.205000000016298 ], [ 196842.18, 501751.620999999984633 ], [ 196845.291, 501754.891 ], [ 196855.905999999988126, 501766.049999999988358 ], [ 196859.229, 501769.57 ], [ 196859.776000000012573, 501770.148999999975786 ], [ 196864.755, 501775.422000000020489 ], [ 196871.189000000013039, 501782.457 ], [ 196878.526000000012573, 501790.815 ], [ 196895.038999999989755, 501809.352000000013504 ], [ 196905.081, 501820.646 ], [ 196911.649, 501828.231000000028871 ], [ 196921.674, 501839.51400000002468 ], [ 196932.359, 501851.481000000028871 ], [ 196939.495, 501859.669 ], [ 196944.055, 501864.976000000024214 ], [ 196955.248, 501874.114 ], [ 196970.441, 501886.368000000016764 ], [ 196988.476, 501900.564000000013039 ], [ 197000.74299999998766, 501910.411000000021886 ], [ 197001.462999999988824, 501910.989 ], [ 197008.078, 501916.299999999988358 ], [ 197029.392, 501933.337 ], [ 197080.938, 501974.25 ], [ 197091.549999999988358, 501982.612000000022817 ], [ 197091.096, 501995.261999999987893 ], [ 197096.328, 501998.239 ], [ 197100.62400000001071, 502001.677000000025146 ], [ 197109.65, 502009.26 ], [ 197124.044, 502021.518999999971129 ], [ 197133.905999999988126, 502029.306999999971595 ], [ 197140.66, 502034.663 ], [ 197150.462, 502042.204000000027008 ], [ 197156.185, 502046.487000000022817 ], [ 197160.88, 502049.347 ], [ 197175.491, 502059.022 ], [ 197189.323, 502067.824000000022352 ], [ 197194.803000000014435, 502070.319000000017695 ], [ 197201.438, 502073.681999999971595 ], [ 197207.51500000001397, 502077.424999999988358 ], [ 197207.714, 502077.548 ], [ 197207.961000000010245, 502077.700000000011642 ], [ 197211.973999999987427, 502080.172000000020489 ], [ 197227.788999999989755, 502089.292000000015832 ], [ 197250.188, 502102.398999999975786 ], [ 197259.179, 502107.73599999997532 ], [ 197266.741, 502112.881999999983236 ], [ 197280.837, 502121.212999999988824 ], [ 197291.155999999988126, 502127.40500000002794 ], [ 197292.791, 502130.369 ], [ 197305.534000000014203, 502128.859 ], [ 197309.298, 502130.808000000019092 ], [ 197313.987, 502133.23599999997532 ], [ 197316.371000000013737, 502134.548 ], [ 197322.934, 502138.87400000001071 ], [ 197350.209, 502156.310999999986961 ], [ 197364.848999999987427, 502165.745 ], [ 197369.014, 502168.283 ], [ 197378.836000000010245, 502174.218999999982771 ], [ 197388.142, 502179.843 ], [ 197392.747, 502179.931999999971595 ], [ 197398.15, 502182.473999999987427 ], [ 197423.480000000010477, 502194.136999999987893 ], [ 197426.796, 502195.663999999989755 ], [ 197445.348999999987427, 502207.553000000014435 ], [ 197445.446, 502211.195 ], [ 197447.468, 502211.356000000028871 ], [ 197457.147999999986496, 502212.125 ], [ 197458.576, 502212.239 ], [ 197458.62599999998929, 502212.240999999979977 ], [ 197467.666999999986729, 502212.648999999975786 ], [ 197471.013, 502212.767 ], [ 197474.84, 502212.717 ], [ 197476.204999999987194, 502212.699000000022352 ], [ 197480.037000000011176, 502212.597 ], [ 197480.193, 502212.582 ], [ 197492.060999999986961, 502211.422000000020489 ], [ 197513.432999999989988, 502209.476000000024214 ], [ 197530.085, 502207.960000000020955 ], [ 197541.421, 502205.26500000001397 ], [ 197550.077, 502203.162000000011176 ], [ 197562.276000000012573, 502200.125 ], [ 197571.949, 502197.587 ], [ 197577.995, 502196.00099999998929 ], [ 197587.053000000014435, 502194.237000000022817 ], [ 197593.285, 502194.076 ], [ 197598.956, 502195.680999999982305 ], [ 197602.215999999985797, 502197.362000000022817 ], [ 197605.941, 502199.163 ], [ 197612.078, 502203.534999999974389 ], [ 197627.715, 502214.761999999987893 ], [ 197629.096, 502215.753000000026077 ], [ 197629.615, 502215.351000000024214 ], [ 197632.170000000012806, 502213.37300000002142 ], [ 197632.465, 502213.145000000018626 ], [ 197635.016, 502211.303000000014435 ], [ 197635.26500000001397, 502211.134000000020023 ], [ 197636.047, 502210.602000000013504 ], [ 197636.814000000013039, 502210.081 ], [ 197637.608, 502209.506999999983236 ], [ 197638.238000000012107, 502209.050999999977648 ], [ 197642.752, 502205.525000000023283 ], [ 197645.807999999989988, 502203.968 ], [ 197652.563, 502200.261 ], [ 197667.345, 502193.294999999983702 ], [ 197685.587, 502184.455000000016298 ], [ 197693.511, 502181.672000000020489 ], [ 197717.815, 502172.333999999973457 ], [ 197751.073, 502158.756 ], [ 197798.269999999989523, 502140.555 ], [ 197805.797, 502138.653 ], [ 197830.923, 502128.505 ], [ 197841.662000000011176, 502124.48499999998603 ], [ 197874.337, 502112.284999999974389 ], [ 197890.727000000013504, 502106.25199999997858 ], [ 197896.424999999988358, 502104.009000000020023 ], [ 197904.774, 502100.337 ], [ 197906.328, 502099.784999999974389 ], [ 197908.543, 502098.418 ], [ 197914.745, 502094.772 ], [ 197919.753999999986263, 502091.548 ], [ 197931.345, 502094.463999999978114 ], [ 197960.532, 502101.543 ], [ 198001.522, 502111.457999999984168 ], [ 198025.723999999987427, 502117.420999999972992 ], [ 198046.071999999985565, 502122.37 ], [ 198068.979, 502128.036000000021886 ], [ 198095.899, 502134.647999999986496 ], [ 198113.473999999987427, 502138.848 ], [ 198120.38, 502140.49900000001071 ], [ 198139.655, 502145.287000000011176 ], [ 198144.951, 502146.544 ], [ 198145.75, 502146.734 ], [ 198148.585, 502147.407 ], [ 198150.238000000012107, 502147.799 ], [ 198151.62, 502148.12699999997858 ], [ 198157.836000000010245, 502149.759000000020023 ], [ 198162.845, 502153.678000000014435 ], [ 198167.03, 502158.444000000017695 ], [ 198169.365, 502160.439000000013039 ], [ 198172.212, 502162.853 ], [ 198172.57, 502163.232000000018161 ], [ 198173.609, 502164.329000000027008 ], [ 198179.303000000014435, 502170.471000000019558 ], [ 198189.941, 502181.718999999982771 ], [ 198198.953, 502191.13900000002468 ], [ 198204.038, 502194.597 ], [ 198232.764, 502215.25099999998929 ], [ 198251.362, 502228.577999999979511 ], [ 198254.779, 502231.169 ], [ 198271.393000000010943, 502243.547000000020489 ], [ 198302.875, 502266.913999999989755 ], [ 198308.464, 502271.142 ], [ 198310.019, 502272.275000000023283 ], [ 198311.077, 502273.087999999988824 ], [ 198312.471, 502274.231000000028871 ], [ 198313.484, 502275.049999999988358 ], [ 198315.412000000011176, 502277.300999999977648 ], [ 198317.271, 502279.262999999977183 ], [ 198319.49, 502281.777 ], [ 198324.856999999989057, 502287.967 ], [ 198326.021, 502289.38 ], [ 198327.307999999989988, 502291.309 ], [ 198333.834, 502300.731000000028871 ], [ 198345.866, 502318.23499999998603 ], [ 198356.584, 502333.731000000028871 ], [ 198357.799999999988358, 502335.587999999988824 ], [ 198358.949, 502337.417000000015832 ], [ 198361.97, 502342.871999999973923 ], [ 198370.416999999986729, 502358.038999999989755 ], [ 198399.315, 502409.526000000012573 ], [ 198412.801, 502433.48599999997532 ], [ 198421.68, 502449.349999999976717 ], [ 198425.918, 502457.066999999980908 ], [ 198427.927, 502460.865999999979977 ], [ 198431.277, 502467.371999999973923 ], [ 198435.041999999986729, 502474.729999999981374 ], [ 198437.48499999998603, 502481.566 ], [ 198442.891, 502496.142 ], [ 198452.709, 502522.097 ], [ 198458.041999999986729, 502536.12300000002142 ], [ 198462.106, 502546.955000000016298 ], [ 198462.977000000013504, 502549.276000000012573 ], [ 198466.038999999989755, 502557.438000000023749 ], [ 198467.407, 502561.085000000020955 ], [ 198472.62, 502574.901000000012573 ], [ 198473.435, 502577.044 ], [ 198478.821, 502591.202999999979511 ], [ 198488.378999999986263, 502615.224999999976717 ], [ 198493.513, 502628.338999999978114 ], [ 198517.079999999987194, 502615.463999999978114 ] ] ] ] } }
]
}
