{
"type": "FeatureCollection",
"name": "Heemstede",
"crs": { "type": "name", "properties": { "name": "urn:ogc:def:crs:OGC:1.3:CRS84" } },
"features": [
{ "type": "Feature", "properties": { "buurtcode": "BU03970000", "buurtnaam": "Centrum", "pc6_codes": "2101AC, 2101BA, 2101BD, 2101BS, 2101CA, 2101CB, 2101CC, 2101CD, 2101CJ, 2101CK, 2101GX, 2101HA, 2101HB, 2101HC, 2101HD, 2101HE, 2101HG, 2101HH, 2101HJ, 2101HK, 2101JA, 2101JB, 2101JC, 2101JD, 2101JE, 2101JG, 2101JH, 2101JJ, 2101JK, 2101JL, 2101JM, 2101JN, 2101JP, 2101JR, 2101JS, 2101JT, 2101JV, 2101KA, 2101KB, 2101KC, 2101KD, 2101KH, 2101LA, 2101LC, 2101LM, 2101PA, 2101PB, 2101PC, 2101PD, 2101PJ, 2101PM, 2101PN, 2101PR, 2101PS, 2101PT, 2101PV, 2101PW, 2101PX, 2101PZ, 2101RG, 2101RH, 2101ST, 2101SZ, 2101VA, 2101VB, 2101VC, 2101VD, 2101VE, 2101VG, 2101VH, 2101VJ, 2101VK, 2101VL, 2101WB, 2101WC, 2101WD, 2101WE, 2101WG, 2101WH, 2101WJ, 2101WK, 2101WL, 2101WN, 2101WP, 2101WR, 2101WS, 2101WT, 2101WV, 2101XA, 2101XB, 2101XC, 2101XD, 2101XE, 2101XG, 2101XH, 2101XJ, 2101XK, 2101XL, 2101XM, 2101XN, 2101XP, 2101XR, 2101XS, 2101XT, 2101XV, 2101XW, 2101XX, 2101ZA, 2101ZB, 2101ZC, 2101ZD, 2101ZE, 2101ZG, 2101ZH, 2101ZJ, 2101ZK, 2101ZL, 2101ZM, 2101ZN, 2101ZP, 2101ZR", "wijkcode": "WK039700", "gemeentecode": "GM0397", "gemeentenaam": "Heemstede", "oppervlakteLandInHa": 47, "AantalInwoners_5": 3675, "Mannen_6": 1695, "Vrouwen_7": 1985, "HuishoudensTotaal_29": 1890, "GemiddeldeHuishoudensgrootte_33": 1.9, "Woningvoorraad_35": 1918, "NieuwbouwWoningen_36": 0, "NietWoningvoorraad_37": 316, "NieuwbouwNietWoningen_38": 2, "GemiddeldeWOZWaardeVanWoningen_39": 543, "PercentageEengezinswoning_40": 54, "PercentageTussenwoningEengezins_41": 31, "PercentageHoekwoningEengezins_42": 15, "PercentageTweeOnderEenKapWoningEe_43": 7, "PercentageVrijstaandeWoningEengezins_44": 1, "PercentageMeergezinswoning_45": 46, "Koopwoningen_47": 57, "HuurwoningenTotaal_48": 42, "InBezitWoningcorporatie_49": 29, "InBezitOverigeVerhuurders_50": 13, "BouwjaarMeerDanTienJaarGeleden_51": 99, "BouwjaarAfgelopenTienJaar_52": 1, "GemiddeldeElektriciteitslevering_53": 2210, "GemiddeldeElektriciteitsteruglevering_54": 330, "GemiddeldAardgasverbruik_55": 940, "AardgasvrijeWoningen_57": 1, "Aardgaswoningen_58": 97, "WoningenMetZonnestroom_59": 20, "WoningenHoofdzElektrVerwarmd_60": 3, "k_20PersonenMetHoogsteInkomen_80": 30.1, "k_20HuishoudensMetHoogsteInkomen_85": 24.7, "MediaanVermogenVanParticuliereHuish_86": 304.7, "PersonenautoSTotaal_104": 1700, "PersonenautoSBrandstofBenzine_105": 1400, "PersonenautoSOverigeBrandstof_106": 305, "PersonenautoSPerHuishouden_107": 0.9, "Omgevingsadressendichtheid_121": 2495, "AantalInstallatiesBijWoningen_5": 237, "OpgesteldVermogenVanZonnepanelen_6": 742, "installaties_per_woning": 0.12356621480709072, "vermogen_per_woning": 0.38686131386861317, "installaties_per_100_woningen": 12.356621480709071, "vermogen_per_huishouden": 0.3925925925925926, "batterijdruk_score": 66.0, "koop_zon_score": 0.114, "eengezins_zon_score": 0.108, "betaalkracht_zon_score": 60.94, "overige_brandstof_zon_score": 61.0, "lichte_batterij_kansscore": 0.27690537105887791 }, "geometry": { "type": "MultiPolygon", "coordinates": [ [ [ [ 4.625053035521367, 52.356729473846272 ], [ 4.624023402922695, 52.356336358710394 ], [ 4.624117679054343, 52.353241743517167 ], [ 4.62417311618316, 52.353153989404433 ], [ 4.624051493068669, 52.35278903249371 ], [ 4.624432330705312, 52.352775950122911 ], [ 4.624101751015084, 52.350271321421239 ], [ 4.623826246498749, 52.348639344725157 ], [ 4.623644892260494, 52.346965075658062 ], [ 4.623225036308968, 52.347026485111108 ], [ 4.62318179354329, 52.346717201722669 ], [ 4.6230716956334, 52.346269156534248 ], [ 4.622700705629999, 52.345920437235392 ], [ 4.622604705805354, 52.345720499988076 ], [ 4.622815016520302, 52.345691021850278 ], [ 4.622832007953771, 52.345572155266062 ], [ 4.622393516586279, 52.345322795831251 ], [ 4.622138504157246, 52.344980251980161 ], [ 4.621703798481026, 52.34511705257507 ], [ 4.618823698222535, 52.345925280379774 ], [ 4.619352349959652, 52.347265388971195 ], [ 4.61924835847205, 52.347283915162912 ], [ 4.619395728401114, 52.347597301016641 ], [ 4.61942358112426, 52.347657300196509 ], [ 4.619448172348764, 52.347746765910017 ], [ 4.619440655039551, 52.347900583829585 ], [ 4.619515999705083, 52.347900102814293 ], [ 4.619523670850799, 52.348046488248478 ], [ 4.620080261947583, 52.348283784441897 ], [ 4.620512625152956, 52.348657058265857 ], [ 4.620794105647366, 52.349268938185418 ], [ 4.62082117578938, 52.349660089578869 ], [ 4.620825683997257, 52.349737639890371 ], [ 4.621178794706672, 52.349795821214535 ], [ 4.62035044952402, 52.350153538583385 ], [ 4.620233432758368, 52.350122814445918 ], [ 4.617839273582107, 52.350812828081828 ], [ 4.617824201179618, 52.350833656755846 ], [ 4.616696082974772, 52.351136222236661 ], [ 4.616937549575455, 52.351623303681862 ], [ 4.616522489020822, 52.351759792648728 ], [ 4.616145648493521, 52.352071916555879 ], [ 4.616238077597629, 52.352837337042523 ], [ 4.61611014599872, 52.353356119686381 ], [ 4.616651520698656, 52.354049753191383 ], [ 4.61798542597576, 52.355426564121409 ], [ 4.619167077469653, 52.355506984614287 ], [ 4.619363892340686, 52.356181513597477 ], [ 4.620063773765433, 52.356116677614018 ], [ 4.620392528004846, 52.356881940147801 ], [ 4.620539491456343, 52.356872219002163 ], [ 4.621303259353607, 52.356933619752816 ], [ 4.621967035433096, 52.356748322419882 ], [ 4.622462903711223, 52.357361866072445 ], [ 4.625053035521367, 52.356729473846272 ] ] ] ] } },
{ "type": "Feature", "properties": { "buurtcode": "BU03970001", "buurtnaam": "Oude Dorp, Indische buurt en omgeving", "pc6_codes": "2102LA, 2102LE, 2102LG, 2102LH, 2102LJ, 2102LK, 2102LL, 2102LM, 2102LN, 2102LS, 2102LT, 2102LW, 2102LX, 2103AN, 2103GS, 2103GT, 2103GW, 2103LT, 2103LV, 2103LW, 2103SB, 2103SC, 2103SE, 2103SG, 2103SH, 2103SJ, 2103SK, 2103SL, 2103SM, 2103SN, 2103SP, 2103SR, 2103ST, 2103SV, 2103SW, 2103SX, 2103TA, 2103TB, 2103TC, 2103TD, 2103TE, 2103TG, 2103TH, 2103TJ, 2103TK, 2103TL, 2103TM, 2103TN, 2103TP, 2103TR, 2103TS, 2103TT, 2103TV, 2103TW, 2103TX, 2103TZ, 2103VA, 2103VB, 2103VC, 2103VD, 2103VE, 2103VG, 2103VH, 2103VJ, 2103VK, 2103VL, 2103VM, 2103VN, 2103VP, 2103VR, 2103VS, 2103VT, 2103VV, 2103VW, 2103WN, 2103XA, 2103XB, 2103XC, 2103XD, 2103XE, 2103XH, 2103XK, 2103XL, 2103XM, 2103XN, 2103XP, 2103XR, 2103XS, 2103XT, 2103XV, 2103XW, 2103XX, 2103ZA, 2103ZB, 2103ZC, 2104SC, 2104SE, 2104SG, 2104SH, 2104SJ, 2104SK, 2104SL, 2104SM, 2104SN, 2104SP, 2104SR, 2104ST, 2104SV, 2104SW, 2104TB, 2104TC, 2104TD, 2104TE, 2104TG, 2104TH, 2104TJ, 2104TK, 2104TL, 2104TM, 2104TN, 2104TR, 2104TS, 2104TT, 2104TV, 2104TW, 2104TX, 2104WG", "wijkcode": "WK039700", "gemeentecode": "GM0397", "gemeentenaam": "Heemstede", "oppervlakteLandInHa": 183, "AantalInwoners_5": 4480, "Mannen_6": 2190, "Vrouwen_7": 2290, "HuishoudensTotaal_29": 1930, "GemiddeldeHuishoudensgrootte_33": 2.3, "Woningvoorraad_35": 2110, "NieuwbouwWoningen_36": 0, "NietWoningvoorraad_37": 300, "NieuwbouwNietWoningen_38": 0, "GemiddeldeWOZWaardeVanWoningen_39": 528, "PercentageEengezinswoning_40": 75, "PercentageTussenwoningEengezins_41": 49, "PercentageHoekwoningEengezins_42": 19, "PercentageTweeOnderEenKapWoningEe_43": 5, "PercentageVrijstaandeWoningEengezins_44": 2, "PercentageMeergezinswoning_45": 25, "Koopwoningen_47": 60, "HuurwoningenTotaal_48": 40, "InBezitWoningcorporatie_49": 27, "InBezitOverigeVerhuurders_50": 14, "BouwjaarMeerDanTienJaarGeleden_51": 93, "BouwjaarAfgelopenTienJaar_52": 7, "GemiddeldeElektriciteitslevering_53": 2420, "GemiddeldeElektriciteitsteruglevering_54": 590, "GemiddeldAardgasverbruik_55": 890, "AardgasvrijeWoningen_57": 5, "Aardgaswoningen_58": 85, "WoningenMetZonnestroom_59": 34, "WoningenHoofdzElektrVerwarmd_60": 8, "k_20PersonenMetHoogsteInkomen_80": 27.9, "k_20HuishoudensMetHoogsteInkomen_85": 29.5, "MediaanVermogenVanParticuliereHuish_86": 359.0, "PersonenautoSTotaal_104": 2325, "PersonenautoSBrandstofBenzine_105": 1765, "PersonenautoSOverigeBrandstof_106": 560, "PersonenautoSPerHuishouden_107": 1.2, "Omgevingsadressendichtheid_121": 1360, "AantalInstallatiesBijWoningen_5": 625, "OpgesteldVermogenVanZonnepanelen_6": 1744, "installaties_per_woning": 0.29620853080568721, "vermogen_per_woning": 0.82654028436018956, "installaties_per_100_woningen": 29.620853080568722, "vermogen_per_huishouden": 0.90362694300518132, "batterijdruk_score": 200.6, "koop_zon_score": 0.204, "eengezins_zon_score": 0.255, "betaalkracht_zon_score": 122.06, "overige_brandstof_zon_score": 190.4, "lichte_batterij_kansscore": 0.36490831689508357 }, "geometry": { "type": "MultiPolygon", "coordinates": [ [ [ [ 4.637513619080051, 52.352449975668343 ], [ 4.637630514254237, 52.352363128642217 ], [ 4.637867616908572, 52.352201813628419 ], [ 4.637997972013554, 52.352124434866198 ], [ 4.638312907044837, 52.351958012162868 ], [ 4.638787537176943, 52.351642607929953 ], [ 4.639050060749097, 52.351493926567258 ], [ 4.639535606585661, 52.35115726896916 ], [ 4.63966093101088, 52.351068855370123 ], [ 4.639802472665205, 52.350907292375403 ], [ 4.639867759642649, 52.35083225992269 ], [ 4.639889343252746, 52.350803041614355 ], [ 4.640225683270457, 52.350202802434019 ], [ 4.640314198683411, 52.350053001884433 ], [ 4.640385596037888, 52.349833652440047 ], [ 4.64039149557489, 52.349783977384917 ], [ 4.640311058753753, 52.349470365959441 ], [ 4.640290721850863, 52.349328758469369 ], [ 4.640284793032468, 52.349163019410852 ], [ 4.640292828287437, 52.348979464503365 ], [ 4.64031784476477, 52.348696475328339 ], [ 4.640373585392556, 52.348391318031744 ], [ 4.640393287575939, 52.348187730694193 ], [ 4.64042632462319, 52.348001942724643 ], [ 4.640482256257985, 52.347734185371337 ], [ 4.640495057010336, 52.347640674707087 ], [ 4.640497590198689, 52.347598276594702 ], [ 4.640494701279348, 52.347483859844921 ], [ 4.640471394846942, 52.347160245737982 ], [ 4.64046950290788, 52.34665509343769 ], [ 4.640474009982494, 52.346342709947876 ], [ 4.640468179972288, 52.346278373409696 ], [ 4.640421485525392, 52.346042585629405 ], [ 4.640360883280827, 52.345858867089625 ], [ 4.640304533563734, 52.345671022919213 ], [ 4.640324799376578, 52.345562962928632 ], [ 4.640353788840593, 52.345501623401923 ], [ 4.640468784170687, 52.345283771248326 ], [ 4.640527779366209, 52.345166931702614 ], [ 4.640549790497705, 52.345114724786946 ], [ 4.640669731604399, 52.344676860731411 ], [ 4.640735208236303, 52.344556754397964 ], [ 4.64089587684164, 52.344238057525644 ], [ 4.641033667004334, 52.343985556207691 ], [ 4.640999037280034, 52.343904140725343 ], [ 4.640834629400868, 52.343626679540634 ], [ 4.640746346558308, 52.343451109352053 ], [ 4.640595044255215, 52.343021106094831 ], [ 4.640466167768362, 52.342630368662405 ], [ 4.640439557585759, 52.342530335618626 ], [ 4.640428448599507, 52.342430031886252 ], [ 4.640418631808395, 52.342193604797934 ], [ 4.640420615096748, 52.341973655178926 ], [ 4.64037172747068, 52.341919967198208 ], [ 4.640055887657608, 52.341622602331171 ], [ 4.639812403936622, 52.341375361046154 ], [ 4.639632153289002, 52.341122964182425 ], [ 4.639491950220717, 52.34089150136775 ], [ 4.639419739740925, 52.340761618511607 ], [ 4.63938060898897, 52.340628897752545 ], [ 4.639337197320335, 52.340383593755391 ], [ 4.639299768319733, 52.340123767053832 ], [ 4.63928211828845, 52.339877115857341 ], [ 4.639243223451878, 52.339666884377046 ], [ 4.639282073644432, 52.33952876035066 ], [ 4.639343511068857, 52.33936771597034 ], [ 4.639406506448162, 52.33924133896469 ], [ 4.639471445412588, 52.339142423428079 ], [ 4.639648016735262, 52.338906077250805 ], [ 4.63882889503403, 52.33880154651488 ], [ 4.638557695369053, 52.338766935021901 ], [ 4.638534027029547, 52.338763450737659 ], [ 4.638249308733854, 52.338725643165866 ], [ 4.638166544243322, 52.33871468425059 ], [ 4.638151124404012, 52.338712824997472 ], [ 4.638101961781, 52.33870450549513 ], [ 4.638057385161105, 52.33869919900993 ], [ 4.637931728762911, 52.338682234045777 ], [ 4.637873644467187, 52.338673929857052 ], [ 4.63758817681937, 52.338635378930093 ], [ 4.637225688637879, 52.338587270308771 ], [ 4.637004832786291, 52.338557198666294 ], [ 4.636822391945484, 52.338532358549983 ], [ 4.63618488981444, 52.338445570826764 ], [ 4.635758113510048, 52.338387468466266 ], [ 4.634803712224283, 52.33825752241686 ], [ 4.633128555895224, 52.338023444779381 ], [ 4.632855306183603, 52.337972709656462 ], [ 4.632382920164312, 52.337904210805355 ], [ 4.631934365019324, 52.337825355244007 ], [ 4.631753281453936, 52.337793523305891 ], [ 4.631630036819101, 52.337776531069231 ], [ 4.631487976754948, 52.337746871331788 ], [ 4.631344779671061, 52.337717644569743 ], [ 4.63105760865341, 52.337658313725321 ], [ 4.630584296438684, 52.337534310025326 ], [ 4.630312050497655, 52.337462049230133 ], [ 4.629923544986344, 52.337358286955542 ], [ 4.629740834098507, 52.337310227206956 ], [ 4.629629915071934, 52.337268406115371 ], [ 4.629070748769764, 52.33705135138716 ], [ 4.628916692069064, 52.336992373803334 ], [ 4.628636955656823, 52.336890832231759 ], [ 4.62819151609744, 52.336725122601102 ], [ 4.627986187345901, 52.336650274674824 ], [ 4.627746276089246, 52.336562522392249 ], [ 4.62746390078619, 52.336457734393605 ], [ 4.626906475063539, 52.336250773978257 ], [ 4.626663374278662, 52.336162738326884 ], [ 4.625971127361995, 52.335907108722274 ], [ 4.625170632751932, 52.335610547717891 ], [ 4.624552762270996, 52.335383134593108 ], [ 4.624259213639891, 52.335277098394727 ], [ 4.624197386561839, 52.335254760049587 ], [ 4.624070291149091, 52.335208847688605 ], [ 4.623966089393164, 52.335171208004567 ], [ 4.623864239440933, 52.335135039453078 ], [ 4.623809295961705, 52.33511173865886 ], [ 4.62345939893821, 52.334964504487964 ], [ 4.622741306121238, 52.334700410985867 ], [ 4.622545438087818, 52.334629353628813 ], [ 4.622052596091698, 52.334444790012178 ], [ 4.621349458806926, 52.334186492043301 ], [ 4.621196260080511, 52.334129972541682 ], [ 4.621122732123612, 52.334103134727826 ], [ 4.620951222466709, 52.334039863211494 ], [ 4.620611341615939, 52.333916881024209 ], [ 4.620351119653946, 52.333818349179616 ], [ 4.620111229567514, 52.333722626098364 ], [ 4.620101204428233, 52.333718625262044 ], [ 4.619777944940626, 52.333586688525742 ], [ 4.619612554207686, 52.333515958753402 ], [ 4.619511159155935, 52.333470873278415 ], [ 4.619430090704269, 52.333433927916253 ], [ 4.619246278647036, 52.333346773876045 ], [ 4.619190107134155, 52.333320092441426 ], [ 4.619094084857685, 52.333274888683519 ], [ 4.618903772366337, 52.333175989542056 ], [ 4.618814267825315, 52.333128922423903 ], [ 4.618739159836853, 52.333088438071407 ], [ 4.618551837030465, 52.33298558508087 ], [ 4.618399151921311, 52.33289730169701 ], [ 4.618343214583466, 52.332863089440863 ], [ 4.618280873913108, 52.332825869506564 ], [ 4.618211264489712, 52.332783937529094 ], [ 4.617972824180126, 52.332625439267879 ], [ 4.617926617751335, 52.332592746130565 ], [ 4.617879969648496, 52.332561838712436 ], [ 4.617719705488327, 52.332450504885045 ], [ 4.617668821043837, 52.332414320843455 ], [ 4.61761932582402, 52.332379251338402 ], [ 4.61746427568275, 52.332255817284342 ], [ 4.61744184201416, 52.332238953668536 ], [ 4.617300426289012, 52.332132226892512 ], [ 4.617205021718375, 52.332056736062881 ], [ 4.617115668698499, 52.331980862107571 ], [ 4.616999153416017, 52.331879959466256 ], [ 4.61691554924918, 52.331804257598428 ], [ 4.616663692825351, 52.331573999029935 ], [ 4.616591816257536, 52.331503972821601 ], [ 4.61656420753273, 52.331473401894222 ], [ 4.61546165071035, 52.332657086232011 ], [ 4.615380158673839, 52.333296387200072 ], [ 4.615222270643497, 52.333345634131369 ], [ 4.615071897885071, 52.333393320149632 ], [ 4.615215227035025, 52.333782481754156 ], [ 4.615484740152522, 52.333933400140182 ], [ 4.616153037139968, 52.335429894237315 ], [ 4.616587140680699, 52.336539088363473 ], [ 4.617195614417195, 52.336987954860668 ], [ 4.617824231218243, 52.337373190178333 ], [ 4.618704161597688, 52.337737304234146 ], [ 4.619566762131932, 52.338090064253663 ], [ 4.620177664846967, 52.338401302414937 ], [ 4.620704590505325, 52.338729969347767 ], [ 4.621106949733932, 52.339308928066522 ], [ 4.621203377186347, 52.339759794081033 ], [ 4.620918508083782, 52.340283746018315 ], [ 4.620421535982893, 52.340509720810182 ], [ 4.620584060244398, 52.340870292749869 ], [ 4.621162742013254, 52.340752702834969 ], [ 4.621123368625929, 52.342443027521334 ], [ 4.621348196257267, 52.343100605363361 ], [ 4.621743066268016, 52.343524752547161 ], [ 4.622445011415606, 52.344093566297715 ], [ 4.62330428744211, 52.343875540779798 ], [ 4.623944929618435, 52.3440835890584 ], [ 4.624052120831734, 52.344298442863206 ], [ 4.624203781875502, 52.34421589839733 ], [ 4.624331634855875, 52.344332035551368 ], [ 4.62416892690269, 52.344533276776538 ], [ 4.624235729693437, 52.344667995739165 ], [ 4.624147443503635, 52.344986320250072 ], [ 4.62375883005238, 52.345153834537079 ], [ 4.623930818252842, 52.345282975685421 ], [ 4.624079878574114, 52.345229930167548 ], [ 4.624257084003299, 52.345166868183846 ], [ 4.624789676967133, 52.345624233136157 ], [ 4.62448571524983, 52.345796186042705 ], [ 4.625077403728779, 52.346219620732455 ], [ 4.62519648335241, 52.346403074097267 ], [ 4.625790126690021, 52.347050829211739 ], [ 4.627397802400927, 52.348126234652568 ], [ 4.629557860603785, 52.349781227053832 ], [ 4.630101134037305, 52.350286062254895 ], [ 4.630589447514038, 52.350739705889417 ], [ 4.631800899959093, 52.351481647251575 ], [ 4.632981103110024, 52.351824536923871 ], [ 4.634577794990145, 52.352357687232441 ], [ 4.636598500412649, 52.353183806094627 ], [ 4.637513619080051, 52.352449975668343 ] ] ] ] } },
{ "type": "Feature", "properties": { "buurtcode": "BU03970002", "buurtnaam": "Zandvoortselaan en Berkenrode en omgeving", "pc6_codes": "2101BT, 2101MP, 2101MR, 2101MT, 2101MV, 2101RA, 2101RC, 2105ME, 2105MG, 2105MH, 2105MJ, 2106AM, 2106AS, 2106AT, 2106AV, 2106AW, 2106AX, 2106BA, 2106BB, 2106BC, 2106BD, 2106BE, 2106BG, 2106BH, 2106BJ, 2106BK, 2106BL, 2106BM, 2106BN, 2106BP, 2106BR, 2106BS, 2106BT, 2106BV, 2106BW, 2106BX, 2106CA, 2106CB, 2106CC, 2106CD, 2106CE, 2106CG, 2106CH, 2106CJ, 2106CK, 2106CL, 2106CM, 2106CN, 2106CP, 2106CR, 2106CS, 2106EA, 2106EB, 2106EC, 2106ED, 2106EE, 2106EG, 2106EH, 2106EJ, 2106EK, 2106EL, 2106EM, 2106EN, 2106EP, 2106ER, 2106ES, 2106ET, 2106MH, 2106MJ", "wijkcode": "WK039700", "gemeentecode": "GM0397", "gemeentenaam": "Heemstede", "oppervlakteLandInHa": 59, "AantalInwoners_5": 2155, "Mannen_6": 1030, "Vrouwen_7": 1130, "HuishoudensTotaal_29": 875, "GemiddeldeHuishoudensgrootte_33": 2.4, "Woningvoorraad_35": 920, "NieuwbouwWoningen_36": 0, "NietWoningvoorraad_37": 130, "NieuwbouwNietWoningen_38": 0, "GemiddeldeWOZWaardeVanWoningen_39": 788, "PercentageEengezinswoning_40": 76, "PercentageTussenwoningEengezins_41": 32, "PercentageHoekwoningEengezins_42": 23, "PercentageTweeOnderEenKapWoningEe_43": 16, "PercentageVrijstaandeWoningEengezins_44": 5, "PercentageMeergezinswoning_45": 24, "Koopwoningen_47": 83, "HuurwoningenTotaal_48": 17, "InBezitWoningcorporatie_49": 4, "InBezitOverigeVerhuurders_50": 13, "BouwjaarMeerDanTienJaarGeleden_51": 100, "BouwjaarAfgelopenTienJaar_52": 0, "GemiddeldeElektriciteitslevering_53": 3120, "GemiddeldeElektriciteitsteruglevering_54": 660, "GemiddeldAardgasverbruik_55": 1280, "AardgasvrijeWoningen_57": 1, "Aardgaswoningen_58": 91, "WoningenMetZonnestroom_59": 35, "WoningenHoofdzElektrVerwarmd_60": 6, "k_20PersonenMetHoogsteInkomen_80": 42.5, "k_20HuishoudensMetHoogsteInkomen_85": 48.2, "MediaanVermogenVanParticuliereHuish_86": 759.8, "PersonenautoSTotaal_104": 980, "PersonenautoSBrandstofBenzine_105": 755, "PersonenautoSOverigeBrandstof_106": 225, "PersonenautoSPerHuishouden_107": 1.1, "Omgevingsadressendichtheid_121": 2090, "AantalInstallatiesBijWoningen_5": 189, "OpgesteldVermogenVanZonnepanelen_6": 614, "installaties_per_woning": 0.20543478260869566, "vermogen_per_woning": 0.66739130434782612, "installaties_per_100_woningen": 20.543478260869566, "vermogen_per_huishouden": 0.70171428571428573, "batterijdruk_score": 230.99999999999997, "koop_zon_score": 0.2905, "eengezins_zon_score": 0.266, "betaalkracht_zon_score": 265.93, "overige_brandstof_zon_score": 78.75, "lichte_batterij_kansscore": 0.41101762345873505 }, "geometry": { "type": "MultiPolygon", "coordinates": [ [ [ [ 4.608738640787962, 52.362931294370718 ], [ 4.608854180031911, 52.362896416967281 ], [ 4.608861217031103, 52.362895321770495 ], [ 4.608923283283485, 52.362885699326227 ], [ 4.609124660309447, 52.362854450898418 ], [ 4.609254961222879, 52.362834230604506 ], [ 4.60937723865934, 52.362815260696138 ], [ 4.609419895875228, 52.362809815675654 ], [ 4.609465282797123, 52.362806105272227 ], [ 4.609549765370974, 52.362796602818669 ], [ 4.609635323816129, 52.362791888957751 ], [ 4.609717410057687, 52.362790945140475 ], [ 4.609809348487985, 52.362793301630127 ], [ 4.609904234060433, 52.362798391759867 ], [ 4.610112442757477, 52.362817096559326 ], [ 4.610178757707268, 52.362823050490185 ], [ 4.610212475672042, 52.362815820818689 ], [ 4.610339419141928, 52.362788593663964 ], [ 4.610373461269716, 52.362781294170738 ], [ 4.610498498904317, 52.362752220798512 ], [ 4.610612988425474, 52.362718494241768 ], [ 4.610619289897988, 52.36271663912801 ], [ 4.610655702807669, 52.36270591092859 ], [ 4.610878787238604, 52.362640182176939 ], [ 4.610882809759682, 52.362639354704029 ], [ 4.611051524921278, 52.362602675785816 ], [ 4.611314418182695, 52.362545186731872 ], [ 4.612350765659599, 52.362345153744272 ], [ 4.612990551979448, 52.362212139188401 ], [ 4.613842356595228, 52.362051610369733 ], [ 4.613844187565036, 52.362081327473788 ], [ 4.613860914915614, 52.362091125759463 ], [ 4.613872254818231, 52.362095837623187 ], [ 4.613887762147612, 52.362098140980429 ], [ 4.614113162592366, 52.362103271421297 ], [ 4.614151255260958, 52.362100203656155 ], [ 4.614374550926394, 52.362080360345239 ], [ 4.61441784530472, 52.362077029854312 ], [ 4.614406467619918, 52.36203402917446 ], [ 4.614393988159326, 52.362032365821477 ], [ 4.614391548914599, 52.362019847672201 ], [ 4.614388873785382, 52.362020027941327 ], [ 4.61438676639244, 52.3620112149896 ], [ 4.614378113885989, 52.361949150702905 ], [ 4.614433579221397, 52.361938214981507 ], [ 4.614568846015224, 52.361912430777828 ], [ 4.614588393081916, 52.361908693553069 ], [ 4.614990287100863, 52.361830505552149 ], [ 4.615010511099476, 52.361825828940511 ], [ 4.615297378091446, 52.361772028715933 ], [ 4.615491742795832, 52.361736544369656 ], [ 4.615739540720599, 52.36168535550933 ], [ 4.615751665666362, 52.361710780520504 ], [ 4.615946611089196, 52.361682390697958 ], [ 4.616219166184619, 52.361642704923952 ], [ 4.616219786026325, 52.361626467756373 ], [ 4.616294311632242, 52.361623690529612 ], [ 4.61636789711891, 52.361620943085448 ], [ 4.616544302516368, 52.361614353125134 ], [ 4.616592561227929, 52.361612555147929 ], [ 4.616676042990203, 52.361611426852903 ], [ 4.616814958747896, 52.361609562771044 ], [ 4.616828321737687, 52.361609380104071 ], [ 4.616830479846775, 52.361615299224901 ], [ 4.616906506076513, 52.361608109313906 ], [ 4.616951063165348, 52.361603887322282 ], [ 4.617019957339049, 52.361597369963192 ], [ 4.617666539149481, 52.361534956709519 ], [ 4.617718631263888, 52.361530686346477 ], [ 4.617719672157861, 52.361530601436108 ], [ 4.617719575804085, 52.361520920801254 ], [ 4.617750372819241, 52.36151268132879 ], [ 4.617903383583964, 52.361471783104257 ], [ 4.617953452238876, 52.361471425418266 ], [ 4.618149158953807, 52.361467573992918 ], [ 4.618246545554121, 52.361466658067201 ], [ 4.617479134375785, 52.359306063908107 ], [ 4.616741009587353, 52.358697104620084 ], [ 4.615779463054753, 52.358024048521663 ], [ 4.615602623476736, 52.357891727548925 ], [ 4.614754855396211, 52.357259569879815 ], [ 4.613561325205028, 52.355832519705189 ], [ 4.612798804168015, 52.354275425801823 ], [ 4.613483288351855, 52.353993973183364 ], [ 4.613590741104134, 52.353559883268296 ], [ 4.613241427209324, 52.353054273914552 ], [ 4.604136279061855, 52.354562780032644 ], [ 4.603978792102716, 52.35458420875122 ], [ 4.604159289674164, 52.354922451657856 ], [ 4.608520656132569, 52.362848826188902 ], [ 4.608573360875558, 52.36294354629382 ], [ 4.608575981183384, 52.362948250742377 ], [ 4.608576029564967, 52.362948338243683 ], [ 4.608581017154195, 52.362957943210986 ], [ 4.608738640787962, 52.362931294370718 ] ] ] ] } },
{ "type": "Feature", "properties": { "buurtcode": "BU03970003", "buurtnaam": "Heemsteedse Dreef, Schildersbuurt en omgeving", "pc6_codes": "2101AA, 2101AB, 2101AC, 2101AD, 2101AE, 2101AG, 2101AH, 2101AJ, 2101AK, 2101AL, 2101AM, 2101AN, 2101AP, 2101AR, 2101AS, 2101AT, 2101AV, 2101AW, 2101AX, 2101BA, 2101BB, 2101BC, 2101BD, 2101BE, 2101BG, 2101BH, 2101BJ, 2101BK, 2101BL, 2101BM, 2101BN, 2101BP, 2101BR, 2101BV, 2101BW, 2101BX, 2101CG, 2101KE, 2101KG, 2101KH, 2101KJ, 2101KK, 2101LM, 2101MT, 2101MV, 2101ZL, 2102AA, 2102AB, 2102AC, 2102AD, 2102AE, 2102AG, 2102AH, 2102AJ, 2102AK, 2102AL, 2102AM, 2102AN, 2102AP, 2102AR, 2102AS, 2102AT, 2102AV, 2102AW, 2102AX, 2102AZ, 2102BA, 2102BB, 2102BC, 2102BD, 2102BE, 2102BG, 2102BH, 2102BJ, 2102BK, 2102BL, 2102BM, 2102BN, 2102BP, 2102BR, 2102BS, 2102BT, 2102BV, 2102BW, 2102BX, 2102BZ, 2102CA, 2102CB, 2102CC, 2102CD, 2102CE, 2102CH, 2102CJ, 2102CK, 2102CL, 2102CS, 2102CT, 2102CV, 2102EA, 2102EB, 2102EC, 2102ED, 2102EE, 2102EG, 2102EH, 2102EJ, 2102EK, 2102EL, 2102EM, 2102EN, 2102EP, 2102ER, 2102ES, 2102ET, 2102EV, 2102EW, 2102GA, 2102GB, 2102GC, 2102GD, 2102KL, 2102KM, 2102KN, 2102KP, 2102KR, 2102KS, 2102KT, 2102KV, 2102LA, 2102LB, 2102LC, 2102LP, 2102LR, 2102LV, 2102XA, 2102XB, 2102XC, 2102XD, 2102XE, 2102XG, 2102XH, 2102XJ, 2102XK, 2102XL, 2102XM, 2102XN, 2102XP, 2102XR, 2102XS, 2102XT, 2103GW, 2103LL, 2103LN, 2103LR", "wijkcode": "WK039700", "gemeentecode": "GM0397", "gemeentenaam": "Heemstede", "oppervlakteLandInHa": 98, "AantalInwoners_5": 5235, "Mannen_6": 2580, "Vrouwen_7": 2660, "HuishoudensTotaal_29": 1910, "GemiddeldeHuishoudensgrootte_33": 2.7, "Woningvoorraad_35": 1899, "NieuwbouwWoningen_36": 0, "NietWoningvoorraad_37": 220, "NieuwbouwNietWoningen_38": 0, "GemiddeldeWOZWaardeVanWoningen_39": 1082, "PercentageEengezinswoning_40": 88, "PercentageTussenwoningEengezins_41": 39, "PercentageHoekwoningEengezins_42": 25, "PercentageTweeOnderEenKapWoningEe_43": 18, "PercentageVrijstaandeWoningEengezins_44": 8, "PercentageMeergezinswoning_45": 12, "Koopwoningen_47": 88, "HuurwoningenTotaal_48": 12, "InBezitWoningcorporatie_49": 3, "InBezitOverigeVerhuurders_50": 8, "BouwjaarMeerDanTienJaarGeleden_51": 95, "BouwjaarAfgelopenTienJaar_52": 5, "GemiddeldeElektriciteitslevering_53": 3740, "GemiddeldeElektriciteitsteruglevering_54": 940, "GemiddeldAardgasverbruik_55": 1520, "AardgasvrijeWoningen_57": 1, "Aardgaswoningen_58": 91, "WoningenMetZonnestroom_59": 42, "WoningenHoofdzElektrVerwarmd_60": 8, "k_20PersonenMetHoogsteInkomen_80": 46.9, "k_20HuishoudensMetHoogsteInkomen_85": 60.5, "MediaanVermogenVanParticuliereHuish_86": 1067.9, "PersonenautoSTotaal_104": 2440, "PersonenautoSBrandstofBenzine_105": 1785, "PersonenautoSOverigeBrandstof_106": 655, "PersonenautoSPerHuishouden_107": 1.3, "Omgevingsadressendichtheid_121": 2227, "AantalInstallatiesBijWoningen_5": 564, "OpgesteldVermogenVanZonnepanelen_6": 1983, "installaties_per_woning": 0.29699842022116901, "vermogen_per_woning": 1.0442338072669826, "installaties_per_100_woningen": 29.699842022116901, "vermogen_per_huishouden": 1.0382198952879582, "batterijdruk_score": 394.8, "koop_zon_score": 0.3696, "eengezins_zon_score": 0.3696, "betaalkracht_zon_score": 448.518, "overige_brandstof_zon_score": 275.1, "lichte_batterij_kansscore": 0.47468555108078708 }, "geometry": { "type": "MultiPolygon", "coordinates": [ [ [ [ 4.625628789435286, 52.362126367119593 ], [ 4.62584237013337, 52.362100849196317 ], [ 4.625909983854201, 52.362084215996916 ], [ 4.62593716871979, 52.362071663926272 ], [ 4.625999055794206, 52.362043102816685 ], [ 4.626141748477306, 52.361974309977747 ], [ 4.626264602155689, 52.361921172236755 ], [ 4.626298843121892, 52.361906364533951 ], [ 4.626356474746025, 52.361869093544193 ], [ 4.626379891674667, 52.361857083392586 ], [ 4.626495465715574, 52.361797786831318 ], [ 4.626521889328509, 52.361784232074854 ], [ 4.626600329623581, 52.36173634512658 ], [ 4.626625507017418, 52.361720975765579 ], [ 4.626716285290264, 52.361670166049727 ], [ 4.626758590095741, 52.361647401777894 ], [ 4.6268368338303, 52.361608384496755 ], [ 4.62695141069279, 52.361559228458916 ], [ 4.627206381735886, 52.361468973219743 ], [ 4.627220158786126, 52.361464325037659 ], [ 4.627346691746621, 52.361421644788074 ], [ 4.627422458063124, 52.361396075135573 ], [ 4.627491199765563, 52.361363198103213 ], [ 4.627508816909818, 52.361358916075503 ], [ 4.627538139664298, 52.361351779105547 ], [ 4.627696313223196, 52.361295163532006 ], [ 4.627705338636821, 52.361291931861338 ], [ 4.627910573042917, 52.361243383525803 ], [ 4.628115213308039, 52.361192637971172 ], [ 4.628336572186391, 52.361136031265701 ], [ 4.628495667411782, 52.36109495167824 ], [ 4.628621234920296, 52.361061377643829 ], [ 4.62875079595875, 52.361031208526796 ], [ 4.62878369410934, 52.361021865153148 ], [ 4.628842040304542, 52.361005296737815 ], [ 4.628904720252295, 52.360984262093247 ], [ 4.628962339212826, 52.360966430650052 ], [ 4.62903984926182, 52.360945248258389 ], [ 4.62935960947134, 52.360857821125173 ], [ 4.629510425358403, 52.36081658830409 ], [ 4.629609372037779, 52.360790922964718 ], [ 4.62982083115215, 52.360741251728875 ], [ 4.629902936900862, 52.360724286554756 ], [ 4.630076481702771, 52.36068195809677 ], [ 4.630106001046346, 52.360677014805248 ], [ 4.630158443810371, 52.360668236469131 ], [ 4.630299881739484, 52.360649115884051 ], [ 4.630340572387389, 52.36064679654055 ], [ 4.630452768729127, 52.360650758536373 ], [ 4.630616818436994, 52.36066155913668 ], [ 4.630750454389158, 52.360670358573188 ], [ 4.630962708102177, 52.360701428928252 ], [ 4.631123867652707, 52.360725054106041 ], [ 4.631326780575028, 52.360748622137038 ], [ 4.631485242694093, 52.36076600995051 ], [ 4.631652004963422, 52.360783944868231 ], [ 4.631901093782849, 52.360810718736651 ], [ 4.631926845746331, 52.360811476260452 ], [ 4.632083935452666, 52.360812918921042 ], [ 4.632280040905915, 52.360814709081552 ], [ 4.632532585457906, 52.360817011562304 ], [ 4.632602572715885, 52.360817655491708 ], [ 4.632796669389072, 52.360813257285429 ], [ 4.632989752393994, 52.360808897241654 ], [ 4.633199960213196, 52.360804124670238 ], [ 4.633203499589706, 52.36080404834896 ], [ 4.633387653113415, 52.360799891424996 ], [ 4.633476136573073, 52.36080927204781 ], [ 4.633522679217741, 52.360814197189129 ], [ 4.633855258896885, 52.360870385707464 ], [ 4.633970472000946, 52.360892132689301 ], [ 4.634047298285349, 52.360909348075062 ], [ 4.63424231737218, 52.360950090716713 ], [ 4.63447154947905, 52.360993063904516 ], [ 4.634672117165472, 52.361030434695998 ], [ 4.634670252249554, 52.361035653810681 ], [ 4.634962408362586, 52.361089838541375 ], [ 4.635053643390597, 52.361111027620602 ], [ 4.635449828750111, 52.361205985228246 ], [ 4.635450589032139, 52.361206169815205 ], [ 4.635499891617524, 52.361218068355292 ], [ 4.635565315705991, 52.361234194703407 ], [ 4.635577613693139, 52.361238802707462 ], [ 4.635583955950324, 52.361238798040354 ], [ 4.635681998451412, 52.361262888016995 ], [ 4.636124628707554, 52.361368752954711 ], [ 4.636145943297971, 52.361378424383346 ], [ 4.636149542540551, 52.361393025628317 ], [ 4.636156337723126, 52.361371470770223 ], [ 4.636179103691516, 52.361376927079078 ], [ 4.636626337355402, 52.361484176511048 ], [ 4.63675416126038, 52.361316903878567 ], [ 4.636768329949263, 52.361304662279693 ], [ 4.636850979811625, 52.361246746778498 ], [ 4.636921937951098, 52.361191759077386 ], [ 4.636971412369433, 52.361148373393476 ], [ 4.63710955041554, 52.360960511506327 ], [ 4.637181902010955, 52.360786577347859 ], [ 4.637203052542689, 52.360731264879412 ], [ 4.637239334444728, 52.360572866943755 ], [ 4.637252129841774, 52.360523730156658 ], [ 4.637360431808483, 52.360257538834738 ], [ 4.637376687673385, 52.360217581747364 ], [ 4.637409955176132, 52.360147147420065 ], [ 4.637594343408185, 52.359777006252123 ], [ 4.63760505531334, 52.359740798835318 ], [ 4.637633976627797, 52.359595638292681 ], [ 4.63760712567675, 52.35950442958125 ], [ 4.63758967327477, 52.359467783148716 ], [ 4.637503493629339, 52.359342152409376 ], [ 4.637412607001615, 52.359198857479157 ], [ 4.637005095159006, 52.358611170459717 ], [ 4.636975182823996, 52.358573501221109 ], [ 4.636899543031785, 52.358467197933116 ], [ 4.636781029428572, 52.358325812543839 ], [ 4.636316674926808, 52.357933537604005 ], [ 4.636122188524689, 52.35776573935923 ], [ 4.635922430909475, 52.35757902368826 ], [ 4.635743606490233, 52.357407144820591 ], [ 4.635627768065567, 52.357282402869814 ], [ 4.635512952294861, 52.357151924007802 ], [ 4.635374473674136, 52.356974665345462 ], [ 4.63535477662137, 52.356945904684046 ], [ 4.635308397998656, 52.356885615638177 ], [ 4.635264833494384, 52.356824724283726 ], [ 4.635117925925947, 52.356583669349675 ], [ 4.63505815504384, 52.356428436480236 ], [ 4.634943591145569, 52.355961836061056 ], [ 4.632620572725338, 52.356795095169112 ], [ 4.630599521907834, 52.35737904843716 ], [ 4.629863535633737, 52.357415630229745 ], [ 4.629010054830201, 52.355556122960877 ], [ 4.628710472872259, 52.354189721947094 ], [ 4.628776989690564, 52.353391064524956 ], [ 4.629155974893435, 52.352861518707186 ], [ 4.628795919624737, 52.352625525482011 ], [ 4.629414838460963, 52.352314911949264 ], [ 4.628538576192473, 52.351539985760631 ], [ 4.630101134037305, 52.350286062254895 ], [ 4.629557860603785, 52.349781227053832 ], [ 4.627397802400927, 52.348126234652568 ], [ 4.625790126690021, 52.347050829211739 ], [ 4.62519648335241, 52.346403074097267 ], [ 4.625077403728779, 52.346219620732455 ], [ 4.62448571524983, 52.345796186042705 ], [ 4.624789676967133, 52.345624233136157 ], [ 4.624257084003299, 52.345166868183846 ], [ 4.624079878574114, 52.345229930167548 ], [ 4.623930818252842, 52.345282975685421 ], [ 4.62375883005238, 52.345153834537079 ], [ 4.623740261536882, 52.345139892156837 ], [ 4.623670459076998, 52.3451583560649 ], [ 4.623191800048011, 52.344719718157421 ], [ 4.622468174162584, 52.34495852703472 ], [ 4.622397313322753, 52.344898804256907 ], [ 4.622138504157246, 52.344980251980161 ], [ 4.622393516586279, 52.345322795831251 ], [ 4.622832007953771, 52.345572155266062 ], [ 4.622815016520302, 52.345691021850278 ], [ 4.622604705805354, 52.345720499988076 ], [ 4.622700705629999, 52.345920437235392 ], [ 4.6230716956334, 52.346269156534248 ], [ 4.62318179354329, 52.346717201722669 ], [ 4.623225036308968, 52.347026485111108 ], [ 4.623644892260494, 52.346965075658062 ], [ 4.623826246498749, 52.348639344725157 ], [ 4.624101751015084, 52.350271321421239 ], [ 4.624432330705312, 52.352775950122911 ], [ 4.624051493068669, 52.35278903249371 ], [ 4.62417311618316, 52.353153989404433 ], [ 4.624117679054343, 52.353241743517167 ], [ 4.624023402922695, 52.356336358710394 ], [ 4.625053035521367, 52.356729473846272 ], [ 4.622462903711223, 52.357361866072445 ], [ 4.621967035433096, 52.356748322419882 ], [ 4.621303259353607, 52.356933619752816 ], [ 4.620539491456343, 52.356872219002163 ], [ 4.620392528004846, 52.356881940147801 ], [ 4.619559334683193, 52.356935803932373 ], [ 4.618430488334933, 52.35701582741995 ], [ 4.616934501744092, 52.357361968099838 ], [ 4.615602623476736, 52.357891727548925 ], [ 4.615779463054753, 52.358024048521663 ], [ 4.616741009587353, 52.358697104620084 ], [ 4.617479134375785, 52.359306063908107 ], [ 4.618246545554121, 52.361466658067201 ], [ 4.618355505643861, 52.361465633882645 ], [ 4.618440343318364, 52.361463335731933 ], [ 4.618936624029937, 52.361483572046652 ], [ 4.619085647304217, 52.361570311062003 ], [ 4.619422228356484, 52.361584610472732 ], [ 4.619478797141227, 52.361586163793639 ], [ 4.619535394106824, 52.361588634039677 ], [ 4.619686363107355, 52.361595239489567 ], [ 4.619868989922371, 52.36160323638353 ], [ 4.620077393991712, 52.361617341081612 ], [ 4.620190841507264, 52.361623756637826 ], [ 4.620415067849891, 52.361638951938517 ], [ 4.620452714815618, 52.361641236070326 ], [ 4.620493353603782, 52.361643701352001 ], [ 4.620534511850253, 52.361646691284449 ], [ 4.620578044296251, 52.361649921277703 ], [ 4.62061885614763, 52.361652567395751 ], [ 4.620772207213203, 52.36166237760213 ], [ 4.620966807078693, 52.361676741878071 ], [ 4.621045305457188, 52.361681087845149 ], [ 4.621195524399171, 52.361691200794496 ], [ 4.621302784233544, 52.361776273586976 ], [ 4.62170246994681, 52.361963983524198 ], [ 4.621896308875201, 52.36178680849379 ], [ 4.621967949900113, 52.361723151750056 ], [ 4.622101252152588, 52.361662859559047 ], [ 4.622103773217138, 52.361664799272191 ], [ 4.622152215362109, 52.361699176644436 ], [ 4.62220546927943, 52.361735472559985 ], [ 4.622242550290419, 52.361756114810539 ], [ 4.622282295344411, 52.361775515954236 ], [ 4.622326308344609, 52.361794315507886 ], [ 4.622358700147107, 52.36180593948783 ], [ 4.622391272846344, 52.361815587282514 ], [ 4.622432682722542, 52.361823584457596 ], [ 4.622463285516766, 52.361828276142056 ], [ 4.622501989952726, 52.361831402330324 ], [ 4.622568180777991, 52.361832638840518 ], [ 4.623092012406972, 52.361823708048313 ], [ 4.623307885990358, 52.361818504248667 ], [ 4.623350008902946, 52.361817499796103 ], [ 4.623407795991807, 52.361815679636514 ], [ 4.623461153911959, 52.3618118894776 ], [ 4.623509695419999, 52.36180645039245 ], [ 4.623592557809145, 52.3617944018727 ], [ 4.623803816334664, 52.361760477920271 ], [ 4.623829293988072, 52.361759285053921 ], [ 4.623878450831812, 52.361755620408779 ], [ 4.62392903201825, 52.361754499524423 ], [ 4.624010801489403, 52.36177012649302 ], [ 4.624189417098545, 52.36180485690813 ], [ 4.62420024518515, 52.361806948990761 ], [ 4.624275265202083, 52.361818946084135 ], [ 4.624413975987716, 52.361852924614851 ], [ 4.624453674637686, 52.361867399339324 ], [ 4.62455157451888, 52.361913185511874 ], [ 4.624656690515683, 52.361966226409429 ], [ 4.624809042717659, 52.362040252687756 ], [ 4.624851937362578, 52.362056716218099 ], [ 4.624893485345096, 52.362070384801882 ], [ 4.624911901974893, 52.362072579617127 ], [ 4.624950565130728, 52.362079839184467 ], [ 4.625065901026128, 52.362090100064528 ], [ 4.625377219121027, 52.3620976856242 ], [ 4.625406935527024, 52.362118971545335 ], [ 4.625408272802971, 52.362120606966911 ], [ 4.625560513986789, 52.362129370200719 ], [ 4.625628789435286, 52.362126367119593 ] ] ] ] } },
{ "type": "Feature", "properties": { "buurtcode": "BU03970004", "buurtnaam": "Van Merlenbuurt en Valkenburgerplein en omgeving", "pc6_codes": "2101EK, 2101EP, 2101ER, 2101GB, 2101GC, 2101GE, 2101GG, 2101GH, 2101GJ, 2101GK, 2101GL, 2101GM, 2101GN, 2101GP, 2101GR, 2101HA, 2101ML, 2101SM, 2101SN, 2101SP, 2103AA, 2103AB, 2103AC, 2103AD, 2103AE, 2103AG, 2103AH, 2103AJ, 2103AK, 2103AL, 2103AM, 2103AN, 2103AP, 2103AR, 2103AS, 2103AT, 2103AV, 2103GA, 2103GD, 2103GT, 2103GV, 2103GW, 2103LL, 2103LN, 2103SH, 2103SL, 2103SN, 2103WH, 2104MK, 2104WG, 2104WP, 2104WR", "wijkcode": "WK039700", "gemeentecode": "GM0397", "gemeentenaam": "Heemstede", "oppervlakteLandInHa": 143, "AantalInwoners_5": 1060, "Mannen_6": 480, "Vrouwen_7": 580, "HuishoudensTotaal_29": 430, "GemiddeldeHuishoudensgrootte_33": 2.2, "Woningvoorraad_35": 546, "NieuwbouwWoningen_36": 3, "NietWoningvoorraad_37": 45, "NieuwbouwNietWoningen_38": 1, "GemiddeldeWOZWaardeVanWoningen_39": 831, "PercentageEengezinswoning_40": 49, "PercentageTussenwoningEengezins_41": 4, "PercentageHoekwoningEengezins_42": 4, "PercentageTweeOnderEenKapWoningEe_43": 14, "PercentageVrijstaandeWoningEengezins_44": 27, "PercentageMeergezinswoning_45": 51, "Koopwoningen_47": 71, "HuurwoningenTotaal_48": 28, "InBezitWoningcorporatie_49": 0, "InBezitOverigeVerhuurders_50": 28, "BouwjaarMeerDanTienJaarGeleden_51": 100, "BouwjaarAfgelopenTienJaar_52": 0, "GemiddeldeElektriciteitslevering_53": 3020, "GemiddeldeElektriciteitsteruglevering_54": 520, "GemiddeldAardgasverbruik_55": 1570, "AardgasvrijeWoningen_57": 2, "Aardgaswoningen_58": 94, "WoningenMetZonnestroom_59": 21, "WoningenHoofdzElektrVerwarmd_60": 6, "k_20PersonenMetHoogsteInkomen_80": 41.2, "k_20HuishoudensMetHoogsteInkomen_85": 47.1, "MediaanVermogenVanParticuliereHuish_86": 1004.4, "PersonenautoSTotaal_104": 545, "PersonenautoSBrandstofBenzine_105": 405, "PersonenautoSOverigeBrandstof_106": 140, "PersonenautoSPerHuishouden_107": 1.3, "Omgevingsadressendichtheid_121": 1736, "AantalInstallatiesBijWoningen_5": 65, "OpgesteldVermogenVanZonnepanelen_6": 306, "installaties_per_woning": 0.11904761904761904, "vermogen_per_woning": 0.56043956043956045, "installaties_per_100_woningen": 11.904761904761903, "vermogen_per_huishouden": 0.71162790697674416, "batterijdruk_score": 109.2, "koop_zon_score": 0.1491, "eengezins_zon_score": 0.1029, "betaalkracht_zon_score": 210.924, "overige_brandstof_zon_score": 29.4, "lichte_batterij_kansscore": 0.29947743997413162 }, "geometry": { "type": "MultiPolygon", "coordinates": [ [ [ [ 4.611712840056851, 52.348886212008928 ], [ 4.612385640691168, 52.348763945184757 ], [ 4.613115374250244, 52.348499924770017 ], [ 4.613857489680557, 52.348103970061487 ], [ 4.614531883453468, 52.347810087106723 ], [ 4.615398908274991, 52.34774636856605 ], [ 4.616340223501703, 52.347801937712738 ], [ 4.61924835847205, 52.347283915162912 ], [ 4.619352349959652, 52.347265388971195 ], [ 4.618823698222535, 52.345925280379774 ], [ 4.621703798481026, 52.34511705257507 ], [ 4.622138504157246, 52.344980251980161 ], [ 4.622397313322753, 52.344898804256907 ], [ 4.622468174162584, 52.34495852703472 ], [ 4.623191800048011, 52.344719718157421 ], [ 4.623670459076998, 52.3451583560649 ], [ 4.623740261536882, 52.345139892156837 ], [ 4.62375883005238, 52.345153834537079 ], [ 4.624147443503635, 52.344986320250072 ], [ 4.624235729693437, 52.344667995739165 ], [ 4.62416892690269, 52.344533276776538 ], [ 4.624331634855875, 52.344332035551368 ], [ 4.624203781875502, 52.34421589839733 ], [ 4.624052120831734, 52.344298442863206 ], [ 4.623944929618435, 52.3440835890584 ], [ 4.62330428744211, 52.343875540779798 ], [ 4.622445011415606, 52.344093566297715 ], [ 4.621743066268016, 52.343524752547161 ], [ 4.621348196257267, 52.343100605363361 ], [ 4.621123368625929, 52.342443027521334 ], [ 4.621162742013254, 52.340752702834969 ], [ 4.620584060244398, 52.340870292749869 ], [ 4.620421535982893, 52.340509720810182 ], [ 4.620918508083782, 52.340283746018315 ], [ 4.621203377186347, 52.339759794081033 ], [ 4.621106949733932, 52.339308928066522 ], [ 4.620704590505325, 52.338729969347767 ], [ 4.620177664846967, 52.338401302414937 ], [ 4.619566762131932, 52.338090064253663 ], [ 4.618704161597688, 52.337737304234146 ], [ 4.617824231218243, 52.337373190178333 ], [ 4.617195614417195, 52.336987954860668 ], [ 4.616587140680699, 52.336539088363473 ], [ 4.616153037139968, 52.335429894237315 ], [ 4.615484740152522, 52.333933400140182 ], [ 4.615215227035025, 52.333782481754156 ], [ 4.615071897885071, 52.333393320149632 ], [ 4.612189056232939, 52.33430746173633 ], [ 4.611287780376475, 52.333407249363198 ], [ 4.610088489469468, 52.332515745961977 ], [ 4.609150032087046, 52.332067481044994 ], [ 4.6090612549859, 52.33202532679919 ], [ 4.608987522008693, 52.332037837577147 ], [ 4.608407924816547, 52.332136187639684 ], [ 4.606999343985934, 52.332893694942513 ], [ 4.606498126664893, 52.333531064849353 ], [ 4.606755392135869, 52.333834703125603 ], [ 4.607607605468646, 52.334181865388679 ], [ 4.608673663987447, 52.334552056543785 ], [ 4.608940264917761, 52.334827943387396 ], [ 4.609100966615018, 52.335371089525665 ], [ 4.608462401661444, 52.33580729908337 ], [ 4.607267638978367, 52.335995199629863 ], [ 4.606541085931366, 52.335175309414844 ], [ 4.602724864730581, 52.335669686958688 ], [ 4.602843909814057, 52.335828609218154 ], [ 4.603037855855968, 52.336147001170012 ], [ 4.603230784154919, 52.33651678747453 ], [ 4.604831377162229, 52.33844912702687 ], [ 4.605459056284269, 52.340301993380258 ], [ 4.605904290898977, 52.341183229186967 ], [ 4.607791930843561, 52.344413374605629 ], [ 4.60904496657447, 52.346937409718706 ], [ 4.609717834014962, 52.348236943027253 ], [ 4.609803649283228, 52.348365024484089 ], [ 4.610009597357606, 52.348671968092148 ], [ 4.610454398173826, 52.348919529161392 ], [ 4.610908748742799, 52.349041039220253 ], [ 4.611712840056851, 52.348886212008928 ] ] ] ] } },
{ "type": "Feature", "properties": { "buurtcode": "BU03970005", "buurtnaam": "Schouwbroekerpolder", "pc6_codes": "2102BD, 2102CM, 2102CN, 2102CP, 2102CR, 2102CW, 2102CX, 2102CZ, 2102EB, 2102GE, 2102GG, 2102GH, 2102GJ, 2102GK, 2102GL, 2102GM, 2102GN, 2102GP, 2102GR, 2102GS, 2102GT, 2102GV, 2102GW, 2102GX, 2102XB, 2102XC, 2102ZA, 2102ZB, 2102ZC, 2102ZD, 2102ZE, 2102ZG, 2102ZH, 2102ZJ, 2102ZL, 2102ZM, 2102ZN, 2102ZP, 2102ZR", "wijkcode": "WK039700", "gemeentecode": "GM0397", "gemeentenaam": "Heemstede", "oppervlakteLandInHa": 24, "AantalInwoners_5": 1460, "Mannen_6": 660, "Vrouwen_7": 800, "HuishoudensTotaal_29": 710, "GemiddeldeHuishoudensgrootte_33": 1.9, "Woningvoorraad_35": 802, "NieuwbouwWoningen_36": 0, "NietWoningvoorraad_37": 81, "NieuwbouwNietWoningen_38": 0, "GemiddeldeWOZWaardeVanWoningen_39": 583, "PercentageEengezinswoning_40": 33, "PercentageTussenwoningEengezins_41": 21, "PercentageHoekwoningEengezins_42": 8, "PercentageTweeOnderEenKapWoningEe_43": 2, "PercentageVrijstaandeWoningEengezins_44": 1, "PercentageMeergezinswoning_45": 67, "Koopwoningen_47": 70, "HuurwoningenTotaal_48": 30, "InBezitWoningcorporatie_49": 26, "InBezitOverigeVerhuurders_50": 4, "BouwjaarMeerDanTienJaarGeleden_51": 84, "BouwjaarAfgelopenTienJaar_52": 16, "GemiddeldeElektriciteitslevering_53": 2390, "GemiddeldeElektriciteitsteruglevering_54": 430, "GemiddeldAardgasverbruik_55": 820, "AardgasvrijeWoningen_57": 8, "Aardgaswoningen_58": 84, "WoningenMetZonnestroom_59": 28, "WoningenHoofdzElektrVerwarmd_60": 16, "k_20PersonenMetHoogsteInkomen_80": 32.9, "k_20HuishoudensMetHoogsteInkomen_85": 28.0, "MediaanVermogenVanParticuliereHuish_86": 591.5, "PersonenautoSTotaal_104": 750, "PersonenautoSBrandstofBenzine_105": 580, "PersonenautoSOverigeBrandstof_106": 170, "PersonenautoSPerHuishouden_107": 1.0, "Omgevingsadressendichtheid_121": 2275, "AantalInstallatiesBijWoningen_5": 206, "OpgesteldVermogenVanZonnepanelen_6": 522, "installaties_per_woning": 0.256857855361596, "vermogen_per_woning": 0.6508728179551122, "installaties_per_100_woningen": 25.685785536159599, "vermogen_per_huishouden": 0.73521126760563382, "batterijdruk_score": 120.4, "koop_zon_score": 0.196, "eengezins_zon_score": 0.0924, "betaalkracht_zon_score": 165.62, "overige_brandstof_zon_score": 47.6, "lichte_batterij_kansscore": 0.27740937129821119 }, "geometry": { "type": "MultiPolygon", "coordinates": [ [ [ [ 4.630599521907834, 52.35737904843716 ], [ 4.632620572725338, 52.356795095169112 ], [ 4.634943591145569, 52.355961836061056 ], [ 4.634937814517098, 52.355938305791412 ], [ 4.634930647054372, 52.355909103385521 ], [ 4.635003122059648, 52.355765136931801 ], [ 4.635078964214931, 52.355467525151489 ], [ 4.63510008427558, 52.35542527227198 ], [ 4.635142585472122, 52.35532015883075 ], [ 4.635223661630578, 52.355137158365643 ], [ 4.635633316288596, 52.354390418438804 ], [ 4.635782179320123, 52.354137796052264 ], [ 4.635850170080074, 52.354036835712009 ], [ 4.635918160560046, 52.353935873532699 ], [ 4.635986800223131, 52.353842933570505 ], [ 4.636264916463661, 52.353544411608553 ], [ 4.636388225326337, 52.353359026829139 ], [ 4.636480368134346, 52.353281407310767 ], [ 4.636551187519064, 52.353221745192691 ], [ 4.636598500412649, 52.353183806094627 ], [ 4.634577794990145, 52.352357687232441 ], [ 4.632981103110024, 52.351824536923871 ], [ 4.631800899959093, 52.351481647251575 ], [ 4.630589447514038, 52.350739705889417 ], [ 4.630101134037305, 52.350286062254895 ], [ 4.628538576192473, 52.351539985760631 ], [ 4.629414838460963, 52.352314911949264 ], [ 4.628795919624737, 52.352625525482011 ], [ 4.629155974893435, 52.352861518707186 ], [ 4.628776989690564, 52.353391064524956 ], [ 4.628710472872259, 52.354189721947094 ], [ 4.629010054830201, 52.355556122960877 ], [ 4.629863535633737, 52.357415630229745 ], [ 4.630599521907834, 52.35737904843716 ] ] ] ] } },
{ "type": "Feature", "properties": { "buurtcode": "BU03970006", "buurtnaam": "Rivierenbuurt", "pc6_codes": "2105MA, 2105MB, 2105MC, 2105MD, 2105VA, 2105VB, 2105VC, 2105VD, 2105VE, 2105VG, 2105VH, 2105VJ, 2105VK, 2105VL, 2105VM, 2105VN, 2105VP, 2105WB, 2105WC, 2105WD, 2105WE, 2105WG, 2105XA, 2105XB, 2105XC, 2105XD, 2105XE, 2105XG, 2105XH, 2105XJ, 2105XK, 2105XL, 2105XM, 2105XN, 2105XP, 2105XR, 2105XS, 2105XT, 2105XV, 2105XW, 2105ZA, 2105ZB, 2105ZC, 2105ZD, 2105ZE, 2105ZG, 2106NB", "wijkcode": "WK039700", "gemeentecode": "GM0397", "gemeentenaam": "Heemstede", "oppervlakteLandInHa": 80, "AantalInwoners_5": 1765, "Mannen_6": 850, "Vrouwen_7": 915, "HuishoudensTotaal_29": 775, "GemiddeldeHuishoudensgrootte_33": 2.3, "Woningvoorraad_35": 786, "NieuwbouwWoningen_36": 0, "NietWoningvoorraad_37": 215, "NieuwbouwNietWoningen_38": 0, "GemiddeldeWOZWaardeVanWoningen_39": 589, "PercentageEengezinswoning_40": 84, "PercentageTussenwoningEengezins_41": 52, "PercentageHoekwoningEengezins_42": 24, "PercentageTweeOnderEenKapWoningEe_43": 4, "PercentageVrijstaandeWoningEengezins_44": 4, "PercentageMeergezinswoning_45": 16, "Koopwoningen_47": 80, "HuurwoningenTotaal_48": 20, "InBezitWoningcorporatie_49": 14, "InBezitOverigeVerhuurders_50": 6, "BouwjaarMeerDanTienJaarGeleden_51": 100, "BouwjaarAfgelopenTienJaar_52": 0, "GemiddeldeElektriciteitslevering_53": 2590, "GemiddeldeElektriciteitsteruglevering_54": 670, "GemiddeldAardgasverbruik_55": 1050, "AardgasvrijeWoningen_57": 1, "Aardgaswoningen_58": 93, "WoningenMetZonnestroom_59": 37, "WoningenHoofdzElektrVerwarmd_60": 6, "k_20PersonenMetHoogsteInkomen_80": 33.1, "k_20HuishoudensMetHoogsteInkomen_85": 36.2, "MediaanVermogenVanParticuliereHuish_86": 470.8, "PersonenautoSTotaal_104": 950, "PersonenautoSBrandstofBenzine_105": 775, "PersonenautoSOverigeBrandstof_106": 175, "PersonenautoSPerHuishouden_107": 1.2, "Omgevingsadressendichtheid_121": 644, "AantalInstallatiesBijWoningen_5": 197, "OpgesteldVermogenVanZonnepanelen_6": 653, "installaties_per_woning": 0.25063613231552162, "vermogen_per_woning": 0.83078880407124678, "installaties_per_100_woningen": 25.063613231552161, "vermogen_per_huishouden": 0.84258064516129028, "batterijdruk_score": 247.9, "koop_zon_score": 0.296, "eengezins_zon_score": 0.3108, "betaalkracht_zon_score": 174.196, "overige_brandstof_zon_score": 64.75, "lichte_batterij_kansscore": 0.42442400054486507 }, "geometry": { "type": "MultiPolygon", "coordinates": [ [ [ [ 4.606933313154649, 52.349512884202547 ], [ 4.606541702586196, 52.34874548197601 ], [ 4.608493586526958, 52.348498533619043 ], [ 4.609803649283228, 52.348365024484089 ], [ 4.609717834014962, 52.348236943027253 ], [ 4.60904496657447, 52.346937409718706 ], [ 4.607791930843561, 52.344413374605629 ], [ 4.605904290898977, 52.341183229186967 ], [ 4.605459056284269, 52.340301993380258 ], [ 4.604831377162229, 52.33844912702687 ], [ 4.603230784154919, 52.33651678747453 ], [ 4.59979134138027, 52.336938854988141 ], [ 4.597420922131727, 52.337308698147794 ], [ 4.594974336094876, 52.337672646937676 ], [ 4.601746887725661, 52.350394506454066 ], [ 4.606933313154649, 52.349512884202547 ] ] ] ] } },
{ "type": "Feature", "properties": { "buurtcode": "BU03970007", "buurtnaam": "Kennemerduin en omgeving", "pc6_codes": "2101BS, 2101BT, 2101EA, 2101EB, 2101EC, 2101ED, 2101EJ, 2101EK, 2101EL, 2101EM, 2101EN, 2101EP, 2101ER, 2101HK, 2101HL, 2101HM, 2101HN, 2101HP, 2101HR, 2101HS, 2101MP, 2101MS, 2101MT, 2101MX, 2101PD, 2101PE, 2101PL, 2101PP, 2101RA, 2101RB, 2101RC, 2101RD, 2101RE, 2101RG, 2101RJ, 2101SR, 2101TA, 2101TB, 2101TC", "wijkcode": "WK039700", "gemeentecode": "GM0397", "gemeentenaam": "Heemstede", "oppervlakteLandInHa": 33, "AantalInwoners_5": 1165, "Mannen_6": 510, "Vrouwen_7": 655, "HuishoudensTotaal_29": 615, "GemiddeldeHuishoudensgrootte_33": 1.8, "Woningvoorraad_35": 702, "NieuwbouwWoningen_36": 0, "NietWoningvoorraad_37": 109, "NieuwbouwNietWoningen_38": 0, "GemiddeldeWOZWaardeVanWoningen_39": 586, "PercentageEengezinswoning_40": 35, "PercentageTussenwoningEengezins_41": 13, "PercentageHoekwoningEengezins_42": 12, "PercentageTweeOnderEenKapWoningEe_43": 6, "PercentageVrijstaandeWoningEengezins_44": 4, "PercentageMeergezinswoning_45": 65, "Koopwoningen_47": 50, "HuurwoningenTotaal_48": 50, "InBezitWoningcorporatie_49": 28, "InBezitOverigeVerhuurders_50": 21, "BouwjaarMeerDanTienJaarGeleden_51": 86, "BouwjaarAfgelopenTienJaar_52": 14, "GemiddeldeElektriciteitslevering_53": 2380, "GemiddeldeElektriciteitsteruglevering_54": 380, "GemiddeldAardgasverbruik_55": 940, "AardgasvrijeWoningen_57": 14, "Aardgaswoningen_58": 83, "WoningenMetZonnestroom_59": 18, "WoningenHoofdzElektrVerwarmd_60": 17, "k_20PersonenMetHoogsteInkomen_80": 30.4, "k_20HuishoudensMetHoogsteInkomen_85": 22.8, "MediaanVermogenVanParticuliereHuish_86": 523.7, "PersonenautoSTotaal_104": 650, "PersonenautoSBrandstofBenzine_105": 525, "PersonenautoSOverigeBrandstof_106": 120, "PersonenautoSPerHuishouden_107": 1.1, "Omgevingsadressendichtheid_121": 2286, "AantalInstallatiesBijWoningen_5": 91, "OpgesteldVermogenVanZonnepanelen_6": 398, "installaties_per_woning": 0.12962962962962962, "vermogen_per_woning": 0.5669515669515669, "installaties_per_100_woningen": 12.962962962962962, "vermogen_per_huishouden": 0.64715447154471539, "batterijdruk_score": 68.4, "koop_zon_score": 0.09, "eengezins_zon_score": 0.063, "betaalkracht_zon_score": 94.266, "overige_brandstof_zon_score": 21.6, "lichte_batterij_kansscore": 0.21908414665273948 }, "geometry": { "type": "MultiPolygon", "coordinates": [ [ [ [ 4.616934501744092, 52.357361968099838 ], [ 4.618430488334933, 52.35701582741995 ], [ 4.619559334683193, 52.356935803932373 ], [ 4.620392528004846, 52.356881940147801 ], [ 4.620063773765433, 52.356116677614018 ], [ 4.619363892340686, 52.356181513597477 ], [ 4.619167077469653, 52.355506984614287 ], [ 4.61798542597576, 52.355426564121409 ], [ 4.616651520698656, 52.354049753191383 ], [ 4.61611014599872, 52.353356119686381 ], [ 4.616238077597629, 52.352837337042523 ], [ 4.616145648493521, 52.352071916555879 ], [ 4.616522489020822, 52.351759792648728 ], [ 4.616937549575455, 52.351623303681862 ], [ 4.616696082974772, 52.351136222236661 ], [ 4.617824201179618, 52.350833656755846 ], [ 4.617839273582107, 52.350812828081828 ], [ 4.620233432758368, 52.350122814445918 ], [ 4.62035044952402, 52.350153538583385 ], [ 4.621178794706672, 52.349795821214535 ], [ 4.620825683997257, 52.349737639890371 ], [ 4.62082117578938, 52.349660089578869 ], [ 4.616115899735155, 52.350741506011126 ], [ 4.615545735860924, 52.350110317858622 ], [ 4.616181557988654, 52.350004920273456 ], [ 4.616021826364419, 52.349318828881628 ], [ 4.615945162019661, 52.34874225668618 ], [ 4.616287266895129, 52.348315873190899 ], [ 4.616903430530469, 52.348158943395184 ], [ 4.618686679917258, 52.347905393305027 ], [ 4.619440655039551, 52.347900583829585 ], [ 4.619448172348764, 52.347746765910017 ], [ 4.61942358112426, 52.347657300196509 ], [ 4.619395728401114, 52.347597301016641 ], [ 4.61924835847205, 52.347283915162912 ], [ 4.616340223501703, 52.347801937712738 ], [ 4.615398908274991, 52.34774636856605 ], [ 4.614531883453468, 52.347810087106723 ], [ 4.613857489680557, 52.348103970061487 ], [ 4.613115374250244, 52.348499924770017 ], [ 4.612385640691168, 52.348763945184757 ], [ 4.611712840056851, 52.348886212008928 ], [ 4.610908748742799, 52.349041039220253 ], [ 4.611151268660435, 52.349106388647016 ], [ 4.611208818970731, 52.349677500906878 ], [ 4.612115353340966, 52.351634671534448 ], [ 4.613096824595119, 52.352843797348264 ], [ 4.613241427209324, 52.353054273914552 ], [ 4.613590741104134, 52.353559883268296 ], [ 4.613483288351855, 52.353993973183364 ], [ 4.612798804168015, 52.354275425801823 ], [ 4.613561325205028, 52.355832519705189 ], [ 4.614754855396211, 52.357259569879815 ], [ 4.615602623476736, 52.357891727548925 ], [ 4.616934501744092, 52.357361968099838 ] ] ] ] } },
{ "type": "Feature", "properties": { "buurtcode": "BU03970008", "buurtnaam": "Provincienbuurt", "pc6_codes": "2101ED, 2101EE, 2101EG, 2101EH, 2101HD, 2101HK, 2101HL, 2101SB, 2101SC, 2101SE, 2101SG, 2101SH, 2101SJ, 2101SK, 2101SL, 2101ST, 2101SV, 2101SW, 2101SX, 2101SZ, 2101TA, 2101TC, 2101TD, 2101TE, 2101TG, 2101TH, 2101TJ, 2101TK, 2101TL, 2101TM, 2101TN, 2101TP, 2101TR, 2101TS, 2101TT, 2101TV, 2101TW, 2101TX, 2101TZ", "wijkcode": "WK039700", "gemeentecode": "GM0397", "gemeentenaam": "Heemstede", "oppervlakteLandInHa": 7, "AantalInwoners_5": 935, "Mannen_6": 390, "Vrouwen_7": 550, "HuishoudensTotaal_29": 550, "GemiddeldeHuishoudensgrootte_33": 1.7, "Woningvoorraad_35": 523, "NieuwbouwWoningen_36": 0, "NietWoningvoorraad_37": 124, "NieuwbouwNietWoningen_38": 0, "GemiddeldeWOZWaardeVanWoningen_39": 348, "PercentageEengezinswoning_40": 20, "PercentageTussenwoningEengezins_41": 16, "PercentageHoekwoningEengezins_42": 4, "PercentageTweeOnderEenKapWoningEe_43": 0, "PercentageVrijstaandeWoningEengezins_44": 0, "PercentageMeergezinswoning_45": 80, "Koopwoningen_47": 15, "HuurwoningenTotaal_48": 85, "InBezitWoningcorporatie_49": 66, "InBezitOverigeVerhuurders_50": 19, "BouwjaarMeerDanTienJaarGeleden_51": 100, "BouwjaarAfgelopenTienJaar_52": 0, "GemiddeldeElektriciteitslevering_53": 1790, "GemiddeldeElektriciteitsteruglevering_54": 70, "GemiddeldAardgasverbruik_55": 600, "AardgasvrijeWoningen_57": 1, "Aardgaswoningen_58": 93, "WoningenMetZonnestroom_59": 4, "WoningenHoofdzElektrVerwarmd_60": 0, "k_20PersonenMetHoogsteInkomen_80": 9.5, "k_20HuishoudensMetHoogsteInkomen_85": 4.0, "MediaanVermogenVanParticuliereHuish_86": 15.1, "PersonenautoSTotaal_104": 345, "PersonenautoSBrandstofBenzine_105": 315, "PersonenautoSOverigeBrandstof_106": 35, "PersonenautoSPerHuishouden_107": 0.6, "Omgevingsadressendichtheid_121": 2239, "AantalInstallatiesBijWoningen_5": 6, "OpgesteldVermogenVanZonnepanelen_6": 25, "installaties_per_woning": 0.011472275334608031, "vermogen_per_woning": 0.04780114722753346, "installaties_per_100_woningen": 1.1472275334608031, "vermogen_per_huishouden": 0.045454545454545456, "batterijdruk_score": 2.8, "koop_zon_score": 0.006, "eengezins_zon_score": 0.008, "betaalkracht_zon_score": 0.604, "overige_brandstof_zon_score": 1.4, "lichte_batterij_kansscore": 0.080637758261931175 }, "geometry": { "type": "MultiPolygon", "coordinates": [ [ [ [ 4.62082117578938, 52.349660089578869 ], [ 4.620794105647366, 52.349268938185418 ], [ 4.620512625152956, 52.348657058265857 ], [ 4.620080261947583, 52.348283784441897 ], [ 4.619523670850799, 52.348046488248478 ], [ 4.619515999705083, 52.347900102814293 ], [ 4.619440655039551, 52.347900583829585 ], [ 4.618686679917258, 52.347905393305027 ], [ 4.616903430530469, 52.348158943395184 ], [ 4.616287266895129, 52.348315873190899 ], [ 4.615945162019661, 52.34874225668618 ], [ 4.616021826364419, 52.349318828881628 ], [ 4.616181557988654, 52.350004920273456 ], [ 4.615545735860924, 52.350110317858622 ], [ 4.616115899735155, 52.350741506011126 ], [ 4.62082117578938, 52.349660089578869 ] ] ] ] } },
{ "type": "Feature", "properties": { "buurtcode": "BU03970009", "buurtnaam": "Geleerdenbuurt", "pc6_codes": "2101HM, 2101ML, 2101MN, 2101MP, 2105MD, 2105PA, 2105PB, 2105PC, 2105PD, 2105PE, 2105PG, 2105PH, 2105PJ, 2105PK, 2105PL, 2105PM, 2105RA, 2105RB, 2105RC, 2105RD, 2105RE, 2105RG, 2105RH, 2105RJ, 2105RK, 2105RL, 2105RM, 2105RN, 2105SB, 2105SC, 2105SE, 2105SG, 2105SH, 2105SJ, 2105SK, 2105SL, 2105SM, 2105SN, 2105SP, 2105SR, 2105TA, 2105TB, 2105TC, 2105TD, 2105TE, 2105TG, 2105TH, 2105TJ, 2105TK, 2105TL, 2105TM, 2105TN, 2105TP, 2105TR, 2105TS, 2105TT, 2105TV", "wijkcode": "WK039700", "gemeentecode": "GM0397", "gemeentenaam": "Heemstede", "oppervlakteLandInHa": 32, "AantalInwoners_5": 1830, "Mannen_6": 845, "Vrouwen_7": 985, "HuishoudensTotaal_29": 990, "GemiddeldeHuishoudensgrootte_33": 1.9, "Woningvoorraad_35": 1012, "NieuwbouwWoningen_36": 0, "NietWoningvoorraad_37": 77, "NieuwbouwNietWoningen_38": 0, "GemiddeldeWOZWaardeVanWoningen_39": 530, "PercentageEengezinswoning_40": 56, "PercentageTussenwoningEengezins_41": 37, "PercentageHoekwoningEengezins_42": 14, "PercentageTweeOnderEenKapWoningEe_43": 2, "PercentageVrijstaandeWoningEengezins_44": 4, "PercentageMeergezinswoning_45": 44, "Koopwoningen_47": 62, "HuurwoningenTotaal_48": 37, "InBezitWoningcorporatie_49": 18, "InBezitOverigeVerhuurders_50": 20, "BouwjaarMeerDanTienJaarGeleden_51": 99, "BouwjaarAfgelopenTienJaar_52": 1, "GemiddeldeElektriciteitslevering_53": 2310, "GemiddeldeElektriciteitsteruglevering_54": 630, "GemiddeldAardgasverbruik_55": 900, "AardgasvrijeWoningen_57": 2, "Aardgaswoningen_58": 95, "WoningenMetZonnestroom_59": 34, "WoningenHoofdzElektrVerwarmd_60": 2, "k_20PersonenMetHoogsteInkomen_80": 27.3, "k_20HuishoudensMetHoogsteInkomen_85": 22.2, "MediaanVermogenVanParticuliereHuish_86": 298.9, "PersonenautoSTotaal_104": 930, "PersonenautoSBrandstofBenzine_105": 780, "PersonenautoSOverigeBrandstof_106": 155, "PersonenautoSPerHuishouden_107": 0.9, "Omgevingsadressendichtheid_121": 1832, "AantalInstallatiesBijWoningen_5": 254, "OpgesteldVermogenVanZonnepanelen_6": 815, "installaties_per_woning": 0.25098814229249011, "vermogen_per_woning": 0.80533596837944665, "installaties_per_100_woningen": 25.098814229249012, "vermogen_per_huishouden": 0.8232323232323232, "batterijdruk_score": 214.2, "koop_zon_score": 0.2108, "eengezins_zon_score": 0.1904, "betaalkracht_zon_score": 101.626, "overige_brandstof_zon_score": 52.7, "lichte_batterij_kansscore": 0.32491671010947587 }, "geometry": { "type": "MultiPolygon", "coordinates": [ [ [ [ 4.604136279061855, 52.354562780032644 ], [ 4.613241427209324, 52.353054273914552 ], [ 4.613096824595119, 52.352843797348264 ], [ 4.612115353340966, 52.351634671534448 ], [ 4.611208818970731, 52.349677500906878 ], [ 4.611151268660435, 52.349106388647016 ], [ 4.610908748742799, 52.349041039220253 ], [ 4.610454398173826, 52.348919529161392 ], [ 4.610009597357606, 52.348671968092148 ], [ 4.609803649283228, 52.348365024484089 ], [ 4.608493586526958, 52.348498533619043 ], [ 4.606541702586196, 52.34874548197601 ], [ 4.606933313154649, 52.349512884202547 ], [ 4.601746887725661, 52.350394506454066 ], [ 4.603978792102716, 52.35458420875122 ], [ 4.604136279061855, 52.354562780032644 ] ] ] ] } },
{ "type": "Feature", "properties": { "buurtcode": "BU03970100", "buurtnaam": "De Glip", "pc6_codes": "2104AA, 2104AB, 2104AC, 2104AD, 2104AE, 2104AG, 2104AH, 2104AJ, 2104AK, 2104AL, 2104AM, 2104AP, 2104AR, 2104AS, 2104AT, 2104AV, 2104AW, 2104BA, 2104BB, 2104BC, 2104BD, 2104BE, 2104BG, 2104BH, 2104BJ, 2104BK, 2104BL, 2104BM, 2104BN, 2104CA, 2104CB, 2104CC, 2104CD, 2104CE, 2104CG, 2104CH, 2104CJ, 2104MK", "wijkcode": "WK039701", "gemeentecode": "GM0397", "gemeentenaam": "Heemstede", "oppervlakteLandInHa": 92, "AantalInwoners_5": 1325, "Mannen_6": 645, "Vrouwen_7": 680, "HuishoudensTotaal_29": 590, "GemiddeldeHuishoudensgrootte_33": 2.2, "Woningvoorraad_35": 589, "NieuwbouwWoningen_36": 0, "NietWoningvoorraad_37": 66, "NieuwbouwNietWoningen_38": 0, "GemiddeldeWOZWaardeVanWoningen_39": 617, "PercentageEengezinswoning_40": 86, "PercentageTussenwoningEengezins_41": 49, "PercentageHoekwoningEengezins_42": 23, "PercentageTweeOnderEenKapWoningEe_43": 8, "PercentageVrijstaandeWoningEengezins_44": 5, "PercentageMeergezinswoning_45": 14, "Koopwoningen_47": 66, "HuurwoningenTotaal_48": 34, "InBezitWoningcorporatie_49": 23, "InBezitOverigeVerhuurders_50": 11, "BouwjaarMeerDanTienJaarGeleden_51": 100, "BouwjaarAfgelopenTienJaar_52": 0, "GemiddeldeElektriciteitslevering_53": 2700, "GemiddeldeElektriciteitsteruglevering_54": 710, "GemiddeldAardgasverbruik_55": 980, "AardgasvrijeWoningen_57": 1, "Aardgaswoningen_58": 95, "WoningenMetZonnestroom_59": 36, "WoningenHoofdzElektrVerwarmd_60": 5, "k_20PersonenMetHoogsteInkomen_80": 26.5, "k_20HuishoudensMetHoogsteInkomen_85": 31.1, "MediaanVermogenVanParticuliereHuish_86": 408.5, "PersonenautoSTotaal_104": 710, "PersonenautoSBrandstofBenzine_105": 550, "PersonenautoSOverigeBrandstof_106": 160, "PersonenautoSPerHuishouden_107": 1.2, "Omgevingsadressendichtheid_121": 754, "AantalInstallatiesBijWoningen_5": null, "OpgesteldVermogenVanZonnepanelen_6": null, "installaties_per_woning": null, "vermogen_per_woning": null, "installaties_per_100_woningen": null, "vermogen_per_huishouden": null, "batterijdruk_score": 255.6, "koop_zon_score": 0.2376, "eengezins_zon_score": 0.3096, "betaalkracht_zon_score": 147.06, "overige_brandstof_zon_score": 57.6, "lichte_batterij_kansscore": 0.39931373473852516 }, "geometry": { "type": "MultiPolygon", "coordinates": [ [ [ [ 4.608462401661444, 52.33580729908337 ], [ 4.609100966615018, 52.335371089525665 ], [ 4.608940264917761, 52.334827943387396 ], [ 4.608673663987447, 52.334552056543785 ], [ 4.607607605468646, 52.334181865388679 ], [ 4.606755392135869, 52.333834703125603 ], [ 4.606498126664893, 52.333531064849353 ], [ 4.606999343985934, 52.332893694942513 ], [ 4.608407924816547, 52.332136187639684 ], [ 4.608987522008693, 52.332037837577147 ], [ 4.609403967871517, 52.331407845293384 ], [ 4.610135079664545, 52.330894411420253 ], [ 4.611550210883556, 52.32960810102562 ], [ 4.613467192096635, 52.328064465213757 ], [ 4.613404341239157, 52.327999303682894 ], [ 4.613045454935454, 52.327606265303963 ], [ 4.612661297063609, 52.327200719795798 ], [ 4.612565194628139, 52.327069575769755 ], [ 4.612361957255898, 52.326762877383274 ], [ 4.612306356013603, 52.326676480024055 ], [ 4.612226928509831, 52.326551592717522 ], [ 4.612144252537242, 52.326417857849322 ], [ 4.612081939108058, 52.326305926417092 ], [ 4.612032718739055, 52.326217090035016 ], [ 4.611993772559544, 52.326141389515755 ], [ 4.61195173421677, 52.326066360794783 ], [ 4.611891245681767, 52.325938181906281 ], [ 4.61184406420457, 52.325845197351271 ], [ 4.611815962198545, 52.325786132734578 ], [ 4.611698142593481, 52.325501114730848 ], [ 4.611688131794945, 52.325481320430328 ], [ 4.611661876539899, 52.325419850103316 ], [ 4.611588822048228, 52.325204099392529 ], [ 4.611558558101521, 52.325093321509577 ], [ 4.61155305469344, 52.32506910768479 ], [ 4.611535854198086, 52.324996515610273 ], [ 4.611475481662111, 52.324789620255189 ], [ 4.611452779465301, 52.324682657894328 ], [ 4.611428568117179, 52.324520175687816 ], [ 4.611416586056832, 52.32443773998596 ], [ 4.611387591981223, 52.324139273767607 ], [ 4.611383007728773, 52.324059933506781 ], [ 4.6113770560942, 52.323921155555908 ], [ 4.611370494472212, 52.323768594980749 ], [ 4.611366552581069, 52.323676837495917 ], [ 4.611365090068132, 52.323524597971328 ], [ 4.6113654029153, 52.323392485254047 ], [ 4.611366928279406, 52.323251419438655 ], [ 4.611377903353131, 52.322767549916804 ], [ 4.611381544404995, 52.322577576209724 ], [ 4.611385125354111, 52.322471657994029 ], [ 4.611387482493879, 52.322381218095565 ], [ 4.611386498355778, 52.322271288246583 ], [ 4.611386097446112, 52.322255947573495 ], [ 4.611385954345187, 52.322250540300367 ], [ 4.611385434348644, 52.322230592534581 ], [ 4.611383864514914, 52.322204579917766 ], [ 4.611339959758502, 52.322216515660642 ], [ 4.611268389260868, 52.322236943352117 ], [ 4.611150514228642, 52.322271484005945 ], [ 4.611132402559289, 52.322277162453098 ], [ 4.610998911880793, 52.322321424406468 ], [ 4.610875689432007, 52.322362284224923 ], [ 4.610120458062613, 52.322601089359871 ], [ 4.609986588823362, 52.322607355357455 ], [ 4.609888175358747, 52.322630230350924 ], [ 4.609829524067844, 52.322645753720458 ], [ 4.609747915815481, 52.32266553031166 ], [ 4.609537027269358, 52.322722674062973 ], [ 4.609513876232119, 52.322728795499387 ], [ 4.609446757712498, 52.322750374863851 ], [ 4.609187450538647, 52.322840886719824 ], [ 4.609045064019692, 52.322880306348658 ], [ 4.608952456583943, 52.322899920158925 ], [ 4.608845483628188, 52.322918989974532 ], [ 4.608665527857169, 52.322959420265398 ], [ 4.608630474857065, 52.322975907270596 ], [ 4.608569070957419, 52.323006152244574 ], [ 4.608379386485756, 52.323107816322349 ], [ 4.608280825369229, 52.323174128084986 ], [ 4.608068239132356, 52.323318603573583 ], [ 4.607994984201487, 52.323374655676041 ], [ 4.607660170757637, 52.323589735036961 ], [ 4.60762016802755, 52.323560574956204 ], [ 4.607367320497049, 52.323376271938173 ], [ 4.60725882787236, 52.323297172198643 ], [ 4.60697275719891, 52.32343864456908 ], [ 4.606764949277416, 52.323539602317048 ], [ 4.606697339388405, 52.323570632279498 ], [ 4.606618474460344, 52.323605237070787 ], [ 4.606467177824497, 52.323647246281901 ], [ 4.606447586542859, 52.323656087019494 ], [ 4.606253659173535, 52.323753351531828 ], [ 4.606147707886627, 52.323808395699579 ], [ 4.60611431244916, 52.323827292707804 ], [ 4.606065596207781, 52.323857413439605 ], [ 4.605964307077532, 52.323913405006898 ], [ 4.605788541708782, 52.324007921526793 ], [ 4.605779128310692, 52.324011868000341 ], [ 4.605773146667169, 52.324012520564743 ], [ 4.605767553993548, 52.324011908388194 ], [ 4.605761417452976, 52.324009692752043 ], [ 4.605753655205758, 52.324004832888022 ], [ 4.605701046233754, 52.324055249657576 ], [ 4.605696376074666, 52.324059730788505 ], [ 4.605704214585821, 52.324066092158546 ], [ 4.605657995158851, 52.324089335410761 ], [ 4.605594886356836, 52.324122066254873 ], [ 4.605545890777695, 52.324148850374868 ], [ 4.605495703470226, 52.324175833324048 ], [ 4.605354163497824, 52.324250891607164 ], [ 4.605098038479913, 52.32439212596131 ], [ 4.605055489507026, 52.32441681335257 ], [ 4.604952545349884, 52.324470015819877 ], [ 4.604889852658135, 52.324502380533247 ], [ 4.604748299912782, 52.324577213311223 ], [ 4.604743585082929, 52.3245800582906 ], [ 4.604687362257091, 52.324614020617602 ], [ 4.604655584923163, 52.324635920929055 ], [ 4.604624655919251, 52.324659624446966 ], [ 4.604605355359973, 52.324676061677188 ], [ 4.604565384067614, 52.32471010449332 ], [ 4.604543375666722, 52.324727036115668 ], [ 4.604500862780803, 52.324752136996132 ], [ 4.604489716446874, 52.32475867842625 ], [ 4.604474643406497, 52.324764960185618 ], [ 4.60445799339455, 52.324769164265248 ], [ 4.604420589699943, 52.324777365503145 ], [ 4.604384965070119, 52.324784499940186 ], [ 4.604322874424852, 52.324795144306911 ], [ 4.604245793046505, 52.324807397148476 ], [ 4.604175731312749, 52.324820864845989 ], [ 4.604120548016738, 52.324828274201714 ], [ 4.604092334373478, 52.324841048153672 ], [ 4.603766145174171, 52.32498879050965 ], [ 4.603756951645447, 52.324995218971516 ], [ 4.603606142319563, 52.325100638219681 ], [ 4.603408208784424, 52.3252330146993 ], [ 4.603337498343432, 52.325253263556696 ], [ 4.603275748269925, 52.32527447953936 ], [ 4.603110840381759, 52.325331673911883 ], [ 4.60293228681194, 52.325405648096151 ], [ 4.602812908124077, 52.325453877242225 ], [ 4.602673252415236, 52.325511463142348 ], [ 4.602602970533564, 52.325538131848106 ], [ 4.602543460863587, 52.325551228156016 ], [ 4.602508926765122, 52.325553875256823 ], [ 4.602478186246193, 52.325556017219007 ], [ 4.602250512616962, 52.325655199489304 ], [ 4.601870757213528, 52.325820988666969 ], [ 4.601240024472668, 52.32609930219175 ], [ 4.600163299418335, 52.326570620782746 ], [ 4.599774009967007, 52.32674207419651 ], [ 4.599393015576744, 52.326910498687603 ], [ 4.599033287271304, 52.327069949795373 ], [ 4.598556528431215, 52.327279366043655 ], [ 4.598164070216497, 52.32745094586479 ], [ 4.597588641710636, 52.327702788651294 ], [ 4.597514896848011, 52.327734087031224 ], [ 4.597436957268891, 52.32776862900041 ], [ 4.597327022526141, 52.327816358432834 ], [ 4.597297563037842, 52.327829017296487 ], [ 4.597292297337813, 52.327831280373289 ], [ 4.597257903327677, 52.327835005446744 ], [ 4.597246839788329, 52.327821943888317 ], [ 4.597175070631587, 52.327841939337667 ], [ 4.59698532429302, 52.327894806885062 ], [ 4.600100439548684, 52.332584539681783 ], [ 4.602062798747909, 52.335026024059999 ], [ 4.602724864730581, 52.335669686958688 ], [ 4.606541085931366, 52.335175309414844 ], [ 4.607267638978367, 52.335995199629863 ], [ 4.608462401661444, 52.33580729908337 ] ] ] ] } },
{ "type": "Feature", "properties": { "buurtcode": "BU03970101", "buurtnaam": "Glipper Dreef en Staatsliedenbuurt", "pc6_codes": "2104AJ, 2104VA, 2104VB, 2104VC, 2104VD, 2104VE, 2104VG, 2104VH, 2104VJ, 2104VK, 2104VL, 2104VM, 2104VN, 2104VP, 2104VR, 2104VS, 2104WB, 2104WC, 2104WD, 2104WE, 2104WG, 2104WJ, 2104WK, 2104WL, 2104XA, 2104XB, 2104XC, 2104XD, 2104XE, 2104XG, 2104XH, 2104XJ, 2104XK, 2104XL, 2104XM, 2104XN", "wijkcode": "WK039701", "gemeentecode": "GM0397", "gemeentenaam": "Heemstede", "oppervlakteLandInHa": 19, "AantalInwoners_5": 1175, "Mannen_6": 550, "Vrouwen_7": 625, "HuishoudensTotaal_29": 505, "GemiddeldeHuishoudensgrootte_33": 2.3, "Woningvoorraad_35": 537, "NieuwbouwWoningen_36": 0, "NietWoningvoorraad_37": 68, "NieuwbouwNietWoningen_38": 0, "GemiddeldeWOZWaardeVanWoningen_39": 460, "PercentageEengezinswoning_40": 82, "PercentageTussenwoningEengezins_41": 52, "PercentageHoekwoningEengezins_42": 27, "PercentageTweeOnderEenKapWoningEe_43": 2, "PercentageVrijstaandeWoningEengezins_44": 1, "PercentageMeergezinswoning_45": 18, "Koopwoningen_47": 43, "HuurwoningenTotaal_48": 56, "InBezitWoningcorporatie_49": 46, "InBezitOverigeVerhuurders_50": 10, "BouwjaarMeerDanTienJaarGeleden_51": 100, "BouwjaarAfgelopenTienJaar_52": 0, "GemiddeldeElektriciteitslevering_53": 2240, "GemiddeldeElektriciteitsteruglevering_54": 580, "GemiddeldAardgasverbruik_55": 930, "AardgasvrijeWoningen_57": 0, "Aardgaswoningen_58": 98, "WoningenMetZonnestroom_59": 38, "WoningenHoofdzElektrVerwarmd_60": 2, "k_20PersonenMetHoogsteInkomen_80": 23.5, "k_20HuishoudensMetHoogsteInkomen_85": 24.2, "MediaanVermogenVanParticuliereHuish_86": 100.8, "PersonenautoSTotaal_104": 530, "PersonenautoSBrandstofBenzine_105": 450, "PersonenautoSOverigeBrandstof_106": 80, "PersonenautoSPerHuishouden_107": 1.1, "Omgevingsadressendichtheid_121": 666, "AantalInstallatiesBijWoningen_5": 173, "OpgesteldVermogenVanZonnepanelen_6": 463, "installaties_per_woning": 0.32216014897579143, "vermogen_per_woning": 0.86219739292364994, "installaties_per_100_woningen": 32.216014897579143, "vermogen_per_huishouden": 0.91683168316831687, "batterijdruk_score": 220.4, "koop_zon_score": 0.1634, "eengezins_zon_score": 0.3116, "betaalkracht_zon_score": 38.304, "overige_brandstof_zon_score": 30.4, "lichte_batterij_kansscore": 0.34415037386276903 }, "geometry": { "type": "MultiPolygon", "coordinates": [ [ [ [ 4.615071897885071, 52.333393320149632 ], [ 4.615222270643497, 52.333345634131369 ], [ 4.615380158673839, 52.333296387200072 ], [ 4.61546165071035, 52.332657086232011 ], [ 4.61656420753273, 52.331473401894222 ], [ 4.616443754556747, 52.331340020091822 ], [ 4.616299630835287, 52.33118338208817 ], [ 4.61554938921536, 52.330353941601217 ], [ 4.614767055426308, 52.329490284973417 ], [ 4.614578866737157, 52.329283446700032 ], [ 4.614007271717704, 52.32865521728386 ], [ 4.613599289707014, 52.328201487405494 ], [ 4.61354946098165, 52.328149804126845 ], [ 4.613495021635718, 52.328093318044608 ], [ 4.613467192096635, 52.328064465213757 ], [ 4.611550210883556, 52.32960810102562 ], [ 4.610135079664545, 52.330894411420253 ], [ 4.609403967871517, 52.331407845293384 ], [ 4.608987522008693, 52.332037837577147 ], [ 4.6090612549859, 52.33202532679919 ], [ 4.609150032087046, 52.332067481044994 ], [ 4.610088489469468, 52.332515745961977 ], [ 4.611287780376475, 52.333407249363198 ], [ 4.612189056232939, 52.33430746173633 ], [ 4.615071897885071, 52.333393320149632 ] ] ] ] } },
{ "type": "Feature", "properties": { "buurtcode": "BU03970102", "buurtnaam": "Manpad en Hartekamp", "pc6_codes": "2105MA, 2105MB, 2105MK, 2105ML, 2105MM, 2105MN, 2105MP, 2106NA", "wijkcode": "WK039701", "gemeentecode": "GM0397", "gemeentenaam": "Heemstede", "oppervlakteLandInHa": 53, "AantalInwoners_5": 235, "Mannen_6": 165, "Vrouwen_7": 70, "HuishoudensTotaal_29": 25, "GemiddeldeHuishoudensgrootte_33": 1.9, "Woningvoorraad_35": 100, "NieuwbouwWoningen_36": 0, "NietWoningvoorraad_37": 127, "NieuwbouwNietWoningen_38": 0, "GemiddeldeWOZWaardeVanWoningen_39": 352, "PercentageEengezinswoning_40": 23, "PercentageTussenwoningEengezins_41": 3, "PercentageHoekwoningEengezins_42": 2, "PercentageTweeOnderEenKapWoningEe_43": 9, "PercentageVrijstaandeWoningEengezins_44": 9, "PercentageMeergezinswoning_45": 77, "Koopwoningen_47": 15, "HuurwoningenTotaal_48": 85, "InBezitWoningcorporatie_49": 0, "InBezitOverigeVerhuurders_50": 85, "BouwjaarMeerDanTienJaarGeleden_51": 24, "BouwjaarAfgelopenTienJaar_52": 76, "GemiddeldeElektriciteitslevering_53": 2780, "GemiddeldeElektriciteitsteruglevering_54": 150, "GemiddeldAardgasverbruik_55": 840, "AardgasvrijeWoningen_57": null, "Aardgaswoningen_58": null, "WoningenMetZonnestroom_59": null, "WoningenHoofdzElektrVerwarmd_60": null, "k_20PersonenMetHoogsteInkomen_80": null, "k_20HuishoudensMetHoogsteInkomen_85": null, "MediaanVermogenVanParticuliereHuish_86": null, "PersonenautoSTotaal_104": 35, "PersonenautoSBrandstofBenzine_105": 25, "PersonenautoSOverigeBrandstof_106": 10, "PersonenautoSPerHuishouden_107": null, "Omgevingsadressendichtheid_121": 609, "AantalInstallatiesBijWoningen_5": null, "OpgesteldVermogenVanZonnepanelen_6": null, "installaties_per_woning": null, "vermogen_per_woning": null, "installaties_per_100_woningen": null, "vermogen_per_huishouden": null, "batterijdruk_score": null, "koop_zon_score": null, "eengezins_zon_score": null, "betaalkracht_zon_score": null, "overige_brandstof_zon_score": null, "lichte_batterij_kansscore": null }, "geometry": { "type": "MultiPolygon", "coordinates": [ [ [ [ 4.594974336094876, 52.337672646937676 ], [ 4.597420922131727, 52.337308698147794 ], [ 4.59979134138027, 52.336938854988141 ], [ 4.603230784154919, 52.33651678747453 ], [ 4.603037855855968, 52.336147001170012 ], [ 4.602843909814057, 52.335828609218154 ], [ 4.602724864730581, 52.335669686958688 ], [ 4.602062798747909, 52.335026024059999 ], [ 4.600100439548684, 52.332584539681783 ], [ 4.59698532429302, 52.327894806885062 ], [ 4.596889364385901, 52.327921543371914 ], [ 4.596837748800211, 52.327935920919224 ], [ 4.596526963211775, 52.328022510990209 ], [ 4.596439672190242, 52.327917298049769 ], [ 4.596408385171256, 52.327882467075867 ], [ 4.596290558437301, 52.327748054556949 ], [ 4.59623778923874, 52.327763781321032 ], [ 4.596235459016142, 52.327764475794687 ], [ 4.596008318733235, 52.327833117394938 ], [ 4.595899201838844, 52.327866137592629 ], [ 4.595730806162895, 52.327917105662458 ], [ 4.595622662409134, 52.327949826524303 ], [ 4.595494004891171, 52.328000925324034 ], [ 4.595453478007537, 52.328017021283848 ], [ 4.595325352005912, 52.328067907746004 ], [ 4.595221574450734, 52.328109124181452 ], [ 4.595155439704688, 52.328136382496204 ], [ 4.594841848558304, 52.328265660435292 ], [ 4.594561390005426, 52.32838127305461 ], [ 4.594555921468346, 52.328383546335651 ], [ 4.594229977634022, 52.328511005210785 ], [ 4.594022801057268, 52.328593357726895 ], [ 4.593873997864987, 52.328646081357412 ], [ 4.593666951511924, 52.328431272265064 ], [ 4.593603376268511, 52.328363660371707 ], [ 4.593516780960554, 52.328271581414569 ], [ 4.593445975621766, 52.32822438664595 ], [ 4.59346792869462, 52.328222376812931 ], [ 4.593368681831446, 52.328117530763073 ], [ 4.593359438274629, 52.328107761676129 ], [ 4.593112108970149, 52.328172936697364 ], [ 4.592911326493954, 52.328225849488824 ], [ 4.592822535102956, 52.328249251323086 ], [ 4.592715261338709, 52.328276636496369 ], [ 4.592711046408616, 52.328277713716744 ], [ 4.592676560667749, 52.32828652406431 ], [ 4.592587104257117, 52.32830936399921 ], [ 4.592371008436762, 52.328364536870644 ], [ 4.591778780321739, 52.328526349497075 ], [ 4.591694430898316, 52.32840163081422 ], [ 4.591654592753747, 52.328309577258366 ], [ 4.591584505556669, 52.328175732685992 ], [ 4.591307121730702, 52.328232380709096 ], [ 4.591284548345968, 52.328236990696794 ], [ 4.59121597508889, 52.328250370885868 ], [ 4.591095975250243, 52.328273183946706 ], [ 4.591077724716779, 52.32826996026386 ], [ 4.590803521638729, 52.328210447550589 ], [ 4.590374411991478, 52.328304143367745 ], [ 4.590265204878047, 52.328332079549781 ], [ 4.590186116110808, 52.328352623664749 ], [ 4.59020716534673, 52.328401804120041 ], [ 4.590209649046191, 52.328410548221619 ], [ 4.590263263773676, 52.328522888469109 ], [ 4.590274276265486, 52.328545965696463 ], [ 4.590504375061503, 52.329207694595276 ], [ 4.590804121892313, 52.330069857232822 ], [ 4.590991908802145, 52.330593414907703 ], [ 4.591179767325254, 52.331116496327077 ], [ 4.591211054373184, 52.331203602972494 ], [ 4.591211534442756, 52.331204648812282 ], [ 4.591218198030588, 52.331219218278989 ], [ 4.591368656486607, 52.331641256077361 ], [ 4.591458420197902, 52.331896400434701 ], [ 4.591647576700199, 52.332426257630161 ], [ 4.591734976912409, 52.332667733039031 ], [ 4.591894243007364, 52.33311217341825 ], [ 4.592432297091674, 52.334613101656025 ], [ 4.592896984387172, 52.335912832151465 ], [ 4.593529210137243, 52.337672818447722 ], [ 4.593541410347937, 52.337706092976156 ], [ 4.593582790314485, 52.337809766711864 ], [ 4.594974336094876, 52.337672646937676 ] ] ] ] } },
{ "type": "Feature", "properties": { "buurtcode": "BU03970200", "buurtnaam": "Dichters- en Vogelbuurt", "pc6_codes": "2106AA, 2106AB, 2106AC, 2106AD, 2106AE, 2106AG, 2106AH, 2106AJ, 2106AK, 2106AL, 2106AM, 2106AN, 2106AP, 2106AZ, 2106DA, 2106DB, 2106DC, 2106DD, 2106DE, 2106DG, 2106DH, 2106DJ, 2106NC, 2106ND", "wijkcode": "WK039702", "gemeentecode": "GM0397", "gemeentenaam": "Heemstede", "oppervlakteLandInHa": 49, "AantalInwoners_5": 1085, "Mannen_6": 525, "Vrouwen_7": 560, "HuishoudensTotaal_29": 450, "GemiddeldeHuishoudensgrootte_33": 2.4, "Woningvoorraad_35": 453, "NieuwbouwWoningen_36": 0, "NietWoningvoorraad_37": 27, "NieuwbouwNietWoningen_38": 0, "GemiddeldeWOZWaardeVanWoningen_39": 811, "PercentageEengezinswoning_40": 58, "PercentageTussenwoningEengezins_41": 31, "PercentageHoekwoningEengezins_42": 15, "PercentageTweeOnderEenKapWoningEe_43": 7, "PercentageVrijstaandeWoningEengezins_44": 5, "PercentageMeergezinswoning_45": 42, "Koopwoningen_47": 76, "HuurwoningenTotaal_48": 24, "InBezitWoningcorporatie_49": 15, "InBezitOverigeVerhuurders_50": 9, "BouwjaarMeerDanTienJaarGeleden_51": 100, "BouwjaarAfgelopenTienJaar_52": 0, "GemiddeldeElektriciteitslevering_53": 2950, "GemiddeldeElektriciteitsteruglevering_54": 810, "GemiddeldAardgasverbruik_55": 990, "AardgasvrijeWoningen_57": 0, "Aardgaswoningen_58": 95, "WoningenMetZonnestroom_59": 35, "WoningenHoofdzElektrVerwarmd_60": 5, "k_20PersonenMetHoogsteInkomen_80": 42.8, "k_20HuishoudensMetHoogsteInkomen_85": 44.9, "MediaanVermogenVanParticuliereHuish_86": 712.1, "PersonenautoSTotaal_104": 480, "PersonenautoSBrandstofBenzine_105": 360, "PersonenautoSOverigeBrandstof_106": 120, "PersonenautoSPerHuishouden_107": 1.1, "Omgevingsadressendichtheid_121": 1576, "AantalInstallatiesBijWoningen_5": 118, "OpgesteldVermogenVanZonnepanelen_6": 461, "installaties_per_woning": 0.26048565121412803, "vermogen_per_woning": 1.0176600441501105, "installaties_per_100_woningen": 26.048565121412803, "vermogen_per_huishouden": 1.0244444444444445, "batterijdruk_score": 283.5, "koop_zon_score": 0.266, "eengezins_zon_score": 0.203, "betaalkracht_zon_score": 249.235, "overige_brandstof_zon_score": 42.0, "lichte_batterij_kansscore": 0.36349395906255189 }, "geometry": { "type": "MultiPolygon", "coordinates": [ [ [ [ 4.605759937004776, 52.363398265728705 ], [ 4.605875838553374, 52.363377199095233 ], [ 4.606010342402301, 52.363352758806137 ], [ 4.606127930192621, 52.363327631516064 ], [ 4.606128842884177, 52.363327493731383 ], [ 4.606214003676424, 52.363314591696515 ], [ 4.606426011599439, 52.36327848360439 ], [ 4.606487815964252, 52.363267952923437 ], [ 4.606727640852113, 52.363232926551134 ], [ 4.606823519695695, 52.363214971619591 ], [ 4.606898401497706, 52.363198810606988 ], [ 4.606945650673094, 52.363189424074648 ], [ 4.606994655057122, 52.363175402325346 ], [ 4.60708433996088, 52.363151492290122 ], [ 4.607477383636513, 52.363085423081998 ], [ 4.607841345712792, 52.363025821166723 ], [ 4.608159021139014, 52.362965077634215 ], [ 4.608161849461326, 52.362964538996017 ], [ 4.608193270545766, 52.362959379984247 ], [ 4.608305923786789, 52.363004449853655 ], [ 4.608367490241091, 52.362994042459974 ], [ 4.6084228220011, 52.362984687848019 ], [ 4.608581017154195, 52.362957943210986 ], [ 4.608576029564967, 52.362948338243683 ], [ 4.608575981183384, 52.362948250742377 ], [ 4.608573360875558, 52.36294354629382 ], [ 4.608520656132569, 52.362848826188902 ], [ 4.604159289674164, 52.354922451657856 ], [ 4.603978792102716, 52.35458420875122 ], [ 4.601746887725661, 52.350394506454066 ], [ 4.594974336094876, 52.337672646937676 ], [ 4.593582790314485, 52.337809766711864 ], [ 4.594266331807058, 52.339522251009114 ], [ 4.595252534004146, 52.341991386737689 ], [ 4.595902691316875, 52.343479941250244 ], [ 4.596399304226662, 52.344622111136488 ], [ 4.596808522683373, 52.3454958529096 ], [ 4.598816850022219, 52.349783411767838 ], [ 4.600802114454248, 52.353898730185996 ], [ 4.600830838259913, 52.353959320175427 ], [ 4.600859562143632, 52.354019910157348 ], [ 4.600996969735355, 52.354304024845078 ], [ 4.601276431903591, 52.354882018492908 ], [ 4.601325544095951, 52.354984987162908 ], [ 4.602153877948549, 52.356707373900292 ], [ 4.602260593603673, 52.35669683774087 ], [ 4.602262476291241, 52.35670310045434 ], [ 4.602350318582219, 52.35699538363135 ], [ 4.602349892128525, 52.356995425743264 ], [ 4.602301136829185, 52.357000648000913 ], [ 4.602301264478882, 52.357000900510343 ], [ 4.602350854456767, 52.35710451000292 ], [ 4.602433349376253, 52.357095646614823 ], [ 4.602524496350968, 52.357416824461197 ], [ 4.602592276415643, 52.357404996246522 ], [ 4.602660097715365, 52.357745334453732 ], [ 4.602655064384342, 52.357745229186797 ], [ 4.602657635752733, 52.357751735536816 ], [ 4.602789590318942, 52.358030886278705 ], [ 4.602831822637024, 52.358116524789352 ], [ 4.602826525584028, 52.358121370146698 ], [ 4.602800980126555, 52.358144749302305 ], [ 4.602787144278832, 52.358181696980232 ], [ 4.602784339797386, 52.358244836768925 ], [ 4.602796243248076, 52.358307229162698 ], [ 4.602826250420913, 52.358378576690185 ], [ 4.60286719623832, 52.358439022400226 ], [ 4.602904878195393, 52.358498089286165 ], [ 4.6030105093018, 52.35865047892046 ], [ 4.603056287345292, 52.358722443182472 ], [ 4.603090678589973, 52.358794961148497 ], [ 4.603173364125829, 52.358981505638837 ], [ 4.603201050246216, 52.359098694229644 ], [ 4.603252221366549, 52.359229385473789 ], [ 4.603337847202493, 52.359457320854752 ], [ 4.603424864117405, 52.359674704524892 ], [ 4.603550312929862, 52.359956237930142 ], [ 4.603590804580167, 52.360027573751807 ], [ 4.603604360048635, 52.360062186220681 ], [ 4.603617304755913, 52.360091482764105 ], [ 4.603668991469041, 52.360211400649085 ], [ 4.603809598580592, 52.360558349523885 ], [ 4.603808783695232, 52.360561265215033 ], [ 4.603825243632645, 52.360659216997114 ], [ 4.603838980322573, 52.360707699041853 ], [ 4.603870632740063, 52.360799963118673 ], [ 4.603904779694735, 52.360854053887373 ], [ 4.603958170760008, 52.360929914974307 ], [ 4.60406773156932, 52.361073125888886 ], [ 4.604103549347752, 52.361120747337225 ], [ 4.604133099609143, 52.361155825071229 ], [ 4.604186464147309, 52.361242381532534 ], [ 4.60427595605672, 52.361392326271591 ], [ 4.604372248844913, 52.361547097503163 ], [ 4.604473716468362, 52.361713155780762 ], [ 4.604487573965131, 52.361744031141534 ], [ 4.604579557028155, 52.36195427427203 ], [ 4.604612783284073, 52.362029031010188 ], [ 4.604649810741811, 52.362207902297406 ], [ 4.60469260659808, 52.362336928588022 ], [ 4.604732342903122, 52.362428841373514 ], [ 4.604762617453448, 52.362477037138262 ], [ 4.604820424556005, 52.362565752787376 ], [ 4.604888279068951, 52.362649186981706 ], [ 4.604964375750577, 52.362713153781847 ], [ 4.605076083646941, 52.362763325652566 ], [ 4.605184891792439, 52.362811437994871 ], [ 4.605218814232122, 52.362828469561201 ], [ 4.605656599726717, 52.363228673031017 ], [ 4.605699567733112, 52.363273141460688 ], [ 4.605707043737237, 52.363295471934741 ], [ 4.605716182300545, 52.363337604839806 ], [ 4.605723674477388, 52.363404857168881 ], [ 4.605759937004776, 52.363398265728705 ] ] ] ] } }
]
}
