{
"type": "FeatureCollection",
"name": "Hendrik-Ido-Ambacht",
"crs": { "type": "name", "properties": { "name": "urn:ogc:def:crs:OGC:1.3:CRS84" } },
"features": [
{ "type": "Feature", "properties": { "buurtcode": "BU05310101", "buurtnaam": "Dorp", "pc6_codes": "3341BD, 3341BE, 3342AA, 3342AB, 3342AC, 3342AD, 3342AE, 3342AG, 3342AH, 3342AJ, 3342AK, 3342AL, 3342AM, 3342AN, 3342BA, 3342BB, 3342BC, 3342BD, 3342BE, 3342BG, 3342BJ, 3342BK, 3342BL, 3342BM, 3342BN, 3342BP, 3342BR, 3342BS, 3342BT, 3342BV, 3342BW, 3342BX, 3342BZ, 3342CA, 3342CB, 3342CC, 3342CD, 3342CE, 3342CG, 3342CH, 3342CJ, 3342CK, 3342CL, 3342CM, 3342CN, 3342DA, 3342DB, 3342DD, 3342LA, 3342TA, 3342TB, 3342TC, 3342TD, 3342TE, 3342TG, 3342TH, 3342TJ, 3342TK, 3342TL, 3342TM, 3342TN, 3342TP, 3342TR, 3342TS, 3342TT, 3342TV, 3342TW, 3342TX, 3342VA, 3342VB, 3342VC, 3342VD, 3342VE, 3342VG, 3342VH, 3342VJ, 3342VK, 3342VL, 3342VM, 3342VN, 3342VP, 3342VR, 3342XA, 3342XB, 3342XC, 3342XD, 3342XE, 3342XG, 3342XH, 3342XJ, 3342XK, 3342XL, 3342XM, 3342XN, 3342XP, 3342XR, 3343LG", "wijkcode": "WK053101", "gemeentecode": "GM0531", "gemeentenaam": "Hendrik-Ido-Ambacht", "oppervlakteLandInHa": 104, "AantalInwoners_5": 4880, "Mannen_6": 2380, "Vrouwen_7": 2500, "HuishoudensTotaal_29": 1915, "GemiddeldeHuishoudensgrootte_33": 2.5, "Woningvoorraad_35": 1934, "NieuwbouwWoningen_36": 0, "NietWoningvoorraad_37": 281, "NieuwbouwNietWoningen_38": 1, "GemiddeldeWOZWaardeVanWoningen_39": 372, "PercentageEengezinswoning_40": 82, "PercentageTussenwoningEengezins_41": 50, "PercentageHoekwoningEengezins_42": 20, "PercentageTweeOnderEenKapWoningEe_43": 6, "PercentageVrijstaandeWoningEengezins_44": 7, "PercentageMeergezinswoning_45": 18, "Koopwoningen_47": 77, "HuurwoningenTotaal_48": 23, "InBezitWoningcorporatie_49": 20, "InBezitOverigeVerhuurders_50": 4, "BouwjaarMeerDanTienJaarGeleden_51": 99, "BouwjaarAfgelopenTienJaar_52": 1, "GemiddeldeElektriciteitslevering_53": 2710, "GemiddeldeElektriciteitsteruglevering_54": 800, "GemiddeldAardgasverbruik_55": 850, "AardgasvrijeWoningen_57": 1, "Aardgaswoningen_58": 95, "WoningenMetZonnestroom_59": 39, "WoningenHoofdzElektrVerwarmd_60": 5, "k_20PersonenMetHoogsteInkomen_80": 20.1, "k_20HuishoudensMetHoogsteInkomen_85": 23.9, "MediaanVermogenVanParticuliereHuish_86": 210.3, "PersonenautoSTotaal_104": 2305, "PersonenautoSBrandstofBenzine_105": 1910, "PersonenautoSOverigeBrandstof_106": 395, "PersonenautoSPerHuishouden_107": 1.2, "Omgevingsadressendichtheid_121": 1590, "AantalInstallatiesBijWoningen_5": 529, "OpgesteldVermogenVanZonnepanelen_6": 1945, "installaties_per_woning": 0.27352637021716647, "vermogen_per_woning": 1.0056876938986556, "installaties_per_100_woningen": 27.352637021716646, "vermogen_per_huishouden": 1.0156657963446476, "batterijdruk_score": 312.0, "koop_zon_score": 0.3003, "eengezins_zon_score": 0.3198, "betaalkracht_zon_score": 82.017, "overige_brandstof_zon_score": 154.05, "lichte_batterij_kansscore": 0.42605758638753788 }, "geometry": { "type": "MultiPolygon", "coordinates": [ [ [ [ 4.629009660669348, 51.85425584354924 ], [ 4.629057890923034, 51.854252649371332 ], [ 4.629074137151511, 51.854251576746506 ], [ 4.629126683132877, 51.854248104789001 ], [ 4.629177173823367, 51.854226174798399 ], [ 4.629184675994221, 51.854221135642547 ], [ 4.629250814370893, 51.854176772044909 ], [ 4.629330400437659, 51.854123389684965 ], [ 4.629439069678158, 51.854050482808972 ], [ 4.629542012897953, 51.853981421991158 ], [ 4.629605875092822, 51.853938580570663 ], [ 4.629775604341726, 51.853842651838505 ], [ 4.629908290371112, 51.853796766566006 ], [ 4.629918452017946, 51.853793254610814 ], [ 4.629868806536265, 51.853711470156718 ], [ 4.629959847713012, 51.853627626756101 ], [ 4.629983083535827, 51.853606221775387 ], [ 4.630062770891966, 51.853582097683294 ], [ 4.630148483389441, 51.853556160717403 ], [ 4.630256193210836, 51.853401144435047 ], [ 4.630311215778267, 51.853321940431236 ], [ 4.630389893692207, 51.853209289233135 ], [ 4.630401910872926, 51.853192090469122 ], [ 4.630418560627919, 51.853179937235872 ], [ 4.630624843408702, 51.852965089112374 ], [ 4.630662279230586, 51.852926103773243 ], [ 4.630671601439546, 51.852916384165844 ], [ 4.631137077575707, 51.852431567303121 ], [ 4.63126914297209, 51.852325479417772 ], [ 4.631870400899537, 51.85157263777517 ], [ 4.632084221245498, 51.851387821785707 ], [ 4.6321184193796, 51.851358262253129 ], [ 4.632661172390311, 51.851011705595809 ], [ 4.632700867090518, 51.850997093413049 ], [ 4.632953891954321, 51.85077628546081 ], [ 4.632921074834805, 51.850728650451998 ], [ 4.6330775172256, 51.850566079555847 ], [ 4.633132594392583, 51.850536851574716 ], [ 4.633446215346292, 51.850444115707184 ], [ 4.633368035237185, 51.850374302210234 ], [ 4.63338200690414, 51.850348612413228 ], [ 4.633414590753095, 51.850308741131514 ], [ 4.633440735171596, 51.850275516071271 ], [ 4.633652444331644, 51.850201370135224 ], [ 4.63391985082206, 51.850167544759977 ], [ 4.63436990515734, 51.850143042689218 ], [ 4.634631071344578, 51.850148204472617 ], [ 4.634654997154186, 51.850148672420978 ], [ 4.634730175088572, 51.850143743042509 ], [ 4.635170830394688, 51.850130134853067 ], [ 4.635280366066549, 51.850126755490813 ], [ 4.635425359135019, 51.850100789817908 ], [ 4.635674630774854, 51.85003072788917 ], [ 4.635947007275636, 51.849898926308967 ], [ 4.636009341718787, 51.849882570244425 ], [ 4.636515977288587, 51.849662424111585 ], [ 4.635973703382484, 51.849014518101697 ], [ 4.636148821765648, 51.848761202513664 ], [ 4.636241005290569, 51.84864409903755 ], [ 4.636415744741957, 51.848495349372214 ], [ 4.636628828728356, 51.848342610010725 ], [ 4.63703671499719, 51.848067495699986 ], [ 4.637264508103311, 51.847852193677895 ], [ 4.637451810524102, 51.847605303575676 ], [ 4.63755065694212, 51.847416272075961 ], [ 4.637634814770847, 51.847123847174295 ], [ 4.637669425153663, 51.846851427495928 ], [ 4.637507759544995, 51.845886839917291 ], [ 4.637436539381509, 51.845402066728568 ], [ 4.637933834458147, 51.84542048251847 ], [ 4.637989242189045, 51.845212545295468 ], [ 4.638025934976669, 51.844979087549973 ], [ 4.638152360507894, 51.844774990309539 ], [ 4.638250237560643, 51.844643528026801 ], [ 4.638411356146158, 51.844490453965783 ], [ 4.638676917845142, 51.844304178094866 ], [ 4.639214801986315, 51.844018030762037 ], [ 4.639796840917463, 51.843706761901124 ], [ 4.64011109282272, 51.843551273334782 ], [ 4.640219222550099, 51.843460516929149 ], [ 4.640475272800058, 51.843269942847833 ], [ 4.640893358904751, 51.842952544418694 ], [ 4.641016110815381, 51.84288664581031 ], [ 4.640843093438042, 51.842768700558828 ], [ 4.640630391945908, 51.842570911642198 ], [ 4.640320321508183, 51.842309845631405 ], [ 4.63988495861297, 51.842020887667609 ], [ 4.639576644872037, 51.84181910121324 ], [ 4.639016364503841, 51.841480234821773 ], [ 4.638151285040387, 51.840893875164774 ], [ 4.637286791842104, 51.840273644311019 ], [ 4.637124136335172, 51.840171977005987 ], [ 4.636912251028611, 51.840110376480318 ], [ 4.636618164308064, 51.840040759791421 ], [ 4.634528132368151, 51.83963619791438 ], [ 4.633757570887233, 51.839451752151355 ], [ 4.633405837875316, 51.839396998593315 ], [ 4.633142779073436, 51.839434257193616 ], [ 4.632892789036328, 51.839507161983931 ], [ 4.631736394284848, 51.839942572428029 ], [ 4.630298193855714, 51.840419304300354 ], [ 4.629971101940892, 51.840524727503848 ], [ 4.629729060895424, 51.840612070440102 ], [ 4.628942135970184, 51.840955690244236 ], [ 4.628487284708247, 51.841136633967224 ], [ 4.627817076995444, 51.841323657251095 ], [ 4.627002303112807, 51.841508412202742 ], [ 4.625435792588309, 51.841977132229289 ], [ 4.623363937313023, 51.842597011691446 ], [ 4.622894161580631, 51.842731121690008 ], [ 4.622432854052967, 51.842829300580682 ], [ 4.624611280977647, 51.84552415853733 ], [ 4.626606253000186, 51.848006954586666 ], [ 4.627750284563461, 51.849562145570388 ], [ 4.627338351192501, 51.849667859595179 ], [ 4.626009006536629, 51.850018254173435 ], [ 4.625492654864892, 51.850153767178384 ], [ 4.627082930981095, 51.852205068240615 ], [ 4.628757841434181, 51.854346131842938 ], [ 4.629009660669348, 51.85425584354924 ] ] ] ] } },
{ "type": "Feature", "properties": { "buurtcode": "BU05310102", "buurtnaam": "Oostendam", "pc6_codes": "3341BE, 3341BJ, 3341BK, 3341BL, 3341BM, 3341CB, 3341CC, 3341CE, 3341CG, 3341CH, 3341CX, 3341CZ, 3341EA, 3341EB, 3341EC, 3341ED, 3341EE, 3341EG, 3341EH, 3341EJ, 3341EK, 3341EL, 3341EM, 3341EN, 3341EP, 3341ER, 3341LC, 3341LD, 3341LE, 3341LG, 3341LN, 3341TA, 3341TB, 3341TC, 3341TD, 3341TE, 3341TG, 3341TH, 3341TJ, 3341TK, 3341TL, 3341TM, 3341TN, 3341TP, 3341TR, 3341TS, 3341TT, 3341VA, 3341VB, 3341VC, 3341VD, 3341VE, 3341VG, 3341VH, 3341VJ, 3341VK, 3341VL, 3341VM, 3341XA, 3341XB, 3341XC, 3341XD, 3341XE, 3341XG, 3341XH, 3341XJ, 3341XK, 3341XM, 3341XN, 3341XP, 3341XR, 3341XS, 3341XT, 3341XV, 3341XW, 3341XX, 3341XZ", "wijkcode": "WK053101", "gemeentecode": "GM0531", "gemeentenaam": "Hendrik-Ido-Ambacht", "oppervlakteLandInHa": 58, "AantalInwoners_5": 3245, "Mannen_6": 1540, "Vrouwen_7": 1705, "HuishoudensTotaal_29": 1490, "GemiddeldeHuishoudensgrootte_33": 2.2, "Woningvoorraad_35": 1501, "NieuwbouwWoningen_36": 93, "NietWoningvoorraad_37": 203, "NieuwbouwNietWoningen_38": 1, "GemiddeldeWOZWaardeVanWoningen_39": 356, "PercentageEengezinswoning_40": 59, "PercentageTussenwoningEengezins_41": 33, "PercentageHoekwoningEengezins_42": 15, "PercentageTweeOnderEenKapWoningEe_43": 6, "PercentageVrijstaandeWoningEengezins_44": 6, "PercentageMeergezinswoning_45": 41, "Koopwoningen_47": 71, "HuurwoningenTotaal_48": 29, "InBezitWoningcorporatie_49": 25, "InBezitOverigeVerhuurders_50": 4, "BouwjaarMeerDanTienJaarGeleden_51": 96, "BouwjaarAfgelopenTienJaar_52": 4, "GemiddeldeElektriciteitslevering_53": 2400, "GemiddeldeElektriciteitsteruglevering_54": 540, "GemiddeldAardgasverbruik_55": 740, "AardgasvrijeWoningen_57": 4, "Aardgaswoningen_58": 92, "WoningenMetZonnestroom_59": 30, "WoningenHoofdzElektrVerwarmd_60": 7, "k_20PersonenMetHoogsteInkomen_80": 19.5, "k_20HuishoudensMetHoogsteInkomen_85": 17.6, "MediaanVermogenVanParticuliereHuish_86": 175.4, "PersonenautoSTotaal_104": 1615, "PersonenautoSBrandstofBenzine_105": 1350, "PersonenautoSOverigeBrandstof_106": 265, "PersonenautoSPerHuishouden_107": 1.1, "Omgevingsadressendichtheid_121": 1640, "AantalInstallatiesBijWoningen_5": 299, "OpgesteldVermogenVanZonnepanelen_6": 998, "installaties_per_woning": 0.19920053297801465, "vermogen_per_woning": 0.66489007328447702, "installaties_per_100_woningen": 19.920053297801466, "vermogen_per_huishouden": 0.66979865771812086, "batterijdruk_score": 162.0, "koop_zon_score": 0.213, "eengezins_zon_score": 0.177, "betaalkracht_zon_score": 52.62, "overige_brandstof_zon_score": 79.5, "lichte_batterij_kansscore": 0.34026019855750783 }, "geometry": { "type": "MultiPolygon", "coordinates": [ [ [ [ 4.642492593551873, 51.853907408923583 ], [ 4.642579224210593, 51.853862061331803 ], [ 4.642582364921575, 51.853860416548969 ], [ 4.642674398492376, 51.853793264314071 ], [ 4.642732651719493, 51.853743254939083 ], [ 4.642857190236115, 51.853570892396405 ], [ 4.642941784629651, 51.853581589374116 ], [ 4.643133465439365, 51.853565869496151 ], [ 4.643380054171202, 51.853536950328447 ], [ 4.643596957561215, 51.853484134190026 ], [ 4.644154867389962, 51.853314937215892 ], [ 4.644531780569245, 51.853176768786945 ], [ 4.645071324137359, 51.852960035277967 ], [ 4.645398542559743, 51.852850337958252 ], [ 4.646005401655643, 51.852696680819875 ], [ 4.646499291230271, 51.852594805332068 ], [ 4.647155167097305, 51.852453307494272 ], [ 4.647650803277188, 51.852244753682925 ], [ 4.648176565993552, 51.85203299958274 ], [ 4.648551221812224, 51.851864321807021 ], [ 4.648918894918673, 51.851621089315778 ], [ 4.649206466658961, 51.851426459970703 ], [ 4.649362077701815, 51.851275030809887 ], [ 4.649510482121813, 51.851062592440506 ], [ 4.649554157850676, 51.850900298974238 ], [ 4.649551684805143, 51.850717394043016 ], [ 4.649521577964432, 51.850385295340843 ], [ 4.649456177233403, 51.850037733709932 ], [ 4.649471586346301, 51.849773101223519 ], [ 4.649228648925953, 51.849750406342409 ], [ 4.649136571102045, 51.849710131011108 ], [ 4.648624261924517, 51.849348796281937 ], [ 4.647394398010666, 51.848503203242231 ], [ 4.646029723493678, 51.847565528320942 ], [ 4.6436670717693, 51.845955971398794 ], [ 4.641574235012095, 51.844532203515115 ], [ 4.640358298380298, 51.84368493367748 ], [ 4.64011109282272, 51.843551273334782 ], [ 4.639796840917463, 51.843706761901124 ], [ 4.639214801986315, 51.844018030762037 ], [ 4.638676917845142, 51.844304178094866 ], [ 4.638411356146158, 51.844490453965783 ], [ 4.638250237560643, 51.844643528026801 ], [ 4.638152360507894, 51.844774990309539 ], [ 4.638025934976669, 51.844979087549973 ], [ 4.637989242189045, 51.845212545295468 ], [ 4.637933834458147, 51.84542048251847 ], [ 4.637436539381509, 51.845402066728568 ], [ 4.637507759544995, 51.845886839917291 ], [ 4.637669425153663, 51.846851427495928 ], [ 4.637634814770847, 51.847123847174295 ], [ 4.63755065694212, 51.847416272075961 ], [ 4.637451810524102, 51.847605303575676 ], [ 4.637264508103311, 51.847852193677895 ], [ 4.63703671499719, 51.848067495699986 ], [ 4.636628828728356, 51.848342610010725 ], [ 4.636415744741957, 51.848495349372214 ], [ 4.636241005290569, 51.84864409903755 ], [ 4.636148821765648, 51.848761202513664 ], [ 4.635973703382484, 51.849014518101697 ], [ 4.636515977288587, 51.849662424111585 ], [ 4.6367020659873, 51.849709941256236 ], [ 4.636782552050866, 51.84973480596139 ], [ 4.637172479265702, 51.849935425460025 ], [ 4.637369400099027, 51.85006906818866 ], [ 4.637486913055246, 51.850148819922204 ], [ 4.637889448443976, 51.850451305111619 ], [ 4.638105129108599, 51.850612679461285 ], [ 4.638167102734272, 51.850659042830813 ], [ 4.638269143025362, 51.850691873121875 ], [ 4.638292882844741, 51.850707035602575 ], [ 4.638372991893054, 51.850758224586961 ], [ 4.638529953863954, 51.850887997043706 ], [ 4.638710831796955, 51.851011054401184 ], [ 4.638876482651789, 51.851110679869478 ], [ 4.638909934609942, 51.85114408817816 ], [ 4.63893897287643, 51.851185441292628 ], [ 4.638953846636921, 51.851206614483104 ], [ 4.638996235758893, 51.851225401234451 ], [ 4.639071286711862, 51.851261393631511 ], [ 4.6391132369885, 51.851306604204737 ], [ 4.639115005080265, 51.851308512076514 ], [ 4.63911756478225, 51.851344024602867 ], [ 4.639229510608672, 51.85147533399045 ], [ 4.63925201409966, 51.851489823236243 ], [ 4.639306042776604, 51.851545402689105 ], [ 4.639311993470197, 51.851551534902121 ], [ 4.639453853428296, 51.85161998813772 ], [ 4.639517526408127, 51.85165071234195 ], [ 4.639670661596578, 51.851724603336038 ], [ 4.639781906982586, 51.851815189095412 ], [ 4.640351142964925, 51.852328674699088 ], [ 4.640751166215385, 51.852663322226512 ], [ 4.640793078438938, 51.852722392445685 ], [ 4.640803304784805, 51.852736803346019 ], [ 4.641029906748844, 51.852916614416365 ], [ 4.641039783878273, 51.852937216260564 ], [ 4.641071113067059, 51.853002556128999 ], [ 4.641133882682611, 51.853040680350567 ], [ 4.641199555232975, 51.853080566779738 ], [ 4.641239343662513, 51.853116315754157 ], [ 4.641325313998338, 51.853193544091788 ], [ 4.641404887219569, 51.853250390406465 ], [ 4.641537207639954, 51.85339493237479 ], [ 4.641654414989508, 51.853502875304329 ], [ 4.641679160456608, 51.853545126286967 ], [ 4.641812301235229, 51.853607768515296 ], [ 4.641985396338348, 51.853689207754293 ], [ 4.64201634636609, 51.853708280343398 ], [ 4.642267654744463, 51.853863140432686 ], [ 4.642269172585904, 51.853863518596491 ], [ 4.642426712352955, 51.853902638783445 ], [ 4.642467190831251, 51.85392397390585 ], [ 4.642492593551873, 51.853907408923583 ] ] ] ] } },
{ "type": "Feature", "properties": { "buurtcode": "BU05310103", "buurtnaam": "Kruiswiel", "pc6_codes": "3341BB, 3341BC, 3341BE, 3341BK, 3341BM, 3341BN, 3341BP, 3341CA, 3341CD, 3341CH, 3341CJ, 3341CK, 3341CL, 3341CM, 3341CN, 3341CP, 3341CR, 3341CS, 3341CT, 3341CV, 3341CW, 3341GA, 3341GB, 3341GC, 3341GD, 3341GE, 3341GG, 3341GH, 3341GJ, 3341GK, 3341GL, 3341GM, 3341GN, 3341GP, 3341GR, 3341GS, 3341GT, 3341GV, 3341GW, 3341GX, 3341LN, 3341LP, 3341RA, 3341RB, 3341RC, 3341RD, 3341RE, 3341RG, 3341RH, 3341RJ, 3341RK, 3341RL, 3341SB, 3341SC, 3341SE, 3341SG, 3341SH, 3341SJ, 3341SK, 3341SL, 3341SM, 3341SN, 3341SP, 3341SR, 3341ST, 3341TC", "wijkcode": "WK053101", "gemeentecode": "GM0531", "gemeentenaam": "Hendrik-Ido-Ambacht", "oppervlakteLandInHa": 47, "AantalInwoners_5": 3350, "Mannen_6": 1555, "Vrouwen_7": 1795, "HuishoudensTotaal_29": 1235, "GemiddeldeHuishoudensgrootte_33": 2.6, "Woningvoorraad_35": 1347, "NieuwbouwWoningen_36": 0, "NietWoningvoorraad_37": 242, "NieuwbouwNietWoningen_38": 0, "GemiddeldeWOZWaardeVanWoningen_39": 339, "PercentageEengezinswoning_40": 65, "PercentageTussenwoningEengezins_41": 36, "PercentageHoekwoningEengezins_42": 18, "PercentageTweeOnderEenKapWoningEe_43": 7, "PercentageVrijstaandeWoningEengezins_44": 4, "PercentageMeergezinswoning_45": 35, "Koopwoningen_47": 57, "HuurwoningenTotaal_48": 43, "InBezitWoningcorporatie_49": 36, "InBezitOverigeVerhuurders_50": 7, "BouwjaarMeerDanTienJaarGeleden_51": 100, "BouwjaarAfgelopenTienJaar_52": 0, "GemiddeldeElektriciteitslevering_53": 2500, "GemiddeldeElektriciteitsteruglevering_54": 850, "GemiddeldAardgasverbruik_55": 830, "AardgasvrijeWoningen_57": 1, "Aardgaswoningen_58": 90, "WoningenMetZonnestroom_59": 49, "WoningenHoofdzElektrVerwarmd_60": 4, "k_20PersonenMetHoogsteInkomen_80": 20.8, "k_20HuishoudensMetHoogsteInkomen_85": 27.3, "MediaanVermogenVanParticuliereHuish_86": 176.9, "PersonenautoSTotaal_104": 1345, "PersonenautoSBrandstofBenzine_105": 1140, "PersonenautoSOverigeBrandstof_106": 205, "PersonenautoSPerHuishouden_107": 1.1, "Omgevingsadressendichtheid_121": 1859, "AantalInstallatiesBijWoningen_5": 540, "OpgesteldVermogenVanZonnepanelen_6": 1553, "installaties_per_woning": 0.40089086859688194, "vermogen_per_woning": 1.1529324424647365, "installaties_per_100_woningen": 40.089086859688194, "vermogen_per_huishouden": 1.2574898785425102, "batterijdruk_score": 416.5, "koop_zon_score": 0.2793, "eengezins_zon_score": 0.3185, "betaalkracht_zon_score": 86.681, "overige_brandstof_zon_score": 100.45, "lichte_batterij_kansscore": 0.37014813966115245 }, "geometry": { "type": "MultiPolygon", "coordinates": [ [ [ [ 4.649475201208173, 51.849711024030114 ], [ 4.649559452390785, 51.849408431695615 ], [ 4.649683992898821, 51.849150121485003 ], [ 4.649844544862762, 51.848863248431897 ], [ 4.649990788420045, 51.848615234955723 ], [ 4.650244410944033, 51.848154523542398 ], [ 4.650474440377486, 51.847798656416465 ], [ 4.650659718066565, 51.847671119257633 ], [ 4.650844442502184, 51.847577445789625 ], [ 4.651034521988159, 51.847490580356883 ], [ 4.651153658230678, 51.847394802598899 ], [ 4.651215549202825, 51.847288505130912 ], [ 4.651225881659911, 51.847158176886822 ], [ 4.651217629655699, 51.846993863798218 ], [ 4.651207352268989, 51.846911668243791 ], [ 4.651226225452143, 51.846760649513449 ], [ 4.651305290785195, 51.846607043594588 ], [ 4.651471672598, 51.846464145570977 ], [ 4.651775743505617, 51.846261146972047 ], [ 4.652358276043072, 51.84591595090545 ], [ 4.653028227205624, 51.845574684660384 ], [ 4.65331480591197, 51.845437615966425 ], [ 4.653528898679632, 51.845386457539654 ], [ 4.653739757868988, 51.845365760847272 ], [ 4.653896218105226, 51.845327788510737 ], [ 4.653893620218634, 51.845151658488611 ], [ 4.653960534285259, 51.8450718499601 ], [ 4.654171366271981, 51.844926897671527 ], [ 4.653978527574956, 51.844806308048973 ], [ 4.65324247720755, 51.844339405500087 ], [ 4.652392978377015, 51.843788811283517 ], [ 4.651367085476281, 51.843159208781877 ], [ 4.650511833584063, 51.842628885281087 ], [ 4.649679847343229, 51.843016534602143 ], [ 4.649335244797921, 51.84277390473283 ], [ 4.648884298459032, 51.84251451631696 ], [ 4.648478753087192, 51.84223763224059 ], [ 4.647695867778359, 51.84171536384514 ], [ 4.646587574590831, 51.840949725399781 ], [ 4.645584727443117, 51.840257559586739 ], [ 4.645348726228802, 51.840104507933241 ], [ 4.645171355165045, 51.840250925178964 ], [ 4.644659440589774, 51.840638294649374 ], [ 4.644387925297676, 51.840843747856198 ], [ 4.643387348459244, 51.841506314433161 ], [ 4.642706917492427, 51.841984625586136 ], [ 4.641732799353808, 51.842532193045521 ], [ 4.641470749851127, 51.842672776321002 ], [ 4.641311302438401, 51.842725952522393 ], [ 4.641016110815381, 51.84288664581031 ], [ 4.640893358904751, 51.842952544418694 ], [ 4.640475272800058, 51.843269942847833 ], [ 4.640219222550099, 51.843460516929149 ], [ 4.64011109282272, 51.843551273334782 ], [ 4.640358298380298, 51.84368493367748 ], [ 4.641574235012095, 51.844532203515115 ], [ 4.6436670717693, 51.845955971398794 ], [ 4.646029723493678, 51.847565528320942 ], [ 4.647394398010666, 51.848503203242231 ], [ 4.648624261924517, 51.849348796281937 ], [ 4.649136571102045, 51.849710131011108 ], [ 4.649228648925953, 51.849750406342409 ], [ 4.649471586346301, 51.849773101223519 ], [ 4.649475201208173, 51.849711024030114 ] ] ] ] } },
{ "type": "Feature", "properties": { "buurtcode": "BU05310201", "buurtnaam": "Krommeweg-Noord", "pc6_codes": "3343BA, 3343BB, 3343BC, 3343BD, 3343BE, 3343BG, 3343BH, 3343BK, 3343BM, 3343BN, 3343BP, 3343BR, 3343BS, 3343BT, 3343BV, 3343BW, 3343BX, 3343CG, 3343CH, 3343CR, 3343DA, 3343DB, 3343DC, 3343DD, 3343DE, 3343DG, 3343DH, 3343DJ, 3343DK, 3343DL, 3343DM, 3343DN, 3343DP, 3343DR, 3343DS, 3343DT, 3343EA, 3343EL, 3343LG, 3343RA, 3343RB, 3343RC, 3343RD, 3343RE, 3343RG, 3343RH, 3343RJ, 3343RK, 3343RL", "wijkcode": "WK053102", "gemeentecode": "GM0531", "gemeentenaam": "Hendrik-Ido-Ambacht", "oppervlakteLandInHa": 34, "AantalInwoners_5": 2625, "Mannen_6": 1285, "Vrouwen_7": 1340, "HuishoudensTotaal_29": 1150, "GemiddeldeHuishoudensgrootte_33": 2.3, "Woningvoorraad_35": 1159, "NieuwbouwWoningen_36": 0, "NietWoningvoorraad_37": 54, "NieuwbouwNietWoningen_38": 0, "GemiddeldeWOZWaardeVanWoningen_39": 354, "PercentageEengezinswoning_40": 72, "PercentageTussenwoningEengezins_41": 49, "PercentageHoekwoningEengezins_42": 20, "PercentageTweeOnderEenKapWoningEe_43": 1, "PercentageVrijstaandeWoningEengezins_44": 2, "PercentageMeergezinswoning_45": 28, "Koopwoningen_47": 62, "HuurwoningenTotaal_48": 38, "InBezitWoningcorporatie_49": 32, "InBezitOverigeVerhuurders_50": 6, "BouwjaarMeerDanTienJaarGeleden_51": 100, "BouwjaarAfgelopenTienJaar_52": 0, "GemiddeldeElektriciteitslevering_53": 2380, "GemiddeldeElektriciteitsteruglevering_54": 830, "GemiddeldAardgasverbruik_55": 760, "AardgasvrijeWoningen_57": 1, "Aardgaswoningen_58": 96, "WoningenMetZonnestroom_59": 51, "WoningenHoofdzElektrVerwarmd_60": 4, "k_20PersonenMetHoogsteInkomen_80": 21.8, "k_20HuishoudensMetHoogsteInkomen_85": 25.3, "MediaanVermogenVanParticuliereHuish_86": 196.5, "PersonenautoSTotaal_104": 1245, "PersonenautoSBrandstofBenzine_105": 1040, "PersonenautoSOverigeBrandstof_106": 205, "PersonenautoSPerHuishouden_107": 1.1, "Omgevingsadressendichtheid_121": 2221, "AantalInstallatiesBijWoningen_5": 447, "OpgesteldVermogenVanZonnepanelen_6": 1313, "installaties_per_woning": 0.38567730802415878, "vermogen_per_woning": 1.1328731665228646, "installaties_per_100_woningen": 38.56773080241588, "vermogen_per_huishouden": 1.1417391304347826, "batterijdruk_score": 423.3, "koop_zon_score": 0.3162, "eengezins_zon_score": 0.3672, "betaalkracht_zon_score": 100.215, "overige_brandstof_zon_score": 104.55, "lichte_batterij_kansscore": 0.3975709390839518 }, "geometry": { "type": "MultiPolygon", "coordinates": [ [ [ [ 4.641311302438401, 51.842725952522393 ], [ 4.641470749851127, 51.842672776321002 ], [ 4.641732799353808, 51.842532193045521 ], [ 4.642706917492427, 51.841984625586136 ], [ 4.643387348459244, 51.841506314433161 ], [ 4.644387925297676, 51.840843747856198 ], [ 4.644659440589774, 51.840638294649374 ], [ 4.64449946675518, 51.840546455852454 ], [ 4.644052126988251, 51.840222673884149 ], [ 4.64374680338844, 51.839886276029226 ], [ 4.643532349864056, 51.839661941258839 ], [ 4.642871900426914, 51.839363831678966 ], [ 4.641204791486931, 51.838268772231451 ], [ 4.639906779477828, 51.837250478428075 ], [ 4.638816779088171, 51.837815219989309 ], [ 4.637177701384147, 51.83799395332327 ], [ 4.636965083809337, 51.838316924182912 ], [ 4.636793560212805, 51.838300625373215 ], [ 4.636431299216376, 51.837948640701974 ], [ 4.636240276672047, 51.837793699957174 ], [ 4.635990786815554, 51.837711021384642 ], [ 4.635194193721022, 51.837569094760752 ], [ 4.634471506281657, 51.837410743281737 ], [ 4.634372760111113, 51.83744558391146 ], [ 4.634256608217512, 51.837542813809719 ], [ 4.634136046715793, 51.837577515220829 ], [ 4.634026900771894, 51.837581881943493 ], [ 4.632848309907726, 51.837292215585308 ], [ 4.632777647081437, 51.837278246120476 ], [ 4.632698325048267, 51.837292939796583 ], [ 4.631853432992662, 51.837593254812155 ], [ 4.631776595500911, 51.837622322374692 ], [ 4.631483641191496, 51.837774155931918 ], [ 4.6312654221018, 51.837859745239008 ], [ 4.631021482912168, 51.837934189699872 ], [ 4.630753146419567, 51.838000029789484 ], [ 4.630651640125673, 51.838036538493 ], [ 4.630564562380378, 51.838106924066444 ], [ 4.630527968965017, 51.838175101970108 ], [ 4.630493873197717, 51.838256809546166 ], [ 4.630437382892038, 51.838291918346599 ], [ 4.630071554862746, 51.838398514988128 ], [ 4.629727395520587, 51.838513695176502 ], [ 4.629443489261661, 51.838613216693176 ], [ 4.629171723938796, 51.838720416751755 ], [ 4.628905425406174, 51.838826806560576 ], [ 4.62887206453018, 51.838945681231479 ], [ 4.628518624204741, 51.83904475225166 ], [ 4.628439666079531, 51.839037484267863 ], [ 4.628337220377278, 51.838967564296631 ], [ 4.627853576888522, 51.838540442589391 ], [ 4.627502524857753, 51.838659794582689 ], [ 4.62705489795685, 51.83884608999189 ], [ 4.626698787110081, 51.838998982275299 ], [ 4.626790553277934, 51.839078546788031 ], [ 4.628942135970184, 51.840955690244236 ], [ 4.629729060895424, 51.840612070440102 ], [ 4.629971101940892, 51.840524727503848 ], [ 4.630298193855714, 51.840419304300354 ], [ 4.631736394284848, 51.839942572428029 ], [ 4.632892789036328, 51.839507161983931 ], [ 4.633142779073436, 51.839434257193616 ], [ 4.633405837875316, 51.839396998593315 ], [ 4.633757570887233, 51.839451752151355 ], [ 4.634528132368151, 51.83963619791438 ], [ 4.636618164308064, 51.840040759791421 ], [ 4.636912251028611, 51.840110376480318 ], [ 4.637124136335172, 51.840171977005987 ], [ 4.637286791842104, 51.840273644311019 ], [ 4.638151285040387, 51.840893875164774 ], [ 4.639016364503841, 51.841480234821773 ], [ 4.639576644872037, 51.84181910121324 ], [ 4.63988495861297, 51.842020887667609 ], [ 4.640320321508183, 51.842309845631405 ], [ 4.640630391945908, 51.842570911642198 ], [ 4.640843093438042, 51.842768700558828 ], [ 4.641016110815381, 51.84288664581031 ], [ 4.641311302438401, 51.842725952522393 ] ] ] ] } },
{ "type": "Feature", "properties": { "buurtcode": "BU05310202", "buurtnaam": "Krommeweg-Zuid", "pc6_codes": "3343CA, 3343CB, 3343CC, 3343CD, 3343CE, 3343CH, 3343CJ, 3343CK, 3343CL, 3343CM, 3343CN, 3343CP, 3343CR, 3343CS, 3343CT, 3343CV, 3343CW, 3343CX, 3343DT, 3343DV, 3343EB, 3343EC, 3343ED, 3343EE, 3343EG, 3343EH, 3343EJ, 3343EK, 3343EZ, 3343LB, 3343LJ, 3343NA, 3343NB, 3343NC, 3343ND, 3343NE, 3343NG, 3343NH, 3343NJ, 3343PA, 3343PB, 3343PC, 3343PD, 3343PE, 3343PG, 3343PH, 3343PJ, 3343PK, 3343PL", "wijkcode": "WK053102", "gemeentecode": "GM0531", "gemeentenaam": "Hendrik-Ido-Ambacht", "oppervlakteLandInHa": 42, "AantalInwoners_5": 3770, "Mannen_6": 1880, "Vrouwen_7": 1885, "HuishoudensTotaal_29": 1530, "GemiddeldeHuishoudensgrootte_33": 2.5, "Woningvoorraad_35": 1521, "NieuwbouwWoningen_36": 0, "NietWoningvoorraad_37": 18, "NieuwbouwNietWoningen_38": 0, "GemiddeldeWOZWaardeVanWoningen_39": 356, "PercentageEengezinswoning_40": 91, "PercentageTussenwoningEengezins_41": 64, "PercentageHoekwoningEengezins_42": 25, "PercentageTweeOnderEenKapWoningEe_43": 1, "PercentageVrijstaandeWoningEengezins_44": 1, "PercentageMeergezinswoning_45": 9, "Koopwoningen_47": 80, "HuurwoningenTotaal_48": 20, "InBezitWoningcorporatie_49": 14, "InBezitOverigeVerhuurders_50": 6, "BouwjaarMeerDanTienJaarGeleden_51": 98, "BouwjaarAfgelopenTienJaar_52": 2, "GemiddeldeElektriciteitslevering_53": 2610, "GemiddeldeElektriciteitsteruglevering_54": 800, "GemiddeldAardgasverbruik_55": 780, "AardgasvrijeWoningen_57": 0, "Aardgaswoningen_58": 96, "WoningenMetZonnestroom_59": 44, "WoningenHoofdzElektrVerwarmd_60": 4, "k_20PersonenMetHoogsteInkomen_80": 21.7, "k_20HuishoudensMetHoogsteInkomen_85": 25.1, "MediaanVermogenVanParticuliereHuish_86": 211.8, "PersonenautoSTotaal_104": 1795, "PersonenautoSBrandstofBenzine_105": 1525, "PersonenautoSOverigeBrandstof_106": 270, "PersonenautoSPerHuishouden_107": 1.2, "Omgevingsadressendichtheid_121": 1906, "AantalInstallatiesBijWoningen_5": 504, "OpgesteldVermogenVanZonnepanelen_6": 1642, "installaties_per_woning": 0.33136094674556216, "vermogen_per_woning": 1.079552925706772, "installaties_per_100_woningen": 33.136094674556219, "vermogen_per_huishouden": 1.0732026143790849, "batterijdruk_score": 352.0, "koop_zon_score": 0.352, "eengezins_zon_score": 0.4004, "betaalkracht_zon_score": 93.192, "overige_brandstof_zon_score": 118.8, "lichte_batterij_kansscore": 0.45785202838136224 }, "geometry": { "type": "MultiPolygon", "coordinates": [ [ [ [ 4.62887206453018, 51.838945681231479 ], [ 4.628905425406174, 51.838826806560576 ], [ 4.629171723938796, 51.838720416751755 ], [ 4.629443489261661, 51.838613216693176 ], [ 4.629727395520587, 51.838513695176502 ], [ 4.630071554862746, 51.838398514988128 ], [ 4.630437382892038, 51.838291918346599 ], [ 4.630493873197717, 51.838256809546166 ], [ 4.630527968965017, 51.838175101970108 ], [ 4.630564562380378, 51.838106924066444 ], [ 4.630651640125673, 51.838036538493 ], [ 4.630753146419567, 51.838000029789484 ], [ 4.631021482912168, 51.837934189699872 ], [ 4.6312654221018, 51.837859745239008 ], [ 4.631483641191496, 51.837774155931918 ], [ 4.631776595500911, 51.837622322374692 ], [ 4.631853432992662, 51.837593254812155 ], [ 4.632698325048267, 51.837292939796583 ], [ 4.632777647081437, 51.837278246120476 ], [ 4.632848309907726, 51.837292215585308 ], [ 4.634026900771894, 51.837581881943493 ], [ 4.634136046715793, 51.837577515220829 ], [ 4.634256608217512, 51.837542813809719 ], [ 4.634372760111113, 51.83744558391146 ], [ 4.634471506281657, 51.837410743281737 ], [ 4.635194193721022, 51.837569094760752 ], [ 4.635990786815554, 51.837711021384642 ], [ 4.636240276672047, 51.837793699957174 ], [ 4.636431299216376, 51.837948640701974 ], [ 4.636793560212805, 51.838300625373215 ], [ 4.636965083809337, 51.838316924182912 ], [ 4.637177701384147, 51.83799395332327 ], [ 4.638816779088171, 51.837815219989309 ], [ 4.639906779477828, 51.837250478428075 ], [ 4.639589701189099, 51.837001719563517 ], [ 4.639098582978188, 51.836691153035318 ], [ 4.638578634890111, 51.836474996502076 ], [ 4.638281812394228, 51.836287289348604 ], [ 4.638061896386366, 51.836066287385755 ], [ 4.637908538091274, 51.835778141944118 ], [ 4.637797341065403, 51.835250395355111 ], [ 4.637563710869085, 51.834215102143617 ], [ 4.637364690236476, 51.833558413303521 ], [ 4.637130094351984, 51.832909943402342 ], [ 4.637003336924886, 51.832662718553138 ], [ 4.636013651594668, 51.83282362123456 ], [ 4.635647771174009, 51.832855065073382 ], [ 4.635129163142578, 51.8328889064313 ], [ 4.634365081539472, 51.832927928262372 ], [ 4.633900377715499, 51.832999271807708 ], [ 4.632145897098124, 51.833565713430993 ], [ 4.628960216998516, 51.834599253292801 ], [ 4.627929361166112, 51.834933812588574 ], [ 4.627138981760116, 51.835236136138448 ], [ 4.626130295227147, 51.835709339861957 ], [ 4.625491686001975, 51.836065001659449 ], [ 4.624968005693175, 51.836396068984975 ], [ 4.624627266683133, 51.836550953192607 ], [ 4.624140732822771, 51.836780905287888 ], [ 4.626698787110081, 51.838998982275299 ], [ 4.62705489795685, 51.83884608999189 ], [ 4.627502524857753, 51.838659794582689 ], [ 4.627853576888522, 51.838540442589391 ], [ 4.628337220377278, 51.838967564296631 ], [ 4.628439666079531, 51.839037484267863 ], [ 4.628518624204741, 51.83904475225166 ], [ 4.62887206453018, 51.838945681231479 ] ] ] ] } },
{ "type": "Feature", "properties": { "buurtcode": "BU05310203", "buurtnaam": "De Sandeling", "pc6_codes": "3342GA, 3342GB, 3342GC, 3342GD, 3342GE, 3342GG, 3342GH, 3342GJ, 3342GK, 3342GL, 3342GM, 3342GN, 3342GR, 3342GS, 3342GT, 3342GV, 3342GW, 3342GX, 3342GZ, 3343AP", "wijkcode": "WK053102", "gemeentecode": "GM0531", "gemeentenaam": "Hendrik-Ido-Ambacht", "oppervlakteLandInHa": 25, "AantalInwoners_5": 1275, "Mannen_6": 635, "Vrouwen_7": 640, "HuishoudensTotaal_29": 570, "GemiddeldeHuishoudensgrootte_33": 2.2, "Woningvoorraad_35": 551, "NieuwbouwWoningen_36": 1, "NietWoningvoorraad_37": 136, "NieuwbouwNietWoningen_38": 0, "GemiddeldeWOZWaardeVanWoningen_39": 415, "PercentageEengezinswoning_40": 78, "PercentageTussenwoningEengezins_41": 54, "PercentageHoekwoningEengezins_42": 15, "PercentageTweeOnderEenKapWoningEe_43": 2, "PercentageVrijstaandeWoningEengezins_44": 6, "PercentageMeergezinswoning_45": 22, "Koopwoningen_47": 82, "HuurwoningenTotaal_48": 18, "InBezitWoningcorporatie_49": 15, "InBezitOverigeVerhuurders_50": 3, "BouwjaarMeerDanTienJaarGeleden_51": 100, "BouwjaarAfgelopenTienJaar_52": 0, "GemiddeldeElektriciteitslevering_53": 2600, "GemiddeldeElektriciteitsteruglevering_54": 780, "GemiddeldAardgasverbruik_55": 760, "AardgasvrijeWoningen_57": 0, "Aardgaswoningen_58": 96, "WoningenMetZonnestroom_59": 36, "WoningenHoofdzElektrVerwarmd_60": 3, "k_20PersonenMetHoogsteInkomen_80": 25.7, "k_20HuishoudensMetHoogsteInkomen_85": 29.5, "MediaanVermogenVanParticuliereHuish_86": 286.2, "PersonenautoSTotaal_104": 1040, "PersonenautoSBrandstofBenzine_105": 790, "PersonenautoSOverigeBrandstof_106": 250, "PersonenautoSPerHuishouden_107": 1.8, "Omgevingsadressendichtheid_121": 1194, "AantalInstallatiesBijWoningen_5": 149, "OpgesteldVermogenVanZonnepanelen_6": 536, "installaties_per_woning": 0.27041742286751363, "vermogen_per_woning": 0.97277676950998182, "installaties_per_100_woningen": 27.041742286751365, "vermogen_per_huishouden": 0.94035087719298249, "batterijdruk_score": 280.8, "koop_zon_score": 0.2952, "eengezins_zon_score": 0.2808, "betaalkracht_zon_score": 103.032, "overige_brandstof_zon_score": 90.0, "lichte_batterij_kansscore": 0.41892193852317361 }, "geometry": { "type": "MultiPolygon", "coordinates": [ [ [ [ 4.621924298860359, 51.842912350957008 ], [ 4.622178514183217, 51.84287463459259 ], [ 4.622432854052967, 51.842829300580682 ], [ 4.622894161580631, 51.842731121690008 ], [ 4.623363937313023, 51.842597011691446 ], [ 4.625435792588309, 51.841977132229289 ], [ 4.627002303112807, 51.841508412202742 ], [ 4.627817076995444, 51.841323657251095 ], [ 4.628487284708247, 51.841136633967224 ], [ 4.628942135970184, 51.840955690244236 ], [ 4.626790553277934, 51.839078546788031 ], [ 4.626698787110081, 51.838998982275299 ], [ 4.624140732822771, 51.836780905287888 ], [ 4.623767014517438, 51.836950775217595 ], [ 4.623273724229128, 51.837096217584886 ], [ 4.622737440694562, 51.83720421508928 ], [ 4.622162696432121, 51.837328851964728 ], [ 4.621547653344932, 51.837578226243039 ], [ 4.621405527055787, 51.837597570501693 ], [ 4.621253015962093, 51.837586438990002 ], [ 4.621141714761535, 51.837717471680385 ], [ 4.620849197227645, 51.837921648023411 ], [ 4.620507024046823, 51.838159283357861 ], [ 4.620164847254154, 51.838396917680669 ], [ 4.619801487429219, 51.838597248803843 ], [ 4.619324065791991, 51.838769806507386 ], [ 4.619070618547018, 51.838823773194484 ], [ 4.619386709909597, 51.83933281842026 ], [ 4.620033283776956, 51.840373421554546 ], [ 4.620255860688092, 51.840788070546331 ], [ 4.620453553970767, 51.841219491252716 ], [ 4.620921944122147, 51.842451975201506 ], [ 4.621003632233815, 51.84263201060061 ], [ 4.621069121478455, 51.842719650698193 ], [ 4.621148610642238, 51.842787906321078 ], [ 4.621266443829878, 51.842852178375978 ], [ 4.621433655290411, 51.84290661157884 ], [ 4.621665025913092, 51.842932981360427 ], [ 4.621924298860359, 51.842912350957008 ] ] ] ] } },
{ "type": "Feature", "properties": { "buurtcode": "BU05310204", "buurtnaam": "Ambachtszone", "pc6_codes": "3342LD, 3342LE, 3342LG, 3342LH, 3343AP, 3343LA, 3343LB, 3343LD, 3343LE, 3343LH, 3343LJ, 3343LK, 3343LL, 3343LM, 3343LR", "wijkcode": "WK053102", "gemeentecode": "GM0531", "gemeentenaam": "Hendrik-Ido-Ambacht", "oppervlakteLandInHa": 93, "AantalInwoners_5": 85, "Mannen_6": 45, "Vrouwen_7": 40, "HuishoudensTotaal_29": 25, "GemiddeldeHuishoudensgrootte_33": 2.9, "Woningvoorraad_35": 30, "NieuwbouwWoningen_36": 0, "NietWoningvoorraad_37": 125, "NieuwbouwNietWoningen_38": 5, "GemiddeldeWOZWaardeVanWoningen_39": 714, "PercentageEengezinswoning_40": 97, "PercentageTussenwoningEengezins_41": 0, "PercentageHoekwoningEengezins_42": 0, "PercentageTweeOnderEenKapWoningEe_43": 23, "PercentageVrijstaandeWoningEengezins_44": 73, "PercentageMeergezinswoning_45": 3, "Koopwoningen_47": 80, "HuurwoningenTotaal_48": 20, "InBezitWoningcorporatie_49": 0, "InBezitOverigeVerhuurders_50": 20, "BouwjaarMeerDanTienJaarGeleden_51": 80, "BouwjaarAfgelopenTienJaar_52": 20, "GemiddeldeElektriciteitslevering_53": 4110, "GemiddeldeElektriciteitsteruglevering_54": 2550, "GemiddeldAardgasverbruik_55": 880, "AardgasvrijeWoningen_57": null, "Aardgaswoningen_58": null, "WoningenMetZonnestroom_59": null, "WoningenHoofdzElektrVerwarmd_60": null, "k_20PersonenMetHoogsteInkomen_80": null, "k_20HuishoudensMetHoogsteInkomen_85": null, "MediaanVermogenVanParticuliereHuish_86": null, "PersonenautoSTotaal_104": 145, "PersonenautoSBrandstofBenzine_105": 95, "PersonenautoSOverigeBrandstof_106": 50, "PersonenautoSPerHuishouden_107": null, "Omgevingsadressendichtheid_121": 1140, "AantalInstallatiesBijWoningen_5": 11, "OpgesteldVermogenVanZonnepanelen_6": 54, "installaties_per_woning": 0.36666666666666664, "vermogen_per_woning": 1.8, "installaties_per_100_woningen": 36.666666666666664, "vermogen_per_huishouden": 2.16, "batterijdruk_score": null, "koop_zon_score": null, "eengezins_zon_score": null, "betaalkracht_zon_score": null, "overige_brandstof_zon_score": null, "lichte_batterij_kansscore": null }, "geometry": { "type": "MultiPolygon", "coordinates": [ [ [ [ 4.619324065791991, 51.838769806507386 ], [ 4.619801487429219, 51.838597248803843 ], [ 4.620164847254154, 51.838396917680669 ], [ 4.620507024046823, 51.838159283357861 ], [ 4.620849197227645, 51.837921648023411 ], [ 4.621141714761535, 51.837717471680385 ], [ 4.621253015962093, 51.837586438990002 ], [ 4.621405527055787, 51.837597570501693 ], [ 4.621547653344932, 51.837578226243039 ], [ 4.622162696432121, 51.837328851964728 ], [ 4.622737440694562, 51.83720421508928 ], [ 4.623273724229128, 51.837096217584886 ], [ 4.623767014517438, 51.836950775217595 ], [ 4.624140732822771, 51.836780905287888 ], [ 4.624627266683133, 51.836550953192607 ], [ 4.624968005693175, 51.836396068984975 ], [ 4.625491686001975, 51.836065001659449 ], [ 4.626130295227147, 51.835709339861957 ], [ 4.627138981760116, 51.835236136138448 ], [ 4.627929361166112, 51.834933812588574 ], [ 4.628960216998516, 51.834599253292801 ], [ 4.632145897098124, 51.833565713430993 ], [ 4.633900377715499, 51.832999271807708 ], [ 4.634365081539472, 51.832927928262372 ], [ 4.635129163142578, 51.8328889064313 ], [ 4.635647771174009, 51.832855065073382 ], [ 4.636013651594668, 51.83282362123456 ], [ 4.637003336924886, 51.832662718553138 ], [ 4.636935663261496, 51.83246950397065 ], [ 4.636623648276971, 51.831886417931315 ], [ 4.63620524139261, 51.831143863452063 ], [ 4.635669828321912, 51.830224878914436 ], [ 4.634813557056386, 51.828766663432198 ], [ 4.63450960239496, 51.828193757689789 ], [ 4.634562054952644, 51.827991388295771 ], [ 4.633985096819276, 51.827768088275569 ], [ 4.633339417994679, 51.827415963062379 ], [ 4.632988866219969, 51.827185666189926 ], [ 4.632876706138957, 51.827085603317876 ], [ 4.632716065877287, 51.826942287038491 ], [ 4.632715671407925, 51.826941933943871 ], [ 4.632715464155176, 51.82694174924233 ], [ 4.632715238346885, 51.826941546444147 ], [ 4.63191170041447, 51.827228889552345 ], [ 4.628362896445524, 51.828497819554848 ], [ 4.628001495728493, 51.828627032140645 ], [ 4.626008223038784, 51.829339663448479 ], [ 4.624182761614506, 51.829998718773311 ], [ 4.623460319006273, 51.830259528568263 ], [ 4.623454203351227, 51.830261708984999 ], [ 4.623335974064221, 51.830304031478661 ], [ 4.622366979562736, 51.830650856202809 ], [ 4.621673356024781, 51.830899110354203 ], [ 4.621668758159619, 51.830900752266388 ], [ 4.621003719112308, 51.831138766505966 ], [ 4.620789467661042, 51.831215443659552 ], [ 4.620738510195238, 51.831233681591684 ], [ 4.618692060942266, 51.831966129718424 ], [ 4.618683233573353, 51.831969056174216 ], [ 4.618511165850477, 51.832026068429897 ], [ 4.617923099207222, 51.832237126854039 ], [ 4.61766092069016, 51.832330535800409 ], [ 4.617329755124247, 51.832450197162956 ], [ 4.61702913535274, 51.832558390680219 ], [ 4.616752537515326, 51.83265994564254 ], [ 4.616485360153344, 51.832756923639828 ], [ 4.616155018259313, 51.832875562405839 ], [ 4.615806071816167, 51.832999453234777 ], [ 4.615538702973859, 51.833098054788032 ], [ 4.615024427361645, 51.833283759302262 ], [ 4.614661633785309, 51.833416085941096 ], [ 4.614398817469759, 51.833512890169374 ], [ 4.61425799912634, 51.833563287616762 ], [ 4.615741028203606, 51.834958508468958 ], [ 4.616526999525052, 51.835671522928187 ], [ 4.617257464389485, 51.836434970224062 ], [ 4.617809521785846, 51.837082091287883 ], [ 4.618371663114763, 51.837780078870111 ], [ 4.618987611811774, 51.838690093142581 ], [ 4.619070618547018, 51.838823773194484 ], [ 4.619324065791991, 51.838769806507386 ] ] ] ] } },
{ "type": "Feature", "properties": { "buurtcode": "BU05310301", "buurtnaam": "Volgerlanden-West", "pc6_codes": "3343LB, 3343LC, 3343LD, 3344AA, 3344AB, 3344AC, 3344AD, 3344AE, 3344AG, 3344AH, 3344AJ, 3344AK, 3344AL, 3344BA, 3344BB, 3344BC, 3344BD, 3344BE, 3344BG, 3344BH, 3344BJ, 3344BK, 3344BL, 3344BM, 3344BN, 3344BP, 3344DA, 3344DB, 3344DC, 3344DD, 3344DE, 3344DG, 3344DH, 3344DJ, 3344DK, 3344DL, 3344EA, 3344EB, 3344EC, 3344ED, 3344EE, 3344EG, 3344EH, 3344EJ, 3344EK, 3344EL, 3344EM, 3344EN, 3344EP, 3344ER, 3344GA, 3344GB, 3344GC, 3344GD, 3344GE, 3344GG, 3344GH, 3344GJ, 3344GK, 3344GL, 3344GM, 3344GN, 3344GP, 3344GR, 3344GS, 3344GT, 3344PA, 3344PB, 3344PC, 3344PD, 3344PE, 3344PG, 3344PH, 3344PJ, 3344PK, 3344PL, 3344PM, 3344PN, 3344PR, 3344PS, 3344PT, 3344PV, 3344RA, 3344RB, 3344RC, 3344RD, 3344RE, 3344RG, 3344RH, 3344RJ, 3344RK, 3344RL, 3344RM, 3344RN, 3344RP", "wijkcode": "WK053103", "gemeentecode": "GM0531", "gemeentenaam": "Hendrik-Ido-Ambacht", "oppervlakteLandInHa": 109, "AantalInwoners_5": 7605, "Mannen_6": 3835, "Vrouwen_7": 3770, "HuishoudensTotaal_29": 2795, "GemiddeldeHuishoudensgrootte_33": 2.7, "Woningvoorraad_35": 2864, "NieuwbouwWoningen_36": 0, "NietWoningvoorraad_37": 95, "NieuwbouwNietWoningen_38": 0, "GemiddeldeWOZWaardeVanWoningen_39": 476, "PercentageEengezinswoning_40": 75, "PercentageTussenwoningEengezins_41": 47, "PercentageHoekwoningEengezins_42": 13, "PercentageTweeOnderEenKapWoningEe_43": 7, "PercentageVrijstaandeWoningEengezins_44": 7, "PercentageMeergezinswoning_45": 25, "Koopwoningen_47": 72, "HuurwoningenTotaal_48": 28, "InBezitWoningcorporatie_49": 20, "InBezitOverigeVerhuurders_50": 8, "BouwjaarMeerDanTienJaarGeleden_51": 87, "BouwjaarAfgelopenTienJaar_52": 13, "GemiddeldeElektriciteitslevering_53": 2930, "GemiddeldeElektriciteitsteruglevering_54": 890, "GemiddeldAardgasverbruik_55": 670, "AardgasvrijeWoningen_57": 4, "Aardgaswoningen_58": 90, "WoningenMetZonnestroom_59": 40, "WoningenHoofdzElektrVerwarmd_60": 10, "k_20PersonenMetHoogsteInkomen_80": 31.2, "k_20HuishoudensMetHoogsteInkomen_85": 38.5, "MediaanVermogenVanParticuliereHuish_86": 280.8, "PersonenautoSTotaal_104": 3400, "PersonenautoSBrandstofBenzine_105": 2690, "PersonenautoSOverigeBrandstof_106": 710, "PersonenautoSPerHuishouden_107": 1.2, "Omgevingsadressendichtheid_121": 2475, "AantalInstallatiesBijWoningen_5": 890, "OpgesteldVermogenVanZonnepanelen_6": 3467, "installaties_per_woning": 0.31075418994413406, "vermogen_per_woning": 1.2105446927374302, "installaties_per_100_woningen": 31.075418994413408, "vermogen_per_huishouden": 1.2404293381037568, "batterijdruk_score": 356.0, "koop_zon_score": 0.288, "eengezins_zon_score": 0.3, "betaalkracht_zon_score": 112.32, "overige_brandstof_zon_score": 284.0, "lichte_batterij_kansscore": 0.41221299516050286 }, "geometry": { "type": "MultiPolygon", "coordinates": [ [ [ [ 4.643956491089291, 51.839407865888212 ], [ 4.644621967338508, 51.838739768692641 ], [ 4.645737855613909, 51.837544099184846 ], [ 4.649810960872788, 51.833258871299897 ], [ 4.652196611439161, 51.830756898293721 ], [ 4.65344002039997, 51.829450500427868 ], [ 4.653440092766529, 51.829450421779967 ], [ 4.653041895192327, 51.829354718518296 ], [ 4.652702694176008, 51.829273190574696 ], [ 4.651536446072732, 51.828992883144174 ], [ 4.649837054977107, 51.828585334215973 ], [ 4.648170704713905, 51.828185312307333 ], [ 4.646735935468187, 51.82784127101872 ], [ 4.646388125745892, 51.827757874463742 ], [ 4.646286169185682, 51.827733427116982 ], [ 4.645889507817503, 51.827638321259933 ], [ 4.645177195134365, 51.827467511852817 ], [ 4.645163554619898, 51.8274642436281 ], [ 4.644658988711607, 51.827343247124482 ], [ 4.644583764286366, 51.827325207339207 ], [ 4.644464379557358, 51.827367148199009 ], [ 4.644338195045525, 51.827411481836435 ], [ 4.64423325519734, 51.827448345389023 ], [ 4.644150814676999, 51.827477315399292 ], [ 4.644111053566865, 51.827491283782493 ], [ 4.644060582474596, 51.827509013524299 ], [ 4.644010111194455, 51.827526752232082 ], [ 4.644003884860599, 51.827528690319141 ], [ 4.643997248399005, 51.827529987612643 ], [ 4.643990361960145, 51.82753060917188 ], [ 4.643983399755086, 51.827530547111131 ], [ 4.643976550500123, 51.827529793636664 ], [ 4.643969973308189, 51.827528376722036 ], [ 4.643963841649147, 51.827526333420408 ], [ 4.643958314487563, 51.827523700693163 ], [ 4.643953535541535, 51.827520560348582 ], [ 4.643949634023822, 51.827516994103114 ], [ 4.643921661351569, 51.827486435228266 ], [ 4.643893047695106, 51.827455162181558 ], [ 4.643864434226539, 51.827423880140081 ], [ 4.643835806144208, 51.827392606987438 ], [ 4.643814588238457, 51.827369416640458 ], [ 4.64377101239362, 51.827321797264453 ], [ 4.643764257943768, 51.827314419719059 ], [ 4.643749951293757, 51.827298778683399 ], [ 4.643735644505386, 51.827283146633754 ], [ 4.643721337875204, 51.827267505594548 ], [ 4.64371050807844, 51.827255670811851 ], [ 4.643678403390741, 51.827220591362376 ], [ 4.643664096651925, 51.82720495930392 ], [ 4.643649790071312, 51.827189318255996 ], [ 4.643635483500614, 51.827173677206289 ], [ 4.643621176791529, 51.827158045142589 ], [ 4.643606855735572, 51.827142403997492 ], [ 4.643592549194618, 51.827126762942498 ], [ 4.643587248367811, 51.827120967614974 ], [ 4.643579695931134, 51.827112722089574 ], [ 4.64357841761432, 51.827111069062063 ], [ 4.643577210043296, 51.827109524346966 ], [ 4.643575423217178, 51.827106160248206 ], [ 4.643574363572951, 51.827102683903462 ], [ 4.643574045022292, 51.827099131355681 ], [ 4.643574480438728, 51.827095601561915 ], [ 4.643575654278865, 51.827092157344502 ], [ 4.643577581789142, 51.82708875385655 ], [ 4.643580231289755, 51.827085552693617 ], [ 4.643581042415937, 51.827084748850957 ], [ 4.643305664339066, 51.826869414835194 ], [ 4.643264685948907, 51.826824445409834 ], [ 4.643191878967204, 51.826744416109207 ], [ 4.643056971897281, 51.826593998195186 ], [ 4.642969788218654, 51.82650088895641 ], [ 4.64294857548146, 51.826477437807533 ], [ 4.642878262916932, 51.82650186094272 ], [ 4.642795175183116, 51.826530720728293 ], [ 4.642719474501717, 51.826535489996488 ], [ 4.642643695090647, 51.826539755350176 ], [ 4.642492494344546, 51.826546805049986 ], [ 4.642279504601231, 51.826551592783687 ], [ 4.642197562048162, 51.826553095163902 ], [ 4.642115585485351, 51.826554021995257 ], [ 4.642033618430611, 51.82655437355389 ], [ 4.641951631877303, 51.826554149655657 ], [ 4.641870612012529, 51.826553365551419 ], [ 4.641789601367808, 51.826552024151354 ], [ 4.6417086291046, 51.826550116651973 ], [ 4.641627680572373, 51.826547651948943 ], [ 4.641546799437495, 51.826544621331038 ], [ 4.641465970900661, 51.826541042681711 ], [ 4.641385209915916, 51.826536889130047 ], [ 4.641304530544943, 51.826532187731566 ], [ 4.641263665454343, 51.826529590977998 ], [ 4.641182840838872, 51.826524025658905 ], [ 4.641102127003233, 51.826517903689719 ], [ 4.641021538604062, 51.826511216175177 ], [ 4.640941061139461, 51.826503963023249 ], [ 4.640673378078519, 51.826475726222839 ], [ 4.640603003202645, 51.826467233732714 ], [ 4.640532751540082, 51.826458310527109 ], [ 4.640462666607328, 51.826448956883091 ], [ 4.640392719247649, 51.826439181604179 ], [ 4.640312172784507, 51.826427352339593 ], [ 4.640231838816869, 51.826414958084612 ], [ 4.640151746506234, 51.82640199003658 ], [ 4.640071881052616, 51.826388466079074 ], [ 4.63999228612226, 51.826374377501864 ], [ 4.639922751975213, 51.82636156639618 ], [ 4.639853413584756, 51.826348325038516 ], [ 4.639784314467145, 51.826334653706375 ], [ 4.639715425614516, 51.826320552215414 ], [ 4.639483690599895, 51.826269611475361 ], [ 4.639430398694497, 51.826257110283329 ], [ 4.639357953862381, 51.826239642135313 ], [ 4.63928582174152, 51.826221690545772 ], [ 4.639214002184682, 51.826203264503 ], [ 4.639131663912819, 51.826181445562881 ], [ 4.639049756803264, 51.826159000104759 ], [ 4.638968309868272, 51.826135928314365 ], [ 4.638887323110528, 51.826112230192635 ], [ 4.638821590303768, 51.826092431489371 ], [ 4.638756169020327, 51.826072221255792 ], [ 4.638691088121744, 51.826051608665161 ], [ 4.638626333104571, 51.826030593625426 ], [ 4.638411138058921, 51.825956942947379 ], [ 4.638348887206103, 51.825934523515656 ], [ 4.638286990949873, 51.825911719799478 ], [ 4.638225463795939, 51.825888531891998 ], [ 4.638164305446535, 51.825864977769243 ], [ 4.638098731880206, 51.825839130286127 ], [ 4.638033615354059, 51.825812845237337 ], [ 4.63796895571977, 51.825786131611437 ], [ 4.637904767632417, 51.825758980513953 ], [ 4.637841050794123, 51.825731409921183 ], [ 4.637781808043576, 51.825705216163371 ], [ 4.63772302113273, 51.825678656749652 ], [ 4.637637110639936, 51.8256388455519 ], [ 4.637573823126883, 51.825607286575725 ], [ 4.637424405024809, 51.825516040810449 ], [ 4.637391657205448, 51.825492083496364 ], [ 4.637360255651243, 51.825467424667025 ], [ 4.637325589571553, 51.825440192184793 ], [ 4.637267112652975, 51.825394255802813 ], [ 4.637208632982553, 51.825348317575596 ], [ 4.636865481893114, 51.825470078448994 ], [ 4.63574190467691, 51.825870824136736 ], [ 4.63298968738622, 51.826838943456032 ], [ 4.632888111879783, 51.826879728599984 ], [ 4.632841411474272, 51.826896426089512 ], [ 4.632715238346885, 51.826941546444147 ], [ 4.632715464155176, 51.82694174924233 ], [ 4.632715671407925, 51.826941933943871 ], [ 4.632716065877287, 51.826942287038491 ], [ 4.632876706138957, 51.827085603317876 ], [ 4.632988866219969, 51.827185666189926 ], [ 4.633339417994679, 51.827415963062379 ], [ 4.633985096819276, 51.827768088275569 ], [ 4.634562054952644, 51.827991388295771 ], [ 4.63450960239496, 51.828193757689789 ], [ 4.634813557056386, 51.828766663432198 ], [ 4.635669828321912, 51.830224878914436 ], [ 4.63620524139261, 51.831143863452063 ], [ 4.636623648276971, 51.831886417931315 ], [ 4.636935663261496, 51.83246950397065 ], [ 4.637003336924886, 51.832662718553138 ], [ 4.637130094351984, 51.832909943402342 ], [ 4.637364690236476, 51.833558413303521 ], [ 4.637563710869085, 51.834215102143617 ], [ 4.637797341065403, 51.835250395355111 ], [ 4.637908538091274, 51.835778141944118 ], [ 4.638061896386366, 51.836066287385755 ], [ 4.638281812394228, 51.836287289348604 ], [ 4.638578634890111, 51.836474996502076 ], [ 4.639098582978188, 51.836691153035318 ], [ 4.639589701189099, 51.837001719563517 ], [ 4.639906779477828, 51.837250478428075 ], [ 4.641204791486931, 51.838268772231451 ], [ 4.642871900426914, 51.839363831678966 ], [ 4.643532349864056, 51.839661941258839 ], [ 4.643956491089291, 51.839407865888212 ] ] ] ] } },
{ "type": "Feature", "properties": { "buurtcode": "BU05310302", "buurtnaam": "Volgerlanden-Oost", "pc6_codes": "3341BA, 3341BG, 3341BH, 3341BN, 3341BP, 3341BR, 3341BS, 3341BT, 3341BW, 3341BX, 3341BZ, 3341DA, 3341DB, 3341DC, 3341DD, 3341DE, 3341HA, 3341HB, 3341HC, 3341HD, 3341HE, 3341HG, 3341HH, 3341HJ, 3341HK, 3341JA, 3341JD, 3341JE, 3341JG, 3341JH, 3341JM, 3341JN, 3341JR, 3341JS, 3341JT, 3341LP, 3341RL, 3341RM, 3341RN, 3341RP, 3341RR, 3341RS, 3341RT, 3341RV, 3344CA, 3344CB, 3344CC, 3344CD, 3344CG, 3344HA, 3344HB, 3344HC, 3344HD, 3344HE, 3344HG, 3344HH, 3344HJ, 3344JA, 3344JB, 3344JC, 3344JD, 3344JE, 3344JG, 3344JH, 3344JJ, 3344JK", "wijkcode": "WK053103", "gemeentecode": "GM0531", "gemeentenaam": "Hendrik-Ido-Ambacht", "oppervlakteLandInHa": 112, "AantalInwoners_5": 5220, "Mannen_6": 2640, "Vrouwen_7": 2580, "HuishoudensTotaal_29": 1780, "GemiddeldeHuishoudensgrootte_33": 2.9, "Woningvoorraad_35": 1797, "NieuwbouwWoningen_36": 17, "NietWoningvoorraad_37": 16, "NieuwbouwNietWoningen_38": 0, "GemiddeldeWOZWaardeVanWoningen_39": 530, "PercentageEengezinswoning_40": 84, "PercentageTussenwoningEengezins_41": 43, "PercentageHoekwoningEengezins_42": 16, "PercentageTweeOnderEenKapWoningEe_43": 13, "PercentageVrijstaandeWoningEengezins_44": 12, "PercentageMeergezinswoning_45": 16, "Koopwoningen_47": 76, "HuurwoningenTotaal_48": 24, "InBezitWoningcorporatie_49": 20, "InBezitOverigeVerhuurders_50": 4, "BouwjaarMeerDanTienJaarGeleden_51": 55, "BouwjaarAfgelopenTienJaar_52": 45, "GemiddeldeElektriciteitslevering_53": 3140, "GemiddeldeElektriciteitsteruglevering_54": 1090, "GemiddeldAardgasverbruik_55": 500, "AardgasvrijeWoningen_57": 30, "Aardgaswoningen_58": 66, "WoningenMetZonnestroom_59": 55, "WoningenHoofdzElektrVerwarmd_60": 11, "k_20PersonenMetHoogsteInkomen_80": 34.9, "k_20HuishoudensMetHoogsteInkomen_85": 47.0, "MediaanVermogenVanParticuliereHuish_86": 275.6, "PersonenautoSTotaal_104": 2245, "PersonenautoSBrandstofBenzine_105": 1780, "PersonenautoSOverigeBrandstof_106": 465, "PersonenautoSPerHuishouden_107": 1.3, "Omgevingsadressendichtheid_121": 1831, "AantalInstallatiesBijWoningen_5": 839, "OpgesteldVermogenVanZonnepanelen_6": 2538, "installaties_per_woning": 0.46688925987757374, "vermogen_per_woning": 1.4123539232053421, "installaties_per_100_woningen": 46.688925987757372, "vermogen_per_huishouden": 1.4258426966292135, "batterijdruk_score": 599.5, "koop_zon_score": 0.418, "eengezins_zon_score": 0.462, "betaalkracht_zon_score": 151.58, "overige_brandstof_zon_score": 255.75, "lichte_batterij_kansscore": 0.46966210724040447 }, "geometry": { "type": "MultiPolygon", "coordinates": [ [ [ [ 4.654602763786627, 51.8446264685629 ], [ 4.655217838654854, 51.844168848920305 ], [ 4.656014550846589, 51.843594664476811 ], [ 4.656410441008779, 51.843290620721625 ], [ 4.656668938898672, 51.843030984101048 ], [ 4.656756453513356, 51.84294308294762 ], [ 4.657356332023998, 51.842365971249777 ], [ 4.657949593995983, 51.841774421881752 ], [ 4.658227062250078, 51.841522131961078 ], [ 4.658481662813831, 51.841246839507825 ], [ 4.658715816774444, 51.840883360485947 ], [ 4.658910045048437, 51.840368073822646 ], [ 4.658939249658177, 51.839914418688139 ], [ 4.658834139431699, 51.839144955198023 ], [ 4.658770192889971, 51.838534927973029 ], [ 4.658710758031818, 51.837984198068405 ], [ 4.658693659527232, 51.837520095643882 ], [ 4.658731090359042, 51.837064797987395 ], [ 4.658739404437187, 51.83688873388796 ], [ 4.658783721629203, 51.83651476336113 ], [ 4.658848706739208, 51.835876747922342 ], [ 4.6589035233208, 51.835191253238335 ], [ 4.659037527644355, 51.834003305324707 ], [ 4.659301781932021, 51.83270439801106 ], [ 4.659333496737511, 51.832390888525069 ], [ 4.659389063377766, 51.83199666668736 ], [ 4.659455203997806, 51.831793866433728 ], [ 4.659707704788342, 51.831390704390216 ], [ 4.659936479300124, 51.831068982216578 ], [ 4.659891631371478, 51.831058006042269 ], [ 4.659803308390581, 51.831036390235489 ], [ 4.659690565072476, 51.831008716564213 ], [ 4.659643875219185, 51.830997263266212 ], [ 4.659677273133486, 51.83096126392293 ], [ 4.659494823445146, 51.830902839251259 ], [ 4.659324597423208, 51.830853820324691 ], [ 4.659275499377899, 51.830839682312657 ], [ 4.659017154193557, 51.830787941202239 ], [ 4.658244787342256, 51.83060428188594 ], [ 4.657081432381942, 51.830323859107807 ], [ 4.656228019407444, 51.830118343208738 ], [ 4.654647064819274, 51.829738765596197 ], [ 4.654278943936543, 51.829651048331328 ], [ 4.653798465534751, 51.829536551813653 ], [ 4.653440092766529, 51.829450421779967 ], [ 4.65344002039997, 51.829450500427868 ], [ 4.652196611439161, 51.830756898293721 ], [ 4.649810960872788, 51.833258871299897 ], [ 4.645737855613909, 51.837544099184846 ], [ 4.644621967338508, 51.838739768692641 ], [ 4.643956491089291, 51.839407865888212 ], [ 4.643532349864056, 51.839661941258839 ], [ 4.64374680338844, 51.839886276029226 ], [ 4.644052126988251, 51.840222673884149 ], [ 4.64449946675518, 51.840546455852454 ], [ 4.644659440589774, 51.840638294649374 ], [ 4.645171355165045, 51.840250925178964 ], [ 4.645348726228802, 51.840104507933241 ], [ 4.645584727443117, 51.840257559586739 ], [ 4.646587574590831, 51.840949725399781 ], [ 4.647695867778359, 51.84171536384514 ], [ 4.648478753087192, 51.84223763224059 ], [ 4.648884298459032, 51.84251451631696 ], [ 4.649335244797921, 51.84277390473283 ], [ 4.649679847343229, 51.843016534602143 ], [ 4.650511833584063, 51.842628885281087 ], [ 4.651367085476281, 51.843159208781877 ], [ 4.652392978377015, 51.843788811283517 ], [ 4.65324247720755, 51.844339405500087 ], [ 4.653978527574956, 51.844806308048973 ], [ 4.654171366271981, 51.844926897671527 ], [ 4.654602763786627, 51.8446264685629 ] ] ] ] } },
{ "type": "Feature", "properties": { "buurtcode": "BU05310400", "buurtnaam": "Sandelingen-Ambacht", "pc6_codes": "3342AP, 3342BD, 3342DZ, 3342GP, 3342LA, 3342LB, 3342LD, 3342LE, 3342VS", "wijkcode": "WK053104", "gemeentecode": "GM0531", "gemeentenaam": "Hendrik-Ido-Ambacht", "oppervlakteLandInHa": 218, "AantalInwoners_5": 265, "Mannen_6": 125, "Vrouwen_7": 145, "HuishoudensTotaal_29": 85, "GemiddeldeHuishoudensgrootte_33": 3.1, "Woningvoorraad_35": 90, "NieuwbouwWoningen_36": 2, "NietWoningvoorraad_37": 27, "NieuwbouwNietWoningen_38": 0, "GemiddeldeWOZWaardeVanWoningen_39": 881, "PercentageEengezinswoning_40": 100, "PercentageTussenwoningEengezins_41": 27, "PercentageHoekwoningEengezins_42": 11, "PercentageTweeOnderEenKapWoningEe_43": 9, "PercentageVrijstaandeWoningEengezins_44": 53, "PercentageMeergezinswoning_45": 0, "Koopwoningen_47": 91, "HuurwoningenTotaal_48": 9, "InBezitWoningcorporatie_49": 0, "InBezitOverigeVerhuurders_50": 9, "BouwjaarMeerDanTienJaarGeleden_51": 43, "BouwjaarAfgelopenTienJaar_52": 57, "GemiddeldeElektriciteitslevering_53": 4020, "GemiddeldeElektriciteitsteruglevering_54": 2000, "GemiddeldAardgasverbruik_55": 1160, "AardgasvrijeWoningen_57": null, "Aardgaswoningen_58": null, "WoningenMetZonnestroom_59": null, "WoningenHoofdzElektrVerwarmd_60": null, "k_20PersonenMetHoogsteInkomen_80": 41.3, "k_20HuishoudensMetHoogsteInkomen_85": null, "MediaanVermogenVanParticuliereHuish_86": null, "PersonenautoSTotaal_104": 185, "PersonenautoSBrandstofBenzine_105": 145, "PersonenautoSOverigeBrandstof_106": 40, "PersonenautoSPerHuishouden_107": 2.1, "Omgevingsadressendichtheid_121": 719, "AantalInstallatiesBijWoningen_5": 35, "OpgesteldVermogenVanZonnepanelen_6": 145, "installaties_per_woning": 0.3888888888888889, "vermogen_per_woning": 1.6111111111111112, "installaties_per_100_woningen": 38.888888888888893, "vermogen_per_huishouden": 1.7058823529411764, "batterijdruk_score": null, "koop_zon_score": null, "eengezins_zon_score": null, "betaalkracht_zon_score": null, "overige_brandstof_zon_score": null, "lichte_batterij_kansscore": null }, "geometry": { "type": "MultiPolygon", "coordinates": [ [ [ [ 4.627351503550591, 51.854646936893296 ], [ 4.627490087832975, 51.854621694527523 ], [ 4.627503166605702, 51.854619954442946 ], [ 4.62783656482863, 51.854575657483224 ], [ 4.628178013897299, 51.85452474202863 ], [ 4.628258556240342, 51.854509469526356 ], [ 4.628371597790487, 51.854483908227287 ], [ 4.628377047326937, 51.854482676041151 ], [ 4.62863788309661, 51.85438914436952 ], [ 4.628688178003901, 51.85437110541551 ], [ 4.628698210764828, 51.854367502845975 ], [ 4.628699232939073, 51.854367140913311 ], [ 4.628700722431869, 51.85436661121458 ], [ 4.628757841434181, 51.854346131842938 ], [ 4.627082930981095, 51.852205068240615 ], [ 4.625492654864892, 51.850153767178384 ], [ 4.626009006536629, 51.850018254173435 ], [ 4.627338351192501, 51.849667859595179 ], [ 4.627750284563461, 51.849562145570388 ], [ 4.626606253000186, 51.848006954586666 ], [ 4.624611280977647, 51.84552415853733 ], [ 4.622432854052967, 51.842829300580682 ], [ 4.622178514183217, 51.84287463459259 ], [ 4.621924298860359, 51.842912350957008 ], [ 4.621665025913092, 51.842932981360427 ], [ 4.621433655290411, 51.84290661157884 ], [ 4.621266443829878, 51.842852178375978 ], [ 4.621148610642238, 51.842787906321078 ], [ 4.621069121478455, 51.842719650698193 ], [ 4.621003632233815, 51.84263201060061 ], [ 4.620921944122147, 51.842451975201506 ], [ 4.620453553970767, 51.841219491252716 ], [ 4.620255860688092, 51.840788070546331 ], [ 4.620033283776956, 51.840373421554546 ], [ 4.619386709909597, 51.83933281842026 ], [ 4.619070618547018, 51.838823773194484 ], [ 4.618987611811774, 51.838690093142581 ], [ 4.618371663114763, 51.837780078870111 ], [ 4.617809521785846, 51.837082091287883 ], [ 4.617257464389485, 51.836434970224062 ], [ 4.616526999525052, 51.835671522928187 ], [ 4.615741028203606, 51.834958508468958 ], [ 4.61425799912634, 51.833563287616762 ], [ 4.614211039175383, 51.833580093784526 ], [ 4.613878072729374, 51.833694556121763 ], [ 4.613371469364271, 51.833877939955642 ], [ 4.613064001525993, 51.833989233275929 ], [ 4.610813228346512, 51.834800088898248 ], [ 4.609315686895449, 51.835339456708319 ], [ 4.608784509474237, 51.83553215909528 ], [ 4.608263718146675, 51.835719714562117 ], [ 4.606196465037064, 51.836461839618998 ], [ 4.605249262530553, 51.836805284691174 ], [ 4.603164423107171, 51.837560003527756 ], [ 4.602697328035426, 51.837727668478486 ], [ 4.602373558785501, 51.837847121623632 ], [ 4.602127795503353, 51.837936533961376 ], [ 4.601249657938655, 51.838255824709307 ], [ 4.601155104281882, 51.8382902026637 ], [ 4.600453901782342, 51.838543301700746 ], [ 4.600272180334414, 51.838612734979435 ], [ 4.600245641765952, 51.838628467098403 ], [ 4.600224211685588, 51.838650795214612 ], [ 4.600207886313439, 51.838671629467107 ], [ 4.600199367354366, 51.838694134018034 ], [ 4.600197478422374, 51.838719199853607 ], [ 4.600154903506939, 51.83873007840787 ], [ 4.600198403899877, 51.838816562766489 ], [ 4.600201301851222, 51.838822613617538 ], [ 4.600568649513854, 51.839589520359951 ], [ 4.601353582263067, 51.841194524257986 ], [ 4.602011378699514, 51.842532112128069 ], [ 4.603072510595445, 51.844711260866582 ], [ 4.603828314538156, 51.846262299430933 ], [ 4.604304463977556, 51.847240910759815 ], [ 4.604464159246108, 51.847577865071983 ], [ 4.604515314729847, 51.847685809764343 ], [ 4.60452591671975, 51.84770793869621 ], [ 4.60473474162034, 51.848098442153926 ], [ 4.604741555072087, 51.848114766085963 ], [ 4.604740284743801, 51.848115207055045 ], [ 4.604885361485556, 51.848385879552893 ], [ 4.604912844704719, 51.848384516611752 ], [ 4.605470613826328, 51.84835687894256 ], [ 4.606048474329309, 51.848360724857415 ], [ 4.606219693341972, 51.848354672894168 ], [ 4.606238799463259, 51.848354305599194 ], [ 4.606323349782907, 51.84835293537401 ], [ 4.606335403939594, 51.848352476219624 ], [ 4.606341458814497, 51.848353154684808 ], [ 4.606488658509179, 51.848369674991105 ], [ 4.60660458697313, 51.848394265803883 ], [ 4.606716746646475, 51.848426966216046 ], [ 4.606918058239351, 51.848490101476557 ], [ 4.607069564727919, 51.848557984092366 ], [ 4.607249350633722, 51.848638899206158 ], [ 4.607252605265924, 51.848640368005064 ], [ 4.607769398493851, 51.848819357891671 ], [ 4.607927527889832, 51.848891301295644 ], [ 4.608129898674746, 51.848975645807855 ], [ 4.608156671568078, 51.848991868260399 ], [ 4.608167175603813, 51.849003838979961 ], [ 4.608288295486069, 51.849414014447945 ], [ 4.608391935490769, 51.849436023100132 ], [ 4.608556773428807, 51.849471030664184 ], [ 4.608828700156775, 51.849472141500229 ], [ 4.609409741995623, 51.849677509303753 ], [ 4.609609167646289, 51.849753741899868 ], [ 4.610270356669067, 51.849838324821107 ], [ 4.610279543531989, 51.849870322416074 ], [ 4.610353384247465, 51.84987658171768 ], [ 4.610494926436149, 51.849924439044237 ], [ 4.610683667878599, 51.84998916551347 ], [ 4.610872392614953, 51.850053208425592 ], [ 4.61100378574172, 51.850095452009803 ], [ 4.611205939680139, 51.850177021206392 ], [ 4.61134677420248, 51.850233205330909 ], [ 4.611482760732851, 51.850278471957495 ], [ 4.611483280549259, 51.85027862819932 ], [ 4.611731783589771, 51.850354075765324 ], [ 4.6117390318645, 51.850356271931133 ], [ 4.612140369760668, 51.850478102776059 ], [ 4.612450485526705, 51.850572238474015 ], [ 4.612500775923361, 51.850587500495251 ], [ 4.613252064806979, 51.850706296611826 ], [ 4.61327618007818, 51.850710104967604 ], [ 4.61333580223908, 51.850719531559001 ], [ 4.613366329444905, 51.850727759643888 ], [ 4.613614606397031, 51.850794725375629 ], [ 4.613703134333442, 51.850800324273408 ], [ 4.614155822195887, 51.85082893222328 ], [ 4.614605944956651, 51.850820964574766 ], [ 4.615201447391974, 51.850892296478492 ], [ 4.615203967664255, 51.850892600686421 ], [ 4.615250709271125, 51.85089820232367 ], [ 4.615530760474146, 51.850941525901611 ], [ 4.616309468338543, 51.850994056223534 ], [ 4.616311642934932, 51.850994205330537 ], [ 4.61632963441938, 51.850995420067264 ], [ 4.616728458624942, 51.851020895932301 ], [ 4.616740964731862, 51.851021202710179 ], [ 4.617155330424042, 51.851029925323829 ], [ 4.617377418330235, 51.851052612845983 ], [ 4.617758204732904, 51.851088987067904 ], [ 4.61843162362351, 51.8511937745849 ], [ 4.618435097788175, 51.851194318674253 ], [ 4.618587095105932, 51.851217974185509 ], [ 4.618715265282705, 51.851237914041832 ], [ 4.619264054923637, 51.851448990110853 ], [ 4.619346277260076, 51.851480610669327 ], [ 4.619538365135659, 51.851554495158986 ], [ 4.619611486367099, 51.851555512503424 ], [ 4.619707103392757, 51.851592397846467 ], [ 4.619883528858469, 51.851660453603387 ], [ 4.620199668505888, 51.851782401058166 ], [ 4.620339901588447, 51.851836493995698 ], [ 4.620352648720044, 51.851841413152698 ], [ 4.620540785109657, 51.851913984797484 ], [ 4.62061093502717, 51.851973624238106 ], [ 4.62067737839341, 51.851999477973109 ], [ 4.620678618698688, 51.852032348668409 ], [ 4.620953283507166, 51.852145564969931 ], [ 4.620963646840219, 51.852149839296658 ], [ 4.620997634254237, 51.852163840716706 ], [ 4.62126086972557, 51.852258743688402 ], [ 4.621275521979945, 51.85227625931595 ], [ 4.621481858284964, 51.852369604121932 ], [ 4.621491471564515, 51.852408605749034 ], [ 4.62149477413741, 51.852410712657594 ], [ 4.621528617965177, 51.852432326392858 ], [ 4.621585393203789, 51.852468570392283 ], [ 4.621587647477735, 51.852470014289779 ], [ 4.621598004353713, 51.852480652499139 ], [ 4.621606943511254, 51.85249528142409 ], [ 4.621613001268653, 51.852510349984122 ], [ 4.621610478527083, 51.852522989589474 ], [ 4.621713752400778, 51.852605756448995 ], [ 4.622101977820457, 51.85291689481538 ], [ 4.622163247044686, 51.852957805965367 ], [ 4.622376362600943, 51.85310010969571 ], [ 4.622414812147041, 51.853125789082313 ], [ 4.622504068837634, 51.853185390008818 ], [ 4.62264223851209, 51.853277650598272 ], [ 4.622660092732319, 51.853289577963473 ], [ 4.622681721733382, 51.853304019764991 ], [ 4.622764706925471, 51.853359444867138 ], [ 4.622971109306635, 51.85349726338633 ], [ 4.623422416474945, 51.853730714236285 ], [ 4.623482875314445, 51.853737381562908 ], [ 4.623600891269044, 51.853792584460628 ], [ 4.623812420768804, 51.853849995198111 ], [ 4.624118171551667, 51.853932970433469 ], [ 4.624141670643757, 51.853940745531865 ], [ 4.624155007862891, 51.85394516473913 ], [ 4.624270534575704, 51.853985447565172 ], [ 4.624512338768818, 51.854069777043968 ], [ 4.624739517913613, 51.854120348489793 ], [ 4.624904845403585, 51.854123039831599 ], [ 4.625008928693306, 51.854166276818333 ], [ 4.625058614138299, 51.854206616865255 ], [ 4.625396976447847, 51.85434075716767 ], [ 4.625563800838306, 51.854378576017659 ], [ 4.62570320928755, 51.854410185445552 ], [ 4.625980078093969, 51.854501094248647 ], [ 4.626042701707159, 51.854512879846745 ], [ 4.626295989161568, 51.8545605433671 ], [ 4.626658956442638, 51.854541151194795 ], [ 4.626668182007482, 51.854540662637532 ], [ 4.626676680943569, 51.854542803053043 ], [ 4.626767669018348, 51.854565702185184 ], [ 4.626774794761598, 51.854567501120272 ], [ 4.626777634037977, 51.854585892342996 ], [ 4.626906015179314, 51.854599271816589 ], [ 4.626924098614053, 51.854601159666643 ], [ 4.626966641128568, 51.854605596853439 ], [ 4.627039554694216, 51.854613196896359 ], [ 4.627147561520574, 51.854628844183971 ], [ 4.627159058702564, 51.854630509594074 ], [ 4.627318641172568, 51.854652917432439 ], [ 4.627351503550591, 51.854646936893296 ] ] ] ] } },
{ "type": "Feature", "properties": { "buurtcode": "BU05310501", "buurtnaam": "Antoniapolder", "pc6_codes": "3341GA, 3341LB, 3341LH, 3341LJ, 3341LK, 3341LL, 3341LN, 3341LR, 3341LT, 3341LV, 3341LW, 3341LZ, 3341MA, 3341SZ", "wijkcode": "WK053105", "gemeentecode": "GM0531", "gemeentenaam": "Hendrik-Ido-Ambacht", "oppervlakteLandInHa": 103, "AantalInwoners_5": 345, "Mannen_6": 185, "Vrouwen_7": 165, "HuishoudensTotaal_29": 230, "GemiddeldeHuishoudensgrootte_33": 1.4, "Woningvoorraad_35": 36, "NieuwbouwWoningen_36": 0, "NietWoningvoorraad_37": 308, "NieuwbouwNietWoningen_38": 0, "GemiddeldeWOZWaardeVanWoningen_39": 331, "PercentageEengezinswoning_40": 86, "PercentageTussenwoningEengezins_41": 11, "PercentageHoekwoningEengezins_42": 19, "PercentageTweeOnderEenKapWoningEe_43": 22, "PercentageVrijstaandeWoningEengezins_44": 31, "PercentageMeergezinswoning_45": 14, "Koopwoningen_47": 69, "HuurwoningenTotaal_48": 31, "InBezitWoningcorporatie_49": 0, "InBezitOverigeVerhuurders_50": 31, "BouwjaarMeerDanTienJaarGeleden_51": 97, "BouwjaarAfgelopenTienJaar_52": 3, "GemiddeldeElektriciteitslevering_53": 3570, "GemiddeldeElektriciteitsteruglevering_54": 910, "GemiddeldAardgasverbruik_55": 1290, "AardgasvrijeWoningen_57": null, "Aardgaswoningen_58": null, "WoningenMetZonnestroom_59": null, "WoningenHoofdzElektrVerwarmd_60": null, "k_20PersonenMetHoogsteInkomen_80": 5.5, "k_20HuishoudensMetHoogsteInkomen_85": 4.5, "MediaanVermogenVanParticuliereHuish_86": 0.8, "PersonenautoSTotaal_104": 305, "PersonenautoSBrandstofBenzine_105": 200, "PersonenautoSOverigeBrandstof_106": 105, "PersonenautoSPerHuishouden_107": 1.3, "Omgevingsadressendichtheid_121": 925, "AantalInstallatiesBijWoningen_5": null, "OpgesteldVermogenVanZonnepanelen_6": null, "installaties_per_woning": null, "vermogen_per_woning": null, "installaties_per_100_woningen": null, "vermogen_per_huishouden": null, "batterijdruk_score": null, "koop_zon_score": null, "eengezins_zon_score": null, "betaalkracht_zon_score": null, "overige_brandstof_zon_score": null, "lichte_batterij_kansscore": null }, "geometry": { "type": "MultiPolygon", "coordinates": [ [ [ [ 4.635547265559051, 51.86972449324815 ], [ 4.636136563050233, 51.869368348777613 ], [ 4.636253839603572, 51.8692971805228 ], [ 4.636377913904059, 51.869227592664672 ], [ 4.636501268740295, 51.869165424696625 ], [ 4.638710855019911, 51.868074193224878 ], [ 4.639495326844739, 51.867691581671053 ], [ 4.640885029621187, 51.866994776219975 ], [ 4.641479257888403, 51.866669305734156 ], [ 4.642561949292754, 51.866092749431104 ], [ 4.643110490794026, 51.865783978606544 ], [ 4.64365583120787, 51.86547165243919 ], [ 4.644785231916067, 51.864811381652487 ], [ 4.645146848988761, 51.864594784635358 ], [ 4.64533525303018, 51.864478780989501 ], [ 4.645684629384749, 51.864242563705659 ], [ 4.646142485383082, 51.86392865798355 ], [ 4.646598145640927, 51.863605748005583 ], [ 4.647123091974666, 51.86321766482628 ], [ 4.647504314362385, 51.862928555945572 ], [ 4.647831371836646, 51.862672624385553 ], [ 4.648040773660872, 51.862505898994606 ], [ 4.648360621419828, 51.862244823138781 ], [ 4.648849900855261, 51.861842242945052 ], [ 4.649118059047167, 51.86161375645829 ], [ 4.649695934477547, 51.861105169216152 ], [ 4.650300981837701, 51.8605561479689 ], [ 4.650745434697106, 51.860152101147612 ], [ 4.651134739040418, 51.85976786853324 ], [ 4.651497399215303, 51.859403997777854 ], [ 4.651859918124316, 51.859027972385043 ], [ 4.65221441082587, 51.858647032793911 ], [ 4.652624234153804, 51.858213638984118 ], [ 4.653064143105756, 51.857745466027083 ], [ 4.653107857631725, 51.857696158858055 ], [ 4.653343227921834, 51.857430693397255 ], [ 4.653389026821396, 51.857379043227084 ], [ 4.653709421243141, 51.857000942215031 ], [ 4.654063346157432, 51.856568227951605 ], [ 4.654362915865307, 51.856211370142852 ], [ 4.654640628128647, 51.855883453478675 ], [ 4.657474147119959, 51.852459317988938 ], [ 4.658200225724205, 51.85163035604765 ], [ 4.659025665148725, 51.850836746971567 ], [ 4.659137004255627, 51.850741546532042 ], [ 4.659964384876204, 51.850034206956735 ], [ 4.6608538963034, 51.849351497316157 ], [ 4.661077700412663, 51.84918841634417 ], [ 4.661947169688141, 51.848560333362201 ], [ 4.662746155554283, 51.847977183806094 ], [ 4.663367530211665, 51.847532347022856 ], [ 4.662182515792481, 51.84691045784102 ], [ 4.660847103367986, 51.846848150095184 ], [ 4.660755036107563, 51.846807039014678 ], [ 4.66101689004558, 51.844268082354567 ], [ 4.656668938898672, 51.843030984101048 ], [ 4.656410441008779, 51.843290620721625 ], [ 4.656014550846589, 51.843594664476811 ], [ 4.655217838654854, 51.844168848920305 ], [ 4.654602763786627, 51.8446264685629 ], [ 4.654171366271981, 51.844926897671527 ], [ 4.653960534285259, 51.8450718499601 ], [ 4.653893620218634, 51.845151658488611 ], [ 4.653896218105226, 51.845327788510737 ], [ 4.653739757868988, 51.845365760847272 ], [ 4.653528898679632, 51.845386457539654 ], [ 4.65331480591197, 51.845437615966425 ], [ 4.653028227205624, 51.845574684660384 ], [ 4.652358276043072, 51.84591595090545 ], [ 4.651775743505617, 51.846261146972047 ], [ 4.651471672598, 51.846464145570977 ], [ 4.651305290785195, 51.846607043594588 ], [ 4.651226225452143, 51.846760649513449 ], [ 4.651207352268989, 51.846911668243791 ], [ 4.651217629655699, 51.846993863798218 ], [ 4.651225881659911, 51.847158176886822 ], [ 4.651215549202825, 51.847288505130912 ], [ 4.651153658230678, 51.847394802598899 ], [ 4.651034521988159, 51.847490580356883 ], [ 4.650844442502184, 51.847577445789625 ], [ 4.650659718066565, 51.847671119257633 ], [ 4.650474440377486, 51.847798656416465 ], [ 4.650244410944033, 51.848154523542398 ], [ 4.649990788420045, 51.848615234955723 ], [ 4.649844544862762, 51.848863248431897 ], [ 4.649683992898821, 51.849150121485003 ], [ 4.649559452390785, 51.849408431695615 ], [ 4.649475201208173, 51.849711024030114 ], [ 4.649471586346301, 51.849773101223519 ], [ 4.649456177233403, 51.850037733709932 ], [ 4.649521577964432, 51.850385295340843 ], [ 4.649551684805143, 51.850717394043016 ], [ 4.649554157850676, 51.850900298974238 ], [ 4.649510482121813, 51.851062592440506 ], [ 4.649362077701815, 51.851275030809887 ], [ 4.649206466658961, 51.851426459970703 ], [ 4.648918894918673, 51.851621089315778 ], [ 4.648551221812224, 51.851864321807021 ], [ 4.648176565993552, 51.85203299958274 ], [ 4.647650803277188, 51.852244753682925 ], [ 4.647155167097305, 51.852453307494272 ], [ 4.646499291230271, 51.852594805332068 ], [ 4.646005401655643, 51.852696680819875 ], [ 4.645398542559743, 51.852850337958252 ], [ 4.645071324137359, 51.852960035277967 ], [ 4.644531780569245, 51.853176768786945 ], [ 4.644154867389962, 51.853314937215892 ], [ 4.643596957561215, 51.853484134190026 ], [ 4.643380054171202, 51.853536950328447 ], [ 4.643133465439365, 51.853565869496151 ], [ 4.642941784629651, 51.853581589374116 ], [ 4.642857190236115, 51.853570892396405 ], [ 4.642732651719493, 51.853743254939083 ], [ 4.642674398492376, 51.853793264314071 ], [ 4.642582364921575, 51.853860416548969 ], [ 4.642579224210593, 51.853862061331803 ], [ 4.642492593551873, 51.853907408923583 ], [ 4.642688050625392, 51.854019908101051 ], [ 4.642706771282084, 51.854030687337193 ], [ 4.642950515319716, 51.854170981305877 ], [ 4.64351977478049, 51.854375007898888 ], [ 4.643622357469517, 51.854411773932469 ], [ 4.644025348706415, 51.854631616770455 ], [ 4.644557603801401, 51.854985289833699 ], [ 4.644575208589757, 51.854997769553556 ], [ 4.644655684974334, 51.855054862025327 ], [ 4.644741054260389, 51.85511541904161 ], [ 4.644824945862139, 51.855174932957659 ], [ 4.64483554273526, 51.855182829064951 ], [ 4.64484841950132, 51.855192429450582 ], [ 4.644881357359463, 51.855216969948422 ], [ 4.644903397259919, 51.855233387717256 ], [ 4.645504286535932, 51.855681098031809 ], [ 4.645607903301793, 51.85575054257643 ], [ 4.64563169343868, 51.855766485871264 ], [ 4.645645907190443, 51.855776013712436 ], [ 4.645984627694576, 51.856003021242124 ], [ 4.646172481833565, 51.856128915337074 ], [ 4.646486220440899, 51.856343880746273 ], [ 4.646848465165337, 51.856592094511946 ], [ 4.646948043913808, 51.856661062957279 ], [ 4.647013008142573, 51.856723476144069 ], [ 4.647014908890402, 51.856725294842839 ], [ 4.647108743792051, 51.856815215434494 ], [ 4.647156818992713, 51.856873647990255 ], [ 4.647178309399533, 51.856899751619835 ], [ 4.64733074267719, 51.857122444048251 ], [ 4.64729862552283, 51.857173234283302 ], [ 4.647294937408927, 51.857207745424866 ], [ 4.647294028997971, 51.857216207006047 ], [ 4.647224147227896, 51.857270992922672 ], [ 4.647166082353221, 51.857307183848071 ], [ 4.647152999678536, 51.857315343991544 ], [ 4.647142486860574, 51.857323475385662 ], [ 4.647125454522779, 51.85733524204835 ], [ 4.647107928561402, 51.857347895473659 ], [ 4.647085477813198, 51.857368724492162 ], [ 4.647071459099434, 51.857381723607652 ], [ 4.647015631542146, 51.857434566544526 ], [ 4.646972851589507, 51.857469900919639 ], [ 4.646895342808741, 51.857517052148253 ], [ 4.646801435620198, 51.857569178522304 ], [ 4.646697467276085, 51.857629313183445 ], [ 4.646638468281588, 51.857661345205138 ], [ 4.646402164136149, 51.857789623860832 ], [ 4.645943355164469, 51.858036595077351 ], [ 4.645826910851491, 51.858098735589088 ], [ 4.645582626955154, 51.858229110517648 ], [ 4.645435017435723, 51.858303404225666 ], [ 4.645230474567753, 51.858414604977462 ], [ 4.645067842832585, 51.858497477357552 ], [ 4.6450561457887, 51.858503434818836 ], [ 4.645021171500834, 51.858521262990891 ], [ 4.644908489680464, 51.85859101279577 ], [ 4.644622918560691, 51.858758122034224 ], [ 4.644334284018021, 51.858927763981164 ], [ 4.64420350024489, 51.859002629997612 ], [ 4.644147648697424, 51.859034608782075 ], [ 4.644020298531073, 51.859120408539226 ], [ 4.643993345768214, 51.859138565819059 ], [ 4.643923939419876, 51.859187869723009 ], [ 4.643763009950557, 51.859303604589677 ], [ 4.643504464972723, 51.859507367138043 ], [ 4.643278844129929, 51.859688182935813 ], [ 4.643102202052064, 51.859819826149909 ], [ 4.642963086683166, 51.859930340912264 ], [ 4.642901901027174, 51.859978383972091 ], [ 4.642834304580035, 51.860016408967866 ], [ 4.642712186232935, 51.860114716722414 ], [ 4.642482427600644, 51.860298686753168 ], [ 4.642233810713781, 51.860489574823063 ], [ 4.641971444195877, 51.860710253383701 ], [ 4.641770622128713, 51.860872617173293 ], [ 4.641663776281986, 51.860973267948857 ], [ 4.641495507812021, 51.861132548083198 ], [ 4.641486916119806, 51.861141149595021 ], [ 4.641283285888391, 51.861344851492014 ], [ 4.641013555831986, 51.861588779734284 ], [ 4.640680116904261, 51.861907240756686 ], [ 4.640534586403714, 51.862043158748165 ], [ 4.640345803833118, 51.862219475137664 ], [ 4.640138733440033, 51.862417283602788 ], [ 4.640065629247698, 51.862485015415857 ], [ 4.640043143491144, 51.862505851865883 ], [ 4.640027426277944, 51.862523872984347 ], [ 4.639823457813245, 51.86275766420836 ], [ 4.639466127506055, 51.863153424937714 ], [ 4.639196245942867, 51.863448035054105 ], [ 4.63906857881852, 51.863587399803727 ], [ 4.639023672441446, 51.863638133291396 ], [ 4.63902189681254, 51.863640144425098 ], [ 4.638882454218929, 51.863816188531949 ], [ 4.638837386839293, 51.863873087134365 ], [ 4.638471148934987, 51.86432673789939 ], [ 4.638305654687736, 51.8645359990701 ], [ 4.638132266699291, 51.864763222909097 ], [ 4.6379654431315, 51.865012906053252 ], [ 4.63789684564889, 51.865115595154478 ], [ 4.637656306161686, 51.865496113666424 ], [ 4.637495055150091, 51.865780509900524 ], [ 4.637424551102184, 51.865912974925912 ], [ 4.637327586584795, 51.866092874832951 ], [ 4.637244463774169, 51.866278534880287 ], [ 4.637039942282078, 51.866716117309892 ], [ 4.636957570357442, 51.866884460827897 ], [ 4.63689206551853, 51.867026907893091 ], [ 4.63686714662858, 51.867081121009925 ], [ 4.636855726878838, 51.867105955587242 ], [ 4.636775242245898, 51.867265520138474 ], [ 4.636765181645199, 51.867285464579709 ], [ 4.636742011981726, 51.867330538406179 ], [ 4.636716755783851, 51.86737970670589 ], [ 4.636555166414078, 51.86765489510465 ], [ 4.636514108208074, 51.867730433922851 ], [ 4.636446270190897, 51.867826313636591 ], [ 4.636260294578631, 51.868073903418527 ], [ 4.636227530337663, 51.86811177881534 ], [ 4.636096524799997, 51.868306282312275 ], [ 4.635996562168933, 51.868393749694299 ], [ 4.635874720090157, 51.868481068045277 ], [ 4.635719244899542, 51.868615613146218 ], [ 4.635606877542154, 51.868791098527332 ], [ 4.63547125719055, 51.869047764223986 ], [ 4.635449128606488, 51.86911757041846 ], [ 4.63526095854367, 51.869711155203056 ], [ 4.635333586422011, 51.86984692618141 ], [ 4.635547265559051, 51.86972449324815 ] ] ] ] } },
{ "type": "Feature", "properties": { "buurtcode": "BU05310502", "buurtnaam": "Noordoevers", "pc6_codes": "3341LL, 3341LM, 3341LS, 3341LX, 3341ZS, 3341ZT, 3341ZV", "wijkcode": "WK053105", "gemeentecode": "GM0531", "gemeentenaam": "Hendrik-Ido-Ambacht", "oppervlakteLandInHa": 75, "AantalInwoners_5": 30, "Mannen_6": 10, "Vrouwen_7": 10, "HuishoudensTotaal_29": 15, "GemiddeldeHuishoudensgrootte_33": 1.9, "Woningvoorraad_35": 14, "NieuwbouwWoningen_36": 1, "NietWoningvoorraad_37": 13, "NieuwbouwNietWoningen_38": 0, "GemiddeldeWOZWaardeVanWoningen_39": null, "PercentageEengezinswoning_40": null, "PercentageTussenwoningEengezins_41": null, "PercentageHoekwoningEengezins_42": null, "PercentageTweeOnderEenKapWoningEe_43": null, "PercentageVrijstaandeWoningEengezins_44": null, "PercentageMeergezinswoning_45": null, "Koopwoningen_47": null, "HuurwoningenTotaal_48": null, "InBezitWoningcorporatie_49": null, "InBezitOverigeVerhuurders_50": null, "BouwjaarMeerDanTienJaarGeleden_51": null, "BouwjaarAfgelopenTienJaar_52": null, "GemiddeldeElektriciteitslevering_53": 3600, "GemiddeldeElektriciteitsteruglevering_54": 0, "GemiddeldAardgasverbruik_55": 1170, "AardgasvrijeWoningen_57": null, "Aardgaswoningen_58": null, "WoningenMetZonnestroom_59": null, "WoningenHoofdzElektrVerwarmd_60": null, "k_20PersonenMetHoogsteInkomen_80": null, "k_20HuishoudensMetHoogsteInkomen_85": null, "MediaanVermogenVanParticuliereHuish_86": null, "PersonenautoSTotaal_104": 10, "PersonenautoSBrandstofBenzine_105": 5, "PersonenautoSOverigeBrandstof_106": 0, "PersonenautoSPerHuishouden_107": null, "Omgevingsadressendichtheid_121": 1195, "AantalInstallatiesBijWoningen_5": null, "OpgesteldVermogenVanZonnepanelen_6": null, "installaties_per_woning": null, "vermogen_per_woning": null, "installaties_per_100_woningen": null, "vermogen_per_huishouden": null, "batterijdruk_score": null, "koop_zon_score": null, "eengezins_zon_score": null, "betaalkracht_zon_score": null, "overige_brandstof_zon_score": null, "lichte_batterij_kansscore": null }, "geometry": { "type": "MultiPolygon", "coordinates": [ [ [ [ 4.663553733488172, 51.847399043544279 ], [ 4.664179393747466, 51.846931605397188 ], [ 4.664919938243002, 51.846368269776001 ], [ 4.665454736037762, 51.845947887734916 ], [ 4.666233595607324, 51.845347943958394 ], [ 4.666914629046684, 51.844822872594101 ], [ 4.667763359087209, 51.844165379613401 ], [ 4.667869417288853, 51.844081518225721 ], [ 4.668311429621923, 51.843732032465468 ], [ 4.668319087415002, 51.843725949099117 ], [ 4.668898508557473, 51.843266121881989 ], [ 4.669333502973927, 51.842908895091242 ], [ 4.66978676950862, 51.842500075679673 ], [ 4.670083040795949, 51.842233637600408 ], [ 4.670173005125853, 51.842149262368515 ], [ 4.67047071338342, 51.841840558504821 ], [ 4.670661267914819, 51.841643998451474 ], [ 4.670866852862593, 51.84141741784309 ], [ 4.67105301249182, 51.841181262333834 ], [ 4.671257514514246, 51.840933083717687 ], [ 4.671476198384227, 51.840660721866485 ], [ 4.6717586631982, 51.840221532558644 ], [ 4.672050113909211, 51.839765300907125 ], [ 4.672187529313937, 51.839491957272166 ], [ 4.672337289750309, 51.839216890916127 ], [ 4.672492087137448, 51.838903176892543 ], [ 4.672606187846141, 51.838650328751925 ], [ 4.67270237392471, 51.83841352406526 ], [ 4.672696579194976, 51.837726756267145 ], [ 4.672696367754277, 51.837677874722793 ], [ 4.672692542431228, 51.836791912454146 ], [ 4.672413144866725, 51.83588280762406 ], [ 4.671986907657834, 51.835038874028207 ], [ 4.671375485036284, 51.834107932085026 ], [ 4.670294571103368, 51.832527243030235 ], [ 4.670017713307899, 51.832092190895303 ], [ 4.66986545899826, 51.831832818791028 ], [ 4.669729350847565, 51.831524431148424 ], [ 4.669672290320051, 51.831374142615829 ], [ 4.669479886426721, 51.830780254400501 ], [ 4.66925780167003, 51.829854224170717 ], [ 4.66920851524057, 51.829598662811492 ], [ 4.669176559785088, 51.829354389326419 ], [ 4.669165521303681, 51.829151259025132 ], [ 4.669159323665313, 51.828922927164982 ], [ 4.669160662431747, 51.828836175922149 ], [ 4.669162446647171, 51.828720557628898 ], [ 4.669178809211342, 51.828434755444071 ], [ 4.669198399608602, 51.828147570761558 ], [ 4.66925691737886, 51.827562254595072 ], [ 4.669295079644597, 51.827232909793736 ], [ 4.669371179840045, 51.826715700272516 ], [ 4.669399624727226, 51.826555543481426 ], [ 4.669420469796854, 51.826441730687257 ], [ 4.669467487050728, 51.826224807199679 ], [ 4.669583158702928, 51.825810382112941 ], [ 4.669723924624104, 51.825298394552121 ], [ 4.669851826642969, 51.824909976225918 ], [ 4.669937183233289, 51.824683668967808 ], [ 4.670058849787281, 51.82439426736169 ], [ 4.67032583154228, 51.823828551877007 ], [ 4.67043883667622, 51.823589118876995 ], [ 4.669692322650728, 51.824170700381593 ], [ 4.668212142099438, 51.825323795046408 ], [ 4.668123721204442, 51.825401508687257 ], [ 4.667810492721673, 51.825639622599112 ], [ 4.667353826524885, 51.825992917711176 ], [ 4.667254904799552, 51.826069442719941 ], [ 4.667010367868157, 51.826258601098012 ], [ 4.666978406988129, 51.826283330553792 ], [ 4.66687426996025, 51.826363877130468 ], [ 4.666805380991243, 51.826416415551506 ], [ 4.666297501860943, 51.826803685808656 ], [ 4.665916934084405, 51.827093873106186 ], [ 4.665585430737958, 51.82735747753285 ], [ 4.665329685188516, 51.827560837528168 ], [ 4.664902161381636, 51.827891893665395 ], [ 4.664822192091489, 51.827967490579503 ], [ 4.664432381619091, 51.828357158478113 ], [ 4.664075865312009, 51.828692136439919 ], [ 4.663957558570447, 51.828819684763985 ], [ 4.663697565489699, 51.829149278812778 ], [ 4.663631997454305, 51.829233017528431 ], [ 4.663415734475207, 51.829543941397361 ], [ 4.663153117595415, 51.829909014296568 ], [ 4.662839691292326, 51.830336334173154 ], [ 4.662522776798381, 51.830753753141785 ], [ 4.662182959231776, 51.831203865385262 ], [ 4.661955876167748, 51.831507987236478 ], [ 4.661885761452074, 51.831607885470561 ], [ 4.661618231108159, 51.831528758846325 ], [ 4.661519689893033, 51.831495610746877 ], [ 4.661263825697662, 51.831411953232681 ], [ 4.661026626899694, 51.831333246526412 ], [ 4.660811859983891, 51.831262525251645 ], [ 4.660799922982608, 51.831258739066108 ], [ 4.66062600771456, 51.831203515011005 ], [ 4.660499929857629, 51.831162402430678 ], [ 4.660353138166927, 51.831113898615278 ], [ 4.66023347903635, 51.831075126588637 ], [ 4.660172314595573, 51.831055305300033 ], [ 4.659992451525295, 51.830995656991746 ], [ 4.659936703293359, 51.83106903663748 ], [ 4.659936479300124, 51.831068982216578 ], [ 4.659707704788342, 51.831390704390216 ], [ 4.659455203997806, 51.831793866433728 ], [ 4.659389063377766, 51.83199666668736 ], [ 4.659333496737511, 51.832390888525069 ], [ 4.659301781932021, 51.83270439801106 ], [ 4.659037527644355, 51.834003305324707 ], [ 4.6589035233208, 51.835191253238335 ], [ 4.658848706739208, 51.835876747922342 ], [ 4.658783721629203, 51.83651476336113 ], [ 4.658739404437187, 51.83688873388796 ], [ 4.658731090359042, 51.837064797987395 ], [ 4.658693659527232, 51.837520095643882 ], [ 4.658710758031818, 51.837984198068405 ], [ 4.658770192889971, 51.838534927973029 ], [ 4.658834139431699, 51.839144955198023 ], [ 4.658939249658177, 51.839914418688139 ], [ 4.658910045048437, 51.840368073822646 ], [ 4.658715816774444, 51.840883360485947 ], [ 4.658481662813831, 51.841246839507825 ], [ 4.658227062250078, 51.841522131961078 ], [ 4.657949593995983, 51.841774421881752 ], [ 4.657356332023998, 51.842365971249777 ], [ 4.656756453513356, 51.84294308294762 ], [ 4.656668938898672, 51.843030984101048 ], [ 4.66101689004558, 51.844268082354567 ], [ 4.660755036107563, 51.846807039014678 ], [ 4.660847103367986, 51.846848150095184 ], [ 4.662182515792481, 51.84691045784102 ], [ 4.663367530211665, 51.847532347022856 ], [ 4.663553733488172, 51.847399043544279 ] ] ] ] } }
]
}
