{
"type": "FeatureCollection",
"name": "Krimpen_aan_den_IJssel",
"crs": { "type": "name", "properties": { "name": "urn:ogc:def:crs:OGC:1.3:CRS84" } },
"features": [
{ "type": "Feature", "properties": { "buurtcode": "BU05420000", "buurtnaam": "Oud Krimpen", "pc6_codes": "2921AA, 2921AB, 2921AC, 2921AD, 2921AE, 2921AG, 2921AH, 2921AJ, 2921AK, 2921AL, 2921AM, 2921AN, 2921AP, 2921AR, 2921AS, 2921AT, 2921AV, 2921AW, 2921AX, 2921AZ, 2921BA, 2921BB, 2921BC, 2921BD, 2921BE, 2921BG, 2921BH, 2921BJ, 2921BK, 2921BL, 2921BM, 2921BN, 2921BP, 2921LA, 2921LB, 2921LC, 2921LD, 2921LE, 2921LG, 2921LH, 2921LK, 2921LL, 2921LM, 2921LN, 2921LP, 2921LR, 2921LS, 2921LT, 2921LV, 2921LW, 2921LX, 2921LZ, 2921XA, 2921XB, 2921XC, 2921XD, 2921XE, 2921XG, 2921XH, 2921XJ, 2921XK, 2921XL, 2921XM, 2921XN, 2921XP, 2921XR, 2921XS", "wijkcode": "WK054200", "gemeentecode": "GM0542", "gemeentenaam": "Krimpen aan den IJssel", "oppervlakteLandInHa": 161, "AantalInwoners_5": 2310, "Mannen_6": 1210, "Vrouwen_7": 1100, "HuishoudensTotaal_29": 905, "GemiddeldeHuishoudensgrootte_33": 2.4, "Woningvoorraad_35": 836, "NieuwbouwWoningen_36": 0, "NietWoningvoorraad_37": 445, "NieuwbouwNietWoningen_38": 0, "GemiddeldeWOZWaardeVanWoningen_39": 410, "PercentageEengezinswoning_40": 86, "PercentageTussenwoningEengezins_41": 24, "PercentageHoekwoningEengezins_42": 14, "PercentageTweeOnderEenKapWoningEe_43": 28, "PercentageVrijstaandeWoningEengezins_44": 21, "PercentageMeergezinswoning_45": 14, "Koopwoningen_47": 87, "HuurwoningenTotaal_48": 13, "InBezitWoningcorporatie_49": 6, "InBezitOverigeVerhuurders_50": 7, "BouwjaarMeerDanTienJaarGeleden_51": 97, "BouwjaarAfgelopenTienJaar_52": 3, "GemiddeldeElektriciteitslevering_53": 2900, "GemiddeldeElektriciteitsteruglevering_54": 680, "GemiddeldAardgasverbruik_55": 940, "AardgasvrijeWoningen_57": 1, "Aardgaswoningen_58": 94, "WoningenMetZonnestroom_59": 33, "WoningenHoofdzElektrVerwarmd_60": 6, "k_20PersonenMetHoogsteInkomen_80": 24.1, "k_20HuishoudensMetHoogsteInkomen_85": 28.0, "MediaanVermogenVanParticuliereHuish_86": 262.6, "PersonenautoSTotaal_104": 1440, "PersonenautoSBrandstofBenzine_105": 1105, "PersonenautoSOverigeBrandstof_106": 330, "PersonenautoSPerHuishouden_107": 1.6, "Omgevingsadressendichtheid_121": 1461, "AantalInstallatiesBijWoningen_5": 213, "OpgesteldVermogenVanZonnepanelen_6": 806, "installaties_per_woning": 0.25478468899521534, "vermogen_per_woning": 0.96411483253588515, "installaties_per_100_woningen": 25.478468899521534, "vermogen_per_huishouden": 0.8906077348066298, "batterijdruk_score": 224.4, "koop_zon_score": 0.2871, "eengezins_zon_score": 0.2838, "betaalkracht_zon_score": 86.658, "overige_brandstof_zon_score": 108.9, "lichte_batterij_kansscore": 0.43744749276112305 }, "geometry": { "type": "MultiPolygon", "coordinates": [ [ [ [ 4.57950204505979, 51.916827137021222 ], [ 4.580109001276165, 51.91670181421334 ], [ 4.580824300665125, 51.916506164760449 ], [ 4.582101900584004, 51.91588768498994 ], [ 4.583016683859989, 51.915127947492969 ], [ 4.584657150075261, 51.914133275132841 ], [ 4.586307892470937, 51.91309932572041 ], [ 4.58784422637839, 51.912403333615536 ], [ 4.589095975595885, 51.911725895174499 ], [ 4.590669113588917, 51.910876467314246 ], [ 4.594956237729153, 51.908175428619415 ], [ 4.595740554206194, 51.908030675848821 ], [ 4.596750514782163, 51.907809071046394 ], [ 4.596768988757137, 51.907805020079863 ], [ 4.59659046248557, 51.907725317875105 ], [ 4.596374007949577, 51.907631413410023 ], [ 4.596361864134765, 51.907626145249402 ], [ 4.596052481990051, 51.907487219944628 ], [ 4.595842366871891, 51.907389132504584 ], [ 4.595814503878797, 51.907376154051391 ], [ 4.59569438848037, 51.907321062767188 ], [ 4.595192766207393, 51.907091043801529 ], [ 4.595173304550964, 51.907082121755941 ], [ 4.595661422887438, 51.906661856887816 ], [ 4.596744644105768, 51.905763578687676 ], [ 4.596732987206254, 51.905757587555243 ], [ 4.595099141458478, 51.904917886099518 ], [ 4.594503317367065, 51.904611670482588 ], [ 4.594489348188166, 51.904604493205639 ], [ 4.594477640089442, 51.904598472736708 ], [ 4.594451487617666, 51.904585029086249 ], [ 4.594440715575846, 51.904579491325947 ], [ 4.594428460106936, 51.904573197500312 ], [ 4.594229768046028, 51.904471067321658 ], [ 4.59422901914884, 51.90447068474537 ], [ 4.594196213459518, 51.904453825402484 ], [ 4.594145924979896, 51.90442797628134 ], [ 4.593510900543112, 51.90410159014862 ], [ 4.593270391796101, 51.904271001389752 ], [ 4.593196774752204, 51.904322853859462 ], [ 4.5931747776914, 51.904358848558751 ], [ 4.593160666705759, 51.904381934918938 ], [ 4.593139627275193, 51.904416363069998 ], [ 4.593139834425058, 51.90442602725895 ], [ 4.593140677198402, 51.904430967717573 ], [ 4.593153571916329, 51.904455360132573 ], [ 4.593164724215609, 51.904466509493211 ], [ 4.593198737735595, 51.904492303007096 ], [ 4.593213010589125, 51.904513540724977 ], [ 4.593214957735981, 51.904535764812465 ], [ 4.593208357634269, 51.904549086328402 ], [ 4.593083546265023, 51.904679854660266 ], [ 4.592868360332331, 51.904575426470032 ], [ 4.592763065728845, 51.904524333365245 ], [ 4.592520039348823, 51.904406385261353 ], [ 4.592519627273377, 51.904406185623486 ], [ 4.592464714885995, 51.904541695571346 ], [ 4.592662750585811, 51.904639644595413 ], [ 4.592592998489923, 51.904787656339984 ], [ 4.592585292734629, 51.904829814894988 ], [ 4.592555455698339, 51.904934429685504 ], [ 4.59252848401792, 51.905029023531746 ], [ 4.592437716849025, 51.905015133488611 ], [ 4.592393876685916, 51.905008428089687 ], [ 4.592342283133021, 51.905000528674918 ], [ 4.592321844030385, 51.905094654307362 ], [ 4.592273457649374, 51.905271933572962 ], [ 4.592257466638619, 51.905353640012763 ], [ 4.592245798223787, 51.905418530977514 ], [ 4.592212981832917, 51.90560117389122 ], [ 4.592133053531902, 51.905595554581552 ], [ 4.591851749422503, 51.905577956914669 ], [ 4.591843402799914, 51.905577433015971 ], [ 4.591732530203124, 51.905570498396479 ], [ 4.591474582336362, 51.905554370260745 ], [ 4.591513358302532, 51.905444072521583 ], [ 4.591476628248522, 51.905430556589458 ], [ 4.591390274834766, 51.905398799240636 ], [ 4.591454203134759, 51.905342010443313 ], [ 4.591426611967812, 51.90533023725272 ], [ 4.590231751118464, 51.904820528898576 ], [ 4.590072149913436, 51.904752445062911 ], [ 4.58957379237736, 51.904539843898306 ], [ 4.589567388772949, 51.904537112829679 ], [ 4.58874770669566, 51.904187425120213 ], [ 4.588728924441362, 51.903983273223758 ], [ 4.58872452330779, 51.903929158637524 ], [ 4.588711712462319, 51.903771716354719 ], [ 4.588825468798589, 51.903435918386286 ], [ 4.588831640229074, 51.90340752023701 ], [ 4.588831813937327, 51.903406739404915 ], [ 4.588832241661271, 51.903404746831313 ], [ 4.588846562177125, 51.903338867456895 ], [ 4.588858285666856, 51.903285033200838 ], [ 4.588903482354294, 51.903176739413944 ], [ 4.588932050566235, 51.903050696928034 ], [ 4.589098556136335, 51.902367495226628 ], [ 4.587611586244826, 51.902902916868094 ], [ 4.586300010913132, 51.903299993524129 ], [ 4.585181146958432, 51.903625913512862 ], [ 4.584191103195606, 51.903905422944163 ], [ 4.583269141292105, 51.9040500477401 ], [ 4.582673479680262, 51.904090698770858 ], [ 4.582617785066748, 51.904094497185298 ], [ 4.582034793074724, 51.90408649525601 ], [ 4.5818936168768, 51.904070408973041 ], [ 4.580795918394315, 51.90386556259633 ], [ 4.576328454045854, 51.903031720418007 ], [ 4.57292213661841, 51.903852003974563 ], [ 4.571346237701381, 51.904101412299113 ], [ 4.569462975328235, 51.904350926288089 ], [ 4.567378621783687, 51.904571457219774 ], [ 4.566826476757918, 51.904625544923789 ], [ 4.566792979423095, 51.904628825642099 ], [ 4.562911227791636, 51.905006682307132 ], [ 4.555102215286543, 51.905645259243386 ], [ 4.555087559299047, 51.905646458825899 ], [ 4.554733034938375, 51.905645682781419 ], [ 4.554101288979633, 51.905628082426425 ], [ 4.549238435294191, 51.904882125625186 ], [ 4.549870554639068, 51.906637060197973 ], [ 4.549901259191977, 51.906728487104985 ], [ 4.558576733421383, 51.908220255465388 ], [ 4.558685114943394, 51.908238888172612 ], [ 4.559387529062104, 51.908359639953062 ], [ 4.560112686325334, 51.908388457773633 ], [ 4.560825632786827, 51.908422236883432 ], [ 4.561558692785924, 51.908468737103092 ], [ 4.562259538518719, 51.908528489617936 ], [ 4.562976090269744, 51.908603628826334 ], [ 4.563692183476077, 51.908703928699161 ], [ 4.563724830884907, 51.90870993717413 ], [ 4.564362805470537, 51.908827276356647 ], [ 4.565040236579905, 51.908975836056989 ], [ 4.56572887025253, 51.909147840652402 ], [ 4.566060951067735, 51.909246470394159 ], [ 4.566395236277141, 51.909345752779842 ], [ 4.56703654399143, 51.909563261274947 ], [ 4.567661594710309, 51.909795933589443 ], [ 4.56897105837731, 51.910514262695813 ], [ 4.569475630634146, 51.910819793355031 ], [ 4.570009077643657, 51.911136308964302 ], [ 4.570523395546421, 51.911466172160807 ], [ 4.571030585442956, 51.911788792632713 ], [ 4.571183265333725, 51.911865576822002 ], [ 4.571523730321918, 51.912036797461539 ], [ 4.571712701149195, 51.912123411121712 ], [ 4.572210773105232, 51.912324526445573 ], [ 4.572562535406455, 51.912483008146872 ], [ 4.573317329089274, 51.912842570043004 ], [ 4.574669841438072, 51.913448684598606 ], [ 4.575204652616196, 51.913685366428794 ], [ 4.575518209359863, 51.913795575821069 ], [ 4.57585754506332, 51.91389490629134 ], [ 4.576259548046893, 51.914130028191572 ], [ 4.576261274004645, 51.914131037839802 ], [ 4.577151507102758, 51.914551643189654 ], [ 4.577868181576568, 51.915054461317574 ], [ 4.578683797022136, 51.91568181909215 ], [ 4.579248683939233, 51.916326144170171 ], [ 4.579454583027175, 51.91675379075064 ], [ 4.579466998208211, 51.916779575488761 ], [ 4.5794909626261, 51.916829346675257 ], [ 4.57950204505979, 51.916827137021222 ] ] ] ] } },
{ "type": "Feature", "properties": { "buurtcode": "BU05420001", "buurtnaam": "Kortland-Noord", "pc6_codes": "2921AL, 2922AA, 2922AB, 2922AC, 2922AD, 2922AE, 2922AG, 2922AH, 2922AJ, 2922AK, 2922AL, 2922AM, 2922AN, 2922AP, 2922AR, 2922AS, 2922AT, 2922BA, 2922BB, 2922BC, 2922BD, 2922BE, 2922BG, 2922BH, 2922BJ, 2922BK, 2922BL, 2922BM, 2922BN, 2922BP, 2922BR, 2922BS, 2922BT, 2922BV, 2922CA, 2922CB, 2922CC, 2922CD, 2922CE, 2922CG, 2922CH, 2922CJ, 2922CK, 2922CL, 2922CM, 2922CN, 2922CP, 2922CR, 2922CS, 2922CT, 2922CV, 2922CW, 2922CX, 2922DA, 2922DB, 2922DC, 2922DD, 2922DE, 2922DG, 2922DH, 2922DJ, 2922DK, 2922EA, 2922EB, 2922EC, 2922ED, 2922EE, 2922EG, 2922EH, 2922EJ, 2922EK, 2922EL, 2922EM, 2922EN, 2922EP, 2922ET, 2922EV, 2922EW, 2922EX, 2922EZ, 2922GA, 2922GB, 2922GC, 2922GD, 2922GE, 2922GG, 2922GH, 2922GJ, 2922GK, 2922GL, 2922GM, 2922GN, 2922GP, 2922GR, 2922GS, 2922GT, 2922HD, 2922HE, 2922HG, 2922HH, 2922HJ, 2922HL, 2922HM, 2922HN, 2922TD, 2922TE, 2922TL, 2922TM, 2922TN, 2922TP, 2922TR, 2922VA, 2922VB, 2922VC, 2922VD, 2922VE, 2922VG, 2922VH, 2922VJ, 2922VK, 2922VL, 2922VM, 2922VN, 2922VP, 2922VR, 2922VS, 2922VT, 2922VV, 2922VW, 2922VX, 2922VZ, 2922XA, 2922XB, 2922XC, 2922XD, 2922XE, 2922XG, 2922XH, 2922XJ, 2922XK, 2922XL, 2922XM, 2922XN, 2922XP, 2922XR, 2922XS, 2924AP, 2924AT, 2924AV, 2924AZ, 2924VS, 2924VT", "wijkcode": "WK054200", "gemeentecode": "GM0542", "gemeentenaam": "Krimpen aan den IJssel", "oppervlakteLandInHa": 136, "AantalInwoners_5": 7340, "Mannen_6": 3440, "Vrouwen_7": 3900, "HuishoudensTotaal_29": 3305, "GemiddeldeHuishoudensgrootte_33": 2.1, "Woningvoorraad_35": 3365, "NieuwbouwWoningen_36": 91, "NietWoningvoorraad_37": 508, "NieuwbouwNietWoningen_38": 1, "GemiddeldeWOZWaardeVanWoningen_39": 334, "PercentageEengezinswoning_40": 53, "PercentageTussenwoningEengezins_41": 27, "PercentageHoekwoningEengezins_42": 13, "PercentageTweeOnderEenKapWoningEe_43": 8, "PercentageVrijstaandeWoningEengezins_44": 5, "PercentageMeergezinswoning_45": 47, "Koopwoningen_47": 53, "HuurwoningenTotaal_48": 47, "InBezitWoningcorporatie_49": 42, "InBezitOverigeVerhuurders_50": 5, "BouwjaarMeerDanTienJaarGeleden_51": 90, "BouwjaarAfgelopenTienJaar_52": 10, "GemiddeldeElektriciteitslevering_53": 2350, "GemiddeldeElektriciteitsteruglevering_54": 500, "GemiddeldAardgasverbruik_55": 680, "AardgasvrijeWoningen_57": 8, "Aardgaswoningen_58": 83, "WoningenMetZonnestroom_59": 25, "WoningenHoofdzElektrVerwarmd_60": 15, "k_20PersonenMetHoogsteInkomen_80": 16.7, "k_20HuishoudensMetHoogsteInkomen_85": 15.4, "MediaanVermogenVanParticuliereHuish_86": 118.8, "PersonenautoSTotaal_104": 3240, "PersonenautoSBrandstofBenzine_105": 2810, "PersonenautoSOverigeBrandstof_106": 430, "PersonenautoSPerHuishouden_107": 1.0, "Omgevingsadressendichtheid_121": 2453, "AantalInstallatiesBijWoningen_5": 643, "OpgesteldVermogenVanZonnepanelen_6": 2402, "installaties_per_woning": 0.19108469539375927, "vermogen_per_woning": 0.71381872213967312, "installaties_per_100_woningen": 19.108469539375928, "vermogen_per_huishouden": 0.72677760968229954, "batterijdruk_score": 125.0, "koop_zon_score": 0.1325, "eengezins_zon_score": 0.1325, "betaalkracht_zon_score": 29.7, "overige_brandstof_zon_score": 107.5, "lichte_batterij_kansscore": 0.28401713397125838 }, "geometry": { "type": "MultiPolygon", "coordinates": [ [ [ [ 4.600323477771486, 51.92334916658934 ], [ 4.60020086848271, 51.923216326446926 ], [ 4.601322810842802, 51.922317668074996 ], [ 4.6024903239452, 51.92262787515547 ], [ 4.602514137510199, 51.92256819604183 ], [ 4.602527803968847, 51.922485199248293 ], [ 4.602664013905157, 51.922380359198691 ], [ 4.603332052316643, 51.921901391314485 ], [ 4.603617208070708, 51.921661580693637 ], [ 4.6038651889969, 51.921451735976795 ], [ 4.603952008406626, 51.921376778717601 ], [ 4.604064309972165, 51.92124156433232 ], [ 4.604127490173932, 51.921121128873892 ], [ 4.604153761987529, 51.921015554677375 ], [ 4.604240447028216, 51.920948150340507 ], [ 4.604747556218337, 51.920588959720959 ], [ 4.604809285900827, 51.920551603165855 ], [ 4.60483555722674, 51.92044602881456 ], [ 4.60478801238277, 51.92037017745858 ], [ 4.604996971905813, 51.920296032365933 ], [ 4.605414869295689, 51.920185887695268 ], [ 4.605198176055285, 51.920089515762584 ], [ 4.605154813006475, 51.920070229839453 ], [ 4.603844413911877, 51.919356741254219 ], [ 4.603268090161274, 51.919062454405051 ], [ 4.602539121844994, 51.918431196291195 ], [ 4.601845090317658, 51.917640899434581 ], [ 4.601656528950394, 51.917364896905042 ], [ 4.599545296427487, 51.916117736128825 ], [ 4.598174322956438, 51.915338519638546 ], [ 4.596556129488868, 51.914459062002649 ], [ 4.596156294350621, 51.914232118913624 ], [ 4.595928471361602, 51.914199866732183 ], [ 4.595138486518592, 51.913832472052547 ], [ 4.593938725151251, 51.913129447242596 ], [ 4.593340920526523, 51.912658002129795 ], [ 4.589194000464865, 51.911775156054993 ], [ 4.589095975595885, 51.911725895174499 ], [ 4.58784422637839, 51.912403333615536 ], [ 4.586307892470937, 51.91309932572041 ], [ 4.584657150075261, 51.914133275132841 ], [ 4.583016683859989, 51.915127947492969 ], [ 4.582101900584004, 51.91588768498994 ], [ 4.580824300665125, 51.916506164760449 ], [ 4.580109001276165, 51.91670181421334 ], [ 4.57950204505979, 51.916827137021222 ], [ 4.5794909626261, 51.916829346675257 ], [ 4.580271772091539, 51.91845098541669 ], [ 4.580360157486605, 51.918661207157811 ], [ 4.580449047947673, 51.918891926379011 ], [ 4.580581849560089, 51.919105868457031 ], [ 4.580731997253975, 51.919325322568 ], [ 4.580904399971745, 51.919519760958792 ], [ 4.581137850267879, 51.919714617739075 ], [ 4.581280382417908, 51.919868175343495 ], [ 4.581317539768719, 51.919908206604198 ], [ 4.581525801169049, 51.920129855787756 ], [ 4.581824986861883, 51.920307184439515 ], [ 4.582117068400164, 51.920475475024361 ], [ 4.582310974055381, 51.920559129838573 ], [ 4.58241134597426, 51.920602432197519 ], [ 4.582717044159066, 51.92074115200834 ], [ 4.58283977557917, 51.920776929833337 ], [ 4.583061227166139, 51.920841483183175 ], [ 4.583379730630947, 51.920914671845829 ], [ 4.583711268614332, 51.920990645327521 ], [ 4.584061639275092, 51.92107034199654 ], [ 4.584407714825021, 51.921146412828705 ], [ 4.585152421118332, 51.921286325945417 ], [ 4.58552198117452, 51.921349969636125 ], [ 4.585869819391042, 51.92140896976673 ], [ 4.586222371542329, 51.921448226004273 ], [ 4.586589331598563, 51.921494770215752 ], [ 4.586921471500824, 51.921537480770638 ], [ 4.587309845467147, 51.921606936702375 ], [ 4.587657454930393, 51.921678217414154 ], [ 4.587994788057419, 51.921756015885791 ], [ 4.588136699023215, 51.921796073982854 ], [ 4.588275401992997, 51.921835225622957 ], [ 4.588557326724582, 51.921922533352564 ], [ 4.588879552949597, 51.922032585672746 ], [ 4.589188539128949, 51.922151535840655 ], [ 4.589477097290377, 51.922274840868461 ], [ 4.589774155173151, 51.922410786911001 ], [ 4.58987481931285, 51.922461194814154 ], [ 4.590115451873513, 51.922569710472374 ], [ 4.590439159095936, 51.922730356473281 ], [ 4.590523617659591, 51.922774892260996 ], [ 4.590745799426394, 51.922897681330802 ], [ 4.590964625172436, 51.923013031628201 ], [ 4.591265262868008, 51.923164898962014 ], [ 4.591611451122958, 51.923351149670687 ], [ 4.591837341009748, 51.923457782221398 ], [ 4.592109524608365, 51.923589643914667 ], [ 4.592749163833707, 51.923921594719886 ], [ 4.593130659307938, 51.924103072829908 ], [ 4.593803119865308, 51.924408183774574 ], [ 4.593959354235942, 51.924476154798164 ], [ 4.594126579812297, 51.924548908001483 ], [ 4.594386395044153, 51.924642587141925 ], [ 4.594651313384095, 51.924735491131912 ], [ 4.594661344883985, 51.924739603641356 ], [ 4.59483264776841, 51.924809710102345 ], [ 4.595124292810653, 51.924928806214439 ], [ 4.595490845137962, 51.925060846351009 ], [ 4.595826010163941, 51.925183874183631 ], [ 4.595849463249742, 51.925193622918556 ], [ 4.595910253484142, 51.925218903625236 ], [ 4.59639300733984, 51.925420809527878 ], [ 4.596962150172555, 51.925642718576839 ], [ 4.597838494878725, 51.925969904262274 ], [ 4.598155516867304, 51.926082933153623 ], [ 4.600323477771486, 51.92334916658934 ] ] ] ] } },
{ "type": "Feature", "properties": { "buurtcode": "BU05420002", "buurtnaam": "Kortland-Zuid", "pc6_codes": "2923AA, 2923AB, 2923AC, 2923AD, 2923AE, 2923AG, 2923AH, 2923AJ, 2923AK, 2923AL, 2923AM, 2923AN, 2923AP, 2923AR, 2923AS, 2923AT, 2923BA, 2923BB, 2923BC, 2923BD, 2923BE, 2923BG, 2923BH, 2923BJ, 2923BK, 2923BL, 2923BM, 2923BN, 2923BP, 2923BR, 2923BS, 2923CA, 2923CB, 2923CC, 2923CD, 2923CE, 2923CG, 2923CH, 2923CJ, 2923CK, 2923CL, 2923CM, 2923CN, 2923CP, 2923CR, 2923CS, 2923CT, 2923CV, 2923CW, 2923CX, 2923EA, 2923EB, 2923EC, 2923ED, 2923EE, 2923EG, 2923EH, 2923EJ, 2923EK, 2923EL, 2923EM, 2923EN, 2923EP, 2923ER, 2923ES, 2923ET, 2923GA, 2923GB, 2923GC, 2923GD, 2923GE, 2923GG, 2923GH, 2923GJ, 2923GK, 2923GL, 2923GM, 2923GN, 2923GP, 2923GR, 2923LA, 2923TA, 2923TB, 2923TC, 2923TD, 2923TE, 2923TG, 2923TH, 2923TJ, 2923TK, 2923TL, 2923TM, 2923TN, 2923TP, 2923VA, 2923VB, 2923VC, 2923VD, 2923VE, 2923VG, 2923VH, 2923VJ, 2923VK, 2923VL, 2923VN, 2923VP, 2923VR, 2923XA, 2923XB, 2923XC, 2923XD, 2923XE, 2923XG, 2923XH, 2923XJ, 2923XK, 2923XL, 2923XM, 2923XN, 2923XP, 2923XR, 2923XS, 2923XT, 2926PT, 2926PX, 2926RB, 2926RC, 2926RG, 2926RH, 2926TE, 2926TG, 2926TH", "wijkcode": "WK054200", "gemeentecode": "GM0542", "gemeentenaam": "Krimpen aan den IJssel", "oppervlakteLandInHa": 127, "AantalInwoners_5": 6595, "Mannen_6": 3195, "Vrouwen_7": 3400, "HuishoudensTotaal_29": 2775, "GemiddeldeHuishoudensgrootte_33": 2.4, "Woningvoorraad_35": 2788, "NieuwbouwWoningen_36": 0, "NietWoningvoorraad_37": 321, "NieuwbouwNietWoningen_38": 0, "GemiddeldeWOZWaardeVanWoningen_39": 355, "PercentageEengezinswoning_40": 70, "PercentageTussenwoningEengezins_41": 43, "PercentageHoekwoningEengezins_42": 20, "PercentageTweeOnderEenKapWoningEe_43": 3, "PercentageVrijstaandeWoningEengezins_44": 3, "PercentageMeergezinswoning_45": 30, "Koopwoningen_47": 57, "HuurwoningenTotaal_48": 43, "InBezitWoningcorporatie_49": 39, "InBezitOverigeVerhuurders_50": 4, "BouwjaarMeerDanTienJaarGeleden_51": 99, "BouwjaarAfgelopenTienJaar_52": 1, "GemiddeldeElektriciteitslevering_53": 2550, "GemiddeldeElektriciteitsteruglevering_54": 650, "GemiddeldAardgasverbruik_55": 730, "AardgasvrijeWoningen_57": 5, "Aardgaswoningen_58": 80, "WoningenMetZonnestroom_59": 34, "WoningenHoofdzElektrVerwarmd_60": 20, "k_20PersonenMetHoogsteInkomen_80": 18.3, "k_20HuishoudensMetHoogsteInkomen_85": 20.0, "MediaanVermogenVanParticuliereHuish_86": 139.1, "PersonenautoSTotaal_104": 2770, "PersonenautoSBrandstofBenzine_105": 2360, "PersonenautoSOverigeBrandstof_106": 415, "PersonenautoSPerHuishouden_107": 1.0, "Omgevingsadressendichtheid_121": 2068, "AantalInstallatiesBijWoningen_5": 713, "OpgesteldVermogenVanZonnepanelen_6": 2501, "installaties_per_woning": 0.25573888091822095, "vermogen_per_woning": 0.8970588235294118, "installaties_per_100_woningen": 25.573888091822095, "vermogen_per_huishouden": 0.90126126126126127, "batterijdruk_score": 221.00000000000003, "koop_zon_score": 0.1938, "eengezins_zon_score": 0.238, "betaalkracht_zon_score": 47.294, "overige_brandstof_zon_score": 141.1, "lichte_batterij_kansscore": 0.34808147133952161 }, "geometry": { "type": "MultiPolygon", "coordinates": [ [ [ [ 4.607778305026383, 51.918318488094329 ], [ 4.608754124107347, 51.917678680811768 ], [ 4.609302956641731, 51.917321891715773 ], [ 4.610421763855578, 51.916546305564182 ], [ 4.61088482184817, 51.916499651556791 ], [ 4.61150778538873, 51.916503764433294 ], [ 4.61204941418953, 51.916558956530245 ], [ 4.612209807682355, 51.916424323946337 ], [ 4.61289786133512, 51.91605498911494 ], [ 4.613957750480595, 51.915866744761992 ], [ 4.615346494905923, 51.916088228494395 ], [ 4.615602145400143, 51.915252843006662 ], [ 4.616302403467487, 51.91442065522228 ], [ 4.617649191624416, 51.913522473826426 ], [ 4.619389434472242, 51.912474323165227 ], [ 4.620019804389069, 51.911984909296244 ], [ 4.620915189205108, 51.911214921351394 ], [ 4.622154580986226, 51.90995110767156 ], [ 4.62291629957528, 51.909091471924981 ], [ 4.617297377064893, 51.908432616847612 ], [ 4.609836650584678, 51.913277741506469 ], [ 4.599902974127153, 51.908631430046405 ], [ 4.599048584797607, 51.90830652605375 ], [ 4.597920497134984, 51.908274461261378 ], [ 4.597415249146348, 51.908260096324696 ], [ 4.597417429411816, 51.908135985150473 ], [ 4.597304636538933, 51.908028835842785 ], [ 4.59704882624064, 51.907902992168658 ], [ 4.596832645615713, 51.907814071002726 ], [ 4.596826281267643, 51.907811452957084 ], [ 4.596799011656437, 51.907818422711756 ], [ 4.596768988757137, 51.907805020079863 ], [ 4.596750514782163, 51.907809071046394 ], [ 4.595740554206194, 51.908030675848821 ], [ 4.594956237729153, 51.908175428619415 ], [ 4.590669113588917, 51.910876467314246 ], [ 4.589095975595885, 51.911725895174499 ], [ 4.589194000464865, 51.911775156054993 ], [ 4.593340920526523, 51.912658002129795 ], [ 4.593938725151251, 51.913129447242596 ], [ 4.595138486518592, 51.913832472052547 ], [ 4.595928471361602, 51.914199866732183 ], [ 4.596156294350621, 51.914232118913624 ], [ 4.596556129488868, 51.914459062002649 ], [ 4.598174322956438, 51.915338519638546 ], [ 4.599545296427487, 51.916117736128825 ], [ 4.601656528950394, 51.917364896905042 ], [ 4.601845090317658, 51.917640899434581 ], [ 4.602539121844994, 51.918431196291195 ], [ 4.603268090161274, 51.919062454405051 ], [ 4.603844413911877, 51.919356741254219 ], [ 4.605154813006475, 51.920070229839453 ], [ 4.605198176055285, 51.920089515762584 ], [ 4.607778305026383, 51.918318488094329 ] ] ] ] } },
{ "type": "Feature", "properties": { "buurtcode": "BU05420003", "buurtnaam": "Boveneind", "pc6_codes": "2924AA, 2924AB, 2924AC, 2924AD, 2924AE, 2924AG, 2924AH, 2924AJ, 2924AK, 2924AL, 2924AM, 2924AN, 2924AP, 2924AR, 2924AS, 2924AT, 2924AV, 2924AW, 2924AX, 2924AZ, 2924BA, 2924BB, 2924BC, 2924BD, 2924BE, 2924BG, 2924BH, 2924BJ, 2924BK, 2924BL, 2924BM, 2924BN, 2924BP, 2924BR, 2924BS, 2924BT, 2924BV, 2924BW, 2924BX, 2924BZ, 2924TA, 2924TB, 2924TC, 2924TD, 2924TE, 2924TG, 2924TH, 2924TJ, 2924TK, 2924TL, 2924TM, 2924VA, 2924VB, 2924VC, 2924VD, 2924VE, 2924VG, 2924VH, 2924VJ, 2924VK, 2924VL, 2924VM, 2924VN, 2924VP, 2924VR, 2924XA, 2924XB, 2924XC, 2924XD, 2924XE, 2924XG, 2924XH, 2924XJ, 2924XK, 2924XL, 2924XM, 2924XN, 2924XP", "wijkcode": "WK054200", "gemeentecode": "GM0542", "gemeentenaam": "Krimpen aan den IJssel", "oppervlakteLandInHa": 79, "AantalInwoners_5": 4040, "Mannen_6": 1965, "Vrouwen_7": 2070, "HuishoudensTotaal_29": 1680, "GemiddeldeHuishoudensgrootte_33": 2.3, "Woningvoorraad_35": 1789, "NieuwbouwWoningen_36": 0, "NietWoningvoorraad_37": 172, "NieuwbouwNietWoningen_38": 0, "GemiddeldeWOZWaardeVanWoningen_39": 401, "PercentageEengezinswoning_40": 75, "PercentageTussenwoningEengezins_41": 42, "PercentageHoekwoningEengezins_42": 17, "PercentageTweeOnderEenKapWoningEe_43": 5, "PercentageVrijstaandeWoningEengezins_44": 10, "PercentageMeergezinswoning_45": 25, "Koopwoningen_47": 54, "HuurwoningenTotaal_48": 46, "InBezitWoningcorporatie_49": 36, "InBezitOverigeVerhuurders_50": 10, "BouwjaarMeerDanTienJaarGeleden_51": 99, "BouwjaarAfgelopenTienJaar_52": 1, "GemiddeldeElektriciteitslevering_53": 2610, "GemiddeldeElektriciteitsteruglevering_54": 800, "GemiddeldAardgasverbruik_55": 880, "AardgasvrijeWoningen_57": 2, "Aardgaswoningen_58": 94, "WoningenMetZonnestroom_59": 39, "WoningenHoofdzElektrVerwarmd_60": 6, "k_20PersonenMetHoogsteInkomen_80": 20.3, "k_20HuishoudensMetHoogsteInkomen_85": 23.1, "MediaanVermogenVanParticuliereHuish_86": 178.6, "PersonenautoSTotaal_104": 1840, "PersonenautoSBrandstofBenzine_105": 1535, "PersonenautoSOverigeBrandstof_106": 305, "PersonenautoSPerHuishouden_107": 1.1, "Omgevingsadressendichtheid_121": 1903, "AantalInstallatiesBijWoningen_5": 422, "OpgesteldVermogenVanZonnepanelen_6": 1612, "installaties_per_woning": 0.23588596981553941, "vermogen_per_woning": 0.90106204583566241, "installaties_per_100_woningen": 23.588596981553941, "vermogen_per_huishouden": 0.95952380952380956, "batterijdruk_score": 312.0, "koop_zon_score": 0.2106, "eengezins_zon_score": 0.2925, "betaalkracht_zon_score": 69.654, "overige_brandstof_zon_score": 118.95, "lichte_batterij_kansscore": 0.36446958462309154 }, "geometry": { "type": "MultiPolygon", "coordinates": [ [ [ [ 4.617732675943641, 51.931030779709509 ], [ 4.617786369320284, 51.930992776822123 ], [ 4.617864345722319, 51.930939427506715 ], [ 4.617999940049777, 51.9308481188123 ], [ 4.618169580875263, 51.930733365728457 ], [ 4.61829026885174, 51.930643846797125 ], [ 4.618403876838459, 51.930566137390237 ], [ 4.618633337523772, 51.930409474522506 ], [ 4.618843502761031, 51.930277430682786 ], [ 4.618922756218758, 51.930225778871993 ], [ 4.618991562627397, 51.930177950801649 ], [ 4.619002903885257, 51.930171139651989 ], [ 4.619007824609367, 51.930168223548968 ], [ 4.619254364911983, 51.930019248458912 ], [ 4.619318710566408, 51.929979714491211 ], [ 4.619176252833785, 51.929938676852672 ], [ 4.61907213701688, 51.929908684854333 ], [ 4.61907002592131, 51.929884186150915 ], [ 4.619115222415778, 51.929838711561146 ], [ 4.619245591200077, 51.929731232789116 ], [ 4.619329519336165, 51.929662047544447 ], [ 4.619351640448974, 51.929643819356464 ], [ 4.619351235685992, 51.929643681883981 ], [ 4.619261689041797, 51.929612850392644 ], [ 4.619233857026098, 51.929605369854201 ], [ 4.619192324876235, 51.929596406579677 ], [ 4.619175779667043, 51.929595498508881 ], [ 4.619160476016514, 51.929596809739252 ], [ 4.619148432469623, 51.929599634371691 ], [ 4.619130970054747, 51.929609003245858 ], [ 4.619125966012491, 51.929611694094959 ], [ 4.619106455069343, 51.929605661120981 ], [ 4.619027687825653, 51.929581326716139 ], [ 4.619037285586548, 51.929574432262363 ], [ 4.619043409334261, 51.929570031913123 ], [ 4.619051461539077, 51.929564241944327 ], [ 4.619835512119609, 51.929000825164309 ], [ 4.620048520600215, 51.928846425156379 ], [ 4.620739827349185, 51.928345326257123 ], [ 4.621243996997399, 51.927978300407055 ], [ 4.62258494804534, 51.927029790134029 ], [ 4.622824788916915, 51.926867811495313 ], [ 4.623445991399711, 51.926437430582276 ], [ 4.623664845769236, 51.92628526246407 ], [ 4.623240347707184, 51.926061842846444 ], [ 4.622757328631339, 51.92576906001208 ], [ 4.622467846481136, 51.92557408075691 ], [ 4.622333687166957, 51.925428387386738 ], [ 4.622278011834536, 51.92525906571467 ], [ 4.622005586098811, 51.925209019526619 ], [ 4.621871430854629, 51.925063323838707 ], [ 4.621776515613147, 51.924905817214096 ], [ 4.621358855105496, 51.924215194725718 ], [ 4.621090755474457, 51.923911735818052 ], [ 4.620520481537132, 51.923014951703998 ], [ 4.620081280819221, 51.922444868311857 ], [ 4.61975424284204, 51.922165158629483 ], [ 4.619253420996086, 51.921775697306444 ], [ 4.618654200235213, 51.921433863745953 ], [ 4.617937688297338, 51.921103328536923 ], [ 4.617257739040572, 51.920917849107376 ], [ 4.616536900204139, 51.920840714982667 ], [ 4.615640631796455, 51.920750356066726 ], [ 4.614489419274131, 51.92073072503765 ], [ 4.612457927108603, 51.92082596963732 ], [ 4.610242365078623, 51.920973695626991 ], [ 4.610209671601385, 51.920965534497576 ], [ 4.609351215752072, 51.921010417835575 ], [ 4.608021271756126, 51.920999643793998 ], [ 4.60701898896087, 51.92078541458833 ], [ 4.606948036942512, 51.920770618496839 ], [ 4.606827880229541, 51.920744540393386 ], [ 4.606529490775277, 51.920681604595181 ], [ 4.605414869295689, 51.920185887695268 ], [ 4.604996971905813, 51.920296032365933 ], [ 4.60478801238277, 51.92037017745858 ], [ 4.60483555722674, 51.92044602881456 ], [ 4.604809285900827, 51.920551603165855 ], [ 4.604747556218337, 51.920588959720959 ], [ 4.604240447028216, 51.920948150340507 ], [ 4.604153761987529, 51.921015554677375 ], [ 4.604127490173932, 51.921121128873892 ], [ 4.604064309972165, 51.92124156433232 ], [ 4.603952008406626, 51.921376778717601 ], [ 4.6038651889969, 51.921451735976795 ], [ 4.603617208070708, 51.921661580693637 ], [ 4.603332052316643, 51.921901391314485 ], [ 4.602664013905157, 51.922380359198691 ], [ 4.602527803968847, 51.922485199248293 ], [ 4.602514137510199, 51.92256819604183 ], [ 4.6024903239452, 51.92262787515547 ], [ 4.601322810842802, 51.922317668074996 ], [ 4.60020086848271, 51.923216326446926 ], [ 4.600323477771486, 51.92334916658934 ], [ 4.598155516867304, 51.926082933153623 ], [ 4.598237898843504, 51.926112304464226 ], [ 4.598598892064044, 51.926233286441921 ], [ 4.599153899378462, 51.926402731279701 ], [ 4.599510300051591, 51.926483248882199 ], [ 4.599777206255035, 51.926536110263939 ], [ 4.600029127906094, 51.92657627765908 ], [ 4.600309220909388, 51.926606781571977 ], [ 4.60065476871755, 51.926633084655172 ], [ 4.600970086461582, 51.92664633982335 ], [ 4.601193069039866, 51.926649592705211 ], [ 4.601238752807832, 51.926650257690831 ], [ 4.601683265604117, 51.926651026564407 ], [ 4.601715930357321, 51.926651083031345 ], [ 4.602440366830772, 51.926620398322591 ], [ 4.603168670109358, 51.926543021160505 ], [ 4.603502280872602, 51.926496904948557 ], [ 4.603837015355353, 51.926449671705129 ], [ 4.604598807055952, 51.926315727842763 ], [ 4.60530101603428, 51.926148295724403 ], [ 4.605314153697396, 51.926145255071866 ], [ 4.605654804786958, 51.926045131124212 ], [ 4.605896267884907, 51.925977038560454 ], [ 4.606052498964385, 51.925931893361295 ], [ 4.606215080645686, 51.9258893968412 ], [ 4.606430845468482, 51.925830076115354 ], [ 4.606477160383593, 51.925817799671755 ], [ 4.606641349946893, 51.925773084069967 ], [ 4.606654375937483, 51.925768927940112 ], [ 4.606775186976201, 51.925741523804078 ], [ 4.60700877290508, 51.925692342624096 ], [ 4.607053916098789, 51.925682388922596 ], [ 4.607351461923441, 51.925616784173691 ], [ 4.607382333929661, 51.925612198045982 ], [ 4.607940533615812, 51.925506777980758 ], [ 4.60811025470795, 51.925476604608505 ], [ 4.608825492574085, 51.925387231977844 ], [ 4.608875934617748, 51.925383386262901 ], [ 4.609515055156748, 51.925337208032495 ], [ 4.610724389426066, 51.925341094383263 ], [ 4.610778059789732, 51.925348127405186 ], [ 4.61146734756461, 51.925452810958966 ], [ 4.612111863083648, 51.925625598494143 ], [ 4.612119607672432, 51.925628382090785 ], [ 4.612676125860332, 51.925828208238755 ], [ 4.612715041502455, 51.925843619405619 ], [ 4.613046779805465, 51.925992219761618 ], [ 4.613235697823601, 51.926077237429801 ], [ 4.613448710205698, 51.926197531826233 ], [ 4.613705459250065, 51.926342131142249 ], [ 4.613748941820261, 51.926365086477297 ], [ 4.614332257356439, 51.926768582783467 ], [ 4.61447532087923, 51.926867400055869 ], [ 4.614663909155374, 51.927000717927072 ], [ 4.614717156362357, 51.927036743560535 ], [ 4.614884907675995, 51.927188063127097 ], [ 4.615037347505576, 51.927326023700992 ], [ 4.615067855534443, 51.927353639293337 ], [ 4.615202625238236, 51.927504660862745 ], [ 4.615380201787554, 51.927705454512207 ], [ 4.615434310431687, 51.92776589848404 ], [ 4.615677257892356, 51.928096205971769 ], [ 4.615788718314005, 51.928251873766477 ], [ 4.615816133646519, 51.92829370679145 ], [ 4.615928064983021, 51.928462653684726 ], [ 4.616035619250157, 51.928627454976869 ], [ 4.616165764938728, 51.9288204307584 ], [ 4.616256025266395, 51.928952660608907 ], [ 4.616313443640975, 51.929037296177171 ], [ 4.616469395680425, 51.929267788407891 ], [ 4.616528899825139, 51.929358019451911 ], [ 4.616673091162907, 51.929569027931471 ], [ 4.616799397295487, 51.929759838512723 ], [ 4.617012577200761, 51.930067863023247 ], [ 4.61720993235401, 51.930350912055118 ], [ 4.617330863059358, 51.930523907392185 ], [ 4.617492086675592, 51.930754531567324 ], [ 4.617629454397471, 51.930946788869079 ], [ 4.617703932821042, 51.931050141757837 ], [ 4.617732675943641, 51.931030779709509 ] ] ] ] } },
{ "type": "Feature", "properties": { "buurtcode": "BU05420004", "buurtnaam": "Langeland", "pc6_codes": "2924LA, 2924LB, 2925AA, 2925AB, 2925AC, 2925AD, 2925AE, 2925AG, 2925AH, 2925AN, 2925AP, 2925AR, 2925AS, 2925AT, 2925AV, 2925AW, 2925BA, 2925BB, 2925BC, 2925BD, 2925BE, 2925BG, 2925BH, 2925BJ, 2925BK, 2925BL, 2925BM, 2925BN, 2925BP, 2925BR, 2925BS, 2925BT, 2925BV, 2925BW, 2925BX, 2925BZ, 2925CA, 2925CB, 2925CC, 2925CD, 2925CE, 2925CG, 2925CH, 2925CJ, 2925CK, 2925CL, 2925CM, 2925CN, 2925CP, 2925CR, 2925CS, 2925CT, 2925CV, 2925CW, 2925CX, 2925CZ, 2925DA, 2925DB, 2925DC, 2925DD, 2925DE, 2925DG, 2925DH, 2925DJ, 2925DK, 2925DL, 2925DM, 2925DN, 2925EA, 2925EB, 2925EC, 2925ED, 2925EE, 2925EG, 2925EH, 2925EJ, 2925EK, 2925EL, 2925EM, 2925EN, 2925EP, 2925ER, 2925ES, 2925ET, 2925EV, 2925EW, 2925EX, 2925EZ, 2925LA, 2925LB, 2925LC, 2925SK, 2925SL, 2925SM, 2925SN, 2925SP, 2925TA, 2925TB, 2925TC, 2925TD, 2925TE, 2925TG, 2925TH, 2925TJ, 2925VA, 2925VB, 2925VC, 2925VD, 2925VE, 2925VG, 2925VH, 2925VJ, 2925VK, 2925VL, 2925VM, 2925VN, 2925VP, 2925XB, 2925XC, 2925XD, 2925XE, 2925XG, 2925XH", "wijkcode": "WK054200", "gemeentecode": "GM0542", "gemeentenaam": "Krimpen aan den IJssel", "oppervlakteLandInHa": 220, "AantalInwoners_5": 7055, "Mannen_6": 3385, "Vrouwen_7": 3670, "HuishoudensTotaal_29": 2845, "GemiddeldeHuishoudensgrootte_33": 2.5, "Woningvoorraad_35": 2844, "NieuwbouwWoningen_36": 0, "NietWoningvoorraad_37": 333, "NieuwbouwNietWoningen_38": 1, "GemiddeldeWOZWaardeVanWoningen_39": 399, "PercentageEengezinswoning_40": 87, "PercentageTussenwoningEengezins_41": 58, "PercentageHoekwoningEengezins_42": 24, "PercentageTweeOnderEenKapWoningEe_43": 2, "PercentageVrijstaandeWoningEengezins_44": 3, "PercentageMeergezinswoning_45": 13, "Koopwoningen_47": 62, "HuurwoningenTotaal_48": 38, "InBezitWoningcorporatie_49": 37, "InBezitOverigeVerhuurders_50": 1, "BouwjaarMeerDanTienJaarGeleden_51": 100, "BouwjaarAfgelopenTienJaar_52": 0, "GemiddeldeElektriciteitslevering_53": 2620, "GemiddeldeElektriciteitsteruglevering_54": 900, "GemiddeldAardgasverbruik_55": 930, "AardgasvrijeWoningen_57": 1, "Aardgaswoningen_58": 95, "WoningenMetZonnestroom_59": 50, "WoningenHoofdzElektrVerwarmd_60": 5, "k_20PersonenMetHoogsteInkomen_80": 21.0, "k_20HuishoudensMetHoogsteInkomen_85": 25.6, "MediaanVermogenVanParticuliereHuish_86": 200.4, "PersonenautoSTotaal_104": 3240, "PersonenautoSBrandstofBenzine_105": 2725, "PersonenautoSOverigeBrandstof_106": 520, "PersonenautoSPerHuishouden_107": 1.1, "Omgevingsadressendichtheid_121": 1686, "AantalInstallatiesBijWoningen_5": 844, "OpgesteldVermogenVanZonnepanelen_6": 2996, "installaties_per_woning": 0.29676511954992968, "vermogen_per_woning": 1.0534458509142053, "installaties_per_100_woningen": 29.676511954992968, "vermogen_per_huishouden": 1.0530755711775044, "batterijdruk_score": 450.0, "koop_zon_score": 0.31, "eengezins_zon_score": 0.435, "betaalkracht_zon_score": 100.2, "overige_brandstof_zon_score": 260.0, "lichte_batterij_kansscore": 0.43314914727971632 }, "geometry": { "type": "MultiPolygon", "coordinates": [ [ [ [ 4.623920335358617, 51.926107619063181 ], [ 4.624519195063482, 51.925684395178145 ], [ 4.625146139933876, 51.92524180914647 ], [ 4.625783634138249, 51.924788510814132 ], [ 4.626164021142896, 51.924520031050008 ], [ 4.626706082641852, 51.924134584949421 ], [ 4.626886539232269, 51.924008437906359 ], [ 4.627291481220569, 51.923725381046275 ], [ 4.628307424079626, 51.923017872859404 ], [ 4.628961476877237, 51.922563352004822 ], [ 4.629737129144794, 51.922035877787671 ], [ 4.630197022332911, 51.921715260213887 ], [ 4.630587080973759, 51.921433715093457 ], [ 4.630645167444139, 51.921391787771441 ], [ 4.630717648689844, 51.921338268795715 ], [ 4.630726701603507, 51.921331576626862 ], [ 4.633080840540332, 51.919669963205514 ], [ 4.63742821384569, 51.916616208217505 ], [ 4.642298480646039, 51.91319328368894 ], [ 4.642526358758717, 51.913033103939789 ], [ 4.643018854951971, 51.912569406466481 ], [ 4.643019107417908, 51.912569168968631 ], [ 4.64288456915706, 51.912505693557748 ], [ 4.642782955449674, 51.912457752069479 ], [ 4.642761220754736, 51.912472166927891 ], [ 4.642747604565032, 51.912477294063912 ], [ 4.642729554990551, 51.912480694273832 ], [ 4.642720134378036, 51.912481722220768 ], [ 4.642482575419972, 51.912381612429975 ], [ 4.642391322902203, 51.91234960110593 ], [ 4.642314247504809, 51.912327737790463 ], [ 4.642270218674282, 51.91231576458879 ], [ 4.642211652544087, 51.912303986860358 ], [ 4.642151293985333, 51.9123030199992 ], [ 4.642100600306256, 51.912308208640312 ], [ 4.64197623351008, 51.912261659249907 ], [ 4.641956979040567, 51.912254454156837 ], [ 4.642000959729637, 51.912223731381232 ], [ 4.642051647342493, 51.912197860005342 ], [ 4.641402021331203, 51.911976071962343 ], [ 4.641304975329071, 51.911942944392621 ], [ 4.640783590912906, 51.911772698283876 ], [ 4.640616774157448, 51.911718228550903 ], [ 4.640280292961483, 51.911615427454628 ], [ 4.639366905126971, 51.911352006239667 ], [ 4.638591809734383, 51.911135219724962 ], [ 4.638260962839702, 51.91104807085928 ], [ 4.638040319554808, 51.910978746836982 ], [ 4.637814154157827, 51.910907679354416 ], [ 4.637686494475203, 51.910872582815514 ], [ 4.637558762631894, 51.910837467699373 ], [ 4.636772409948574, 51.91061003568926 ], [ 4.636271531284857, 51.91042003551977 ], [ 4.636023016240133, 51.9103178200942 ], [ 4.63576774241655, 51.910229628075328 ], [ 4.635397480090973, 51.91013716747738 ], [ 4.635225198572744, 51.910073900173003 ], [ 4.63515167434999, 51.910070418543057 ], [ 4.634265636664545, 51.909900973309824 ], [ 4.633879852207564, 51.909862663631252 ], [ 4.633374919259344, 51.909825530057937 ], [ 4.632707037581402, 51.909721857408783 ], [ 4.63267808818646, 51.909662922076826 ], [ 4.630212669975505, 51.909369374425111 ], [ 4.630206331632272, 51.909368623500193 ], [ 4.629925924409158, 51.909320579682372 ], [ 4.629383509960921, 51.909262468668601 ], [ 4.628924426312316, 51.909208865784329 ], [ 4.626756692189325, 51.908955726777201 ], [ 4.626033135389346, 51.908869956598998 ], [ 4.623368587215142, 51.908554058566445 ], [ 4.623217754783032, 51.908536175081629 ], [ 4.623009594536419, 51.908986741996515 ], [ 4.62291629957528, 51.909091471924981 ], [ 4.622154580986226, 51.90995110767156 ], [ 4.620915189205108, 51.911214921351394 ], [ 4.620019804389069, 51.911984909296244 ], [ 4.619389434472242, 51.912474323165227 ], [ 4.617649191624416, 51.913522473826426 ], [ 4.616302403467487, 51.91442065522228 ], [ 4.615602145400143, 51.915252843006662 ], [ 4.615346494905923, 51.916088228494395 ], [ 4.613957750480595, 51.915866744761992 ], [ 4.61289786133512, 51.91605498911494 ], [ 4.612209807682355, 51.916424323946337 ], [ 4.61204941418953, 51.916558956530245 ], [ 4.61150778538873, 51.916503764433294 ], [ 4.61088482184817, 51.916499651556791 ], [ 4.610421763855578, 51.916546305564182 ], [ 4.609302956641731, 51.917321891715773 ], [ 4.608754124107347, 51.917678680811768 ], [ 4.607778305026383, 51.918318488094329 ], [ 4.605198176055285, 51.920089515762584 ], [ 4.605414869295689, 51.920185887695268 ], [ 4.606529490775277, 51.920681604595181 ], [ 4.606827880229541, 51.920744540393386 ], [ 4.606948036942512, 51.920770618496839 ], [ 4.60701898896087, 51.92078541458833 ], [ 4.608021271756126, 51.920999643793998 ], [ 4.609351215752072, 51.921010417835575 ], [ 4.610209671601385, 51.920965534497576 ], [ 4.610242365078623, 51.920973695626991 ], [ 4.612457927108603, 51.92082596963732 ], [ 4.614489419274131, 51.92073072503765 ], [ 4.615640631796455, 51.920750356066726 ], [ 4.616536900204139, 51.920840714982667 ], [ 4.617257739040572, 51.920917849107376 ], [ 4.617937688297338, 51.921103328536923 ], [ 4.618654200235213, 51.921433863745953 ], [ 4.619253420996086, 51.921775697306444 ], [ 4.61975424284204, 51.922165158629483 ], [ 4.620081280819221, 51.922444868311857 ], [ 4.620520481537132, 51.923014951703998 ], [ 4.621090755474457, 51.923911735818052 ], [ 4.621358855105496, 51.924215194725718 ], [ 4.621776515613147, 51.924905817214096 ], [ 4.621871430854629, 51.925063323838707 ], [ 4.622005586098811, 51.925209019526619 ], [ 4.622278011834536, 51.92525906571467 ], [ 4.622333687166957, 51.925428387386738 ], [ 4.622467846481136, 51.92557408075691 ], [ 4.622757328631339, 51.92576906001208 ], [ 4.623240347707184, 51.926061842846444 ], [ 4.623664845769236, 51.92628526246407 ], [ 4.623920335358617, 51.926107619063181 ] ] ] ] } },
{ "type": "Feature", "properties": { "buurtcode": "BU05420005", "buurtnaam": "Lansingh-Zuid", "pc6_codes": "2926PA, 2926PB, 2926PC, 2926PD, 2926PE, 2926PG, 2926PH, 2926PJ, 2926PK, 2926PL, 2926PM, 2926PN, 2926PP, 2926PR, 2926PS, 2926PT, 2926PV, 2926PW, 2926PX, 2926PZ, 2926RA, 2926RC, 2926RD, 2926RE, 2926RG, 2926RJ, 2926RK, 2926TA, 2926TB, 2926TC, 2926TD, 2926TE, 2926TJ, 2926VC, 2926VD, 2926VE, 2926VG, 2926VH, 2926VJ", "wijkcode": "WK054200", "gemeentecode": "GM0542", "gemeentenaam": "Krimpen aan den IJssel", "oppervlakteLandInHa": 43, "AantalInwoners_5": 2290, "Mannen_6": 1075, "Vrouwen_7": 1215, "HuishoudensTotaal_29": 980, "GemiddeldeHuishoudensgrootte_33": 2.3, "Woningvoorraad_35": 994, "NieuwbouwWoningen_36": 0, "NietWoningvoorraad_37": 17, "NieuwbouwNietWoningen_38": 0, "GemiddeldeWOZWaardeVanWoningen_39": 448, "PercentageEengezinswoning_40": 54, "PercentageTussenwoningEengezins_41": 34, "PercentageHoekwoningEengezins_42": 17, "PercentageTweeOnderEenKapWoningEe_43": 1, "PercentageVrijstaandeWoningEengezins_44": 3, "PercentageMeergezinswoning_45": 46, "Koopwoningen_47": 70, "HuurwoningenTotaal_48": 30, "InBezitWoningcorporatie_49": 25, "InBezitOverigeVerhuurders_50": 4, "BouwjaarMeerDanTienJaarGeleden_51": 99, "BouwjaarAfgelopenTienJaar_52": 1, "GemiddeldeElektriciteitslevering_53": 2610, "GemiddeldeElektriciteitsteruglevering_54": 910, "GemiddeldAardgasverbruik_55": 680, "AardgasvrijeWoningen_57": 3, "Aardgaswoningen_58": 93, "WoningenMetZonnestroom_59": 41, "WoningenHoofdzElektrVerwarmd_60": 6, "k_20PersonenMetHoogsteInkomen_80": 26.3, "k_20HuishoudensMetHoogsteInkomen_85": 30.6, "MediaanVermogenVanParticuliereHuish_86": 311.5, "PersonenautoSTotaal_104": 1175, "PersonenautoSBrandstofBenzine_105": 955, "PersonenautoSOverigeBrandstof_106": 220, "PersonenautoSPerHuishouden_107": 1.2, "Omgevingsadressendichtheid_121": 1515, "AantalInstallatiesBijWoningen_5": 238, "OpgesteldVermogenVanZonnepanelen_6": 995, "installaties_per_woning": 0.23943661971830985, "vermogen_per_woning": 1.0010060362173039, "installaties_per_100_woningen": 23.943661971830984, "vermogen_per_huishouden": 1.0153061224489797, "batterijdruk_score": 373.1, "koop_zon_score": 0.287, "eengezins_zon_score": 0.2214, "betaalkracht_zon_score": 127.715, "overige_brandstof_zon_score": 90.2, "lichte_batterij_kansscore": 0.3601444083534952 }, "geometry": { "type": "MultiPolygon", "coordinates": [ [ [ [ 4.617297377064893, 51.908432616847612 ], [ 4.62291629957528, 51.909091471924981 ], [ 4.623009594536419, 51.908986741996515 ], [ 4.623217754783032, 51.908536175081629 ], [ 4.622110687089203, 51.908404907960055 ], [ 4.621456327457928, 51.908330022711588 ], [ 4.620278219222888, 51.908246791409645 ], [ 4.618173422657859, 51.908144598391203 ], [ 4.618135770452759, 51.90814277000861 ], [ 4.618081430879321, 51.90813861221919 ], [ 4.618042925880816, 51.908135663637701 ], [ 4.61786229096295, 51.908124189334444 ], [ 4.61770922761925, 51.90811339864473 ], [ 4.61745610567782, 51.90809500424534 ], [ 4.617317557652598, 51.908085242930518 ], [ 4.617142758359927, 51.908072475432618 ], [ 4.616986983074308, 51.908060524476682 ], [ 4.616759104173783, 51.908043031071891 ], [ 4.616498673623404, 51.908025449600451 ], [ 4.616267976702209, 51.90801128951481 ], [ 4.616050343958086, 51.907996333814815 ], [ 4.615796421648194, 51.907980618178087 ], [ 4.615488131006042, 51.907959915859301 ], [ 4.615251662108834, 51.907942551880467 ], [ 4.61503766159873, 51.907928534998625 ], [ 4.614926399005455, 51.907925161263876 ], [ 4.614777745356589, 51.90792084955288 ], [ 4.614615313981369, 51.907907278691681 ], [ 4.614356625775893, 51.907895798201309 ], [ 4.614301090368969, 51.907891918432298 ], [ 4.614248129446792, 51.907888756681658 ], [ 4.61403331995889, 51.907877869674799 ], [ 4.613828719566238, 51.907865728130282 ], [ 4.613572636139208, 51.907850694571337 ], [ 4.613331753905461, 51.907834825735364 ], [ 4.613045193290701, 51.907816561169618 ], [ 4.613042523760289, 51.907816300891938 ], [ 4.612766823070931, 51.907789379234202 ], [ 4.612482310029666, 51.907765329126498 ], [ 4.612278790336786, 51.907749560600415 ], [ 4.6120148138414, 51.907728799775931 ], [ 4.611829148806791, 51.907711710059182 ], [ 4.61168344650374, 51.907699800539326 ], [ 4.611508589458698, 51.907689711861124 ], [ 4.611212593465947, 51.907670913132307 ], [ 4.610905775582129, 51.90764931862104 ], [ 4.610747614369603, 51.907639375046216 ], [ 4.610447351077736, 51.907616941755897 ], [ 4.610088293453869, 51.90759173695151 ], [ 4.609798194237875, 51.907569845605288 ], [ 4.609533470262681, 51.907550413555605 ], [ 4.609396432308229, 51.90754175847723 ], [ 4.609087405611144, 51.907521933326407 ], [ 4.608854490368884, 51.907504391217635 ], [ 4.608484543442787, 51.907479540837599 ], [ 4.608277626401676, 51.90746625068266 ], [ 4.608159549797006, 51.907458672625509 ], [ 4.607814244995905, 51.907435835135331 ], [ 4.607379692964591, 51.907408152840119 ], [ 4.60705692556026, 51.907385507609241 ], [ 4.606619529511628, 51.907355116019659 ], [ 4.6063591370162, 51.90733662241486 ], [ 4.606011716004246, 51.907311059981502 ], [ 4.605939063667514, 51.907311305103846 ], [ 4.605268469719408, 51.907281524249576 ], [ 4.604917194897857, 51.907265362002832 ], [ 4.604584693552508, 51.907255202287324 ], [ 4.604004717594808, 51.907233406285613 ], [ 4.603933560027798, 51.90725463059745 ], [ 4.603927176082031, 51.907256538581244 ], [ 4.603818981193681, 51.907286585492173 ], [ 4.603785767508377, 51.907296988647943 ], [ 4.603781296172817, 51.907298388033134 ], [ 4.60372809033663, 51.907313529736079 ], [ 4.603687768330961, 51.907324874224614 ], [ 4.603681487333764, 51.907326710972477 ], [ 4.603598767157217, 51.907354284862919 ], [ 4.603475926351741, 51.907389141594784 ], [ 4.603447175045714, 51.907366972660064 ], [ 4.603414265444402, 51.907341585022323 ], [ 4.603413060991581, 51.907340651160752 ], [ 4.603411669988054, 51.907339581225592 ], [ 4.603372910992883, 51.90728710778216 ], [ 4.603381860265015, 51.90725225563834 ], [ 4.603391550302552, 51.907207422068296 ], [ 4.603395455287854, 51.907189327037955 ], [ 4.603408740913199, 51.907116634721703 ], [ 4.60331297134864, 51.907110836487767 ], [ 4.603215030186574, 51.907104565268824 ], [ 4.603109876398437, 51.90709688856343 ], [ 4.602987990683538, 51.907089504601913 ], [ 4.602882792230258, 51.907082726257769 ], [ 4.60273335951745, 51.907073306526513 ], [ 4.60259190409544, 51.90706394885278 ], [ 4.6024388322902, 51.907054046030446 ], [ 4.602290838312706, 51.9070446353428 ], [ 4.602174114465201, 51.907034606399499 ], [ 4.602032567440783, 51.907028842891222 ], [ 4.601875135649799, 51.907019800078146 ], [ 4.601780093032764, 51.907014005450577 ], [ 4.601653098613963, 51.907007925265255 ], [ 4.601531909530664, 51.907001452299127 ], [ 4.601463716333003, 51.906997697556484 ], [ 4.601383088457616, 51.906996978683672 ], [ 4.601288633455571, 51.906997479628494 ], [ 4.601188336074142, 51.906998831296526 ], [ 4.60105981131784, 51.906996335686358 ], [ 4.600992909776006, 51.906999330783663 ], [ 4.60093546844573, 51.907001517238974 ], [ 4.600822108549345, 51.907002745245428 ], [ 4.600755130600581, 51.907008445274109 ], [ 4.600681009946014, 51.907009576180222 ], [ 4.600570908371622, 51.907014780748753 ], [ 4.600537005311363, 51.9070163785048 ], [ 4.600491868606354, 51.907020471799882 ], [ 4.600325859994315, 51.907036510695946 ], [ 4.600185370957086, 51.907049187728234 ], [ 4.600031001836032, 51.907064441246867 ], [ 4.600016379712956, 51.907067902803306 ], [ 4.599947847563457, 51.90707852672103 ], [ 4.599839178793515, 51.907097331014192 ], [ 4.599656899904269, 51.907126266509707 ], [ 4.599680535655255, 51.907140860640261 ], [ 4.599564702679285, 51.90715465494759 ], [ 4.599443010236151, 51.907171097465515 ], [ 4.599329193793385, 51.907192545395631 ], [ 4.59917524148766, 51.907221283535947 ], [ 4.599124925691635, 51.907229817918207 ], [ 4.599032929070082, 51.907249218653931 ], [ 4.59897682468631, 51.907256356867677 ], [ 4.598846869248817, 51.907284860025939 ], [ 4.598738694721708, 51.907313545127849 ], [ 4.598504824315817, 51.90737392549277 ], [ 4.598410593785025, 51.90739802978365 ], [ 4.597982953804676, 51.907511723330899 ], [ 4.597691350922819, 51.9075882174984 ], [ 4.597237484195286, 51.907706397253854 ], [ 4.597122596385334, 51.907735745852122 ], [ 4.596845478015818, 51.907806546627192 ], [ 4.596826281267643, 51.907811452957084 ], [ 4.596832645615713, 51.907814071002726 ], [ 4.59704882624064, 51.907902992168658 ], [ 4.597304636538933, 51.908028835842785 ], [ 4.597417429411816, 51.908135985150473 ], [ 4.597415249146348, 51.908260096324696 ], [ 4.597920497134984, 51.908274461261378 ], [ 4.599048584797607, 51.90830652605375 ], [ 4.599902974127153, 51.908631430046405 ], [ 4.609836650584678, 51.913277741506469 ], [ 4.617297377064893, 51.908432616847612 ] ] ] ] } }
]
}
