{
"type": "FeatureCollection",
"name": "Maassluis",
"crs": { "type": "name", "properties": { "name": "urn:ogc:def:crs:EPSG::28992" } },
"features": [
{ "type": "Feature", "properties": { "buurtcode": "BU05560101", "buurtnaam": "Taanschuurpolder", "pc6_codes": "3143AA, 3143AB, 3143AC, 3143AD, 3143AE, 3143AG, 3143AH, 3143AJ, 3143AK, 3143AL, 3143AM, 3143AN, 3143AP, 3143AS, 3143AT, 3143BB, 3143BC, 3143BD, 3143BE, 3143BG, 3143BH, 3143BJ, 3143BK, 3143BL, 3143BM, 3143BN, 3143CA, 3143CB, 3143CC, 3143CD, 3143CE, 3143CG, 3143CH, 3143CJ, 3143CK, 3143CL, 3143CM, 3143CN, 3143CP, 3143CR, 3143CS, 3143DA, 3143DB, 3143DC, 3143DD, 3143DE, 3143DG, 3143KA, 3143KB, 3143KC, 3143KD, 3143KE, 3143KG, 3143KH, 3143KJ, 3143KK, 3143LA, 3143LB, 3143LC, 3143LD, 3143LE, 3143LG, 3143LH, 3143LJ, 3143LK, 3143LL, 3143LM, 3143LP, 3143LR, 3143LS", "wijkcode": "WK055601", "gemeentecode": "GM0556", "gemeentenaam": "Maassluis", "oppervlakteLandInHa": 46, "AantalInwoners_5": 2915, "Mannen_6": 1435, "Vrouwen_7": 1480, "HuishoudensTotaal_29": 1370, "GemiddeldeHuishoudensgrootte_33": 2.1, "Woningvoorraad_35": 1372, "NieuwbouwWoningen_36": 106, "NietWoningvoorraad_37": 142, "NieuwbouwNietWoningen_38": 1, "GemiddeldeWOZWaardeVanWoningen_39": 326, "PercentageEengezinswoning_40": 57, "PercentageTussenwoningEengezins_41": 44, "PercentageHoekwoningEengezins_42": 10, "PercentageTweeOnderEenKapWoningEe_43": 2, "PercentageVrijstaandeWoningEengezins_44": 1, "PercentageMeergezinswoning_45": 43, "Koopwoningen_47": 68, "HuurwoningenTotaal_48": 32, "InBezitWoningcorporatie_49": 26, "InBezitOverigeVerhuurders_50": 6, "BouwjaarMeerDanTienJaarGeleden_51": 80, "BouwjaarAfgelopenTienJaar_52": 20, "GemiddeldeElektriciteitslevering_53": 2530, "GemiddeldeElektriciteitsteruglevering_54": 560, "GemiddeldAardgasverbruik_55": 660, "AardgasvrijeWoningen_57": 21, "Aardgaswoningen_58": 78, "WoningenMetZonnestroom_59": 30, "WoningenHoofdzElektrVerwarmd_60": 22, "k_20PersonenMetHoogsteInkomen_80": 20.3, "k_20HuishoudensMetHoogsteInkomen_85": 18.8, "MediaanVermogenVanParticuliereHuish_86": 112.0, "PersonenautoSTotaal_104": 1380, "PersonenautoSBrandstofBenzine_105": 1135, "PersonenautoSOverigeBrandstof_106": 245, "PersonenautoSPerHuishouden_107": 1.0, "Omgevingsadressendichtheid_121": 2217, "AantalInstallatiesBijWoningen_5": 204, "OpgesteldVermogenVanZonnepanelen_6": 730, "installaties_per_woning": 0.14868804664723032, "vermogen_per_woning": 0.53206997084548102, "installaties_per_100_woningen": 14.868804664723031, "vermogen_per_huishouden": 0.53284671532846717, "batterijdruk_score": 168.0, "koop_zon_score": 0.204, "eengezins_zon_score": 0.171, "betaalkracht_zon_score": 33.6, "overige_brandstof_zon_score": 73.5, "lichte_batterij_kansscore": 0.33048450985372024 }, "geometry": { "type": "MultiPolygon", "coordinates": [ [ [ [ 76986.61019999999553, 437596.5268 ], [ 77007.948699999993551, 437610.542100000020582 ], [ 77259.837799999993877, 437288.044899999978952 ], [ 77263.389500000004773, 437280.370899999979883 ], [ 77298.575800000005984, 437204.346000000019558 ], [ 77325.387700000006589, 437100.09250000002794 ], [ 77359.512000000002445, 436996.4486 ], [ 77352.199600000007194, 436858.663300000014715 ], [ 77302.592699999993783, 436772.310899999982212 ], [ 77125.322100000004866, 436347.762800000025891 ], [ 77117.168000000005122, 436352.952 ], [ 77094.085999999995693, 436366.900000000023283 ], [ 77026.346000000005006, 436406.913999999989755 ], [ 77002.929000000003725, 436421.327 ], [ 76949.073999999993248, 436453.879000000015367 ], [ 76862.399000000004889, 436503.210000000020955 ], [ 76813.413, 436529.887999999977183 ], [ 76772.936000000001513, 436551.395000000018626 ], [ 76682.565000000002328, 436598.726000000024214 ], [ 76595.410000000003492, 436643.162000000011176 ], [ 76502.823999999993248, 436686.563000000023749 ], [ 76414.145000000004075, 436728.945 ], [ 76381.794999999998254, 436745.531000000017229 ], [ 76360.887000000002445, 436756.25099999998929 ], [ 76358.862699999997858, 436757.25089999998454 ], [ 76712.426999999996042, 437263.8296 ], [ 76822.082800000003772, 437420.941999999980908 ], [ 76972.594899999996414, 437617.8653 ], [ 76986.61019999999553, 437596.5268 ] ] ] ] } },
{ "type": "Feature", "properties": { "buurtcode": "BU05560201", "buurtnaam": "Vertobuurt", "pc6_codes": "3141SX, 3142BA, 3142BB, 3142BC, 3142BD, 3142BE, 3142BG, 3142BH, 3142BJ, 3142BK, 3142BL, 3142BM, 3142BN, 3142BP, 3142BR, 3142BS, 3142BT, 3142BV, 3142BW, 3142BX, 3142BZ, 3142CA, 3142CB, 3142CC, 3142CD, 3142CE, 3142CG, 3142CH, 3142CJ, 3142CK, 3142CL, 3142CM, 3142CN, 3142CP, 3142CR, 3142CS, 3142EA, 3142EB, 3142EC, 3142ED, 3142EE, 3142GA, 3142GB, 3142GC, 3142GD, 3142GE, 3142GG, 3142GH, 3142GJ, 3142GK, 3142GL, 3142GM, 3142JA, 3142JB, 3142JC, 3142JD, 3142JE, 3142JG, 3142JH, 3142NN", "wijkcode": "WK055602", "gemeentecode": "GM0556", "gemeentenaam": "Maassluis", "oppervlakteLandInHa": 33, "AantalInwoners_5": 2745, "Mannen_6": 1350, "Vrouwen_7": 1395, "HuishoudensTotaal_29": 1210, "GemiddeldeHuishoudensgrootte_33": 2.2, "Woningvoorraad_35": 1260, "NieuwbouwWoningen_36": 0, "NietWoningvoorraad_37": 168, "NieuwbouwNietWoningen_38": 0, "GemiddeldeWOZWaardeVanWoningen_39": 305, "PercentageEengezinswoning_40": 63, "PercentageTussenwoningEengezins_41": 45, "PercentageHoekwoningEengezins_42": 15, "PercentageTweeOnderEenKapWoningEe_43": 2, "PercentageVrijstaandeWoningEengezins_44": 2, "PercentageMeergezinswoning_45": 37, "Koopwoningen_47": 37, "HuurwoningenTotaal_48": 63, "InBezitWoningcorporatie_49": 51, "InBezitOverigeVerhuurders_50": 13, "BouwjaarMeerDanTienJaarGeleden_51": 98, "BouwjaarAfgelopenTienJaar_52": 2, "GemiddeldeElektriciteitslevering_53": 2190, "GemiddeldeElektriciteitsteruglevering_54": 570, "GemiddeldAardgasverbruik_55": 780, "AardgasvrijeWoningen_57": 1, "Aardgaswoningen_58": 96, "WoningenMetZonnestroom_59": 37, "WoningenHoofdzElektrVerwarmd_60": 4, "k_20PersonenMetHoogsteInkomen_80": 17.2, "k_20HuishoudensMetHoogsteInkomen_85": 17.2, "MediaanVermogenVanParticuliereHuish_86": 31.6, "PersonenautoSTotaal_104": 1175, "PersonenautoSBrandstofBenzine_105": 990, "PersonenautoSOverigeBrandstof_106": 185, "PersonenautoSPerHuishouden_107": 1.0, "Omgevingsadressendichtheid_121": 2695, "AantalInstallatiesBijWoningen_5": 137, "OpgesteldVermogenVanZonnepanelen_6": 439, "installaties_per_woning": 0.10873015873015873, "vermogen_per_woning": 0.3484126984126984, "installaties_per_100_woningen": 10.873015873015873, "vermogen_per_huishouden": 0.36280991735537188, "batterijdruk_score": 210.9, "koop_zon_score": 0.1369, "eengezins_zon_score": 0.2331, "betaalkracht_zon_score": 11.692, "overige_brandstof_zon_score": 68.45, "lichte_batterij_kansscore": 0.29371444229935628 }, "geometry": { "type": "MultiPolygon", "coordinates": [ [ [ [ 77512.186000000001513, 438238.73599999997532 ], [ 77515.89, 438230.816 ], [ 77540.471000000005006, 438178.544999999983702 ], [ 77565.765, 438189.299999999988358 ], [ 77566.168600000004517, 438189.1899 ], [ 77587.172999999995227, 438183.454000000027008 ], [ 77636.123999999996158, 438169.321999999985565 ], [ 77669.167000000001281, 438146.73499999998603 ], [ 77669.44199999999546, 438146.547000000020489 ], [ 77716.265, 438114.815 ], [ 77716.365000000005239, 438114.74900000001071 ], [ 77723.756999999997788, 438109.831 ], [ 77752.426999999996042, 438057.07 ], [ 77753.13300000000163, 438055.51 ], [ 77760.089999999996508, 438040.14000000001397 ], [ 77760.868000000002212, 438038.347 ], [ 77816.926000000006752, 438064.075000000011642 ], [ 77825.679000000003725, 438058.684 ], [ 77827.75, 438057.408 ], [ 77835.930999999996857, 438051.976000000024214 ], [ 77839.637000000002445, 438049.51500000001397 ], [ 77887.462, 438019.69 ], [ 77545.487999999997555, 437862.325100000016391 ], [ 77272.5392, 437730.086000000010245 ], [ 77078.80460000000312, 437636.224800000025425 ], [ 77042.243000000002212, 437638.663400000019465 ], [ 77007.948699999993551, 437610.542100000020582 ], [ 76986.61019999999553, 437596.5268 ], [ 76972.594899999996414, 437617.8653 ], [ 76943.7932, 437668.842 ], [ 76930.99659999999858, 437671.2807 ], [ 76913.934500000003027, 437704.8125 ], [ 76749.407099999996717, 437912.100199999986216 ], [ 76679.203099999998813, 438007.626800000027288 ], [ 76704.721900000004098, 438030.987000000022817 ], [ 76670.749800000005052, 438055.0366 ], [ 76654.433900000003632, 438072.157200000016019 ], [ 76661.198999999993248, 438092.462799999979325 ], [ 76678.111799999998766, 438112.967799999983981 ], [ 76704.142099999997299, 438091.497299999988172 ], [ 76720.396699999997509, 438078.931600000010803 ], [ 76753.476299999994808, 438055.590000000025611 ], [ 76772.0432, 438046.346499999985099 ], [ 76801.528699999995297, 438043.396599999978207 ], [ 76801.8753, 438013.7658 ], [ 76837.4093, 437967.737199999974109 ], [ 76858.767300000006799, 437987.8248 ], [ 76889.469899999996414, 437970.020100000023376 ], [ 76929.350399999995716, 438011.2327 ], [ 76957.459199999997509, 438022.820400000025984 ], [ 77505.313899999993737, 438248.6702 ], [ 77505.31600000000617, 438248.668 ], [ 77507.218999999997322, 438249.357000000018161 ], [ 77512.186000000001513, 438238.73599999997532 ] ] ] ] } },
{ "type": "Feature", "properties": { "buurtcode": "BU05560202", "buurtnaam": "Bloemenbuurt", "pc6_codes": "3142NA, 3142NB, 3142NC, 3142ND, 3142NE, 3142NG, 3142NH, 3142NK, 3142NL, 3142NM, 3142NN, 3142NP, 3142NR, 3142NS, 3142NT, 3142NV, 3142NW, 3142NX, 3142PA, 3142PB, 3142PC, 3142PD", "wijkcode": "WK055602", "gemeentecode": "GM0556", "gemeentenaam": "Maassluis", "oppervlakteLandInHa": 14, "AantalInwoners_5": 850, "Mannen_6": 385, "Vrouwen_7": 465, "HuishoudensTotaal_29": 485, "GemiddeldeHuishoudensgrootte_33": 1.7, "Woningvoorraad_35": 487, "NieuwbouwWoningen_36": 0, "NietWoningvoorraad_37": 11, "NieuwbouwNietWoningen_38": 0, "GemiddeldeWOZWaardeVanWoningen_39": 234, "PercentageEengezinswoning_40": 12, "PercentageTussenwoningEengezins_41": 8, "PercentageHoekwoningEengezins_42": 3, "PercentageTweeOnderEenKapWoningEe_43": 1, "PercentageVrijstaandeWoningEengezins_44": 0, "PercentageMeergezinswoning_45": 88, "Koopwoningen_47": 16, "HuurwoningenTotaal_48": 84, "InBezitWoningcorporatie_49": 83, "InBezitOverigeVerhuurders_50": 1, "BouwjaarMeerDanTienJaarGeleden_51": 100, "BouwjaarAfgelopenTienJaar_52": 0, "GemiddeldeElektriciteitslevering_53": 1930, "GemiddeldeElektriciteitsteruglevering_54": 50, "GemiddeldAardgasverbruik_55": 690, "AardgasvrijeWoningen_57": 0, "Aardgaswoningen_58": 100, "WoningenMetZonnestroom_59": 7, "WoningenHoofdzElektrVerwarmd_60": 0, "k_20PersonenMetHoogsteInkomen_80": 5.9, "k_20HuishoudensMetHoogsteInkomen_85": 3.3, "MediaanVermogenVanParticuliereHuish_86": 11.2, "PersonenautoSTotaal_104": 305, "PersonenautoSBrandstofBenzine_105": 260, "PersonenautoSOverigeBrandstof_106": 45, "PersonenautoSPerHuishouden_107": 0.6, "Omgevingsadressendichtheid_121": 2517, "AantalInstallatiesBijWoningen_5": 54, "OpgesteldVermogenVanZonnepanelen_6": 112, "installaties_per_woning": 0.11088295687885011, "vermogen_per_woning": 0.2299794661190965, "installaties_per_100_woningen": 11.088295687885012, "vermogen_per_huishouden": 0.2309278350515464, "batterijdruk_score": 3.5, "koop_zon_score": 0.0112, "eengezins_zon_score": 0.0084, "betaalkracht_zon_score": 0.784, "overige_brandstof_zon_score": 3.15, "lichte_batterij_kansscore": 0.072237002325224647 }, "geometry": { "type": "MultiPolygon", "coordinates": [ [ [ [ 77333.152600000001257, 438367.392400000011548 ], [ 77373.848100000002887, 438352.5221 ], [ 77408.365099999995437, 438334.6444 ], [ 77429.48399999999674, 438327.419999999983702 ], [ 77440.679999999993015, 438315.755 ], [ 77456.304000000003725, 438299.476000000024214 ], [ 77505.313899999993737, 438248.6702 ], [ 76957.459199999997509, 438022.820400000025984 ], [ 76929.350399999995716, 438011.2327 ], [ 76889.469899999996414, 437970.020100000023376 ], [ 76858.767300000006799, 437987.8248 ], [ 76837.4093, 437967.737199999974109 ], [ 76801.8753, 438013.7658 ], [ 76801.528699999995297, 438043.396599999978207 ], [ 76772.0432, 438046.346499999985099 ], [ 76753.476299999994808, 438055.590000000025611 ], [ 76720.396699999997509, 438078.931600000010803 ], [ 76704.142099999997299, 438091.497299999988172 ], [ 76826.04660000000149, 438202.032400000025518 ], [ 76853.324399999997695, 438210.4461 ], [ 76903.292000000001281, 438163.501500000013039 ], [ 76934.047900000005029, 438153.273500000010245 ], [ 76963.236099999994622, 438220.597 ], [ 76997.8756, 438261.5135 ], [ 77044.054300000003423, 438294.580499999981839 ], [ 77230.779899999994086, 438370.527899999986403 ], [ 77265.252299999992829, 438376.798799999989569 ], [ 77291.0196, 438377.495600000023842 ], [ 77333.152600000001257, 438367.392400000011548 ] ] ] ] } },
{ "type": "Feature", "properties": { "buurtcode": "BU05560203", "buurtnaam": "Bomendal", "pc6_codes": "3142AA, 3142AB, 3142AC, 3142AD, 3142AE, 3142AG, 3142AH, 3142AJ, 3142AK, 3142AL, 3142AM, 3142AN, 3142AP, 3142KA, 3142KB, 3142KC, 3142LA, 3142LB, 3142LC, 3142LD, 3142LE, 3142LG, 3142LH, 3142LJ, 3142LK, 3142LL, 3142LM, 3142LN, 3142LP, 3142LR, 3142LS, 3142LT", "wijkcode": "WK055602", "gemeentecode": "GM0556", "gemeentenaam": "Maassluis", "oppervlakteLandInHa": 30, "AantalInwoners_5": 2085, "Mannen_6": 970, "Vrouwen_7": 1115, "HuishoudensTotaal_29": 865, "GemiddeldeHuishoudensgrootte_33": 2.4, "Woningvoorraad_35": 877, "NieuwbouwWoningen_36": 0, "NietWoningvoorraad_37": 141, "NieuwbouwNietWoningen_38": 0, "GemiddeldeWOZWaardeVanWoningen_39": 285, "PercentageEengezinswoning_40": 50, "PercentageTussenwoningEengezins_41": 36, "PercentageHoekwoningEengezins_42": 14, "PercentageTweeOnderEenKapWoningEe_43": 1, "PercentageVrijstaandeWoningEengezins_44": 0, "PercentageMeergezinswoning_45": 50, "Koopwoningen_47": 36, "HuurwoningenTotaal_48": 64, "InBezitWoningcorporatie_49": 61, "InBezitOverigeVerhuurders_50": 3, "BouwjaarMeerDanTienJaarGeleden_51": 100, "BouwjaarAfgelopenTienJaar_52": 0, "GemiddeldeElektriciteitslevering_53": 2300, "GemiddeldeElektriciteitsteruglevering_54": 560, "GemiddeldAardgasverbruik_55": 940, "AardgasvrijeWoningen_57": 0, "Aardgaswoningen_58": 98, "WoningenMetZonnestroom_59": 30, "WoningenHoofdzElektrVerwarmd_60": 2, "k_20PersonenMetHoogsteInkomen_80": 15.7, "k_20HuishoudensMetHoogsteInkomen_85": 17.9, "MediaanVermogenVanParticuliereHuish_86": 33.2, "PersonenautoSTotaal_104": 885, "PersonenautoSBrandstofBenzine_105": 740, "PersonenautoSOverigeBrandstof_106": 145, "PersonenautoSPerHuishouden_107": 1.0, "Omgevingsadressendichtheid_121": 2230, "AantalInstallatiesBijWoningen_5": 148, "OpgesteldVermogenVanZonnepanelen_6": 543, "installaties_per_woning": 0.16875712656784492, "vermogen_per_woning": 0.61915621436716073, "installaties_per_100_woningen": 16.875712656784494, "vermogen_per_huishouden": 0.62774566473988436, "batterijdruk_score": 168.0, "koop_zon_score": 0.108, "eengezins_zon_score": 0.15, "betaalkracht_zon_score": 9.96, "overige_brandstof_zon_score": 43.5, "lichte_batterij_kansscore": 0.25072006344877978 }, "geometry": { "type": "MultiPolygon", "coordinates": [ [ [ [ 77021.044999999998254, 438836.207 ], [ 77128.885999999998603, 438688.151000000012573 ], [ 77201.178, 438591.336000000010245 ], [ 77235.627999999996973, 438544.495999999984633 ], [ 77229.190000000002328, 438542.580000000016298 ], [ 77276.080000000001746, 438479.544999999983702 ], [ 77322.187000000005355, 438418.773999999975786 ], [ 77327.755000000004657, 438420.69 ], [ 77358.638999999995576, 438391.261999999987893 ], [ 77364.198999999993248, 438386.021 ], [ 77384.726999999998952, 438370.201 ], [ 77412.955000000001746, 438344.982000000018161 ], [ 77417.813999999998487, 438339.864 ], [ 77429.48399999999674, 438327.419999999983702 ], [ 77408.365099999995437, 438334.6444 ], [ 77373.848100000002887, 438352.5221 ], [ 77333.152600000001257, 438367.392400000011548 ], [ 77291.0196, 438377.495600000023842 ], [ 77265.252299999992829, 438376.798799999989569 ], [ 77230.779899999994086, 438370.527899999986403 ], [ 77044.054300000003423, 438294.580499999981839 ], [ 76997.8756, 438261.5135 ], [ 76963.236099999994622, 438220.597 ], [ 76934.047900000005029, 438153.273500000010245 ], [ 76903.292000000001281, 438163.501500000013039 ], [ 76853.324399999997695, 438210.4461 ], [ 76826.04660000000149, 438202.032400000025518 ], [ 76826.3949, 438229.206100000010338 ], [ 76700.3551, 438407.169799999974202 ], [ 76604.685400000002119, 438523.616700000013225 ], [ 76592.150200000003679, 438538.224600000015926 ], [ 76528.60229999999865, 438612.280099999974482 ], [ 76444.833799999993062, 438641.146100000012666 ], [ 76494.9755, 438664.438000000023749 ], [ 77003.896999999997206, 438860.2621 ], [ 77021.044999999998254, 438836.207 ] ] ] ] } },
{ "type": "Feature", "properties": { "buurtcode": "BU05560301", "buurtnaam": "Sluispolder Oost", "pc6_codes": "3141GA, 3141GB, 3141GC, 3141GD, 3141GE, 3141GG, 3141GH, 3141GJ, 3141GK, 3141GL, 3141HA, 3141HB, 3141HC, 3141HD, 3141HE, 3141HG, 3141HH, 3141HJ, 3141HK, 3141HL, 3141HM, 3141HN, 3141HP, 3141HR, 3141HS, 3141HT, 3141HV, 3141JA, 3141JB, 3141JC, 3141JD, 3141JE, 3141JG, 3141JH, 3141JJ, 3141JK, 3141JL, 3141JM, 3141JN, 3141JP, 3141JR, 3141JS, 3141JT, 3141KA, 3141KB, 3141KC, 3141KD, 3141KE, 3141KG, 3141KH, 3141KJ, 3141KK, 3141KL, 3141KM, 3141KN, 3141KP, 3141KR, 3141KS, 3141KT, 3141KV, 3141XA, 3141XB, 3141XC, 3141XD, 3141XE, 3141XG, 3141XH, 3141XJ, 3141XK, 3141XL, 3141XM, 3141XN, 3141XP, 3141XR, 3141XS, 3141XT, 3141XV, 3141XW, 3143LK", "wijkcode": "WK055603", "gemeentecode": "GM0556", "gemeentenaam": "Maassluis", "oppervlakteLandInHa": 50, "AantalInwoners_5": 3350, "Mannen_6": 1685, "Vrouwen_7": 1665, "HuishoudensTotaal_29": 1640, "GemiddeldeHuishoudensgrootte_33": 2.0, "Woningvoorraad_35": 1640, "NieuwbouwWoningen_36": 0, "NietWoningvoorraad_37": 304, "NieuwbouwNietWoningen_38": 0, "GemiddeldeWOZWaardeVanWoningen_39": 278, "PercentageEengezinswoning_40": 33, "PercentageTussenwoningEengezins_41": 22, "PercentageHoekwoningEengezins_42": 9, "PercentageTweeOnderEenKapWoningEe_43": 1, "PercentageVrijstaandeWoningEengezins_44": 1, "PercentageMeergezinswoning_45": 67, "Koopwoningen_47": 54, "HuurwoningenTotaal_48": 46, "InBezitWoningcorporatie_49": 38, "InBezitOverigeVerhuurders_50": 8, "BouwjaarMeerDanTienJaarGeleden_51": 100, "BouwjaarAfgelopenTienJaar_52": 0, "GemiddeldeElektriciteitslevering_53": 2110, "GemiddeldeElektriciteitsteruglevering_54": 370, "GemiddeldAardgasverbruik_55": 770, "AardgasvrijeWoningen_57": 1, "Aardgaswoningen_58": 97, "WoningenMetZonnestroom_59": 18, "WoningenHoofdzElektrVerwarmd_60": 3, "k_20PersonenMetHoogsteInkomen_80": 16.1, "k_20HuishoudensMetHoogsteInkomen_85": 14.6, "MediaanVermogenVanParticuliereHuish_86": 75.5, "PersonenautoSTotaal_104": 1530, "PersonenautoSBrandstofBenzine_105": 1275, "PersonenautoSOverigeBrandstof_106": 255, "PersonenautoSPerHuishouden_107": 0.9, "Omgevingsadressendichtheid_121": 1873, "AantalInstallatiesBijWoningen_5": 224, "OpgesteldVermogenVanZonnepanelen_6": 826, "installaties_per_woning": 0.13658536585365855, "vermogen_per_woning": 0.50365853658536586, "installaties_per_100_woningen": 13.658536585365855, "vermogen_per_huishouden": 0.50365853658536586, "batterijdruk_score": 66.6, "koop_zon_score": 0.0972, "eengezins_zon_score": 0.0594, "betaalkracht_zon_score": 13.59, "overige_brandstof_zon_score": 45.9, "lichte_batterij_kansscore": 0.22517754901080883 }, "geometry": { "type": "MultiPolygon", "coordinates": [ [ [ [ 78321.694000000003143, 437818.435999999986961 ], [ 78334.479000000006636, 437817.041000000026543 ], [ 78334.967000000004191, 437816.988000000012107 ], [ 78336.182, 437816.821999999985565 ], [ 78365.9366, 437779.7611 ], [ 78366.635200000004261, 437732.2389 ], [ 78459.7782, 437456.026599999982864 ], [ 78290.718599999992875, 437349.258199999982025 ], [ 78029.912200000006123, 437162.0896 ], [ 77426.683099999994738, 436838.812199999985751 ], [ 77352.199600000007194, 436858.663300000014715 ], [ 77359.512000000002445, 436996.4486 ], [ 77325.387700000006589, 437100.09250000002794 ], [ 77298.575800000005984, 437204.346000000019558 ], [ 77263.389500000004773, 437280.370899999979883 ], [ 77449.581999999994878, 437373.420999999972992 ], [ 77703.772599999996601, 437501.62579999997979 ], [ 77957.963099999993574, 437637.146699999982957 ], [ 78108.039900000003399, 437717.2747 ], [ 78143.557, 437747.932299999985844 ], [ 78197.697700000004261, 437818.075599999981932 ], [ 78216.678, 437811.581 ], [ 78253.721000000005006, 437809.78000000002794 ], [ 78270.899999999994179, 437813.259000000020023 ], [ 78304.990000000005239, 437817.840000000025611 ], [ 78315.112999999997555, 437818.762999999977183 ], [ 78321.694000000003143, 437818.435999999986961 ] ] ] ] } },
{ "type": "Feature", "properties": { "buurtcode": "BU05560302", "buurtnaam": "Sluispolder West", "pc6_codes": "3141AB, 3141AD, 3141AP, 3141AT, 3141BA, 3141BB, 3141BC, 3141BD, 3141BE, 3141BG, 3141BH, 3141BK, 3141BL, 3141BM, 3141BN, 3141BP, 3141BR, 3141BS, 3141BT, 3141BV, 3141CA, 3141CB, 3141CC, 3141CD, 3141CE, 3141CG, 3141CH, 3141CJ, 3141RA, 3141RB, 3141RC, 3141RD, 3141RE, 3141SB, 3141SC, 3141SH, 3141SJ, 3141SK, 3141SL, 3141SM, 3141SN, 3141SR, 3141ST, 3141SV, 3141SW, 3141SX, 3142GD", "wijkcode": "WK055603", "gemeentecode": "GM0556", "gemeentenaam": "Maassluis", "oppervlakteLandInHa": 29, "AantalInwoners_5": 1665, "Mannen_6": 825, "Vrouwen_7": 840, "HuishoudensTotaal_29": 800, "GemiddeldeHuishoudensgrootte_33": 2.0, "Woningvoorraad_35": 806, "NieuwbouwWoningen_36": 112, "NietWoningvoorraad_37": 116, "NieuwbouwNietWoningen_38": 1, "GemiddeldeWOZWaardeVanWoningen_39": 281, "PercentageEengezinswoning_40": 48, "PercentageTussenwoningEengezins_41": 37, "PercentageHoekwoningEengezins_42": 10, "PercentageTweeOnderEenKapWoningEe_43": 0, "PercentageVrijstaandeWoningEengezins_44": 1, "PercentageMeergezinswoning_45": 52, "Koopwoningen_47": 56, "HuurwoningenTotaal_48": 44, "InBezitWoningcorporatie_49": 39, "InBezitOverigeVerhuurders_50": 4, "BouwjaarMeerDanTienJaarGeleden_51": 75, "BouwjaarAfgelopenTienJaar_52": 25, "GemiddeldeElektriciteitslevering_53": 2240, "GemiddeldeElektriciteitsteruglevering_54": 660, "GemiddeldAardgasverbruik_55": 630, "AardgasvrijeWoningen_57": 17, "Aardgaswoningen_58": 72, "WoningenMetZonnestroom_59": 36, "WoningenHoofdzElektrVerwarmd_60": 19, "k_20PersonenMetHoogsteInkomen_80": 19.6, "k_20HuishoudensMetHoogsteInkomen_85": 17.8, "MediaanVermogenVanParticuliereHuish_86": 83.1, "PersonenautoSTotaal_104": 710, "PersonenautoSBrandstofBenzine_105": 615, "PersonenautoSOverigeBrandstof_106": 95, "PersonenautoSPerHuishouden_107": 0.9, "Omgevingsadressendichtheid_121": 2210, "AantalInstallatiesBijWoningen_5": 253, "OpgesteldVermogenVanZonnepanelen_6": 645, "installaties_per_woning": 0.31389578163771714, "vermogen_per_woning": 0.80024813895781632, "installaties_per_100_woningen": 31.389578163771713, "vermogen_per_huishouden": 0.80625, "batterijdruk_score": 237.6, "koop_zon_score": 0.2016, "eengezins_zon_score": 0.1728, "betaalkracht_zon_score": 29.916, "overige_brandstof_zon_score": 34.2, "lichte_batterij_kansscore": 0.30072384313231248 }, "geometry": { "type": "MultiPolygon", "coordinates": [ [ [ [ 77898.350999999995111, 438012.898999999975786 ], [ 77905.672000000005937, 438008.435 ], [ 77954.987999999997555, 437978.362000000022817 ], [ 77996.126999999993131, 437954.058000000019092 ], [ 78019.773000000001048, 437940.147 ], [ 78040.781000000002678, 437930.074000000022352 ], [ 78053.039999999993597, 437924.255 ], [ 78065.629, 437914.318000000028405 ], [ 78082.534, 437900.534999999974389 ], [ 78104.907000000006519, 437883.386 ], [ 78119.240000000005239, 437871.044999999983702 ], [ 78128.153000000005704, 437862.75199999997858 ], [ 78131.404999999998836, 437859.743000000016764 ], [ 78137.756999999997788, 437854.071 ], [ 78138.32499999999709, 437853.564000000013039 ], [ 78141.063999999998487, 437850.892999999981839 ], [ 78158.415999999997439, 437839.417000000015832 ], [ 78169.076, 437832.365999999979977 ], [ 78179.013999999995576, 437825.793 ], [ 78183.164999999993597, 437823.048 ], [ 78186.229000000006636, 437822.0 ], [ 78197.697700000004261, 437818.075599999981932 ], [ 78143.557, 437747.932299999985844 ], [ 78108.039900000003399, 437717.2747 ], [ 77957.963099999993574, 437637.146699999982957 ], [ 77703.772599999996601, 437501.62579999997979 ], [ 77449.581999999994878, 437373.420999999972992 ], [ 77323.7926, 437620.315300000016578 ], [ 77272.5392, 437730.086000000010245 ], [ 77545.487999999997555, 437862.325100000016391 ], [ 77887.462, 438019.69 ], [ 77898.350999999995111, 438012.898999999975786 ] ] ] ] } },
{ "type": "Feature", "properties": { "buurtcode": "BU05560303", "buurtnaam": "Binnenstad", "pc6_codes": "3141AA, 3141AG, 3141AH, 3141AJ, 3141AK, 3141AL, 3141AM, 3141AN, 3141AS, 3141AV, 3141TA, 3141TB, 3141TC, 3141TD, 3141TE, 3141TG, 3141TH, 3141TJ, 3141TK, 3141TL, 3141TM, 3141TN, 3141VA, 3141VB, 3141VC, 3141VD, 3141VJ, 3141VK, 3141VL, 3141VM, 3141VN, 3141VP, 3141VR, 3141VS, 3141VT, 3141VV, 3141XD, 3143AR, 3143AS, 3143AT", "wijkcode": "WK055603", "gemeentecode": "GM0556", "gemeentenaam": "Maassluis", "oppervlakteLandInHa": 10, "AantalInwoners_5": 1125, "Mannen_6": 540, "Vrouwen_7": 590, "HuishoudensTotaal_29": 525, "GemiddeldeHuishoudensgrootte_33": 2.1, "Woningvoorraad_35": 643, "NieuwbouwWoningen_36": 0, "NietWoningvoorraad_37": 90, "NieuwbouwNietWoningen_38": 0, "GemiddeldeWOZWaardeVanWoningen_39": 235, "PercentageEengezinswoning_40": 57, "PercentageTussenwoningEengezins_41": 47, "PercentageHoekwoningEengezins_42": 9, "PercentageTweeOnderEenKapWoningEe_43": 0, "PercentageVrijstaandeWoningEengezins_44": 0, "PercentageMeergezinswoning_45": 43, "Koopwoningen_47": 26, "HuurwoningenTotaal_48": 74, "InBezitWoningcorporatie_49": 70, "InBezitOverigeVerhuurders_50": 5, "BouwjaarMeerDanTienJaarGeleden_51": 83, "BouwjaarAfgelopenTienJaar_52": 17, "GemiddeldeElektriciteitslevering_53": 2280, "GemiddeldeElektriciteitsteruglevering_54": 770, "GemiddeldAardgasverbruik_55": 610, "AardgasvrijeWoningen_57": 17, "Aardgaswoningen_58": 65, "WoningenMetZonnestroom_59": 33, "WoningenHoofdzElektrVerwarmd_60": 18, "k_20PersonenMetHoogsteInkomen_80": 10.3, "k_20HuishoudensMetHoogsteInkomen_85": 7.1, "MediaanVermogenVanParticuliereHuish_86": 13.0, "PersonenautoSTotaal_104": 435, "PersonenautoSBrandstofBenzine_105": 375, "PersonenautoSOverigeBrandstof_106": 60, "PersonenautoSPerHuishouden_107": 0.8, "Omgevingsadressendichtheid_121": 2530, "AantalInstallatiesBijWoningen_5": 88, "OpgesteldVermogenVanZonnepanelen_6": 500, "installaties_per_woning": 0.13685847589424571, "vermogen_per_woning": 0.77760497667185069, "installaties_per_100_woningen": 13.685847589424572, "vermogen_per_huishouden": 0.95238095238095233, "batterijdruk_score": 254.1, "koop_zon_score": 0.0858, "eengezins_zon_score": 0.1881, "betaalkracht_zon_score": 4.29, "overige_brandstof_zon_score": 19.8, "lichte_batterij_kansscore": 0.25528089006518651 }, "geometry": { "type": "MultiPolygon", "coordinates": [ [ [ [ 77323.7926, 437620.315300000016578 ], [ 77449.581999999994878, 437373.420999999972992 ], [ 77263.389500000004773, 437280.370899999979883 ], [ 77259.837799999993877, 437288.044899999978952 ], [ 77007.948699999993551, 437610.542100000020582 ], [ 77042.243000000002212, 437638.663400000019465 ], [ 77078.80460000000312, 437636.224800000025425 ], [ 77272.5392, 437730.086000000010245 ], [ 77323.7926, 437620.315300000016578 ] ] ] ] } },
{ "type": "Feature", "properties": { "buurtcode": "BU05560401", "buurtnaam": "Kapelpolder", "pc6_codes": "3144CA, 3144CB, 3144CC, 3144CD, 3144CE, 3144CG, 3144CH, 3144CJ, 3144CK, 3144CL, 3144CM, 3144CN, 3144CP, 3144CR, 3144CS, 3144CT, 3144CV, 3144CW, 3144CX, 3144CZ, 3144EA, 3144EB, 3144EC, 3144ED, 3144EE, 3144EJ, 3144EK, 3144EL, 3144EM, 3144EN, 3144EP, 3144ER, 3144ET, 3144EV, 3144NA, 3144RA, 3144RB, 3144RC, 3144RD, 3144RE, 3144RG", "wijkcode": "WK055604", "gemeentecode": "GM0556", "gemeentenaam": "Maassluis", "oppervlakteLandInHa": 37, "AantalInwoners_5": 1335, "Mannen_6": 635, "Vrouwen_7": 705, "HuishoudensTotaal_29": 580, "GemiddeldeHuishoudensgrootte_33": 2.3, "Woningvoorraad_35": 593, "NieuwbouwWoningen_36": 0, "NietWoningvoorraad_37": 216, "NieuwbouwNietWoningen_38": 0, "GemiddeldeWOZWaardeVanWoningen_39": 285, "PercentageEengezinswoning_40": 75, "PercentageTussenwoningEengezins_41": 58, "PercentageHoekwoningEengezins_42": 16, "PercentageTweeOnderEenKapWoningEe_43": 1, "PercentageVrijstaandeWoningEengezins_44": 1, "PercentageMeergezinswoning_45": 25, "Koopwoningen_47": 43, "HuurwoningenTotaal_48": 57, "InBezitWoningcorporatie_49": 54, "InBezitOverigeVerhuurders_50": 3, "BouwjaarMeerDanTienJaarGeleden_51": 95, "BouwjaarAfgelopenTienJaar_52": 5, "GemiddeldeElektriciteitslevering_53": 2290, "GemiddeldeElektriciteitsteruglevering_54": 510, "GemiddeldAardgasverbruik_55": 740, "AardgasvrijeWoningen_57": 6, "Aardgaswoningen_58": 91, "WoningenMetZonnestroom_59": 27, "WoningenHoofdzElektrVerwarmd_60": 8, "k_20PersonenMetHoogsteInkomen_80": 15.6, "k_20HuishoudensMetHoogsteInkomen_85": 17.0, "MediaanVermogenVanParticuliereHuish_86": 23.4, "PersonenautoSTotaal_104": 640, "PersonenautoSBrandstofBenzine_105": 535, "PersonenautoSOverigeBrandstof_106": 110, "PersonenautoSPerHuishouden_107": 1.1, "Omgevingsadressendichtheid_121": 2694, "AantalInstallatiesBijWoningen_5": 84, "OpgesteldVermogenVanZonnepanelen_6": 365, "installaties_per_woning": 0.14165261382799327, "vermogen_per_woning": 0.61551433389544685, "installaties_per_100_woningen": 14.165261382799327, "vermogen_per_huishouden": 0.62931034482758619, "batterijdruk_score": 137.7, "koop_zon_score": 0.1161, "eengezins_zon_score": 0.2025, "betaalkracht_zon_score": 6.318, "overige_brandstof_zon_score": 29.7, "lichte_batterij_kansscore": 0.30665950576404921 }, "geometry": { "type": "MultiPolygon", "coordinates": [ [ [ [ 76560.289399999994203, 438212.90470000001369 ], [ 76678.111799999998766, 438112.967799999983981 ], [ 76661.198999999993248, 438092.462799999979325 ], [ 76654.433900000003632, 438072.157200000016019 ], [ 76670.749800000005052, 438055.0366 ], [ 76704.721900000004098, 438030.987000000022817 ], [ 76679.203099999998813, 438007.626800000027288 ], [ 76749.407099999996717, 437912.100199999986216 ], [ 76913.934500000003027, 437704.8125 ], [ 76930.99659999999858, 437671.2807 ], [ 76943.7932, 437668.842 ], [ 76972.594899999996414, 437617.8653 ], [ 76822.082800000003772, 437420.941999999980908 ], [ 76712.426999999996042, 437263.8296 ], [ 76588.160699999993085, 437352.868000000016764 ], [ 76401.523000000001048, 437495.596100000024308 ], [ 76331.906499999997322, 437562.7033 ], [ 76291.982999999992899, 437605.1153 ], [ 76112.774600000004284, 437795.4939 ], [ 76282.200899999996182, 437961.5049 ], [ 76511.075400000001537, 438179.415199999988545 ], [ 76518.93760000000475, 438220.76679999998305 ], [ 76560.289399999994203, 438212.90470000001369 ] ] ] ] } },
{ "type": "Feature", "properties": { "buurtcode": "BU05560402", "buurtnaam": "Componistenbuurt", "pc6_codes": "3144AA, 3144AB, 3144AC, 3144AD, 3144AE, 3144AG, 3144AH, 3144AJ, 3144AK, 3144AL, 3144AM, 3144AN, 3144AP, 3144AR, 3144BB, 3144BH, 3144BJ, 3144BK, 3144BL, 3144BM, 3144BN, 3144BP, 3144BR, 3144LA, 3144LB, 3144LC, 3144LD, 3144LE, 3144LG, 3144LH, 3144LJ, 3144NB, 3144NC, 3144ND, 3144NE, 3144NG, 3144NH", "wijkcode": "WK055604", "gemeentecode": "GM0556", "gemeentenaam": "Maassluis", "oppervlakteLandInHa": 18, "AantalInwoners_5": 2065, "Mannen_6": 940, "Vrouwen_7": 1125, "HuishoudensTotaal_29": 1050, "GemiddeldeHuishoudensgrootte_33": 2.0, "Woningvoorraad_35": 1064, "NieuwbouwWoningen_36": 0, "NietWoningvoorraad_37": 19, "NieuwbouwNietWoningen_38": 0, "GemiddeldeWOZWaardeVanWoningen_39": 255, "PercentageEengezinswoning_40": 11, "PercentageTussenwoningEengezins_41": 9, "PercentageHoekwoningEengezins_42": 2, "PercentageTweeOnderEenKapWoningEe_43": 1, "PercentageVrijstaandeWoningEengezins_44": 0, "PercentageMeergezinswoning_45": 89, "Koopwoningen_47": 26, "HuurwoningenTotaal_48": 74, "InBezitWoningcorporatie_49": 70, "InBezitOverigeVerhuurders_50": 5, "BouwjaarMeerDanTienJaarGeleden_51": 100, "BouwjaarAfgelopenTienJaar_52": 0, "GemiddeldeElektriciteitslevering_53": 1920, "GemiddeldeElektriciteitsteruglevering_54": 160, "GemiddeldAardgasverbruik_55": 670, "AardgasvrijeWoningen_57": 4, "Aardgaswoningen_58": 95, "WoningenMetZonnestroom_59": 7, "WoningenHoofdzElektrVerwarmd_60": 5, "k_20PersonenMetHoogsteInkomen_80": 10.2, "k_20HuishoudensMetHoogsteInkomen_85": 10.6, "MediaanVermogenVanParticuliereHuish_86": 16.1, "PersonenautoSTotaal_104": 815, "PersonenautoSBrandstofBenzine_105": 700, "PersonenautoSOverigeBrandstof_106": 120, "PersonenautoSPerHuishouden_107": 0.8, "Omgevingsadressendichtheid_121": 2546, "AantalInstallatiesBijWoningen_5": 48, "OpgesteldVermogenVanZonnepanelen_6": 203, "installaties_per_woning": 0.045112781954887216, "vermogen_per_woning": 0.19078947368421054, "installaties_per_100_woningen": 4.5112781954887211, "vermogen_per_huishouden": 0.19333333333333333, "batterijdruk_score": 11.2, "koop_zon_score": 0.0182, "eengezins_zon_score": 0.0077, "betaalkracht_zon_score": 1.127, "overige_brandstof_zon_score": 8.4, "lichte_batterij_kansscore": 0.094734940303533161 }, "geometry": { "type": "MultiPolygon", "coordinates": [ [ [ [ 76604.685400000002119, 438523.616700000013225 ], [ 76700.3551, 438407.169799999974202 ], [ 76826.3949, 438229.206100000010338 ], [ 76826.04660000000149, 438202.032400000025518 ], [ 76704.142099999997299, 438091.497299999988172 ], [ 76678.111799999998766, 438112.967799999983981 ], [ 76560.289399999994203, 438212.90470000001369 ], [ 76518.93760000000475, 438220.76679999998305 ], [ 76511.075400000001537, 438179.415199999988545 ], [ 76282.200899999996182, 437961.5049 ], [ 76098.161300000007031, 438154.778700000024401 ], [ 76311.46929999999702, 438356.424300000013318 ], [ 76357.304699999993318, 438344.5734 ], [ 76386.767800000001444, 438338.996700000017881 ], [ 76407.687699999994948, 438360.1447 ], [ 76506.441900000005262, 438454.7058 ], [ 76532.926000000006752, 438446.1579 ], [ 76555.992599999997765, 438510.053300000028685 ], [ 76592.150200000003679, 438538.224600000015926 ], [ 76604.685400000002119, 438523.616700000013225 ] ] ] ] } },
{ "type": "Feature", "properties": { "buurtcode": "BU05560403", "buurtnaam": "Koningshoek", "pc6_codes": "3144AS, 3144BA, 3144BS, 3144GA, 3144GB, 3144GC, 3144GD, 3144GE, 3144GG, 3144KA, 3144KB, 3144KC, 3144KD, 3144KE, 3144KH, 3144KJ, 3144KK, 3144KL, 3144KM, 3144NH, 3144PA, 3144PB, 3144PC, 3144PD, 3144PE, 3144PG, 3144PH, 3144PJ, 3144PK, 3144PL, 3145XN", "wijkcode": "WK055604", "gemeentecode": "GM0556", "gemeentenaam": "Maassluis", "oppervlakteLandInHa": 33, "AantalInwoners_5": 1865, "Mannen_6": 915, "Vrouwen_7": 950, "HuishoudensTotaal_29": 925, "GemiddeldeHuishoudensgrootte_33": 1.9, "Woningvoorraad_35": 1007, "NieuwbouwWoningen_36": 0, "NietWoningvoorraad_37": 201, "NieuwbouwNietWoningen_38": 1, "GemiddeldeWOZWaardeVanWoningen_39": 270, "PercentageEengezinswoning_40": 40, "PercentageTussenwoningEengezins_41": 31, "PercentageHoekwoningEengezins_42": 9, "PercentageTweeOnderEenKapWoningEe_43": 0, "PercentageVrijstaandeWoningEengezins_44": 0, "PercentageMeergezinswoning_45": 60, "Koopwoningen_47": 46, "HuurwoningenTotaal_48": 54, "InBezitWoningcorporatie_49": 52, "InBezitOverigeVerhuurders_50": 2, "BouwjaarMeerDanTienJaarGeleden_51": 93, "BouwjaarAfgelopenTienJaar_52": 7, "GemiddeldeElektriciteitslevering_53": 2080, "GemiddeldeElektriciteitsteruglevering_54": 300, "GemiddeldAardgasverbruik_55": 640, "AardgasvrijeWoningen_57": 7, "Aardgaswoningen_58": 85, "WoningenMetZonnestroom_59": 16, "WoningenHoofdzElektrVerwarmd_60": 9, "k_20PersonenMetHoogsteInkomen_80": 14.3, "k_20HuishoudensMetHoogsteInkomen_85": 12.6, "MediaanVermogenVanParticuliereHuish_86": 91.5, "PersonenautoSTotaal_104": 790, "PersonenautoSBrandstofBenzine_105": 660, "PersonenautoSOverigeBrandstof_106": 130, "PersonenautoSPerHuishouden_107": 0.9, "Omgevingsadressendichtheid_121": 2371, "AantalInstallatiesBijWoningen_5": 115, "OpgesteldVermogenVanZonnepanelen_6": 383, "installaties_per_woning": 0.11420059582919563, "vermogen_per_woning": 0.38033763654419067, "installaties_per_100_woningen": 11.420059582919563, "vermogen_per_huishouden": 0.41405405405405404, "batterijdruk_score": 48.0, "koop_zon_score": 0.0736, "eengezins_zon_score": 0.064, "betaalkracht_zon_score": 14.64, "overige_brandstof_zon_score": 20.8, "lichte_batterij_kansscore": 0.21495178898443129 }, "geometry": { "type": "MultiPolygon", "coordinates": [ [ [ [ 76064.637000000002445, 438758.6017 ], [ 76082.544699999998556, 438748.249699999985751 ], [ 76265.663199999995413, 438695.758900000015274 ], [ 76316.589000000007218, 438681.161100000026636 ], [ 76444.833799999993062, 438641.146100000012666 ], [ 76528.60229999999865, 438612.280099999974482 ], [ 76592.150200000003679, 438538.224600000015926 ], [ 76555.992599999997765, 438510.053300000028685 ], [ 76532.926000000006752, 438446.1579 ], [ 76506.441900000005262, 438454.7058 ], [ 76407.687699999994948, 438360.1447 ], [ 76386.767800000001444, 438338.996700000017881 ], [ 76357.304699999993318, 438344.5734 ], [ 76311.46929999999702, 438356.424300000013318 ], [ 76098.161300000007031, 438154.778700000024401 ], [ 76282.200899999996182, 437961.5049 ], [ 76112.774600000004284, 437795.4939 ], [ 75718.6967, 438189.977200000023004 ], [ 75739.180600000006962, 438209.957500000018626 ], [ 75753.038100000005215, 438195.750699999975041 ], [ 75780.007700000001932, 438193.4964 ], [ 75792.804300000003423, 438205.6898 ], [ 75788.492800000007264, 438269.145599999988917 ], [ 76161.9658999999956, 438622.549999999988358 ], [ 76048.477700000003097, 438737.817900000023656 ], [ 76042.152799999996205, 438776.9165 ], [ 76064.637000000002445, 438758.6017 ] ] ] ] } },
{ "type": "Feature", "properties": { "buurtcode": "BU05560404", "buurtnaam": "Het Balkon", "pc6_codes": "3144DC, 3144DH, 3144DJ, 3144DK, 3144DL, 3144DM, 3144DN, 3144DP, 3144DR, 3144DS, 3144DT, 3144DV, 3144DW, 3144DX, 3144DZ", "wijkcode": "WK055604", "gemeentecode": "GM0556", "gemeentenaam": "Maassluis", "oppervlakteLandInHa": 26, "AantalInwoners_5": 2245, "Mannen_6": 1125, "Vrouwen_7": 1120, "HuishoudensTotaal_29": 910, "GemiddeldeHuishoudensgrootte_33": 2.5, "Woningvoorraad_35": 949, "NieuwbouwWoningen_36": 0, "NietWoningvoorraad_37": 5, "NieuwbouwNietWoningen_38": 0, "GemiddeldeWOZWaardeVanWoningen_39": 464, "PercentageEengezinswoning_40": 57, "PercentageTussenwoningEengezins_41": 46, "PercentageHoekwoningEengezins_42": 10, "PercentageTweeOnderEenKapWoningEe_43": 1, "PercentageVrijstaandeWoningEengezins_44": 0, "PercentageMeergezinswoning_45": 43, "Koopwoningen_47": 79, "HuurwoningenTotaal_48": 21, "InBezitWoningcorporatie_49": 19, "InBezitOverigeVerhuurders_50": 2, "BouwjaarMeerDanTienJaarGeleden_51": 44, "BouwjaarAfgelopenTienJaar_52": 56, "GemiddeldeElektriciteitslevering_53": 2900, "GemiddeldeElektriciteitsteruglevering_54": 790, "GemiddeldAardgasverbruik_55": 380, "AardgasvrijeWoningen_57": 39, "Aardgaswoningen_58": 57, "WoningenMetZonnestroom_59": 46, "WoningenHoofdzElektrVerwarmd_60": 43, "k_20PersonenMetHoogsteInkomen_80": 28.9, "k_20HuishoudensMetHoogsteInkomen_85": 30.2, "MediaanVermogenVanParticuliereHuish_86": 269.2, "PersonenautoSTotaal_104": 1030, "PersonenautoSBrandstofBenzine_105": 790, "PersonenautoSOverigeBrandstof_106": 245, "PersonenautoSPerHuishouden_107": 1.1, "Omgevingsadressendichtheid_121": 1844, "AantalInstallatiesBijWoningen_5": 430, "OpgesteldVermogenVanZonnepanelen_6": 1062, "installaties_per_woning": 0.45310853530031614, "vermogen_per_woning": 1.1190727081138041, "installaties_per_100_woningen": 45.310853530031615, "vermogen_per_huishouden": 1.1670329670329671, "batterijdruk_score": 363.4, "koop_zon_score": 0.3634, "eengezins_zon_score": 0.2622, "betaalkracht_zon_score": 123.832, "overige_brandstof_zon_score": 112.7, "lichte_batterij_kansscore": 0.3911223164915269 }, "geometry": { "type": "MultiPolygon", "coordinates": [ [ [ [ 76112.774600000004284, 437795.4939 ], [ 76291.982999999992899, 437605.1153 ], [ 75833.095000000001164, 437161.7379 ], [ 75822.680999999996857, 437173.309 ], [ 75795.513000000006286, 437203.262999999977183 ], [ 75784.091, 437215.621999999973923 ], [ 75720.089000000007218, 437292.419 ], [ 75662.028999999994994, 437373.036000000021886 ], [ 75604.111999999993714, 437454.170999999972992 ], [ 75548.149000000004889, 437538.115999999979977 ], [ 75543.436000000001513, 437545.351000000024214 ], [ 75439.990999999994528, 437704.146 ], [ 75384.81600000000617, 437789.606000000028871 ], [ 75357.021200000002864, 437837.193199999979697 ], [ 75718.6967, 438189.977200000023004 ], [ 76112.774600000004284, 437795.4939 ] ] ] ] } },
{ "type": "Feature", "properties": { "buurtcode": "BU05560405", "buurtnaam": "Nieuwe waterweg", "pc6_codes": "3144DA, 3144DB, 3144DD, 3144DE, 3144DG, 3144EG, 3144ES", "wijkcode": "WK055604", "gemeentecode": "GM0556", "gemeentenaam": "Maassluis", "oppervlakteLandInHa": 21, "AantalInwoners_5": 75, "Mannen_6": 50, "Vrouwen_7": 25, "HuishoudensTotaal_29": 30, "GemiddeldeHuishoudensgrootte_33": 1.5, "Woningvoorraad_35": 27, "NieuwbouwWoningen_36": 0, "NietWoningvoorraad_37": 145, "NieuwbouwNietWoningen_38": 0, "GemiddeldeWOZWaardeVanWoningen_39": 406, "PercentageEengezinswoning_40": 0, "PercentageTussenwoningEengezins_41": 0, "PercentageHoekwoningEengezins_42": 0, "PercentageTweeOnderEenKapWoningEe_43": 0, "PercentageVrijstaandeWoningEengezins_44": 0, "PercentageMeergezinswoning_45": 100, "Koopwoningen_47": 89, "HuurwoningenTotaal_48": 11, "InBezitWoningcorporatie_49": 0, "InBezitOverigeVerhuurders_50": 11, "BouwjaarMeerDanTienJaarGeleden_51": 100, "BouwjaarAfgelopenTienJaar_52": 0, "GemiddeldeElektriciteitslevering_53": 2370, "GemiddeldeElektriciteitsteruglevering_54": 330, "GemiddeldAardgasverbruik_55": 550, "AardgasvrijeWoningen_57": null, "Aardgaswoningen_58": null, "WoningenMetZonnestroom_59": null, "WoningenHoofdzElektrVerwarmd_60": null, "k_20PersonenMetHoogsteInkomen_80": null, "k_20HuishoudensMetHoogsteInkomen_85": null, "MediaanVermogenVanParticuliereHuish_86": null, "PersonenautoSTotaal_104": 110, "PersonenautoSBrandstofBenzine_105": 70, "PersonenautoSOverigeBrandstof_106": 40, "PersonenautoSPerHuishouden_107": null, "Omgevingsadressendichtheid_121": 2131, "AantalInstallatiesBijWoningen_5": 0, "OpgesteldVermogenVanZonnepanelen_6": 0, "installaties_per_woning": 0.0, "vermogen_per_woning": 0.0, "installaties_per_100_woningen": 0.0, "vermogen_per_huishouden": 0.0, "batterijdruk_score": null, "koop_zon_score": null, "eengezins_zon_score": null, "betaalkracht_zon_score": null, "overige_brandstof_zon_score": null, "lichte_batterij_kansscore": null }, "geometry": { "type": "MultiPolygon", "coordinates": [ [ [ [ 76331.906499999997322, 437562.7033 ], [ 76401.523000000001048, 437495.596100000024308 ], [ 76588.160699999993085, 437352.868000000016764 ], [ 76712.426999999996042, 437263.8296 ], [ 76358.862699999997858, 436757.25089999998454 ], [ 76348.107999999992899, 436762.563000000023749 ], [ 76321.418000000005122, 436776.267999999981839 ], [ 76236.694000000003143, 436825.768999999971129 ], [ 76149.043999999994412, 436886.135 ], [ 76076.717999999993481, 436940.669999999983702 ], [ 76062.282000000006519, 436952.027 ], [ 76027.176000000006752, 436979.281000000017229 ], [ 75995.706999999994878, 437004.017999999981839 ], [ 75960.320000000006985, 437036.153 ], [ 75924.706000000005588, 437068.270000000018626 ], [ 75909.017000000007101, 437083.688000000023749 ], [ 75865.463000000003376, 437127.531000000017229 ], [ 75852.929999999993015, 437139.886999999987893 ], [ 75848.169999999998254, 437144.988000000012107 ], [ 75833.095000000001164, 437161.7379 ], [ 76291.982999999992899, 437605.1153 ], [ 76331.906499999997322, 437562.7033 ] ] ] ] } },
{ "type": "Feature", "properties": { "buurtcode": "BU05560501", "buurtnaam": "Vogelbuurt", "pc6_codes": "3145AA, 3145AB, 3145AC, 3145AD, 3145AE, 3145AG, 3145AH, 3145AJ, 3145AK, 3145AL, 3145AM, 3145AN, 3145AP, 3145CA, 3145CB, 3145CC, 3145CD, 3145CE, 3145CG, 3145CH, 3145CJ, 3145CK, 3145CL, 3145CM, 3145CN, 3145CP, 3145CR, 3145CS, 3145CT, 3145EA, 3145EB, 3145EC, 3145ED, 3145EE, 3145EG, 3145EH, 3145EJ, 3145EK, 3145EL, 3145EM, 3145EN, 3145EP, 3145ER, 3145ES, 3145ET, 3145EV, 3145EW, 3145GA, 3145GB, 3145GC, 3145GD, 3145GE, 3145GG, 3145GH, 3145GJ, 3145LA, 3145LB, 3145LC, 3145LD, 3145LE, 3145LG, 3145NA, 3145NB, 3145NC, 3145ND, 3145NE, 3145NG, 3145NH, 3145VH, 3145VJ, 3145VK, 3145VL, 3145VM, 3145VN, 3145XA, 3145XB, 3145XC, 3145XD, 3145XE, 3145XG, 3145XH, 3145XJ, 3145XK, 3145XL, 3145XM, 3145XN, 3145XP, 3145XR", "wijkcode": "WK055605", "gemeentecode": "GM0556", "gemeentenaam": "Maassluis", "oppervlakteLandInHa": 62, "AantalInwoners_5": 3670, "Mannen_6": 1765, "Vrouwen_7": 1905, "HuishoudensTotaal_29": 1725, "GemiddeldeHuishoudensgrootte_33": 2.1, "Woningvoorraad_35": 1765, "NieuwbouwWoningen_36": 0, "NietWoningvoorraad_37": 372, "NieuwbouwNietWoningen_38": 0, "GemiddeldeWOZWaardeVanWoningen_39": 323, "PercentageEengezinswoning_40": 49, "PercentageTussenwoningEengezins_41": 38, "PercentageHoekwoningEengezins_42": 10, "PercentageTweeOnderEenKapWoningEe_43": 0, "PercentageVrijstaandeWoningEengezins_44": 0, "PercentageMeergezinswoning_45": 51, "Koopwoningen_47": 79, "HuurwoningenTotaal_48": 21, "InBezitWoningcorporatie_49": 7, "InBezitOverigeVerhuurders_50": 14, "BouwjaarMeerDanTienJaarGeleden_51": 100, "BouwjaarAfgelopenTienJaar_52": 0, "GemiddeldeElektriciteitslevering_53": 2600, "GemiddeldeElektriciteitsteruglevering_54": 420, "GemiddeldAardgasverbruik_55": 780, "AardgasvrijeWoningen_57": 1, "Aardgaswoningen_58": 97, "WoningenMetZonnestroom_59": 24, "WoningenHoofdzElektrVerwarmd_60": 3, "k_20PersonenMetHoogsteInkomen_80": 19.2, "k_20HuishoudensMetHoogsteInkomen_85": 16.6, "MediaanVermogenVanParticuliereHuish_86": 203.8, "PersonenautoSTotaal_104": 1905, "PersonenautoSBrandstofBenzine_105": 1605, "PersonenautoSOverigeBrandstof_106": 300, "PersonenautoSPerHuishouden_107": 1.1, "Omgevingsadressendichtheid_121": 2139, "AantalInstallatiesBijWoningen_5": 289, "OpgesteldVermogenVanZonnepanelen_6": 1003, "installaties_per_woning": 0.16373937677053824, "vermogen_per_woning": 0.56827195467422098, "installaties_per_100_woningen": 16.373937677053824, "vermogen_per_huishouden": 0.58144927536231883, "batterijdruk_score": 100.8, "koop_zon_score": 0.1896, "eengezins_zon_score": 0.1176, "betaalkracht_zon_score": 48.912, "overige_brandstof_zon_score": 72.0, "lichte_batterij_kansscore": 0.32141455133603347 }, "geometry": { "type": "MultiPolygon", "coordinates": [ [ [ [ 75777.665399999998044, 439195.56060000002617 ], [ 75787.415299999993294, 439119.3519 ], [ 75812.3989, 439095.5748 ], [ 75865.2739, 439061.176700000010896 ], [ 75915.9902, 438987.053599999984726 ], [ 75978.145000000004075, 438896.212799999979325 ], [ 76023.0512000000017, 438806.180799999972805 ], [ 76042.152799999996205, 438776.9165 ], [ 76048.477700000003097, 438737.817900000023656 ], [ 76161.9658999999956, 438622.549999999988358 ], [ 75788.492800000007264, 438269.145599999988917 ], [ 75792.804300000003423, 438205.6898 ], [ 75780.007700000001932, 438193.4964 ], [ 75753.038100000005215, 438195.750699999975041 ], [ 75739.180600000006962, 438209.957500000018626 ], [ 75718.6967, 438189.977200000023004 ], [ 75357.021200000002864, 437837.193199999979697 ], [ 75335.115999999994528, 437874.696999999985565 ], [ 75283.861000000004424, 437960.496999999973923 ], [ 75235.18300000000454, 438046.063000000023749 ], [ 75180.646999999997206, 438130.392 ], [ 75123.399000000004889, 438213.37599999998929 ], [ 75062.748999999996158, 438291.338999999978114 ], [ 75033.535000000003492, 438325.424 ], [ 74997.5, 438367.468 ], [ 74974.619999999995343, 438393.13900000002468 ], [ 74930.917000000001281, 438441.202 ], [ 74920.724100000006729, 438451.5685 ], [ 75664.640599999998813, 439176.565599999972619 ], [ 75732.665900000007241, 439207.7965 ], [ 75777.665399999998044, 439195.56060000002617 ] ] ] ] } },
{ "type": "Feature", "properties": { "buurtcode": "BU05560502", "buurtnaam": "Burgemeesterswijk", "pc6_codes": "3145GH, 3145GK, 3145GL, 3145GM, 3145MA, 3145MB, 3145MC, 3145MD, 3145ME, 3145MG, 3145MH, 3145MJ, 3145MK, 3145ML, 3145MM, 3145PA, 3145PB, 3145PC, 3145PD, 3145RE, 3145RG, 3145RH, 3145RJ, 3145RK, 3145RL, 3145RM, 3145RN, 3145RP, 3145RR, 3145RS, 3145SB, 3145SW, 3145SX, 3145SZ, 3145WH, 3145WJ, 3145WK, 3145WL, 3146AA", "wijkcode": "WK055605", "gemeentecode": "GM0556", "gemeentenaam": "Maassluis", "oppervlakteLandInHa": 36, "AantalInwoners_5": 3020, "Mannen_6": 1495, "Vrouwen_7": 1525, "HuishoudensTotaal_29": 1220, "GemiddeldeHuishoudensgrootte_33": 2.5, "Woningvoorraad_35": 1219, "NieuwbouwWoningen_36": 40, "NietWoningvoorraad_37": 28, "NieuwbouwNietWoningen_38": 0, "GemiddeldeWOZWaardeVanWoningen_39": 349, "PercentageEengezinswoning_40": 40, "PercentageTussenwoningEengezins_41": 28, "PercentageHoekwoningEengezins_42": 8, "PercentageTweeOnderEenKapWoningEe_43": 3, "PercentageVrijstaandeWoningEengezins_44": 1, "PercentageMeergezinswoning_45": 60, "Koopwoningen_47": 38, "HuurwoningenTotaal_48": 62, "InBezitWoningcorporatie_49": 58, "InBezitOverigeVerhuurders_50": 4, "BouwjaarMeerDanTienJaarGeleden_51": 85, "BouwjaarAfgelopenTienJaar_52": 15, "GemiddeldeElektriciteitslevering_53": 2720, "GemiddeldeElektriciteitsteruglevering_54": 450, "GemiddeldAardgasverbruik_55": 490, "AardgasvrijeWoningen_57": 33, "Aardgaswoningen_58": 60, "WoningenMetZonnestroom_59": 24, "WoningenHoofdzElektrVerwarmd_60": 25, "k_20PersonenMetHoogsteInkomen_80": 19.4, "k_20HuishoudensMetHoogsteInkomen_85": 22.4, "MediaanVermogenVanParticuliereHuish_86": 34.6, "PersonenautoSTotaal_104": 1235, "PersonenautoSBrandstofBenzine_105": 1000, "PersonenautoSOverigeBrandstof_106": 235, "PersonenautoSPerHuishouden_107": 1.0, "Omgevingsadressendichtheid_121": 1711, "AantalInstallatiesBijWoningen_5": 228, "OpgesteldVermogenVanZonnepanelen_6": 649, "installaties_per_woning": 0.18703855619360132, "vermogen_per_woning": 0.53240360951599675, "installaties_per_100_woningen": 18.703855619360134, "vermogen_per_huishouden": 0.53196721311475414, "batterijdruk_score": 108.0, "koop_zon_score": 0.0912, "eengezins_zon_score": 0.096, "betaalkracht_zon_score": 8.304, "overige_brandstof_zon_score": 56.4, "lichte_batterij_kansscore": 0.22113346203862302 }, "geometry": { "type": "MultiPolygon", "coordinates": [ [ [ [ 75751.359500000005937, 439331.67070000001695 ], [ 75777.665399999998044, 439195.56060000002617 ], [ 75732.665900000007241, 439207.7965 ], [ 75664.640599999998813, 439176.565599999972619 ], [ 74920.724100000006729, 438451.5685 ], [ 74856.596999999994296, 438516.788 ], [ 74788.467999999993481, 438582.142 ], [ 74719.317200000004959, 438644.4178 ], [ 75046.8793, 438981.196300000010524 ], [ 75041.7264, 439014.8001 ], [ 75033.795100000003004, 439028.450000000011642 ], [ 75043.842999999993481, 439031.755300000018906 ], [ 75056.8995, 439052.186999999976251 ], [ 75070.74989999999525, 439066.389299999980722 ], [ 75067.859500000005937, 439070.9683 ], [ 75086.768200000005891, 439089.0441 ], [ 75091.465299999996205, 439085.429 ], [ 75139.640700000003562, 439132.184499999973923 ], [ 75138.658200000005309, 439190.836699999985285 ], [ 75093.874200000005658, 439236.059300000022631 ], [ 75148.4326, 439291.370899999979883 ], [ 75173.604300000006333, 439329.570599999977276 ], [ 75173.881299999993644, 439346.564100000017788 ], [ 75201.935500000006869, 439339.4718 ], [ 75261.4467, 439305.071300000010524 ], [ 75502.639899999994668, 439538.757099999987986 ], [ 75550.909, 439566.324100000027101 ], [ 75679.531099999992875, 439603.0149 ], [ 75751.359500000005937, 439331.67070000001695 ] ] ] ] } },
{ "type": "Feature", "properties": { "buurtcode": "BU05560601", "buurtnaam": "Steendijkpolder Noord", "pc6_codes": "3145SZ, 3146BZ, 3146CA, 3146CB, 3146CC, 3146CD, 3146CE, 3146CG, 3146CH, 3146CJ, 3146CK, 3146CL, 3146CM, 3146CN, 3146CP, 3146CR, 3146CS, 3146CT, 3146CV, 3146CW, 3146CX, 3146PA, 3146SB, 3146SC, 3146SE, 3146SG, 3146SH, 3146SJ, 3146SK, 3146SL, 3146SM, 3146SN, 3146SP, 3146SR, 3146ST, 3146TA, 3146TB, 3146TC, 3146TD, 3146TE, 3147PA", "wijkcode": "WK055606", "gemeentecode": "GM0556", "gemeentenaam": "Maassluis", "oppervlakteLandInHa": 53, "AantalInwoners_5": 2195, "Mannen_6": 1130, "Vrouwen_7": 1065, "HuishoudensTotaal_29": 865, "GemiddeldeHuishoudensgrootte_33": 2.4, "Woningvoorraad_35": 844, "NieuwbouwWoningen_36": 0, "NietWoningvoorraad_37": 34, "NieuwbouwNietWoningen_38": 0, "GemiddeldeWOZWaardeVanWoningen_39": 372, "PercentageEengezinswoning_40": 92, "PercentageTussenwoningEengezins_41": 69, "PercentageHoekwoningEengezins_42": 23, "PercentageTweeOnderEenKapWoningEe_43": 0, "PercentageVrijstaandeWoningEengezins_44": 1, "PercentageMeergezinswoning_45": 8, "Koopwoningen_47": 83, "HuurwoningenTotaal_48": 17, "InBezitWoningcorporatie_49": 12, "InBezitOverigeVerhuurders_50": 5, "BouwjaarMeerDanTienJaarGeleden_51": 100, "BouwjaarAfgelopenTienJaar_52": 0, "GemiddeldeElektriciteitslevering_53": 2570, "GemiddeldeElektriciteitsteruglevering_54": 1050, "GemiddeldAardgasverbruik_55": 710, "AardgasvrijeWoningen_57": 1, "Aardgaswoningen_58": 97, "WoningenMetZonnestroom_59": 54, "WoningenHoofdzElektrVerwarmd_60": 3, "k_20PersonenMetHoogsteInkomen_80": 23.9, "k_20HuishoudensMetHoogsteInkomen_85": 27.5, "MediaanVermogenVanParticuliereHuish_86": 245.1, "PersonenautoSTotaal_104": 1080, "PersonenautoSBrandstofBenzine_105": 890, "PersonenautoSOverigeBrandstof_106": 190, "PersonenautoSPerHuishouden_107": 1.2, "Omgevingsadressendichtheid_121": 1284, "AantalInstallatiesBijWoningen_5": 286, "OpgesteldVermogenVanZonnepanelen_6": 925, "installaties_per_woning": 0.33886255924170616, "vermogen_per_woning": 1.0959715639810426, "installaties_per_100_woningen": 33.886255924170619, "vermogen_per_huishouden": 1.0693641618497109, "batterijdruk_score": 567.0, "koop_zon_score": 0.4482, "eengezins_zon_score": 0.4968, "betaalkracht_zon_score": 132.354, "overige_brandstof_zon_score": 102.6, "lichte_batterij_kansscore": 0.49165547847241714 }, "geometry": { "type": "MultiPolygon", "coordinates": [ [ [ [ 75341.453999999997905, 440547.65500000002794 ], [ 75342.796000000002095, 440544.580000000016298 ], [ 75346.323999999993248, 440537.223 ], [ 75360.43300000000454, 440501.193000000028405 ], [ 75363.828999999997905, 440490.952 ], [ 75374.801000000006752, 440461.038999999989755 ], [ 75388.513999999995576, 440425.37599999998929 ], [ 75389.149999999994179, 440423.688000000023749 ], [ 75400.088000000003376, 440388.059 ], [ 75403.974000000001979, 440375.326 ], [ 75417.698999999993248, 440327.924999999988358 ], [ 75422.838000000003376, 440310.083999999973457 ], [ 75432.142999999996391, 440280.795999999972992 ], [ 75432.149000000004889, 440280.771 ], [ 75438.797999999995227, 440260.181999999971595 ], [ 75444.653000000005704, 440245.322999999974854 ], [ 75445.953999999997905, 440241.961000000010245 ], [ 75450.252999999996973, 440229.40500000002794 ], [ 75455.69199999999546, 440215.253000000026077 ], [ 75459.485, 440204.271 ], [ 75461.902000000001863, 440199.305999999982305 ], [ 75467.174, 440189.512999999977183 ], [ 75472.630999999993946, 440179.715000000025611 ], [ 75484.403000000005704, 440160.756999999983236 ], [ 75490.464000000007218, 440150.642 ], [ 75493.726999999998952, 440145.131999999983236 ], [ 75503.717000000004191, 440126.794 ], [ 75508.282999999995809, 440118.027 ], [ 75513.343999999997322, 440107.106000000028871 ], [ 75514.35899999999674, 440104.666000000026543 ], [ 75518.224000000001979, 440092.472 ], [ 75521.845000000001164, 440084.327999999979511 ], [ 75524.661999999996624, 440078.206 ], [ 75536.967000000004191, 440051.392999999981839 ], [ 75539.292000000001281, 440046.141 ], [ 75543.201, 440037.311999999976251 ], [ 75544.642000000007101, 440034.534999999974389 ], [ 75546.907000000006519, 440030.473999999987427 ], [ 75548.936000000001513, 440026.958999999973457 ], [ 75550.190000000002328, 440024.787000000011176 ], [ 75553.479999999995925, 440019.591000000014901 ], [ 75555.236999999993714, 440016.902 ], [ 75565.789999999993597, 440020.324000000022352 ], [ 75679.531099999992875, 439603.0149 ], [ 75550.909, 439566.324100000027101 ], [ 75502.639899999994668, 439538.757099999987986 ], [ 75261.4467, 439305.071300000010524 ], [ 75201.935500000006869, 439339.4718 ], [ 75173.881299999993644, 439346.564100000017788 ], [ 75173.881200000003446, 439389.3933 ], [ 75160.775800000003073, 439418.309 ], [ 75157.293699999994715, 439438.863599999982398 ], [ 75154.856199999994715, 439476.4889 ], [ 75120.732099999993807, 439501.5725 ], [ 75106.803799999994226, 439523.869 ], [ 75087.652499999996508, 439585.8811 ], [ 75067.7923, 439650.18849999998929 ], [ 75047.260599999994156, 439689.3507 ], [ 75045.265400000003865, 439693.156200000026729 ], [ 75034.07850000000326, 439702.0418 ], [ 75005.525699999998324, 439742.105800000019372 ], [ 75005.525500000003376, 439818.401699999987613 ], [ 75020.672399999995832, 439865.7817 ], [ 74958.709499999997206, 439912.542499999981374 ], [ 74845.694000000003143, 440000.0002 ], [ 75004.873999999996158, 440193.908 ], [ 75033.928, 440229.300999999977648 ], [ 75091.592999999993481, 440299.646 ], [ 75115.070999999996275, 440328.286000000021886 ], [ 75118.489000000001397, 440332.452999999979511 ], [ 75287.55000000000291, 440538.532 ], [ 75313.299, 440569.983 ], [ 75322.630999999993946, 440581.381999999983236 ], [ 75325.2638, 440584.573099999979604 ], [ 75325.313999999998487, 440584.634000000020023 ], [ 75341.453999999997905, 440547.65500000002794 ] ] ] ] } },
{ "type": "Feature", "properties": { "buurtcode": "BU05560602", "buurtnaam": "Steendijkpolder Zuid", "pc6_codes": "3146AA, 3146AB, 3146AC, 3146AD, 3146AE, 3146AG, 3146AH, 3146AJ, 3146AK, 3146AL, 3146AM, 3146AN, 3146AP, 3146BA, 3146BB, 3146BC, 3146BD, 3146BG, 3146BH, 3146BJ, 3146BK, 3146BL, 3146BM, 3146BN, 3146BP, 3146BR, 3146BS, 3146BT, 3146BV, 3146BW, 3146BX, 3146VA, 3146VB, 3146VC, 3146VD, 3146VE, 3146VG, 3146VH, 3146VJ, 3146VK, 3146VL", "wijkcode": "WK055606", "gemeentecode": "GM0556", "gemeentenaam": "Maassluis", "oppervlakteLandInHa": 53, "AantalInwoners_5": 2680, "Mannen_6": 1330, "Vrouwen_7": 1350, "HuishoudensTotaal_29": 1170, "GemiddeldeHuishoudensgrootte_33": 2.3, "Woningvoorraad_35": 1170, "NieuwbouwWoningen_36": 0, "NietWoningvoorraad_37": 67, "NieuwbouwNietWoningen_38": 0, "GemiddeldeWOZWaardeVanWoningen_39": 343, "PercentageEengezinswoning_40": 76, "PercentageTussenwoningEengezins_41": 59, "PercentageHoekwoningEengezins_42": 18, "PercentageTweeOnderEenKapWoningEe_43": 0, "PercentageVrijstaandeWoningEengezins_44": 0, "PercentageMeergezinswoning_45": 24, "Koopwoningen_47": 75, "HuurwoningenTotaal_48": 25, "InBezitWoningcorporatie_49": 23, "InBezitOverigeVerhuurders_50": 2, "BouwjaarMeerDanTienJaarGeleden_51": 100, "BouwjaarAfgelopenTienJaar_52": 0, "GemiddeldeElektriciteitslevering_53": 2540, "GemiddeldeElektriciteitsteruglevering_54": 680, "GemiddeldAardgasverbruik_55": 820, "AardgasvrijeWoningen_57": 1, "Aardgaswoningen_58": 97, "WoningenMetZonnestroom_59": 35, "WoningenHoofdzElektrVerwarmd_60": 3, "k_20PersonenMetHoogsteInkomen_80": 20.3, "k_20HuishoudensMetHoogsteInkomen_85": 20.6, "MediaanVermogenVanParticuliereHuish_86": 193.7, "PersonenautoSTotaal_104": 1370, "PersonenautoSBrandstofBenzine_105": 1115, "PersonenautoSOverigeBrandstof_106": 255, "PersonenautoSPerHuishouden_107": 1.2, "Omgevingsadressendichtheid_121": 1227, "AantalInstallatiesBijWoningen_5": 215, "OpgesteldVermogenVanZonnepanelen_6": 746, "installaties_per_woning": 0.18376068376068377, "vermogen_per_woning": 0.63760683760683756, "installaties_per_100_woningen": 18.376068376068378, "vermogen_per_huishouden": 0.63760683760683756, "batterijdruk_score": 237.99999999999997, "koop_zon_score": 0.2625, "eengezins_zon_score": 0.266, "betaalkracht_zon_score": 67.795, "overige_brandstof_zon_score": 89.25, "lichte_batterij_kansscore": 0.39612415795741779 }, "geometry": { "type": "MultiPolygon", "coordinates": [ [ [ [ 74958.709499999997206, 439912.542499999981374 ], [ 75020.672399999995832, 439865.7817 ], [ 75005.525500000003376, 439818.401699999987613 ], [ 75005.525699999998324, 439742.105800000019372 ], [ 75034.07850000000326, 439702.0418 ], [ 75045.265400000003865, 439693.156200000026729 ], [ 75047.260599999994156, 439689.3507 ], [ 75067.7923, 439650.18849999998929 ], [ 75087.652499999996508, 439585.8811 ], [ 75106.803799999994226, 439523.869 ], [ 75120.732099999993807, 439501.5725 ], [ 75154.856199999994715, 439476.4889 ], [ 75157.293699999994715, 439438.863599999982398 ], [ 75160.775800000003073, 439418.309 ], [ 75173.881200000003446, 439389.3933 ], [ 75173.881299999993644, 439346.564100000017788 ], [ 75173.604300000006333, 439329.570599999977276 ], [ 75148.4326, 439291.370899999979883 ], [ 75093.874200000005658, 439236.059300000022631 ], [ 75138.658200000005309, 439190.836699999985285 ], [ 75139.640700000003562, 439132.184499999973923 ], [ 75091.465299999996205, 439085.429 ], [ 75086.768200000005891, 439089.0441 ], [ 75067.859500000005937, 439070.9683 ], [ 75070.74989999999525, 439066.389299999980722 ], [ 75056.8995, 439052.186999999976251 ], [ 75043.842999999993481, 439031.755300000018906 ], [ 75033.795100000003004, 439028.450000000011642 ], [ 75041.7264, 439014.8001 ], [ 75046.8793, 438981.196300000010524 ], [ 74719.317200000004959, 438644.4178 ], [ 74715.012000000002445, 438648.294999999983702 ], [ 74639.19999999999709, 438714.081 ], [ 74557.985, 438778.506 ], [ 74510.996, 438816.38900000002468 ], [ 74484.236999999993714, 438838.473999999987427 ], [ 74449.73399999999674, 438864.733 ], [ 74404.790999999997439, 438898.417000000015832 ], [ 74323.30000000000291, 438955.277 ], [ 74254.043000000005122, 439000.0 ], [ 74229.0, 439015.0 ], [ 74365.160000000003492, 439257.098999999987427 ], [ 74376.121, 439276.587 ], [ 74400.740000000005239, 439320.35999999998603 ], [ 74403.220000000001164, 439318.830000000016298 ], [ 74411.979999999995925, 439331.19 ], [ 74414.979999999995925, 439344.75 ], [ 74420.14, 439354.270000000018626 ], [ 74421.267999999996391, 439356.271 ], [ 74424.035000000003492, 439361.183000000019092 ], [ 74432.948999999993248, 439377.004000000015367 ], [ 74437.082999999998719, 439384.342 ], [ 74438.309999999997672, 439386.520000000018626 ], [ 74456.080000000001746, 439418.06 ], [ 74565.36, 439611.950000000011642 ], [ 74695.820000000006985, 439843.60999999998603 ], [ 74705.910000000003492, 439861.539999999979045 ], [ 74711.095000000001164, 439860.960000000020955 ], [ 74729.913, 439858.853 ], [ 74734.31699999999546, 439864.227000000013504 ], [ 74756.475000000005821, 439891.268999999971129 ], [ 74821.895000000004075, 439971.009000000020023 ], [ 74845.694000000003143, 440000.0002 ], [ 74958.709499999997206, 439912.542499999981374 ] ] ] ] } },
{ "type": "Feature", "properties": { "buurtcode": "BU05560701", "buurtnaam": "Zuidbuurt", "pc6_codes": "3141EG, 3141EH, 3141EM, 3141EN", "wijkcode": "WK055607", "gemeentecode": "GM0556", "gemeentenaam": "Maassluis", "oppervlakteLandInHa": 129, "AantalInwoners_5": 125, "Mannen_6": 60, "Vrouwen_7": 60, "HuishoudensTotaal_29": 50, "GemiddeldeHuishoudensgrootte_33": 2.4, "Woningvoorraad_35": 50, "NieuwbouwWoningen_36": 0, "NietWoningvoorraad_37": 19, "NieuwbouwNietWoningen_38": 0, "GemiddeldeWOZWaardeVanWoningen_39": 793, "PercentageEengezinswoning_40": 96, "PercentageTussenwoningEengezins_41": 4, "PercentageHoekwoningEengezins_42": 8, "PercentageTweeOnderEenKapWoningEe_43": 12, "PercentageVrijstaandeWoningEengezins_44": 72, "PercentageMeergezinswoning_45": 4, "Koopwoningen_47": 94, "HuurwoningenTotaal_48": 6, "InBezitWoningcorporatie_49": 0, "InBezitOverigeVerhuurders_50": 6, "BouwjaarMeerDanTienJaarGeleden_51": 98, "BouwjaarAfgelopenTienJaar_52": 2, "GemiddeldeElektriciteitslevering_53": 4140, "GemiddeldeElektriciteitsteruglevering_54": 1930, "GemiddeldAardgasverbruik_55": 1190, "AardgasvrijeWoningen_57": null, "Aardgaswoningen_58": null, "WoningenMetZonnestroom_59": null, "WoningenHoofdzElektrVerwarmd_60": null, "k_20PersonenMetHoogsteInkomen_80": 30.5, "k_20HuishoudensMetHoogsteInkomen_85": null, "MediaanVermogenVanParticuliereHuish_86": null, "PersonenautoSTotaal_104": 80, "PersonenautoSBrandstofBenzine_105": 55, "PersonenautoSOverigeBrandstof_106": 25, "PersonenautoSPerHuishouden_107": 1.5, "Omgevingsadressendichtheid_121": 747, "AantalInstallatiesBijWoningen_5": 19, "OpgesteldVermogenVanZonnepanelen_6": 115, "installaties_per_woning": 0.38, "vermogen_per_woning": 2.3, "installaties_per_100_woningen": 38.0, "vermogen_per_huishouden": 2.3, "batterijdruk_score": null, "koop_zon_score": null, "eengezins_zon_score": null, "betaalkracht_zon_score": null, "overige_brandstof_zon_score": null, "lichte_batterij_kansscore": null }, "geometry": { "type": "MultiPolygon", "coordinates": [ [ [ [ 78398.831000000005588, 437816.580000000016298 ], [ 78398.464999999996508, 437815.299999999988358 ], [ 78398.357999999992899, 437813.74900000001071 ], [ 78398.148000000001048, 437811.87300000002142 ], [ 78398.51600000000326, 437810.395000000018626 ], [ 78398.88300000000163, 437808.691 ], [ 78399.426999999996042, 437807.362000000022817 ], [ 78403.345000000001164, 437805.364 ], [ 78407.168999999994412, 437804.468 ], [ 78411.193, 437803.745999999984633 ], [ 78415.542000000001281, 437802.947999999974854 ], [ 78422.371, 437802.560999999986961 ], [ 78425.744000000006054, 437802.294 ], [ 78427.042000000001281, 437803.186999999976251 ], [ 78428.584000000002561, 437803.022999999986496 ], [ 78462.654999999998836, 437798.898999999975786 ], [ 78492.964000000007218, 437794.705000000016298 ], [ 78543.765, 437787.582 ], [ 78590.430999999996857, 437776.996999999973923 ], [ 78697.235, 437755.037000000011176 ], [ 78719.921000000002095, 437750.433000000019092 ], [ 78731.341, 437747.781000000017229 ], [ 78736.637000000002445, 437747.488000000012107 ], [ 78741.690000000002328, 437747.835000000020955 ], [ 78750.068, 437752.288 ], [ 78750.924, 437752.73599999997532 ], [ 78779.304000000003725, 437746.598 ], [ 78830.998000000006869, 437732.864 ], [ 78834.421000000002095, 437732.065 ], [ 78840.505000000004657, 437730.645000000018626 ], [ 78873.126999999993131, 437723.033999999985099 ], [ 78887.702999999994063, 437719.810999999986961 ], [ 78893.913, 437720.31 ], [ 78938.725000000005821, 437710.48599999997532 ], [ 78970.69199999999546, 437703.478 ], [ 78972.952999999994063, 437702.971000000019558 ], [ 78973.493000000002212, 437702.843 ], [ 78974.076, 437702.711000000010245 ], [ 79053.301000000006752, 437685.881 ], [ 79067.487999999997555, 437682.867000000027474 ], [ 79124.273000000001048, 437669.35999999998603 ], [ 79129.936000000001513, 437668.01400000002468 ], [ 79197.221999999994296, 437652.732000000018161 ], [ 79201.653999999994994, 437651.726000000024214 ], [ 79245.334000000002561, 437642.427000000025146 ], [ 79254.755000000004657, 437640.298 ], [ 79297.172000000005937, 437630.710000000020955 ], [ 79303.176000000006752, 437629.365999999979977 ], [ 79337.546000000002095, 437621.670999999972992 ], [ 79337.962, 437621.577999999979511 ], [ 79407.05000000000291, 437606.112000000022817 ], [ 79416.861000000004424, 437603.916000000026543 ], [ 79441.05899999999383, 437598.367000000027474 ], [ 79441.903000000005704, 437598.173 ], [ 79459.486000000004424, 437594.093999999982771 ], [ 79473.600000000005821, 437590.819000000017695 ], [ 79473.615000000005239, 437590.816 ], [ 79473.864000000001397, 437590.757999999972526 ], [ 79487.251999999993131, 437587.652 ], [ 79522.755000000004657, 437579.414999999979045 ], [ 79523.430999999996857, 437579.271 ], [ 79524.584000000002561, 437579.023999999975786 ], [ 79535.89, 437576.602000000013504 ], [ 79547.775999999998021, 437574.055 ], [ 79629.653999999994994, 437556.07 ], [ 79648.634999999994761, 437551.901000000012573 ], [ 79702.146999999997206, 437539.612000000022817 ], [ 79694.220000000001164, 437531.419 ], [ 79669.498000000006869, 437505.868000000016764 ], [ 79668.524000000004889, 437504.86099999997532 ], [ 79662.960999999995693, 437499.112000000022817 ], [ 79617.023000000001048, 437451.635 ], [ 79590.122000000003027, 437423.87 ], [ 79553.894, 437386.478 ], [ 79517.578999999997905, 437348.781000000017229 ], [ 79512.717999999993481, 437343.73499999998603 ], [ 79495.807, 437326.18 ], [ 79482.861999999993714, 437312.743000000016764 ], [ 79478.001999999993131, 437307.697999999974854 ], [ 79467.906000000002678, 437297.218 ], [ 79413.524999999994179, 437240.517999999981839 ], [ 79408.996, 437235.824000000022352 ], [ 79408.752999999996973, 437235.571999999985565 ], [ 79408.68399999999383, 437235.5 ], [ 79408.615000000005239, 437235.428000000014435 ], [ 79400.490999999994528, 437227.006999999983236 ], [ 79356.049, 437180.939000000013039 ], [ 79351.88300000000163, 437176.620999999984633 ], [ 79332.831999999994878, 437156.87300000002142 ], [ 79290.944000000003143, 437113.353 ], [ 79290.61699999999837, 437113.012999999977183 ], [ 79289.169999999998254, 437111.509000000020023 ], [ 79280.778000000005704, 437103.37400000001071 ], [ 79280.243000000002212, 437102.856000000028871 ], [ 79278.952000000004773, 437101.604999999981374 ], [ 79278.220000000001164, 437100.895000000018626 ], [ 79276.453999999997905, 437099.184 ], [ 79276.371, 437099.103 ], [ 79274.551000000006752, 437097.338999999978114 ], [ 79271.603000000002794, 437094.481000000028871 ], [ 79270.865000000005239, 437093.819000000017695 ], [ 79266.975999999995111, 437090.331 ], [ 79266.565000000002328, 437089.962 ], [ 79265.854999999995925, 437089.325000000011642 ], [ 79251.998000000006869, 437076.895000000018626 ], [ 79241.797000000005937, 437067.745 ], [ 79246.210999999995693, 437066.583999999973457 ], [ 79236.827999999994063, 437057.299 ], [ 79236.57499999999709, 437057.049 ], [ 79234.823999999993248, 437055.315 ], [ 79222.059999999997672, 437042.685 ], [ 79217.938999999998487, 437038.607000000018161 ], [ 79189.724000000001979, 437010.686999999976251 ], [ 79179.422000000005937, 437000.493000000016764 ], [ 78815.668999999994412, 436640.548 ], [ 78792.69999999999709, 436617.82 ], [ 78696.180999999996857, 436523.311999999976251 ], [ 78691.845000000001164, 436519.066 ], [ 78685.357999999992899, 436512.713999999978114 ], [ 78680.410000000003492, 436507.907 ], [ 78658.830000000001746, 436486.94 ], [ 78630.570999999996275, 436459.496999999973923 ], [ 78627.278000000005704, 436456.284999999974389 ], [ 78619.794200000003912, 436448.701200000010431 ], [ 78614.965100000001257, 436443.8075 ], [ 77426.683099999994738, 436838.812199999985751 ], [ 78029.912200000006123, 437162.0896 ], [ 78290.718599999992875, 437349.258199999982025 ], [ 78459.7782, 437456.026599999982864 ], [ 78366.635200000004261, 437732.2389 ], [ 78365.9366, 437779.7611 ], [ 78336.182, 437816.821999999985565 ], [ 78342.07499999999709, 437816.021 ], [ 78342.986000000004424, 437815.871999999973923 ], [ 78342.797999999995227, 437816.509000000020023 ], [ 78349.952000000004773, 437815.081 ], [ 78360.32499999999709, 437813.023999999975786 ], [ 78365.974000000001979, 437812.017999999981839 ], [ 78372.895999999993364, 437810.330000000016298 ], [ 78377.669999999998254, 437809.329000000027008 ], [ 78379.293999999994412, 437808.895000000018626 ], [ 78380.343999999997322, 437808.713999999978114 ], [ 78381.497000000003027, 437809.082999999984168 ], [ 78383.327000000004773, 437809.875 ], [ 78384.284, 437811.120999999984633 ], [ 78387.36, 437818.143999999971129 ], [ 78398.831000000005588, 437816.580000000016298 ] ] ] ] } },
{ "type": "Feature", "properties": { "buurtcode": "BU05560702", "buurtnaam": "De Dijk", "pc6_codes": "3143CT, 3143LN, 3143LT, 3143LV", "wijkcode": "WK055607", "gemeentecode": "GM0556", "gemeentenaam": "Maassluis", "oppervlakteLandInHa": 55, "AantalInwoners_5": 10, "Mannen_6": 5, "Vrouwen_7": 5, "HuishoudensTotaal_29": 5, "GemiddeldeHuishoudensgrootte_33": 2.4, "Woningvoorraad_35": 4, "NieuwbouwWoningen_36": 0, "NietWoningvoorraad_37": 106, "NieuwbouwNietWoningen_38": 0, "GemiddeldeWOZWaardeVanWoningen_39": null, "PercentageEengezinswoning_40": null, "PercentageTussenwoningEengezins_41": null, "PercentageHoekwoningEengezins_42": null, "PercentageTweeOnderEenKapWoningEe_43": null, "PercentageVrijstaandeWoningEengezins_44": null, "PercentageMeergezinswoning_45": null, "Koopwoningen_47": null, "HuurwoningenTotaal_48": null, "InBezitWoningcorporatie_49": null, "InBezitOverigeVerhuurders_50": null, "BouwjaarMeerDanTienJaarGeleden_51": null, "BouwjaarAfgelopenTienJaar_52": null, "GemiddeldeElektriciteitslevering_53": null, "GemiddeldeElektriciteitsteruglevering_54": null, "GemiddeldAardgasverbruik_55": null, "AardgasvrijeWoningen_57": null, "Aardgaswoningen_58": null, "WoningenMetZonnestroom_59": null, "WoningenHoofdzElektrVerwarmd_60": null, "k_20PersonenMetHoogsteInkomen_80": null, "k_20HuishoudensMetHoogsteInkomen_85": null, "MediaanVermogenVanParticuliereHuish_86": null, "PersonenautoSTotaal_104": 30, "PersonenautoSBrandstofBenzine_105": 15, "PersonenautoSOverigeBrandstof_106": 15, "PersonenautoSPerHuishouden_107": null, "Omgevingsadressendichtheid_121": 1142, "AantalInstallatiesBijWoningen_5": 9, "OpgesteldVermogenVanZonnepanelen_6": 34, "installaties_per_woning": 2.25, "vermogen_per_woning": 8.5, "installaties_per_100_woningen": 225.0, "vermogen_per_huishouden": 6.8, "batterijdruk_score": null, "koop_zon_score": null, "eengezins_zon_score": null, "betaalkracht_zon_score": null, "overige_brandstof_zon_score": null, "lichte_batterij_kansscore": null }, "geometry": { "type": "MultiPolygon", "coordinates": [ [ [ [ 77426.683099999994738, 436838.812199999985751 ], [ 78614.965100000001257, 436443.8075 ], [ 78612.838000000003376, 436441.652 ], [ 78612.349000000001979, 436441.156000000017229 ], [ 78609.282000000006519, 436438.048 ], [ 78608.830000000001746, 436437.619 ], [ 78607.899000000004889, 436436.733 ], [ 78597.736999999993714, 436427.072999999974854 ], [ 78538.971000000005006, 436370.952 ], [ 78477.839999999996508, 436313.052000000025146 ], [ 78473.557, 436308.930999999982305 ], [ 78456.698000000003958, 436292.712999999988824 ], [ 78421.006999999997788, 436258.381 ], [ 78354.714999999996508, 436195.21999999997206 ], [ 78296.025999999998021, 436138.86099999997532 ], [ 78266.024999999994179, 436109.066999999980908 ], [ 78264.290999999997439, 436107.346000000019558 ], [ 78253.835999999995693, 436096.963999999978114 ], [ 78253.160999999992782, 436096.292000000015832 ], [ 78241.584000000002561, 436084.795999999972992 ], [ 78239.818, 436083.042000000015832 ], [ 78221.294999999998254, 436064.647999999986496 ], [ 78219.551000000006752, 436062.917000000015832 ], [ 78218.447, 436061.82 ], [ 78212.974000000001979, 436056.385 ], [ 78208.876999999993131, 436052.324000000022352 ], [ 78201.036999999996624, 436044.553000000014435 ], [ 78156.720000000001164, 436000.632999999972526 ], [ 78155.754, 435999.674999999988358 ], [ 78154.36, 435998.275000000023283 ], [ 78151.027000000001863, 435994.925999999977648 ], [ 78150.376000000003842, 435994.272999999986496 ], [ 78148.794999999998254, 435992.685 ], [ 78146.31600000000617, 435990.196 ], [ 78139.543000000005122, 435983.393999999971129 ], [ 78098.861999999993714, 435942.534999999974389 ], [ 78009.993000000002212, 435854.283999999985099 ], [ 77952.481, 435796.88 ], [ 77857.960867000001599, 435861.651733 ], [ 77857.956999999994878, 435861.653999999980442 ], [ 77789.592000000004191, 435905.711000000010245 ], [ 77692.471999999994296, 435971.267999999981839 ], [ 77635.926999999996042, 436009.82 ], [ 77457.259000000005472, 436129.482000000018161 ], [ 77369.828999999997905, 436187.153 ], [ 77287.671000000002095, 436242.35999999998603 ], [ 77218.648000000001048, 436287.652 ], [ 77146.702999999994063, 436334.156000000017229 ], [ 77125.322100000004866, 436347.762800000025891 ], [ 77302.592699999993783, 436772.310899999982212 ], [ 77352.199600000007194, 436858.663300000014715 ], [ 77426.683099999994738, 436838.812199999985751 ] ] ] ] } },
{ "type": "Feature", "properties": { "buurtcode": "BU05560801", "buurtnaam": "Wilgenrijk", "pc6_codes": "3142PA, 3147PA, 3147PB, 3147PC, 3147PD, 3147PE, 3147PG, 3147PH, 3147PJ, 3147PK, 3147PL, 3147PM, 3147PN, 3147PP, 3147PR, 3147PS, 3147PT, 3147PV, 3147PW, 3147PX, 3147PZ, 3147RA, 3147RB, 3147RC, 3147RD, 3147RE, 3147RG, 3147RZ, 3147VA, 3147ZW, 3147ZX, 3147ZZ", "wijkcode": "WK055608", "gemeentecode": "GM0556", "gemeentenaam": "Maassluis", "oppervlakteLandInHa": 108, "AantalInwoners_5": 1805, "Mannen_6": 880, "Vrouwen_7": 930, "HuishoudensTotaal_29": 585, "GemiddeldeHuishoudensgrootte_33": 3.1, "Woningvoorraad_35": 602, "NieuwbouwWoningen_36": 127, "NietWoningvoorraad_37": 22, "NieuwbouwNietWoningen_38": 0, "GemiddeldeWOZWaardeVanWoningen_39": 612, "PercentageEengezinswoning_40": 89, "PercentageTussenwoningEengezins_41": 34, "PercentageHoekwoningEengezins_42": 20, "PercentageTweeOnderEenKapWoningEe_43": 16, "PercentageVrijstaandeWoningEengezins_44": 19, "PercentageMeergezinswoning_45": 11, "Koopwoningen_47": 73, "HuurwoningenTotaal_48": 27, "InBezitWoningcorporatie_49": 8, "InBezitOverigeVerhuurders_50": 19, "BouwjaarMeerDanTienJaarGeleden_51": 6, "BouwjaarAfgelopenTienJaar_52": 94, "GemiddeldeElektriciteitslevering_53": 3890, "GemiddeldeElektriciteitsteruglevering_54": 1660, "GemiddeldAardgasverbruik_55": 390, "AardgasvrijeWoningen_57": 57, "Aardgaswoningen_58": 27, "WoningenMetZonnestroom_59": 79, "WoningenHoofdzElektrVerwarmd_60": 66, "k_20PersonenMetHoogsteInkomen_80": 37.7, "k_20HuishoudensMetHoogsteInkomen_85": 55.1, "MediaanVermogenVanParticuliereHuish_86": 275.6, "PersonenautoSTotaal_104": 795, "PersonenautoSBrandstofBenzine_105": 605, "PersonenautoSOverigeBrandstof_106": 190, "PersonenautoSPerHuishouden_107": 1.4, "Omgevingsadressendichtheid_121": 1701, "AantalInstallatiesBijWoningen_5": 380, "OpgesteldVermogenVanZonnepanelen_6": 1155, "installaties_per_woning": 0.6312292358803987, "vermogen_per_woning": 1.9186046511627908, "installaties_per_100_woningen": 63.122923588039868, "vermogen_per_huishouden": 1.9743589743589745, "batterijdruk_score": 1311.4, "koop_zon_score": 0.5767, "eengezins_zon_score": 0.7031, "betaalkracht_zon_score": 217.724, "overige_brandstof_zon_score": 150.1, "lichte_batterij_kansscore": 0.53326009607703484 }, "geometry": { "type": "MultiPolygon", "coordinates": [ [ [ [ 75934.195000000006985, 440122.416000000026543 ], [ 75955.904999999998836, 440120.294999999983702 ], [ 75978.059999999997672, 440116.742000000027474 ], [ 75995.520000000004075, 440113.511999999987893 ], [ 76014.323000000003958, 440108.922000000020489 ], [ 76017.595000000001164, 440107.37 ], [ 76039.0, 440100.0 ], [ 76059.0, 440088.0 ], [ 76093.14100000000326, 440048.981000000028871 ], [ 76099.307, 440041.935 ], [ 76136.0, 440000.0 ], [ 76143.0, 440002.0 ], [ 76146.64100000000326, 439997.103 ], [ 76154.812000000005355, 439986.196 ], [ 76177.19999999999709, 439956.336000000010245 ], [ 76189.142999999996391, 439940.511999999987893 ], [ 76194.426999999996042, 439933.552000000025146 ], [ 76201.357000000003609, 439924.356000000028871 ], [ 76207.687000000005355, 439925.886999999987893 ], [ 76241.366299999994226, 439880.706400000024587 ], [ 76260.57499999999709, 439854.938000000023749 ], [ 76288.607000000003609, 439817.282 ], [ 76282.407999999995809, 439815.51 ], [ 76355.642999999996391, 439717.569000000017695 ], [ 76361.561000000001513, 439719.136 ], [ 76432.822, 439623.908 ], [ 76448.093999999997322, 439603.5 ], [ 76463.739000000001397, 439582.593 ], [ 76471.278999999994994, 439572.517 ], [ 76476.157999999995809, 439565.996999999973923 ], [ 76487.150999999998021, 439551.330000000016298 ], [ 76529.748999999996158, 439494.49800000002142 ], [ 76529.845000000001164, 439494.527 ], [ 76584.502999999996973, 439421.076 ], [ 76636.434999999997672, 439351.286000000021886 ], [ 76639.918999999994412, 439346.647999999986496 ], [ 76643.50800000000163, 439341.869 ], [ 76689.085999999995693, 439281.181999999971595 ], [ 76698.887000000002445, 439268.132999999972526 ], [ 76709.190000000002328, 439254.363000000012107 ], [ 76747.362999999997555, 439203.348 ], [ 76773.100000000005821, 439169.211000000010245 ], [ 76795.535999999992782, 439139.452999999979511 ], [ 76802.385999999998603, 439130.150000000023283 ], [ 76816.489000000001397, 439111.454000000027008 ], [ 76838.957999999998719, 439081.615 ], [ 76847.150999999998021, 439070.615 ], [ 76848.292000000001281, 439069.082 ], [ 76885.510999999998603, 439019.108 ], [ 76899.801999999996042, 438999.976000000024214 ], [ 76913.00800000000163, 438982.295999999972992 ], [ 76997.077999999994063, 438869.418 ], [ 77003.896999999997206, 438860.2621 ], [ 76494.9755, 438664.438000000023749 ], [ 76444.833799999993062, 438641.146100000012666 ], [ 76316.589000000007218, 438681.161100000026636 ], [ 76265.663199999995413, 438695.758900000015274 ], [ 76082.544699999998556, 438748.249699999985751 ], [ 76064.637000000002445, 438758.6017 ], [ 76042.152799999996205, 438776.9165 ], [ 76023.0512000000017, 438806.180799999972805 ], [ 75978.145000000004075, 438896.212799999979325 ], [ 75915.9902, 438987.053599999984726 ], [ 75865.2739, 439061.176700000010896 ], [ 75812.3989, 439095.5748 ], [ 75787.415299999993294, 439119.3519 ], [ 75777.665399999998044, 439195.56060000002617 ], [ 75751.359500000005937, 439331.67070000001695 ], [ 75679.531099999992875, 439603.0149 ], [ 75565.789999999993597, 440020.324000000022352 ], [ 75576.682, 440023.88900000002468 ], [ 75582.017999999996391, 440025.636 ], [ 75604.629, 440034.278 ], [ 75627.198999999993248, 440044.218999999982771 ], [ 75645.809999999997672, 440052.208999999973457 ], [ 75661.630000000004657, 440059.12 ], [ 75679.60899999999674, 440066.608 ], [ 75695.512000000002445, 440073.200000000011642 ], [ 75713.069000000003143, 440080.188000000023749 ], [ 75730.349000000001979, 440087.131 ], [ 75749.159, 440094.75199999997858 ], [ 75772.713000000003376, 440103.188000000023749 ], [ 75797.26600000000326, 440110.281000000017229 ], [ 75819.138999999995576, 440114.516 ], [ 75828.785000000003492, 440116.38900000002468 ], [ 75842.082999999998719, 440118.972 ], [ 75850.873000000006869, 440120.048 ], [ 75871.582999999998719, 440122.582 ], [ 75899.970000000001164, 440123.053000000014435 ], [ 75912.74199999999837, 440123.319000000017695 ], [ 75934.195000000006985, 440122.416000000026543 ] ] ] ] } }
]
}
