{
"type": "FeatureCollection",
"name": "Mook_en_Middelaar",
"crs": { "type": "name", "properties": { "name": "urn:ogc:def:crs:EPSG::28992" } },
"features": [
{ "type": "Feature", "properties": { "buurtcode": "BU09440000", "buurtnaam": "Molenhoek", "pc6_codes": "6584AA, 6584AB, 6584AC, 6584AD, 6584AE, 6584AG, 6584AH, 6584AJ, 6584AK, 6584AL, 6584AM, 6584AN, 6584AP, 6584AR, 6584AS, 6584AT, 6584AV, 6584AW, 6584AX, 6584AZ, 6584BA, 6584BB, 6584BC, 6584BD, 6584BE, 6584BG, 6584BH, 6584BJ, 6584BK, 6584BL, 6584BM, 6584BN, 6584BP, 6584BR, 6584BS, 6584BT, 6584BV, 6584BW, 6584BX, 6584BZ, 6584CA, 6584CB, 6584CC, 6584CD, 6584CE, 6584CG, 6584CH, 6584CJ, 6584CK, 6584CL, 6584CM, 6584CN, 6584CP, 6584CR, 6584CS, 6584CV, 6584CW, 6584CX, 6584CZ, 6584DA, 6584DB, 6584DC, 6584DE, 6584DG, 6584DH, 6584DJ, 6584EA, 6584EB, 6584EC, 6584ED, 6584EE, 6584EG, 6584EH, 6584EJ, 6584EK, 6584EM, 6584EP, 6584ER, 6584ET, 6584GA, 6584GB, 6584GC, 6584GD, 6584GE, 6584GG, 6584GH, 6584GJ, 6584GK, 6584GL, 6584GM, 6584GN, 6584GP, 6584HA, 6584HB, 6584HC, 6584HD, 6584JA, 6584JB, 6584JC, 6585KB", "wijkcode": "WK094400", "gemeentecode": "GM0944", "gemeentenaam": "Mook en Middelaar", "oppervlakteLandInHa": 317, "AantalInwoners_5": 3725, "Mannen_6": 1815, "Vrouwen_7": 1910, "HuishoudensTotaal_29": 1665, "GemiddeldeHuishoudensgrootte_33": 2.2, "Woningvoorraad_35": 1675, "NieuwbouwWoningen_36": 4, "NietWoningvoorraad_37": 193, "NieuwbouwNietWoningen_38": 0, "GemiddeldeWOZWaardeVanWoningen_39": 422, "PercentageEengezinswoning_40": 84, "PercentageTussenwoningEengezins_41": 33, "PercentageHoekwoningEengezins_42": 17, "PercentageTweeOnderEenKapWoningEe_43": 13, "PercentageVrijstaandeWoningEengezins_44": 22, "PercentageMeergezinswoning_45": 16, "Koopwoningen_47": 76, "HuurwoningenTotaal_48": 24, "InBezitWoningcorporatie_49": 15, "InBezitOverigeVerhuurders_50": 10, "BouwjaarMeerDanTienJaarGeleden_51": 91, "BouwjaarAfgelopenTienJaar_52": 9, "GemiddeldeElektriciteitslevering_53": 2840, "GemiddeldeElektriciteitsteruglevering_54": 1370, "GemiddeldAardgasverbruik_55": 1000, "AardgasvrijeWoningen_57": 6, "Aardgaswoningen_58": 88, "WoningenMetZonnestroom_59": 61, "WoningenHoofdzElektrVerwarmd_60": 11, "k_20PersonenMetHoogsteInkomen_80": 24.5, "k_20HuishoudensMetHoogsteInkomen_85": 28.5, "MediaanVermogenVanParticuliereHuish_86": 309.4, "PersonenautoSTotaal_104": 2055, "PersonenautoSBrandstofBenzine_105": 1585, "PersonenautoSOverigeBrandstof_106": 465, "PersonenautoSPerHuishouden_107": 1.2, "Omgevingsadressendichtheid_121": 591, "AantalInstallatiesBijWoningen_5": 707, "OpgesteldVermogenVanZonnepanelen_6": 2900, "installaties_per_woning": 0.42208955223880595, "vermogen_per_woning": 1.7313432835820894, "installaties_per_100_woningen": 42.208955223880594, "vermogen_per_huishouden": 1.7417417417417418, "batterijdruk_score": 835.7, "koop_zon_score": 0.4636, "eengezins_zon_score": 0.5124, "betaalkracht_zon_score": 188.734, "overige_brandstof_zon_score": 283.65, "lichte_batterij_kansscore": 0.48974291532121256 }, "geometry": { "type": "MultiPolygon", "coordinates": [ [ [ [ 189548.134, 421223.427000000025146 ], [ 189567.407, 421222.333999999973457 ], [ 189585.264, 421222.016 ], [ 189601.878, 421219.028 ], [ 189625.469000000011874, 421215.539999999979045 ], [ 189638.69, 421213.586000000010245 ], [ 189662.75099999998929, 421210.76500000001397 ], [ 189686.176, 421205.571 ], [ 189690.616, 421204.586000000010245 ], [ 189707.522999999986496, 421201.294 ], [ 189724.411, 421197.104999999981374 ], [ 189757.903, 421189.331 ], [ 189788.728, 421182.202 ], [ 189811.528, 421175.814000000013039 ], [ 189828.096, 421170.435 ], [ 189852.306000000011409, 421163.708999999973457 ], [ 189858.005, 421162.12699999997858 ], [ 189888.806000000011409, 421153.802000000025146 ], [ 189934.185999999986961, 421142.143999999971129 ], [ 189951.152, 421116.96999999997206 ], [ 189955.025, 421110.728 ], [ 189966.13, 421093.913 ], [ 189969.067000000010012, 421089.465000000025611 ], [ 189973.946999999985565, 421083.25099999998929 ], [ 190095.783, 420901.369 ], [ 190208.032, 420732.382999999972526 ], [ 190212.560999999986961, 420725.648999999975786 ], [ 190213.5, 420724.25199999997858 ], [ 190215.538, 420721.299 ], [ 190221.674999999988358, 420712.403999999980442 ], [ 190286.578, 420618.311999999976251 ], [ 190353.532, 420519.902 ], [ 190385.821, 420474.447999999974854 ], [ 190386.845, 420472.838999999978114 ], [ 190389.163, 420469.194000000017695 ], [ 190394.641, 420459.433000000019092 ], [ 190425.006, 420405.863000000012107 ], [ 190449.365, 420362.343 ], [ 190450.897, 420359.607000000018161 ], [ 190458.616, 420345.816999999980908 ], [ 190466.307999999989988, 420332.628000000026077 ], [ 190470.318, 420325.484 ], [ 190143.9062, 420105.8126 ], [ 189999.0937, 420035.8126 ], [ 189885.4999, 419957.093899999978021 ], [ 189789.0937, 419876.6876 ], [ 189685.703, 419801.906399999978021 ], [ 189499.4999, 419799.3126 ], [ 189272.0938, 419800.1875 ], [ 189161.203100000013364, 420020.8125 ], [ 189042.203100000013364, 420165.1876 ], [ 189000.4999, 419891.406399999978021 ], [ 188960.203100000013364, 419673.6876 ], [ 188945.796899999986636, 419630.093899999978021 ], [ 188889.9063, 419460.0001 ], [ 188788.203, 419214.906399999978021 ], [ 188645.29680000001099, 418961.6876 ], [ 188415.989899999985937, 418604.626700000022538 ], [ 188390.4706, 418626.40749999997206 ], [ 188347.717, 418662.897999999986496 ], [ 188278.700000000011642, 418712.549999999988358 ], [ 188225.85, 418744.299999999988358 ], [ 188148.299999999988358, 418789.299999999988358 ], [ 188126.75, 418800.799999999988358 ], [ 188094.700000000011642, 418818.5 ], [ 188040.15, 418845.200000000011642 ], [ 188011.299999999988358, 418859.549999999988358 ], [ 188000.0, 418864.950000000011642 ], [ 187984.950000000011642, 418871.200000000011642 ], [ 187954.75, 418883.5 ], [ 187951.709, 418884.538999999989755 ], [ 187990.71840000001248, 418947.993399999977555 ], [ 188019.052, 418994.082 ], [ 188022.739, 419000.079000000027008 ], [ 188035.079, 419020.151000000012573 ], [ 188035.163999999989755, 419020.289999999979045 ], [ 188035.567000000010012, 419020.945 ], [ 188036.638, 419022.686999999976251 ], [ 188028.345, 419029.003000000026077 ], [ 188027.919, 419032.445 ], [ 188028.783, 419036.989 ], [ 188029.179, 419039.07 ], [ 188034.657, 419040.347 ], [ 188044.187, 419042.403999999980442 ], [ 188053.366, 419044.808000000019092 ], [ 188054.317000000010012, 419045.056999999971595 ], [ 188059.79, 419048.131999999983236 ], [ 188060.136, 419048.326 ], [ 188060.222, 419048.429 ], [ 188060.24299999998766, 419048.455000000016298 ], [ 188063.131, 419051.903999999980442 ], [ 188066.127, 419055.631999999983236 ], [ 188072.884, 419066.825000000011642 ], [ 188087.011999999987893, 419092.650000000023283 ], [ 188101.144, 419119.071999999985565 ], [ 188109.575000000011642, 419136.841000000014901 ], [ 188117.416999999986729, 419155.658999999985099 ], [ 188122.471, 419170.096000000019558 ], [ 188128.435999999986961, 419184.038 ], [ 188134.197600000014063, 419195.083600000012666 ], [ 188137.158, 419200.759000000020023 ], [ 188145.421, 419215.087 ], [ 188165.98499999998603, 419247.917000000015832 ], [ 188183.842, 419275.522 ], [ 188200.348, 419300.887999999977183 ], [ 188208.149, 419312.675999999977648 ], [ 188213.237, 419318.191 ], [ 188219.981999999989057, 419327.14000000001397 ], [ 188224.489, 419335.050999999977648 ], [ 188228.856, 419344.457999999984168 ], [ 188235.799, 419362.232000000018161 ], [ 188272.024, 419450.072999999974854 ], [ 188272.74, 419451.36099999997532 ], [ 188272.76, 419451.397 ], [ 188277.62400000001071, 419462.863000000012107 ], [ 188268.62400000001071, 419484.841000000014901 ], [ 188259.071999999985565, 419508.43 ], [ 188241.568, 419549.072999999974854 ], [ 188231.832, 419573.341000000014901 ], [ 188230.503999999986263, 419577.696 ], [ 188221.184, 419608.482000000018161 ], [ 188215.576, 419627.058000000019092 ], [ 188203.519999999989523, 419682.782 ], [ 188203.832, 419687.951 ], [ 188200.296, 419702.631 ], [ 188198.192000000010012, 419710.678000000014435 ], [ 188197.079999999987194, 419723.13 ], [ 188195.448, 419730.271 ], [ 188191.714, 419747.367000000027474 ], [ 188194.318, 419783.38900000002468 ], [ 188194.998, 419792.798 ], [ 188194.928000000014435, 419794.240999999979977 ], [ 188193.56, 419822.629000000015367 ], [ 188191.776000000012573, 419836.071999999985565 ], [ 188191.583000000013271, 419837.069000000017695 ], [ 188184.665, 419872.723 ], [ 188178.111, 419891.365999999979977 ], [ 188171.109, 419909.169 ], [ 188158.538999999989755, 419942.196 ], [ 188155.104, 419954.862000000022817 ], [ 188150.869, 419969.075000000011642 ], [ 188147.924, 419978.960000000020955 ], [ 188147.386399999988498, 419989.679300000017975 ], [ 188146.378, 420009.787000000011176 ], [ 188140.416, 420078.25 ], [ 188130.748, 420163.922000000020489 ], [ 188124.82, 420221.26 ], [ 188123.644, 420240.648999999975786 ], [ 188122.173, 420374.918 ], [ 188122.174999999988358, 420374.98499999998603 ], [ 188125.967, 420485.912000000011176 ], [ 188127.698, 420507.212999999988824 ], [ 188134.01, 420584.85999999998603 ], [ 188135.071999999985565, 420597.927000000025146 ], [ 188135.090999999985797, 420597.86099999997532 ], [ 188142.283, 420576.476000000024214 ], [ 188142.74900000001071, 420581.080000000016298 ], [ 188143.907, 420600.938000000023749 ], [ 188144.244, 420607.685 ], [ 188144.472, 420612.157 ], [ 188145.136, 420624.865999999979977 ], [ 188145.12, 420631.614 ], [ 188145.309, 420631.614 ], [ 188144.987, 420648.976000000024214 ], [ 188144.987, 420649.044 ], [ 188145.005, 420673.121999999973923 ], [ 188145.005, 420673.322999999974854 ], [ 188145.011999999987893, 420683.224999999976717 ], [ 188145.014, 420686.332999999984168 ], [ 188145.014, 420686.414999999979045 ], [ 188145.014, 420686.62400000001071 ], [ 188145.018000000010943, 420691.098999999987427 ], [ 188145.019999999989523, 420694.466000000014901 ], [ 188145.026000000012573, 420695.064000000013039 ], [ 188145.07, 420699.278999999980442 ], [ 188145.248, 420716.201 ], [ 188145.333000000013271, 420724.302000000025146 ], [ 188145.334, 420724.37699999997858 ], [ 188145.454, 420735.84499999997206 ], [ 188145.579, 420747.775000000023283 ], [ 188158.452, 420801.561999999976251 ], [ 188158.560999999986961, 420802.017999999981839 ], [ 188175.014, 420870.76400000002468 ], [ 188197.555, 420872.802000000025146 ], [ 188197.753, 420872.82 ], [ 188241.763, 420876.798 ], [ 188252.2964, 420895.117099999974016 ], [ 188260.961000000010245, 420910.185999999986961 ], [ 188283.081, 420935.03000000002794 ], [ 188343.612, 420942.963999999978114 ], [ 188343.807999999989988, 420942.99 ], [ 188497.484, 420963.887999999977183 ], [ 188497.674, 420963.913999999989755 ], [ 188556.913999999989755, 420971.900000000023283 ], [ 188557.102000000013504, 420971.924999999988358 ], [ 188590.288999999989755, 420977.077 ], [ 188655.965999999985797, 420989.604999999981374 ], [ 188656.128, 420989.636 ], [ 188670.363000000012107, 420992.335000000020955 ], [ 188891.079999999987194, 421034.180999999982305 ], [ 188901.973, 421038.099999999976717 ], [ 188914.601, 421042.642999999981839 ], [ 188975.228, 421058.479 ], [ 189099.826, 421105.836000000010245 ], [ 189184.872, 421134.771 ], [ 189239.76500000001397, 421159.766 ], [ 189258.509, 421168.300999999977648 ], [ 189296.052, 421180.569000000017695 ], [ 189307.783, 421185.316999999980908 ], [ 189308.113000000012107, 421185.451 ], [ 189311.75, 421186.402 ], [ 189319.961000000010245, 421189.37 ], [ 189340.337999999988824, 421196.183000000019092 ], [ 189354.305, 421200.293 ], [ 189360.886999999987893, 421201.952 ], [ 189378.045000000012806, 421206.276000000012573 ], [ 189387.99900000001071, 421208.215000000025611 ], [ 189401.953, 421210.933000000019092 ], [ 189405.541999999986729, 421211.766 ], [ 189428.848999999987427, 421216.993000000016764 ], [ 189433.122, 421216.973999999987427 ], [ 189444.799, 421220.038999999989755 ], [ 189448.152, 421220.840000000025611 ], [ 189479.587999999988824, 421222.705000000016298 ], [ 189513.579, 421225.387999999977183 ], [ 189548.134, 421223.427000000025146 ] ] ] ] } },
{ "type": "Feature", "properties": { "buurtcode": "BU09440001", "buurtnaam": "Mook", "pc6_codes": "6585AA, 6585AB, 6585AC, 6585AD, 6585AE, 6585AG, 6585AH, 6585AJ, 6585AK, 6585AL, 6585AM, 6585AN, 6585AP, 6585AR, 6585AS, 6585AT, 6585AV, 6585AW, 6585AX, 6585AZ, 6585BA, 6585BB, 6585BC, 6585BD, 6585BE, 6585BG, 6585BH, 6585BJ, 6585BK, 6585BL, 6585BM, 6585BN, 6585BP, 6585BR, 6585BT, 6585BV, 6585BX, 6585BZ, 6585CA, 6585CB, 6585CC, 6585CD, 6585CE, 6585JA, 6585KA, 6585KB, 6585KC, 6585KD, 6585KE, 6585KG, 6585KJ, 6585KK, 6585KW, 6585KZ, 6585VA, 6585VB, 6585VD, 6585VE, 6585VG, 6585VH, 6585VJ, 6585WJ, 6585WK, 6585WL, 6585WN, 6585WP, 6585WR, 6585WS, 6585WT, 6585WV, 6585WX, 6585WZ, 6585XA, 6585XB, 6585XC, 6585XD, 6585XE, 6585XG, 6585XH, 6585XJ, 6585XK, 6585XL, 6585XM, 6585XN, 6585XP, 6585XR, 6585XS, 6585XT, 6585XV, 6585XW, 6585XX, 6585XZ", "wijkcode": "WK094400", "gemeentecode": "GM0944", "gemeentenaam": "Mook en Middelaar", "oppervlakteLandInHa": 272, "AantalInwoners_5": 2970, "Mannen_6": 1470, "Vrouwen_7": 1500, "HuishoudensTotaal_29": 1475, "GemiddeldeHuishoudensgrootte_33": 2.0, "Woningvoorraad_35": 1407, "NieuwbouwWoningen_36": 19, "NietWoningvoorraad_37": 121, "NieuwbouwNietWoningen_38": 0, "GemiddeldeWOZWaardeVanWoningen_39": 382, "PercentageEengezinswoning_40": 80, "PercentageTussenwoningEengezins_41": 24, "PercentageHoekwoningEengezins_42": 9, "PercentageTweeOnderEenKapWoningEe_43": 19, "PercentageVrijstaandeWoningEengezins_44": 28, "PercentageMeergezinswoning_45": 20, "Koopwoningen_47": 68, "HuurwoningenTotaal_48": 32, "InBezitWoningcorporatie_49": 23, "InBezitOverigeVerhuurders_50": 9, "BouwjaarMeerDanTienJaarGeleden_51": 92, "BouwjaarAfgelopenTienJaar_52": 8, "GemiddeldeElektriciteitslevering_53": 2780, "GemiddeldeElektriciteitsteruglevering_54": 1160, "GemiddeldAardgasverbruik_55": 930, "AardgasvrijeWoningen_57": 6, "Aardgaswoningen_58": 88, "WoningenMetZonnestroom_59": 51, "WoningenHoofdzElektrVerwarmd_60": 11, "k_20PersonenMetHoogsteInkomen_80": 19.7, "k_20HuishoudensMetHoogsteInkomen_85": 18.4, "MediaanVermogenVanParticuliereHuish_86": 207.3, "PersonenautoSTotaal_104": 1770, "PersonenautoSBrandstofBenzine_105": 1385, "PersonenautoSOverigeBrandstof_106": 385, "PersonenautoSPerHuishouden_107": 1.2, "Omgevingsadressendichtheid_121": 456, "AantalInstallatiesBijWoningen_5": 500, "OpgesteldVermogenVanZonnepanelen_6": 2114, "installaties_per_woning": 0.35536602700781805, "vermogen_per_woning": 1.5024875621890548, "installaties_per_100_woningen": 35.536602700781806, "vermogen_per_huishouden": 1.4332203389830509, "batterijdruk_score": 591.6, "koop_zon_score": 0.3468, "eengezins_zon_score": 0.408, "betaalkracht_zon_score": 105.723, "overige_brandstof_zon_score": 196.35, "lichte_batterij_kansscore": 0.43827075213665417 }, "geometry": { "type": "MultiPolygon", "coordinates": [ [ [ [ 189105.5, 419565.8125 ], [ 189191.796899999986636, 419514.593799999973271 ], [ 189226.4999, 419471.6876 ], [ 189275.79680000001099, 419367.3126 ], [ 189315.0, 419268.0001 ], [ 189401.4999, 419126.5001 ], [ 189520.9999, 418870.3126 ], [ 189739.29680000001099, 418455.593899999978021 ], [ 189982.79680000001099, 418004.3126 ], [ 189989.0, 417957.3126 ], [ 189986.203100000013364, 417853.593899999978021 ], [ 190002.0, 417795.3126 ], [ 190045.203100000013364, 417777.8125 ], [ 190254.0938, 417571.093799999973271 ], [ 190404.79680000001099, 417439.8126 ], [ 190578.703, 417341.0001 ], [ 190720.0937, 417278.3125 ], [ 190790.79680000001099, 417246.3125 ], [ 190800.0938, 417244.406399999978021 ], [ 190792.203100000013364, 417214.5 ], [ 190740.9999, 417167.1876 ], [ 190483.4999, 417004.406399999978021 ], [ 190114.203, 416771.0001 ], [ 190002.0937, 416721.8126 ], [ 189944.4062, 416682.6876 ], [ 189937.79680000001099, 416679.6876 ], [ 189864.29680000001099, 416646.0001 ], [ 189677.203, 416547.5001 ], [ 189669.9999, 416545.0001 ], [ 189562.0937, 416506.1876 ], [ 189431.9999, 416446.1876 ], [ 189375.29680000001099, 416430.906399999978021 ], [ 189315.634, 416418.821300000010524 ], [ 189307.471, 416483.901000000012573 ], [ 189301.1758, 416540.253000000026077 ], [ 189296.884, 416578.670999999972992 ], [ 189285.472, 416654.431999999971595 ], [ 189269.263, 416721.90500000002794 ], [ 189147.323, 417097.306099999987055 ], [ 189075.361, 417409.575000000011642 ], [ 189064.358, 417528.24800000002142 ], [ 189065.146, 417604.832 ], [ 189066.0392, 417691.548799999989569 ], [ 189066.13, 417700.369 ], [ 189053.888, 417867.422000000020489 ], [ 189053.462, 417875.911000000021886 ], [ 189032.192000000010012, 417943.391 ], [ 189018.43, 417978.232000000018161 ], [ 188999.51, 418027.262999999977183 ], [ 188907.598, 418149.62400000001071 ], [ 188861.128, 418202.01400000002468 ], [ 188821.737, 418246.783 ], [ 188802.669, 418268.455000000016298 ], [ 188767.122, 418302.256999999983236 ], [ 188709.59, 418356.962999999988824 ], [ 188695.682999999989988, 418369.881999999983236 ], [ 188680.479, 418384.004000000015367 ], [ 188653.609, 418408.533 ], [ 188616.37, 418441.403999999980442 ], [ 188566.480000000010477, 418484.533999999985099 ], [ 188548.38200000001234, 418500.0 ], [ 188526.93, 418518.332999999984168 ], [ 188492.829999999987194, 418545.963999999978114 ], [ 188479.62, 418555.512999999977183 ], [ 188449.700000000011642, 418575.822999999974854 ], [ 188438.831, 418585.454000000027008 ], [ 188424.075000000011642, 418597.726000000024214 ], [ 188415.989899999985937, 418604.626700000022538 ], [ 188645.29680000001099, 418961.6876 ], [ 188788.203, 419214.906399999978021 ], [ 188889.9063, 419460.0001 ], [ 188945.796899999986636, 419630.093899999978021 ], [ 189105.5, 419565.8125 ] ] ] ] } },
{ "type": "Feature", "properties": { "buurtcode": "BU09440009", "buurtnaam": "Verspreide huizen Bisselt", "pc6_codes": "6585BS, 6585KE, 6585KG, 6585KH, 6585KK, 6585KL, 6585KM, 6585KN, 6585KP, 6585KR, 6585KS, 6585KT, 6585KV, 6585KW, 6585KX, 6585LA, 6585LB", "wijkcode": "WK094400", "gemeentecode": "GM0944", "gemeentenaam": "Mook en Middelaar", "oppervlakteLandInHa": 393, "AantalInwoners_5": 235, "Mannen_6": 120, "Vrouwen_7": 115, "HuishoudensTotaal_29": 110, "GemiddeldeHuishoudensgrootte_33": 2.0, "Woningvoorraad_35": 127, "NieuwbouwWoningen_36": 0, "NietWoningvoorraad_37": 16, "NieuwbouwNietWoningen_38": 0, "GemiddeldeWOZWaardeVanWoningen_39": 734, "PercentageEengezinswoning_40": 100, "PercentageTussenwoningEengezins_41": 0, "PercentageHoekwoningEengezins_42": 1, "PercentageTweeOnderEenKapWoningEe_43": 8, "PercentageVrijstaandeWoningEengezins_44": 91, "PercentageMeergezinswoning_45": 0, "Koopwoningen_47": 90, "HuurwoningenTotaal_48": 10, "InBezitWoningcorporatie_49": 0, "InBezitOverigeVerhuurders_50": 10, "BouwjaarMeerDanTienJaarGeleden_51": 91, "BouwjaarAfgelopenTienJaar_52": 9, "GemiddeldeElektriciteitslevering_53": 4030, "GemiddeldeElektriciteitsteruglevering_54": 1330, "GemiddeldAardgasverbruik_55": 1420, "AardgasvrijeWoningen_57": 5, "Aardgaswoningen_58": 85, "WoningenMetZonnestroom_59": 42, "WoningenHoofdzElektrVerwarmd_60": 11, "k_20PersonenMetHoogsteInkomen_80": 36.8, "k_20HuishoudensMetHoogsteInkomen_85": 38.4, "MediaanVermogenVanParticuliereHuish_86": 897.0, "PersonenautoSTotaal_104": 195, "PersonenautoSBrandstofBenzine_105": 130, "PersonenautoSOverigeBrandstof_106": 65, "PersonenautoSPerHuishouden_107": 1.7, "Omgevingsadressendichtheid_121": 53, "AantalInstallatiesBijWoningen_5": 35, "OpgesteldVermogenVanZonnepanelen_6": 211, "installaties_per_woning": 0.27559055118110237, "vermogen_per_woning": 1.6614173228346456, "installaties_per_100_woningen": 27.559055118110237, "vermogen_per_huishouden": 1.9181818181818182, "batterijdruk_score": 558.6, "koop_zon_score": 0.378, "eengezins_zon_score": 0.42, "betaalkracht_zon_score": 376.74, "overige_brandstof_zon_score": 27.3, "lichte_batterij_kansscore": 0.50353072854704972 }, "geometry": { "type": "MultiPolygon", "coordinates": [ [ [ [ 190520.74299999998766, 420235.651000000012573 ], [ 190529.177, 420220.471000000019558 ], [ 190545.489, 420191.76 ], [ 190572.467, 420144.276000000012573 ], [ 190599.223999999987427, 420097.027 ], [ 190656.423, 419996.022999999986496 ], [ 190685.568, 419944.473999999987427 ], [ 190694.158, 419929.282 ], [ 190720.707, 419882.329000000027008 ], [ 190756.975, 419817.228 ], [ 190769.654, 419794.119 ], [ 190771.684, 419791.973 ], [ 190832.032, 419728.197999999974854 ], [ 190863.337999999988824, 419695.104 ], [ 190891.786, 419665.245 ], [ 190893.207, 419663.756999999983236 ], [ 190896.15, 419660.678000000014435 ], [ 190900.116, 419656.523999999975786 ], [ 190902.101, 419654.232000000018161 ], [ 190903.230000000010477, 419653.114 ], [ 190908.155, 419648.239 ], [ 190919.26, 419636.641 ], [ 190922.44, 419632.923 ], [ 190954.529, 419606.802000000025146 ], [ 190956.457, 419605.228 ], [ 191001.420000000012806, 419568.538 ], [ 191045.393000000010943, 419532.65500000002794 ], [ 191081.547, 419503.152 ], [ 191085.956, 419499.554 ], [ 191130.698, 419463.043 ], [ 191168.427, 419432.255 ], [ 191183.583000000013271, 419396.523999999975786 ], [ 191184.774, 419393.716000000014901 ], [ 191194.878, 419369.893999999971129 ], [ 191196.397, 419366.306999999971595 ], [ 191197.432999999989988, 419363.862000000022817 ], [ 191231.946, 419282.393999999971129 ], [ 191241.011, 419260.635 ], [ 191246.707, 419247.441999999980908 ], [ 191259.24900000001071, 419217.89000000001397 ], [ 191277.989, 419173.69 ], [ 191307.9, 419103.145000000018626 ], [ 191319.97, 419074.677000000025146 ], [ 191328.475, 419054.617000000027474 ], [ 191328.166, 418999.917000000015832 ], [ 191327.767, 418955.370999999984633 ], [ 191327.742, 418947.356000000028871 ], [ 191327.563, 418889.733 ], [ 191327.521, 418876.396 ], [ 191326.892, 418688.325000000011642 ], [ 191326.87, 418666.76 ], [ 191331.855000000010477, 418653.784999999974389 ], [ 191357.299999999988358, 418587.56 ], [ 191358.93, 418583.330000000016298 ], [ 191378.32, 418532.849999999976717 ], [ 191453.8436, 418336.3063 ], [ 191225.79680000001099, 418237.406399999978021 ], [ 191071.703, 418172.3126 ], [ 191033.79680000001099, 418132.8126 ], [ 190800.0938, 417244.406399999978021 ], [ 190790.79680000001099, 417246.3125 ], [ 190720.0937, 417278.3125 ], [ 190578.703, 417341.0001 ], [ 190404.79680000001099, 417439.8126 ], [ 190254.0938, 417571.093799999973271 ], [ 190045.203100000013364, 417777.8125 ], [ 190002.0, 417795.3126 ], [ 189986.203100000013364, 417853.593899999978021 ], [ 189989.0, 417957.3126 ], [ 189982.79680000001099, 418004.3126 ], [ 189739.29680000001099, 418455.593899999978021 ], [ 189520.9999, 418870.3126 ], [ 189401.4999, 419126.5001 ], [ 189315.0, 419268.0001 ], [ 189275.79680000001099, 419367.3126 ], [ 189226.4999, 419471.6876 ], [ 189191.796899999986636, 419514.593799999973271 ], [ 189105.5, 419565.8125 ], [ 188945.796899999986636, 419630.093899999978021 ], [ 188960.203100000013364, 419673.6876 ], [ 189000.4999, 419891.406399999978021 ], [ 189042.203100000013364, 420165.1876 ], [ 189161.203100000013364, 420020.8125 ], [ 189272.0938, 419800.1875 ], [ 189499.4999, 419799.3126 ], [ 189685.703, 419801.906399999978021 ], [ 189789.0937, 419876.6876 ], [ 189885.4999, 419957.093899999978021 ], [ 189999.0937, 420035.8126 ], [ 190143.9062, 420105.8126 ], [ 190470.318, 420325.484 ], [ 190520.74299999998766, 420235.651000000012573 ] ] ] ] } },
{ "type": "Feature", "properties": { "buurtcode": "BU09440100", "buurtnaam": "Riethorst-Plasmolen", "pc6_codes": "6585LA, 6586AA, 6586AB, 6586AC, 6586AD, 6586AE, 6586AG, 6586AH, 6586AJ, 6586AK, 6586AL, 6586AM, 6586AN, 6586AP, 6586AR, 6586AS, 6586AT, 6586AZ", "wijkcode": "WK094401", "gemeentecode": "GM0944", "gemeentenaam": "Mook en Middelaar", "oppervlakteLandInHa": 349, "AantalInwoners_5": 350, "Mannen_6": 160, "Vrouwen_7": 185, "HuishoudensTotaal_29": 170, "GemiddeldeHuishoudensgrootte_33": 2.1, "Woningvoorraad_35": 170, "NieuwbouwWoningen_36": 0, "NietWoningvoorraad_37": 78, "NieuwbouwNietWoningen_38": 0, "GemiddeldeWOZWaardeVanWoningen_39": 544, "PercentageEengezinswoning_40": 82, "PercentageTussenwoningEengezins_41": 1, "PercentageHoekwoningEengezins_42": 1, "PercentageTweeOnderEenKapWoningEe_43": 17, "PercentageVrijstaandeWoningEengezins_44": 64, "PercentageMeergezinswoning_45": 18, "Koopwoningen_47": 81, "HuurwoningenTotaal_48": 19, "InBezitWoningcorporatie_49": 0, "InBezitOverigeVerhuurders_50": 19, "BouwjaarMeerDanTienJaarGeleden_51": 94, "BouwjaarAfgelopenTienJaar_52": 6, "GemiddeldeElektriciteitslevering_53": 3580, "GemiddeldeElektriciteitsteruglevering_54": 1420, "GemiddeldAardgasverbruik_55": 1380, "AardgasvrijeWoningen_57": 2, "Aardgaswoningen_58": 89, "WoningenMetZonnestroom_59": 47, "WoningenHoofdzElektrVerwarmd_60": 6, "k_20PersonenMetHoogsteInkomen_80": 26.6, "k_20HuishoudensMetHoogsteInkomen_85": 29.5, "MediaanVermogenVanParticuliereHuish_86": 509.9, "PersonenautoSTotaal_104": 250, "PersonenautoSBrandstofBenzine_105": 170, "PersonenautoSOverigeBrandstof_106": 75, "PersonenautoSPerHuishouden_107": 1.5, "Omgevingsadressendichtheid_121": 90, "AantalInstallatiesBijWoningen_5": 48, "OpgesteldVermogenVanZonnepanelen_6": 270, "installaties_per_woning": 0.28235294117647058, "vermogen_per_woning": 1.588235294117647, "installaties_per_100_woningen": 28.235294117647058, "vermogen_per_huishouden": 1.588235294117647, "batterijdruk_score": 667.4, "koop_zon_score": 0.3807, "eengezins_zon_score": 0.3854, "betaalkracht_zon_score": 239.653, "overige_brandstof_zon_score": 35.25, "lichte_batterij_kansscore": 0.46230457578494627 }, "geometry": { "type": "MultiPolygon", "coordinates": [ [ [ [ 191464.279, 418309.148999999975786 ], [ 191464.49, 418308.598999999987427 ], [ 191528.657, 418284.871999999973923 ], [ 191541.394, 418280.172000000020489 ], [ 191546.053000000014435, 418278.460000000020955 ], [ 191550.152, 418276.954000000027008 ], [ 191555.443999999988591, 418275.006 ], [ 191558.700000000011642, 418273.806999999971595 ], [ 191625.54, 418249.204000000027008 ], [ 191737.416999999986729, 418208.457999999984168 ], [ 191742.471, 418206.617000000027474 ], [ 191752.38200000001234, 418203.006999999983236 ], [ 191932.053000000014435, 418137.571 ], [ 191935.946999999985565, 418136.153 ], [ 191942.484, 418133.772 ], [ 191963.081800000014482, 418126.294 ], [ 192013.24299999998766, 418108.082999999984168 ], [ 192017.954999999987194, 418106.371999999973923 ], [ 192070.439000000013039, 418087.318000000028405 ], [ 192121.804, 418068.585000000020955 ], [ 192264.571, 418016.517 ], [ 192266.481999999989057, 418015.82 ], [ 192271.003, 418014.170999999972992 ], [ 192272.12, 418013.76400000002468 ], [ 192274.144999999989523, 418013.025000000023283 ], [ 192274.685999999986961, 418012.827999999979511 ], [ 192275.215, 418012.635 ], [ 192326.068999999988591, 417994.087999999988824 ], [ 192497.314000000013039, 417931.634000000020023 ], [ 192703.932, 417856.28000000002794 ], [ 192709.647, 417853.641 ], [ 192713.538999999989755, 417851.843999999982771 ], [ 192711.049, 417849.425999999977648 ], [ 192710.741, 417849.12699999997858 ], [ 192701.18, 417839.841000000014901 ], [ 192659.011999999987893, 417798.195 ], [ 192612.209, 417751.821 ], [ 192536.324, 417676.576 ], [ 192530.736, 417665.393999999971129 ], [ 192505.663, 417614.814000000013039 ], [ 192503.073, 417609.588999999978114 ], [ 192502.571, 417608.577 ], [ 192499.39000000001397, 417605.621999999973923 ], [ 192491.003, 417519.276000000012573 ], [ 192487.772999999986496, 417485.816 ], [ 192483.522999999986496, 417441.792000000015832 ], [ 192509.571, 417424.354 ], [ 192536.619, 417406.417000000015832 ], [ 192567.261, 417375.893999999971129 ], [ 192615.647999999986496, 417344.102000000013504 ], [ 192592.516, 417330.586000000010245 ], [ 192593.375, 417328.821 ], [ 192610.666, 417293.291000000026543 ], [ 192613.04, 417290.023999999975786 ], [ 192625.459, 417297.695 ], [ 192634.182, 417303.169999999983702 ], [ 192647.496000000013737, 417306.699000000022352 ], [ 192644.136999999987893, 417303.086000000010245 ], [ 192643.821, 417291.771 ], [ 192640.003999999986263, 417290.268999999971129 ], [ 192648.784000000014203, 417256.691 ], [ 192665.609, 417223.071 ], [ 192679.075000000011642, 417173.863000000012107 ], [ 192680.530999999988126, 417167.683000000019092 ], [ 192680.259, 417166.229 ], [ 192706.396, 417155.789999999979045 ], [ 192743.163999999989755, 417164.577999999979511 ], [ 192782.613000000012107, 417174.185 ], [ 192790.74900000001071, 417171.826 ], [ 192796.431000000011409, 417170.238000000012107 ], [ 192799.022, 417169.284999999974389 ], [ 192807.022999999986496, 417162.336000000010245 ], [ 192808.478, 417160.245999999984633 ], [ 192819.709, 417142.028999999980442 ], [ 192832.033, 417114.85999999998603 ], [ 192850.541, 417077.56 ], [ 192896.767, 417066.631 ], [ 192913.538, 417069.956 ], [ 192952.437, 417098.695 ], [ 192978.021, 417118.066 ], [ 192992.746000000013737, 417122.981000000028871 ], [ 193005.471, 417127.077 ], [ 193029.605000000010477, 417128.770000000018626 ], [ 193062.602000000013504, 417130.694000000017695 ], [ 193053.788, 417092.428000000014435 ], [ 193036.903, 417078.036000000021886 ], [ 192994.921, 417055.761999999987893 ], [ 192971.612, 417044.158999999985099 ], [ 192961.044, 417040.098 ], [ 192950.378, 417037.800999999977648 ], [ 192925.315, 417032.053000000014435 ], [ 192876.50700000001234, 416996.604 ], [ 192834.663, 416947.631999999983236 ], [ 192830.793, 416945.12300000002142 ], [ 192827.26, 416941.782 ], [ 192824.043, 416939.878000000026077 ], [ 192819.695, 416936.439000000013039 ], [ 192814.424, 416931.958999999973457 ], [ 192809.169, 416927.791000000026543 ], [ 192806.467, 416926.12 ], [ 192803.932, 416922.613000000012107 ], [ 192800.908, 416917.923 ], [ 192797.333000000013271, 416905.042000000015832 ], [ 192798.202, 416884.865 ], [ 192794.951, 416867.096000000019558 ], [ 192787.616, 416846.674 ], [ 192776.432, 416818.657 ], [ 192763.215999999985797, 416795.788999999989755 ], [ 192757.674999999988358, 416776.776000000012573 ], [ 192755.239, 416747.718999999982771 ], [ 192749.331, 416746.989 ], [ 192746.304, 416746.566999999980908 ], [ 192747.959, 416729.511 ], [ 192741.359, 416644.802000000025146 ], [ 192739.12, 416615.950000000011642 ], [ 192738.711000000010245, 416610.681999999971595 ], [ 192736.201, 416580.678000000014435 ], [ 192736.318999999988591, 416578.338999999978114 ], [ 192736.381, 416577.115 ], [ 192736.666, 416571.413 ], [ 192736.687899999989895, 416560.136 ], [ 192736.69, 416559.034999999974389 ], [ 192739.108, 416516.253000000026077 ], [ 192740.248, 416490.983 ], [ 192771.817000000010012, 416334.99 ], [ 192783.158, 416267.913 ], [ 192785.736, 416252.691 ], [ 192764.549, 416214.346000000019558 ], [ 192752.7443, 416190.240800000028685 ], [ 192750.168, 416184.979999999981374 ], [ 192749.394999999989523, 416183.401000000012573 ], [ 192747.022, 416178.566 ], [ 192714.383, 416112.087 ], [ 192712.179, 416107.598 ], [ 192680.642, 416043.364 ], [ 192656.094000000011874, 415993.364 ], [ 192648.986, 415980.995999999984633 ], [ 192622.718, 415931.865 ], [ 192589.85999999998603, 415870.407 ], [ 192543.25, 415783.340000000025611 ], [ 192539.13, 415771.233 ], [ 192495.655999999988126, 415688.57 ], [ 192491.878, 415681.386999999987893 ], [ 192486.535, 415671.257999999972526 ], [ 192465.8871, 415632.110600000014529 ], [ 191978.29680000001099, 415816.906299999973271 ], [ 191494.5938, 415979.406299999973271 ], [ 191383.5, 416077.3125 ], [ 191129.296899999986636, 416323.0 ], [ 190924.9063, 416521.406299999973271 ], [ 190786.9063, 416668.6875 ], [ 190585.796899999986636, 416860.6875 ], [ 190489.0938, 416993.0 ], [ 190483.4999, 417004.406399999978021 ], [ 190740.9999, 417167.1876 ], [ 190792.203100000013364, 417214.5 ], [ 190800.0938, 417244.406399999978021 ], [ 191033.79680000001099, 418132.8126 ], [ 191071.703, 418172.3126 ], [ 191225.79680000001099, 418237.406399999978021 ], [ 191453.8436, 418336.3063 ], [ 191464.279, 418309.148999999975786 ] ] ] ] } },
{ "type": "Feature", "properties": { "buurtcode": "BU09440101", "buurtnaam": "Middelaar Katerbosch en Heikant", "pc6_codes": "6587AA, 6587AB, 6587AC, 6587AD, 6587AE, 6587AG, 6587AH, 6587AJ, 6587AK, 6587AL, 6587AM, 6587AN, 6587AP, 6587AR, 6587AS, 6587AT, 6587AV, 6587AW, 6587AX, 6587AZ, 6587BA, 6587BB, 6587BC, 6587BD, 6587BE, 6587BJ, 6587BK", "wijkcode": "WK094401", "gemeentecode": "GM0944", "gemeentenaam": "Mook en Middelaar", "oppervlakteLandInHa": 408, "AantalInwoners_5": 875, "Mannen_6": 455, "Vrouwen_7": 420, "HuishoudensTotaal_29": 385, "GemiddeldeHuishoudensgrootte_33": 2.2, "Woningvoorraad_35": 382, "NieuwbouwWoningen_36": 1, "NietWoningvoorraad_37": 30, "NieuwbouwNietWoningen_38": 0, "GemiddeldeWOZWaardeVanWoningen_39": 442, "PercentageEengezinswoning_40": 97, "PercentageTussenwoningEengezins_41": 12, "PercentageHoekwoningEengezins_42": 9, "PercentageTweeOnderEenKapWoningEe_43": 30, "PercentageVrijstaandeWoningEengezins_44": 46, "PercentageMeergezinswoning_45": 3, "Koopwoningen_47": 84, "HuurwoningenTotaal_48": 16, "InBezitWoningcorporatie_49": 9, "InBezitOverigeVerhuurders_50": 7, "BouwjaarMeerDanTienJaarGeleden_51": 94, "BouwjaarAfgelopenTienJaar_52": 6, "GemiddeldeElektriciteitslevering_53": 3340, "GemiddeldeElektriciteitsteruglevering_54": 1740, "GemiddeldAardgasverbruik_55": 1090, "AardgasvrijeWoningen_57": 4, "Aardgaswoningen_58": 85, "WoningenMetZonnestroom_59": 62, "WoningenHoofdzElektrVerwarmd_60": 11, "k_20PersonenMetHoogsteInkomen_80": 21.4, "k_20HuishoudensMetHoogsteInkomen_85": 29.6, "MediaanVermogenVanParticuliereHuish_86": 354.0, "PersonenautoSTotaal_104": 600, "PersonenautoSBrandstofBenzine_105": 470, "PersonenautoSOverigeBrandstof_106": 135, "PersonenautoSPerHuishouden_107": 1.6, "Omgevingsadressendichtheid_121": 129, "AantalInstallatiesBijWoningen_5": 168, "OpgesteldVermogenVanZonnepanelen_6": 763, "installaties_per_woning": 0.43979057591623039, "vermogen_per_woning": 1.9973821989528795, "installaties_per_100_woningen": 43.97905759162304, "vermogen_per_huishouden": 1.9818181818181819, "batterijdruk_score": 1078.8, "koop_zon_score": 0.5208, "eengezins_zon_score": 0.6014, "betaalkracht_zon_score": 219.48, "overige_brandstof_zon_score": 83.7, "lichte_batterij_kansscore": 0.5385984528631198 }, "geometry": { "type": "MultiPolygon", "coordinates": [ [ [ [ 190489.0938, 416993.0 ], [ 190585.796899999986636, 416860.6875 ], [ 190786.9063, 416668.6875 ], [ 190924.9063, 416521.406299999973271 ], [ 191129.296899999986636, 416323.0 ], [ 191383.5, 416077.3125 ], [ 191494.5938, 415979.406299999973271 ], [ 191978.29680000001099, 415816.906299999973271 ], [ 192465.8871, 415632.110600000014529 ], [ 192456.174999999988358, 415613.696999999985565 ], [ 192406.305, 415522.381 ], [ 192404.060999999986961, 415518.271 ], [ 192399.163, 415509.553000000014435 ], [ 192393.959, 415500.984 ], [ 192386.413999999989755, 415489.045999999972992 ], [ 192360.609, 415448.212999999988824 ], [ 192350.106, 415431.56 ], [ 192345.902, 415425.327 ], [ 192340.739, 415418.673 ], [ 192300.772999999986496, 415369.506999999983236 ], [ 192294.24299999998766, 415362.055999999982305 ], [ 192260.313, 415313.902 ], [ 192250.481, 415300.287000000011176 ], [ 192245.746000000013737, 415293.729999999981374 ], [ 192242.36799999998766, 415289.053000000014435 ], [ 192242.22, 415288.848 ], [ 192235.858, 415279.981000000028871 ], [ 192235.693, 415279.74800000002142 ], [ 192234.829, 415278.533 ], [ 192234.761, 415278.438000000023749 ], [ 192233.628999999986263, 415276.84499999997206 ], [ 192220.038, 415257.713999999978114 ], [ 192219.450000000011642, 415256.886 ], [ 192219.391, 415256.804 ], [ 192214.476, 415249.887999999977183 ], [ 192212.373, 415246.928000000014435 ], [ 192211.951, 415246.481000000028871 ], [ 192211.303000000014435, 415245.794 ], [ 192164.325000000011642, 415195.879000000015367 ], [ 192164.045000000012806, 415195.582999999984168 ], [ 192132.885, 415162.413 ], [ 192132.827, 415162.351000000024214 ], [ 192099.263, 415126.591000000014901 ], [ 192050.297, 415074.371999999973923 ], [ 192033.873, 415056.854999999981374 ], [ 192032.62, 415055.525000000023283 ], [ 192023.511, 415045.858 ], [ 192023.286, 415045.62 ], [ 192011.87400000001071, 415033.507999999972526 ], [ 192010.221, 415031.76500000001397 ], [ 191989.901000000012573, 415010.335000000020955 ], [ 191981.247, 415001.212999999988824 ], [ 191980.96, 415000.909999999974389 ], [ 191942.806000000011409, 414960.656000000017229 ], [ 191940.76500000001397, 414958.50199999997858 ], [ 191926.142, 414943.058000000019092 ], [ 191925.835, 414942.733 ], [ 191918.121000000013737, 414934.576 ], [ 191906.469000000011874, 414922.256 ], [ 191904.829, 414917.62300000002142 ], [ 191904.603, 414916.982000000018161 ], [ 191895.307, 414890.729999999981374 ], [ 191895.046, 414889.995999999984633 ], [ 191894.182999999989988, 414887.564000000013039 ], [ 191892.682999999989988, 414883.337999999988824 ], [ 191892.592, 414883.082999999984168 ], [ 191891.386, 414879.658999999985099 ], [ 191882.646, 414854.848999999987427 ], [ 191882.465, 414854.336000000010245 ], [ 191877.526000000012573, 414840.841000000014901 ], [ 191827.81, 414701.416000000026543 ], [ 191796.4, 414612.443000000028405 ], [ 191796.139, 414609.981000000028871 ], [ 191790.486, 414555.836000000010245 ], [ 191788.85, 414540.169999999983702 ], [ 191786.337999999988824, 414514.49 ], [ 191785.796, 414508.945 ], [ 191785.471, 414507.601000000024214 ], [ 191781.625, 414459.684 ], [ 191702.296, 414461.413 ], [ 191636.329999999987194, 414462.849999999976717 ], [ 191366.63, 414470.950000000011642 ], [ 191265.420000000012806, 414478.75 ], [ 191062.81, 414522.26 ], [ 190949.46, 414546.700000000011642 ], [ 190902.972, 414560.24900000001071 ], [ 190853.87, 414574.56 ], [ 190759.16, 414609.960000000020955 ], [ 190607.557999999989988, 414661.608 ], [ 190487.21, 414702.60999999998603 ], [ 190404.31, 414729.99 ], [ 190312.230000000010477, 414768.60999999998603 ], [ 190230.54, 414806.289999999979045 ], [ 190003.18, 414935.650000000023283 ], [ 189883.329999999987194, 415019.57 ], [ 189853.378, 415043.552000000025146 ], [ 189767.9, 415111.99 ], [ 189742.72, 415134.26 ], [ 189668.74, 415207.51 ], [ 189598.393000000010943, 415280.913 ], [ 189576.702, 415303.672000000020489 ], [ 189550.481, 415339.102000000013504 ], [ 189519.38200000001234, 415380.180999999982305 ], [ 189506.071999999985565, 415399.761 ], [ 189500.0, 415413.412000000011176 ], [ 189494.369, 415426.224999999976717 ], [ 189485.009, 415447.36099999997532 ], [ 189463.445, 415500.0 ], [ 189461.541, 415504.712 ], [ 189419.492, 415627.031000000017229 ], [ 189415.981, 415645.71999999997206 ], [ 189413.174, 415674.832 ], [ 189408.862, 415719.541000000026543 ], [ 189401.571999999985565, 415770.532 ], [ 189391.172, 415806.620999999984633 ], [ 189377.881, 415873.371999999973923 ], [ 189368.590999999985797, 415919.270000000018626 ], [ 189366.506, 415934.988000000012107 ], [ 189362.932, 415957.481000000028871 ], [ 189357.671, 416004.11099999997532 ], [ 189354.78, 416037.022 ], [ 189336.481999999989057, 416166.50199999997858 ], [ 189323.848, 416250.0 ], [ 189322.942000000010012, 416255.990999999979977 ], [ 189322.652, 416263.882999999972526 ], [ 189320.032, 416335.170999999972992 ], [ 189317.340999999985797, 416405.212 ], [ 189315.634, 416418.821300000010524 ], [ 189375.29680000001099, 416430.906399999978021 ], [ 189431.9999, 416446.1876 ], [ 189562.0937, 416506.1876 ], [ 189669.9999, 416545.0001 ], [ 189677.203, 416547.5001 ], [ 189864.29680000001099, 416646.0001 ], [ 189937.79680000001099, 416679.6876 ], [ 189944.4062, 416682.6876 ], [ 190002.0937, 416721.8126 ], [ 190114.203, 416771.0001 ], [ 190483.4999, 417004.406399999978021 ], [ 190489.0938, 416993.0 ] ] ] ] } }
]
}
