{
"type": "FeatureCollection",
"name": "Oostzaan",
"crs": { "type": "name", "properties": { "name": "urn:ogc:def:crs:OGC:1.3:CRS84" } },
"features": [
{ "type": "Feature", "properties": { "buurtcode": "BU04310000", "buurtnaam": "Kerkbuurt", "pc6_codes": "1511AD, 1511BA, 1511BB, 1511BC, 1511BD, 1511BE, 1511BG, 1511BH, 1511BJ, 1511BK, 1511BL, 1511BM, 1511BN, 1511BP, 1511BS, 1511BT, 1511BW, 1511BZ, 1511CA, 1511CB, 1511CC, 1511CD, 1511CE, 1511CG, 1511CH, 1511CJ, 1511CK, 1511CL, 1511CM, 1511CN, 1511CP, 1511CR, 1511CS, 1511CT, 1511CV, 1511CW, 1511CX, 1511CZ, 1511EG, 1511EP, 1511ER, 1511ES, 1511ET, 1511EV, 1511EW, 1511EX, 1511EZ, 1511GA, 1511GB, 1511GC, 1511GD, 1511GG, 1511GH, 1511GJ, 1511GK, 1511GW, 1511GX, 1511HA, 1511HB, 1511HC, 1511HE, 1511HG, 1511HH, 1511HJ, 1511HK, 1511HL, 1511HM, 1511HN, 1511HP, 1511HR, 1511HS, 1511HV, 1511HZ, 1511JA, 1511JB, 1511JC, 1511JD, 1511JE, 1511JG, 1511JH, 1511JJ, 1511JK, 1511JL, 1511JM, 1511JN, 1511JP, 1511JR, 1511JS, 1511JT, 1511JV, 1511JW, 1511JX, 1511JZ, 1511KA, 1511KB, 1511KC, 1511KD, 1511KE, 1511KG, 1511KH, 1511KJ, 1511KK, 1511KL, 1511KM, 1511KN, 1511KP, 1511KR, 1511KS, 1511KT, 1511KV, 1511KW, 1511KX, 1511KZ, 1511LA, 1511LB, 1511LC, 1511LD, 1511LE, 1511LG, 1511LJ, 1511LK, 1511LL, 1511VA, 1511VB, 1511VC, 1511VD, 1511VE, 1511VG, 1511VH, 1511VJ, 1511VK, 1511VL, 1511VM, 1511VN, 1511VP, 1511VR, 1511VS, 1511VT, 1511VV, 1511WB, 1511WC, 1511WD, 1511WE, 1511WG, 1511WH, 1511WJ, 1511WK, 1511WL, 1511WN, 1511WP, 1511WR, 1511WS, 1511WT, 1511WV, 1511XA, 1511XB, 1511XC, 1511XD, 1511XE, 1511XG, 1511XH, 1511XJ, 1511XK, 1511XL, 1511XM, 1511XN, 1511XP, 1511XR, 1511XS, 1511XT, 1511XV, 1511XW, 1511XX", "wijkcode": "WK043100", "gemeentecode": "GM0431", "gemeentenaam": "Oostzaan", "oppervlakteLandInHa": 347, "AantalInwoners_5": 7095, "Mannen_6": 3430, "Vrouwen_7": 3660, "HuishoudensTotaal_29": 3125, "GemiddeldeHuishoudensgrootte_33": 2.2, "Woningvoorraad_35": 3126, "NieuwbouwWoningen_36": 1, "NietWoningvoorraad_37": 525, "NieuwbouwNietWoningen_38": 2, "GemiddeldeWOZWaardeVanWoningen_39": 446, "PercentageEengezinswoning_40": 79, "PercentageTussenwoningEengezins_41": 47, "PercentageHoekwoningEengezins_42": 18, "PercentageTweeOnderEenKapWoningEe_43": 8, "PercentageVrijstaandeWoningEengezins_44": 7, "PercentageMeergezinswoning_45": 21, "Koopwoningen_47": 60, "HuurwoningenTotaal_48": 40, "InBezitWoningcorporatie_49": 35, "InBezitOverigeVerhuurders_50": 5, "BouwjaarMeerDanTienJaarGeleden_51": 97, "BouwjaarAfgelopenTienJaar_52": 3, "GemiddeldeElektriciteitslevering_53": 2600, "GemiddeldeElektriciteitsteruglevering_54": 660, "GemiddeldAardgasverbruik_55": 870, "AardgasvrijeWoningen_57": 2, "Aardgaswoningen_58": 94, "WoningenMetZonnestroom_59": 32, "WoningenHoofdzElektrVerwarmd_60": 5, "k_20PersonenMetHoogsteInkomen_80": 21.4, "k_20HuishoudensMetHoogsteInkomen_85": 24.7, "MediaanVermogenVanParticuliereHuish_86": 266.3, "PersonenautoSTotaal_104": 3655, "PersonenautoSBrandstofBenzine_105": 2955, "PersonenautoSOverigeBrandstof_106": 705, "PersonenautoSPerHuishouden_107": 1.2, "Omgevingsadressendichtheid_121": 1187, "AantalInstallatiesBijWoningen_5": 773, "OpgesteldVermogenVanZonnepanelen_6": 2742, "installaties_per_woning": 0.24728087012156111, "vermogen_per_woning": 0.87715930902111328, "installaties_per_100_woningen": 24.728087012156109, "vermogen_per_huishouden": 0.87744, "batterijdruk_score": 211.2, "koop_zon_score": 0.192, "eengezins_zon_score": 0.2528, "betaalkracht_zon_score": 85.216, "overige_brandstof_zon_score": 225.6, "lichte_batterij_kansscore": 0.37348696620244926 }, "geometry": { "type": "MultiPolygon", "coordinates": [ [ [ [ 4.895121188129901, 52.449695252837742 ], [ 4.89519550856302, 52.449506867404509 ], [ 4.89532457654969, 52.449179689440996 ], [ 4.895669952326902, 52.448325083336954 ], [ 4.896051899499212, 52.447364178885692 ], [ 4.896278815697356, 52.446786265508251 ], [ 4.896282830041225, 52.446775766677398 ], [ 4.89645121567397, 52.446335641601699 ], [ 4.896489226275887, 52.44618414270807 ], [ 4.896488451706263, 52.446051024610753 ], [ 4.896503506323421, 52.445664270905468 ], [ 4.896428461158205, 52.445149727389499 ], [ 4.896407442305657, 52.444985284648936 ], [ 4.896377650373799, 52.444867900451001 ], [ 4.896347691957971, 52.444793395259325 ], [ 4.896320796741882, 52.444690699741528 ], [ 4.896308066224504, 52.444607853507563 ], [ 4.896329477694993, 52.444548516342934 ], [ 4.896382829658325, 52.444465826898977 ], [ 4.896468073230089, 52.444265999606387 ], [ 4.896514819236693, 52.444183435541284 ], [ 4.896537879186713, 52.444112007885082 ], [ 4.896556070755741, 52.444031284897491 ], [ 4.896563953331224, 52.443918586388918 ], [ 4.896535199147674, 52.443730168713898 ], [ 4.896478380748329, 52.443507410165751 ], [ 4.896469177792003, 52.443452637739043 ], [ 4.89646606635369, 52.443387033538627 ], [ 4.896484189487197, 52.443258073952386 ], [ 4.896489865432315, 52.443145420220702 ], [ 4.896473666325075, 52.443035830569002 ], [ 4.896451551931031, 52.44294109086092 ], [ 4.89640106552743, 52.442805313245451 ], [ 4.896319619348325, 52.442620505997738 ], [ 4.896310583430944, 52.442522854511964 ], [ 4.896320408730961, 52.442404762493958 ], [ 4.896337196346257, 52.442247693219514 ], [ 4.896330367083136, 52.44214999693969 ], [ 4.896265708864205, 52.441947472727669 ], [ 4.896223639354749, 52.441803506228482 ], [ 4.896140361521016, 52.44157987387328 ], [ 4.896113542098336, 52.4414785176942 ], [ 4.896098855803701, 52.441401064809391 ], [ 4.896106331868203, 52.441372793897479 ], [ 4.896129326817414, 52.44134692404819 ], [ 4.896149880448856, 52.441315741409376 ], [ 4.896155184729345, 52.441241948397369 ], [ 4.896148620140207, 52.441149609778122 ], [ 4.896144115275394, 52.441054556452855 ], [ 4.89615468903264, 52.440952528316629 ], [ 4.896164074128158, 52.440825069390158 ], [ 4.896183218814994, 52.440764428607089 ], [ 4.896224002618619, 52.440695366214271 ], [ 4.896272271478246, 52.440644930110608 ], [ 4.896325941642919, 52.440568937701975 ], [ 4.896446461293873, 52.440416728760326 ], [ 4.896514088719464, 52.440356567253154 ], [ 4.896595174879112, 52.440301521420629 ], [ 4.896676715704973, 52.440255860448282 ], [ 4.896732850553258, 52.440232077920172 ], [ 4.896749181085557, 52.440204994010315 ], [ 4.896742184986735, 52.440150176770928 ], [ 4.896717424656086, 52.440046105982127 ], [ 4.896680996369483, 52.439974396118814 ], [ 4.896632489034399, 52.439927019560365 ], [ 4.896586834028971, 52.439892992357912 ], [ 4.896545313133314, 52.439853526788269 ], [ 4.89640825105556, 52.439703217257716 ], [ 4.896298606178316, 52.439573845340227 ], [ 4.896236266243994, 52.439327066746934 ], [ 4.896188656640633, 52.439159080353733 ], [ 4.896106587052928, 52.438960887700148 ], [ 4.896041336479533, 52.438838772669136 ], [ 4.896002023410088, 52.438799271106696 ], [ 4.89591070205592, 52.438731216125014 ], [ 4.895790346053864, 52.438654304769855 ], [ 4.895744619638575, 52.438618937781847 ], [ 4.89569832122985, 52.438571516053365 ], [ 4.895660393543303, 52.438514575216914 ], [ 4.895588408441442, 52.438389897492542 ], [ 4.895480820185153, 52.43821092182592 ], [ 4.895450377608816, 52.43817259829423 ], [ 4.89540175615836, 52.438122551417941 ], [ 4.895353706983899, 52.438084541272545 ], [ 4.895041275661673, 52.43785828513127 ], [ 4.894735437109945, 52.437631911736545 ], [ 4.894706700494102, 52.437609539072909 ], [ 4.894614250460071, 52.437537586747048 ], [ 4.89454173499487, 52.437447760006819 ], [ 4.89448875404247, 52.4373522174307 ], [ 4.894465334756497, 52.43727625585052 ], [ 4.894452360607922, 52.437188051655063 ], [ 4.89445572472749, 52.43711966110979 ], [ 4.894464132004436, 52.437064566196092 ], [ 4.894514450995011, 52.436964518824233 ], [ 4.894575654586204, 52.436861595702553 ], [ 4.894627864430782, 52.436801712683426 ], [ 4.894738154870002, 52.436665757357531 ], [ 4.894837142519166, 52.436570208112286 ], [ 4.894932743758849, 52.436496152019153 ], [ 4.895114131226299, 52.436373667406045 ], [ 4.895282837424165, 52.43626213968134 ], [ 4.895458440185195, 52.436157183293872 ], [ 4.89568215404316, 52.43604466987987 ], [ 4.895830364987479, 52.435965654367592 ], [ 4.895919681970711, 52.435898410980002 ], [ 4.895988423734279, 52.435815452837566 ], [ 4.896072315346445, 52.435726868287098 ], [ 4.896311508828649, 52.435522960113822 ], [ 4.896534429847236, 52.435347483739832 ], [ 4.896789150509663, 52.435145984637472 ], [ 4.896940980761525, 52.43500393476431 ], [ 4.896976595596339, 52.43496417717369 ], [ 4.896994924012676, 52.434943725323343 ], [ 4.89701417562766, 52.434922234727757 ], [ 4.897029124461412, 52.434865683718577 ], [ 4.897027766774843, 52.43485416500004 ], [ 4.897025159685977, 52.434831972844194 ], [ 4.897024381313542, 52.43482789824651 ], [ 4.897005466752036, 52.434737665496975 ], [ 4.897005427669405, 52.434737476595934 ], [ 4.897008215269202, 52.434657031210648 ], [ 4.89702944485384, 52.434593675605186 ], [ 4.897055130748919, 52.43453157871172 ], [ 4.897124000357727, 52.434451298729719 ], [ 4.897166097975982, 52.43441034557209 ], [ 4.897235183108488, 52.43438098112135 ], [ 4.897304767293275, 52.434362322914588 ], [ 4.897392074059452, 52.434346029744695 ], [ 4.897591351496643, 52.434322388889676 ], [ 4.897785658488422, 52.434286773679304 ], [ 4.897901013533284, 52.434257923447674 ], [ 4.897972539062773, 52.434233871321737 ], [ 4.898095201141574, 52.434168905666702 ], [ 4.895038288157147, 52.433570963920815 ], [ 4.893557605928103, 52.433436452446003 ], [ 4.891047745035158, 52.433413332942301 ], [ 4.888691774928757, 52.43356803229603 ], [ 4.88777202605146, 52.43337626363558 ], [ 4.883956449625261, 52.432180781436827 ], [ 4.880421292973006, 52.431313018687185 ], [ 4.87715077070881, 52.430699346952956 ], [ 4.874056143727521, 52.430150382164911 ], [ 4.872812860115236, 52.43009387533526 ], [ 4.872113196039836, 52.430082690997935 ], [ 4.871461580593682, 52.430101280887776 ], [ 4.8714219502415, 52.43010948487634 ], [ 4.871287445747604, 52.430129400172895 ], [ 4.870957523377626, 52.430187829989173 ], [ 4.87074096931525, 52.43039460824069 ], [ 4.870662373241348, 52.430376155661918 ], [ 4.870622992855323, 52.430367688447348 ], [ 4.870597362267316, 52.430359056466109 ], [ 4.870546997187026, 52.430331784189875 ], [ 4.870480299621879, 52.430284083734065 ], [ 4.870471067198003, 52.430277662273035 ], [ 4.870358323985749, 52.430199239031445 ], [ 4.870271267619473, 52.430137240246751 ], [ 4.870240829802773, 52.430114701352515 ], [ 4.870223521513767, 52.430096003511174 ], [ 4.87019724478855, 52.430068431716684 ], [ 4.87015860019847, 52.430046090676889 ], [ 4.870095262896656, 52.430019193014978 ], [ 4.870042904802987, 52.430005258434292 ], [ 4.869973658981983, 52.429990764796599 ], [ 4.869933460494151, 52.4299680394208 ], [ 4.869894822277658, 52.429931327122986 ], [ 4.86985874399265, 52.429857992462011 ], [ 4.86982822170664, 52.42982509935613 ], [ 4.869802658896129, 52.429806931635063 ], [ 4.869738778475388, 52.429768680048319 ], [ 4.869697255496498, 52.429746083621396 ], [ 4.869656521870444, 52.429772949482654 ], [ 4.869544122584995, 52.42984645362818 ], [ 4.869479722393481, 52.429889142108358 ], [ 4.869308241129737, 52.430004378060424 ], [ 4.869182919877828, 52.430087630883918 ], [ 4.869074069507502, 52.430161797204072 ], [ 4.869007618594156, 52.430206256010052 ], [ 4.868961978498656, 52.430235176318384 ], [ 4.868913074626194, 52.4302590312954 ], [ 4.868859116926848, 52.430277498541329 ], [ 4.868743210467867, 52.430316276413272 ], [ 4.868547667328594, 52.430370272232871 ], [ 4.868364391457132, 52.430421337547294 ], [ 4.868189188050343, 52.430464825420337 ], [ 4.868016090439884, 52.430504250869802 ], [ 4.867928435508279, 52.430523612630175 ], [ 4.867782892692402, 52.430544185611083 ], [ 4.867527925373587, 52.430576007484021 ], [ 4.867338285970806, 52.430601581393091 ], [ 4.867126787105462, 52.430626717545451 ], [ 4.86699080497599, 52.430644446484983 ], [ 4.86685690087605, 52.430659254429436 ], [ 4.866726160508662, 52.430670094602661 ], [ 4.866690926571779, 52.430671674470631 ], [ 4.866585128949686, 52.430670805317789 ], [ 4.866404487080091, 52.430665140351707 ], [ 4.866232723706836, 52.430657195333787 ], [ 4.866183869653065, 52.43065665701365 ], [ 4.866158812259259, 52.430659350988329 ], [ 4.866055918882379, 52.430669081544579 ], [ 4.865970480499968, 52.430678664090834 ], [ 4.865939108443655, 52.430675686022802 ], [ 4.865857013601511, 52.430664791425414 ], [ 4.86571585147613, 52.430642878697796 ], [ 4.865572208746539, 52.430618114796005 ], [ 4.865549312645191, 52.430613331469026 ], [ 4.865469118136276, 52.43058967356157 ], [ 4.865386400127448, 52.430564305828604 ], [ 4.865329948422047, 52.430554692159376 ], [ 4.865257034284403, 52.43054335224025 ], [ 4.865229911910613, 52.430541606028335 ], [ 4.865172510985447, 52.430545163951479 ], [ 4.865137418211106, 52.430541009878709 ], [ 4.86501375130949, 52.430549263925087 ], [ 4.864991398887709, 52.430544518835916 ], [ 4.864929525887175, 52.430524572288967 ], [ 4.864878873451644, 52.430513213399948 ], [ 4.864732651584507, 52.430482801872969 ], [ 4.864492727935837, 52.430433345589911 ], [ 4.864367535941839, 52.430407645998145 ], [ 4.864206451369926, 52.430374579814924 ], [ 4.864197021230437, 52.430318994712884 ], [ 4.864187140795089, 52.430264189545035 ], [ 4.864110668509774, 52.430247925974378 ], [ 4.86399817378246, 52.430222848251667 ], [ 4.863959078298748, 52.430216519128741 ], [ 4.863957978775694, 52.430216244645628 ], [ 4.863853348351892, 52.430190114004141 ], [ 4.863755158775301, 52.430168909970675 ], [ 4.863555779407723, 52.430124097695227 ], [ 4.863546291382423, 52.430121970644159 ], [ 4.863507400971497, 52.430113233595506 ], [ 4.86337869877891, 52.43008483913043 ], [ 4.863286117070631, 52.430064423440712 ], [ 4.863035840641753, 52.430009211284073 ], [ 4.862852604760473, 52.429969565200111 ], [ 4.862826179912588, 52.429966068936487 ], [ 4.86279508459777, 52.429960889290655 ], [ 4.862677453449348, 52.429941314966207 ], [ 4.862642313869221, 52.429836912019582 ], [ 4.862605416954327, 52.429828731741516 ], [ 4.862617380785897, 52.429791899501964 ], [ 4.862583450022292, 52.429785296192442 ], [ 4.862559297967831, 52.429819566926604 ], [ 4.862553037709795, 52.429816797988209 ], [ 4.862525450097909, 52.429815893932009 ], [ 4.862416783360338, 52.429821569311464 ], [ 4.862361720815165, 52.429848710756431 ], [ 4.862341942913741, 52.429879873125572 ], [ 4.862339534798526, 52.429899446487184 ], [ 4.86220818025001, 52.42987537103172 ], [ 4.862055904294393, 52.429847454887309 ], [ 4.862047832435773, 52.429823871550859 ], [ 4.862034341669224, 52.429786090721436 ], [ 4.862023441138255, 52.429769181638513 ], [ 4.862017794487701, 52.429766747932916 ], [ 4.862014429936606, 52.429765295003349 ], [ 4.861997654695916, 52.429758983252647 ], [ 4.861970789520619, 52.429751719032573 ], [ 4.861941286196756, 52.429743742079232 ], [ 4.861877730905459, 52.429730715927676 ], [ 4.861763380835051, 52.429683778939072 ], [ 4.861711945390889, 52.42977571894339 ], [ 4.861441896832645, 52.430223246198992 ], [ 4.860738546863841, 52.431236533832397 ], [ 4.860657103491308, 52.431353873883111 ], [ 4.860467541143377, 52.431626974166946 ], [ 4.860385946945754, 52.431744511083316 ], [ 4.860005489145844, 52.432292604454787 ], [ 4.859935888221896, 52.432392870812734 ], [ 4.859659657508393, 52.432790800549476 ], [ 4.858816928646165, 52.434036873374346 ], [ 4.858121688085316, 52.435056553402966 ], [ 4.869863338931635, 52.437898289721744 ], [ 4.869565691849277, 52.438327552017221 ], [ 4.872431577062655, 52.438988826382655 ], [ 4.87267379200053, 52.439026951005872 ], [ 4.872439700349067, 52.439426725712288 ], [ 4.875393939932606, 52.43996894377333 ], [ 4.875176084821824, 52.440873784222433 ], [ 4.872417896095388, 52.4402939340264 ], [ 4.872660256081248, 52.440448617594193 ], [ 4.872282073700342, 52.440334630389636 ], [ 4.857090760271521, 52.436466690658008 ], [ 4.856942060108014, 52.436654761742012 ], [ 4.856181807902385, 52.437797152641011 ], [ 4.855913786961404, 52.43806940857435 ], [ 4.855799773659743, 52.438247619710978 ], [ 4.855567950407835, 52.438609972506121 ], [ 4.855248585623274, 52.439226932029676 ], [ 4.854261431007782, 52.440954768961831 ], [ 4.853977964670596, 52.441578135343633 ], [ 4.872247551318284, 52.445198452944275 ], [ 4.872578858978454, 52.445295384805164 ], [ 4.872764559308496, 52.445393930826128 ], [ 4.874122834472334, 52.445589680270096 ], [ 4.875370319612833, 52.44607590877974 ], [ 4.876324953934875, 52.446718144981801 ], [ 4.876904501455916, 52.445947709216199 ], [ 4.887494869900081, 52.448161357945658 ], [ 4.88812475871287, 52.44799605616015 ], [ 4.892421433841839, 52.449042300284368 ], [ 4.895076386529663, 52.449808826951148 ], [ 4.895121188129901, 52.449695252837742 ] ] ] ] } },
{ "type": "Feature", "properties": { "buurtcode": "BU04310001", "buurtnaam": "Zuideinde", "pc6_codes": "1511GD, 1511GE, 1511GK, 1511GL, 1511GM, 1511GN, 1511GP, 1511HW, 1511MA", "wijkcode": "WK043100", "gemeentecode": "GM0431", "gemeentenaam": "Oostzaan", "oppervlakteLandInHa": 100, "AantalInwoners_5": 195, "Mannen_6": 100, "Vrouwen_7": 95, "HuishoudensTotaal_29": 90, "GemiddeldeHuishoudensgrootte_33": 2.1, "Woningvoorraad_35": 94, "NieuwbouwWoningen_36": 0, "NietWoningvoorraad_37": 85, "NieuwbouwNietWoningen_38": 1, "GemiddeldeWOZWaardeVanWoningen_39": 620, "PercentageEengezinswoning_40": 96, "PercentageTussenwoningEengezins_41": 5, "PercentageHoekwoningEengezins_42": 6, "PercentageTweeOnderEenKapWoningEe_43": 18, "PercentageVrijstaandeWoningEengezins_44": 66, "PercentageMeergezinswoning_45": 4, "Koopwoningen_47": 84, "HuurwoningenTotaal_48": 16, "InBezitWoningcorporatie_49": 0, "InBezitOverigeVerhuurders_50": 16, "BouwjaarMeerDanTienJaarGeleden_51": 97, "BouwjaarAfgelopenTienJaar_52": 3, "GemiddeldeElektriciteitslevering_53": 3100, "GemiddeldeElektriciteitsteruglevering_54": 770, "GemiddeldAardgasverbruik_55": 1450, "AardgasvrijeWoningen_57": null, "Aardgaswoningen_58": null, "WoningenMetZonnestroom_59": null, "WoningenHoofdzElektrVerwarmd_60": null, "k_20PersonenMetHoogsteInkomen_80": 22.9, "k_20HuishoudensMetHoogsteInkomen_85": null, "MediaanVermogenVanParticuliereHuish_86": null, "PersonenautoSTotaal_104": 145, "PersonenautoSBrandstofBenzine_105": 95, "PersonenautoSOverigeBrandstof_106": 50, "PersonenautoSPerHuishouden_107": 1.6, "Omgevingsadressendichtheid_121": 933, "AantalInstallatiesBijWoningen_5": 30, "OpgesteldVermogenVanZonnepanelen_6": 121, "installaties_per_woning": 0.31914893617021278, "vermogen_per_woning": 1.2872340425531914, "installaties_per_100_woningen": 31.914893617021278, "vermogen_per_huishouden": 1.3444444444444446, "batterijdruk_score": null, "koop_zon_score": null, "eengezins_zon_score": null, "betaalkracht_zon_score": null, "overige_brandstof_zon_score": null, "lichte_batterij_kansscore": null }, "geometry": { "type": "MultiPolygon", "coordinates": [ [ [ [ 4.898140095899922, 52.434145127310082 ], [ 4.898317390212454, 52.434029424502832 ], [ 4.89858519702092, 52.43387189786629 ], [ 4.898703420328672, 52.433810838164121 ], [ 4.898803866198429, 52.433768363329754 ], [ 4.898743738317238, 52.433732407841511 ], [ 4.898682233866591, 52.433689283537539 ], [ 4.898647394028317, 52.433651041528464 ], [ 4.898596509073876, 52.433599692367714 ], [ 4.89855441938582, 52.433548181719061 ], [ 4.898528257329483, 52.433507108408165 ], [ 4.898513012306822, 52.433466808099652 ], [ 4.898812060845116, 52.433468040761639 ], [ 4.898971390008686, 52.433303577153673 ], [ 4.899075688575336, 52.433172931700604 ], [ 4.899170406279863, 52.433022968316578 ], [ 4.89924819951922, 52.432863579091944 ], [ 4.89928488635787, 52.432774231674401 ], [ 4.899282801878526, 52.431893205191002 ], [ 4.899281408707038, 52.431303995161763 ], [ 4.899281004208047, 52.431132937070842 ], [ 4.899099887163342, 52.430097395269286 ], [ 4.89887808840409, 52.428829113175389 ], [ 4.898881368340483, 52.428764608296973 ], [ 4.898887531468075, 52.428643441281125 ], [ 4.898893272238045, 52.42854283974912 ], [ 4.898905751734427, 52.428440468459705 ], [ 4.898916245308957, 52.428350186296839 ], [ 4.898923027968998, 52.42827242654711 ], [ 4.898925293247268, 52.42821232679735 ], [ 4.898920996040645, 52.428168683271359 ], [ 4.89890296324652, 52.428117325714034 ], [ 4.898879248596188, 52.428065234720911 ], [ 4.898858865367398, 52.428011036375757 ], [ 4.898838601066438, 52.427967389961964 ], [ 4.898828287711625, 52.427934668538548 ], [ 4.898818792533289, 52.427890419391211 ], [ 4.898812116536139, 52.427835846117361 ], [ 4.898808773171285, 52.427681730896552 ], [ 4.898802677826311, 52.427343879734352 ], [ 4.898757763006341, 52.424857650832514 ], [ 4.898752743334494, 52.424712929641885 ], [ 4.898752407864828, 52.424703356455687 ], [ 4.898741017515533, 52.424489763914281 ], [ 4.898739713829398, 52.424461339719869 ], [ 4.898579173607131, 52.424490534720576 ], [ 4.898528513021717, 52.424499753826112 ], [ 4.898449833774352, 52.424514061180894 ], [ 4.898422782768203, 52.424516726781782 ], [ 4.898382500619256, 52.424520694929043 ], [ 4.898389270015321, 52.424540073175095 ], [ 4.898405784656806, 52.424583605373186 ], [ 4.898367293028043, 52.424577191224401 ], [ 4.898344999581466, 52.424576380252503 ], [ 4.898311565701096, 52.424584582827386 ], [ 4.898248043808394, 52.424596211358292 ], [ 4.89814653570313, 52.424615565230006 ], [ 4.898084049850895, 52.424627889994674 ], [ 4.898021829187091, 52.424641492061717 ], [ 4.897957720700783, 52.424655634546532 ], [ 4.897874430442482, 52.424670749343562 ], [ 4.897828587464216, 52.424680347547479 ], [ 4.897730243576104, 52.42469936361325 ], [ 4.89754898010167, 52.424738501796043 ], [ 4.897494297879988, 52.424749735042866 ], [ 4.897433306599992, 52.42476114890502 ], [ 4.897373413373891, 52.424775632049418 ], [ 4.897257278823698, 52.424794753938215 ], [ 4.897138782176744, 52.424813425552358 ], [ 4.897064818738734, 52.42483060955071 ], [ 4.89686019801534, 52.424879922911721 ], [ 4.896721842430844, 52.424896948093064 ], [ 4.896641532565592, 52.424911022810143 ], [ 4.896529206451505, 52.42493267628263 ], [ 4.896413573587576, 52.42494360272299 ], [ 4.896324429474153, 52.42495752379935 ], [ 4.896233033832809, 52.424968981863081 ], [ 4.896150828933571, 52.42498289560767 ], [ 4.896076528249062, 52.424998612612427 ], [ 4.895992339791217, 52.42501241017537 ], [ 4.895898540509308, 52.425033780339717 ], [ 4.895739960050989, 52.42505161928645 ], [ 4.895640774473106, 52.425066837359061 ], [ 4.895508964073723, 52.425088804498245 ], [ 4.895449475198295, 52.425094579355594 ], [ 4.895360369176153, 52.4251036914944 ], [ 4.895271122202433, 52.425117548439381 ], [ 4.895170861435141, 52.425132914445349 ], [ 4.89506831656363, 52.42514478368836 ], [ 4.894982455278875, 52.425158241046347 ], [ 4.894896469308567, 52.425169684599524 ], [ 4.894780820838636, 52.425181921574925 ], [ 4.894687726125953, 52.425196696804178 ], [ 4.894636964694075, 52.425201617751974 ], [ 4.894566927528062, 52.425211967954347 ], [ 4.894468122119097, 52.425225982287465 ], [ 4.894390486860731, 52.425236076103076 ], [ 4.894190369694242, 52.42525546586004 ], [ 4.89390165596703, 52.425288309458935 ], [ 4.893739600772373, 52.425309088191725 ], [ 4.893647501332904, 52.425317611372201 ], [ 4.893600847929204, 52.425325910352214 ], [ 4.893534350039735, 52.425335250099266 ], [ 4.893440444560968, 52.4253435588804 ], [ 4.89332940373208, 52.425351229957357 ], [ 4.893260439048733, 52.425360280654566 ], [ 4.89316317195266, 52.425373392564104 ], [ 4.893050257387287, 52.425382960941803 ], [ 4.89298051255446, 52.425388134562844 ], [ 4.892859690069399, 52.425402810692816 ], [ 4.892683269145682, 52.425423680845149 ], [ 4.892552392716269, 52.425438143942571 ], [ 4.892458061892537, 52.425448957714096 ], [ 4.892379735871739, 52.425453690713887 ], [ 4.892294569693351, 52.42545744240924 ], [ 4.892212127961916, 52.42546472856688 ], [ 4.892100714638152, 52.425467534639857 ], [ 4.89197048840769, 52.425479042887439 ], [ 4.89185914258554, 52.42549158259866 ], [ 4.891691676994727, 52.425509585709904 ], [ 4.891615851849972, 52.425516791267619 ], [ 4.891555545835609, 52.425519289264336 ], [ 4.891476191353144, 52.425527882038786 ], [ 4.891352118072382, 52.425538687349395 ], [ 4.891222738358926, 52.425546774037926 ], [ 4.891056595009215, 52.425558256780299 ], [ 4.890870368898169, 52.425571030284679 ], [ 4.890691969532719, 52.425580699612382 ], [ 4.890590807317579, 52.425588373563215 ], [ 4.890430574331118, 52.425595880708869 ], [ 4.890246200876482, 52.425607294882184 ], [ 4.890096773299358, 52.425616150092637 ], [ 4.889939759818572, 52.425623661092388 ], [ 4.889854172123476, 52.425626932922583 ], [ 4.889689543828069, 52.425633054503201 ], [ 4.889478156455557, 52.425635842799814 ], [ 4.889306052078484, 52.425636081512145 ], [ 4.889114732983969, 52.42563624820297 ], [ 4.888921101294533, 52.425635497112239 ], [ 4.888743486183558, 52.425628980113991 ], [ 4.888593474198334, 52.42562702786018 ], [ 4.888450975151278, 52.425622446702491 ], [ 4.888298591795301, 52.425618273141907 ], [ 4.888153974554365, 52.425617709160129 ], [ 4.888105752219414, 52.425615079422109 ], [ 4.88776637538565, 52.425591243502367 ], [ 4.887748085854922, 52.425589962080473 ], [ 4.887684461887316, 52.42558549669814 ], [ 4.8875683933584, 52.425577349949393 ], [ 4.88757672939648, 52.425569529920281 ], [ 4.887444724315264, 52.425566564626379 ], [ 4.887391597518497, 52.42556601701601 ], [ 4.887375721245424, 52.42556585119123 ], [ 4.887208388179799, 52.425564111729102 ], [ 4.887046990184036, 52.425562774559644 ], [ 4.886871286792722, 52.42556407305797 ], [ 4.886795386554541, 52.425566134300389 ], [ 4.886764094657146, 52.425569273653316 ], [ 4.886640112444226, 52.425582312333077 ], [ 4.88660576709705, 52.425586346495642 ], [ 4.886541723131443, 52.42558913172995 ], [ 4.886448259297055, 52.425593320511965 ], [ 4.886334763919357, 52.425595564121821 ], [ 4.886216495144586, 52.425598686204886 ], [ 4.886094743991019, 52.42560422908813 ], [ 4.886064533189355, 52.425605368589892 ], [ 4.885991889005907, 52.425608108170472 ], [ 4.885940060882995, 52.425609722429392 ], [ 4.885906196420422, 52.425611529495001 ], [ 4.885836784519748, 52.42561315920166 ], [ 4.885809388319547, 52.425612423147065 ], [ 4.885723115957852, 52.425613810685228 ], [ 4.885636341768421, 52.425614072584821 ], [ 4.885451715492755, 52.425612643915734 ], [ 4.885289483210294, 52.425612262494695 ], [ 4.885140998010515, 52.425609224833451 ], [ 4.88498953550099, 52.425605554223097 ], [ 4.884813179242088, 52.425602173342796 ], [ 4.884652201448686, 52.425596188095014 ], [ 4.884420857516706, 52.425590416401846 ], [ 4.884270635952869, 52.42558364042182 ], [ 4.884141438394978, 52.425578148853887 ], [ 4.883998856787071, 52.425570533161967 ], [ 4.883845683071605, 52.425560921995611 ], [ 4.883680422140164, 52.425548922493483 ], [ 4.883532117944074, 52.425540338224465 ], [ 4.883383466786632, 52.425526072120853 ], [ 4.883271885251993, 52.42551775149586 ], [ 4.883044232108634, 52.4255132690487 ], [ 4.883009154761212, 52.42551054935511 ], [ 4.882992148199411, 52.425508940115144 ], [ 4.882982021794692, 52.425508654363718 ], [ 4.882977155780338, 52.425508624671892 ], [ 4.882971778429511, 52.42551089363409 ], [ 4.882965731335399, 52.425513878755581 ], [ 4.882958556644358, 52.425520346274148 ], [ 4.882944314633155, 52.42553418052853 ], [ 4.882917505850799, 52.425556751194591 ], [ 4.882907652372705, 52.425566065372912 ], [ 4.882899518157124, 52.425574164550895 ], [ 4.882866418902124, 52.425604302972012 ], [ 4.882835971540199, 52.425631369917973 ], [ 4.882822793680649, 52.425644705380186 ], [ 4.882784920858723, 52.425675722222834 ], [ 4.882757442160365, 52.425699009010344 ], [ 4.882723931097487, 52.425725271975729 ], [ 4.882719924842251, 52.425729784679739 ], [ 4.882684594332237, 52.425753145876023 ], [ 4.88266289479064, 52.425767280888763 ], [ 4.882629327504708, 52.425789436247257 ], [ 4.882573122816559, 52.425824158753784 ], [ 4.882530483477971, 52.425848962749974 ], [ 4.882499356271921, 52.425865987546452 ], [ 4.882469924050929, 52.425881347857249 ], [ 4.882455647640021, 52.425887856998784 ], [ 4.882420231514333, 52.425903227760649 ], [ 4.882393227426284, 52.425913223800563 ], [ 4.882360149293247, 52.425925980119871 ], [ 4.882332592314206, 52.425934176267404 ], [ 4.882309044044826, 52.425941517688891 ], [ 4.882261012282726, 52.425954407997388 ], [ 4.882250427878998, 52.425956888418092 ], [ 4.882211692153258, 52.425965531223468 ], [ 4.882193742896457, 52.425969220546023 ], [ 4.882148192765219, 52.425977214145661 ], [ 4.882095346146305, 52.425986866300214 ], [ 4.882046442313102, 52.425994998355776 ], [ 4.881993013499986, 52.426002841472119 ], [ 4.881929355733064, 52.426012932793938 ], [ 4.881888642371685, 52.426017073253718 ], [ 4.881871599149265, 52.426018663288637 ], [ 4.881859302501382, 52.426019159097528 ], [ 4.881825846741589, 52.426021182443606 ], [ 4.881807960883629, 52.426021888089515 ], [ 4.881767218305926, 52.426022145732638 ], [ 4.881755591425965, 52.426021925378016 ], [ 4.881728906354215, 52.42602069709455 ], [ 4.881702113930882, 52.426018569585473 ], [ 4.881667338297566, 52.426015149748686 ], [ 4.881656683222176, 52.426013513486573 ], [ 4.88163587469639, 52.426011375539161 ], [ 4.881614788736043, 52.426006495181348 ], [ 4.881582351100838, 52.426000469897815 ], [ 4.881512858251941, 52.425987231209689 ], [ 4.881481774893855, 52.42597977365881 ], [ 4.881402715708808, 52.425960975684603 ], [ 4.881355822051169, 52.425950143175854 ], [ 4.881331774064754, 52.425944585040199 ], [ 4.881254319941694, 52.425926863344472 ], [ 4.881208504625078, 52.42591816544622 ], [ 4.881081631001131, 52.425889375574798 ], [ 4.88100346853295, 52.425871902342337 ], [ 4.880932894817136, 52.425855504041905 ], [ 4.880876989646439, 52.425843329639605 ], [ 4.880797499907898, 52.425827513308924 ], [ 4.880729600353076, 52.425815125803943 ], [ 4.880654976762541, 52.425799339161856 ], [ 4.880613082638974, 52.425792320502559 ], [ 4.880539345417963, 52.425781310001405 ], [ 4.880467213144151, 52.425771375843553 ], [ 4.880401249699696, 52.425763256559506 ], [ 4.880320530158135, 52.425753438376958 ], [ 4.880243414927342, 52.42574599031429 ], [ 4.880157106169334, 52.425736390775398 ], [ 4.880070232196782, 52.42572864919164 ], [ 4.880001772632079, 52.425721543591152 ], [ 4.87991278222077, 52.42571503312476 ], [ 4.879825594251666, 52.42570775737336 ], [ 4.879721178119185, 52.425700254992364 ], [ 4.879632570335818, 52.425693718990843 ], [ 4.879519910036937, 52.425689749205908 ], [ 4.879407330134841, 52.425686462717273 ], [ 4.879345268067659, 52.425686879823907 ], [ 4.879256009565343, 52.42568837568291 ], [ 4.879121614996718, 52.425691223836786 ], [ 4.879076586232489, 52.425693475403541 ], [ 4.87899345759392, 52.425696327515851 ], [ 4.878856622468028, 52.42570429683321 ], [ 4.878798627270021, 52.425707759926524 ], [ 4.878730415363887, 52.425713677713048 ], [ 4.878657495555007, 52.425721157078158 ], [ 4.8786043295078, 52.425727858367495 ], [ 4.878557778377824, 52.425733365709306 ], [ 4.878464451578332, 52.425746006133267 ], [ 4.87836963906505, 52.425758712005539 ], [ 4.878365338324699, 52.425759385585771 ], [ 4.878300445072354, 52.42576947864228 ], [ 4.878212512620434, 52.42578349916365 ], [ 4.878110875597137, 52.425798988641965 ], [ 4.87803581690938, 52.425810898320385 ], [ 4.87800420436558, 52.425816280888846 ], [ 4.877942878029696, 52.425828132674376 ], [ 4.877935643231874, 52.425829530615118 ], [ 4.877909462284984, 52.425834343317149 ], [ 4.877887524522643, 52.425838374351827 ], [ 4.877864084013361, 52.425842677539798 ], [ 4.877827502928469, 52.425850546252015 ], [ 4.877782767970127, 52.425859188787811 ], [ 4.877666290846518, 52.425882810800076 ], [ 4.87755035595497, 52.425911683799761 ], [ 4.877481087876331, 52.425928848825286 ], [ 4.877463941957283, 52.425932963305776 ], [ 4.877401841057812, 52.425950770271825 ], [ 4.877338622388109, 52.425968608346686 ], [ 4.877310747656457, 52.425977502996084 ], [ 4.877223692371134, 52.426003381229151 ], [ 4.877150115071847, 52.426025758311624 ], [ 4.877130642849875, 52.426032711806904 ], [ 4.877011873875294, 52.42607015525892 ], [ 4.87696600040729, 52.426085704064832 ], [ 4.87691982480098, 52.42610195258635 ], [ 4.876876856774057, 52.426116704982753 ], [ 4.876815154477049, 52.42613815334439 ], [ 4.876778051131207, 52.426151753585138 ], [ 4.876738831157455, 52.426166584988415 ], [ 4.876706289797326, 52.426177256918237 ], [ 4.876675996192803, 52.426188073336853 ], [ 4.876641780664608, 52.426202404985325 ], [ 4.876573547526913, 52.426227923438766 ], [ 4.876612013794338, 52.426235117497555 ], [ 4.876535879727992, 52.426264960882762 ], [ 4.876480021386124, 52.426289579919654 ], [ 4.876232943613743, 52.426398469372494 ], [ 4.876090363264557, 52.426477251143986 ], [ 4.875966604014206, 52.426545616400567 ], [ 4.875714808582103, 52.42670630703406 ], [ 4.875477609168594, 52.426876047779089 ], [ 4.875252257500718, 52.427052202465248 ], [ 4.875243192440284, 52.427059281497897 ], [ 4.875039647592278, 52.427242648176716 ], [ 4.874727633293542, 52.427524409288658 ], [ 4.874668582546771, 52.42757437672541 ], [ 4.874639524603311, 52.427598984974445 ], [ 4.87447521386729, 52.427738121531398 ], [ 4.874220568899151, 52.427971129002906 ], [ 4.874112380817274, 52.427963937909659 ], [ 4.87402154890531, 52.428141391587857 ], [ 4.87383285785133, 52.428509992371957 ], [ 4.873806313953413, 52.428558617229484 ], [ 4.873764607206984, 52.428640556397418 ], [ 4.87371068998393, 52.428738296798997 ], [ 4.873658954722886, 52.428835507372909 ], [ 4.873602162400873, 52.428946572885991 ], [ 4.873543834691558, 52.429056885743151 ], [ 4.873500700447425, 52.42914772535245 ], [ 4.873489481052742, 52.42917188036904 ], [ 4.873456018827792, 52.429243923843401 ], [ 4.873433351362064, 52.429294192175078 ], [ 4.873396173058557, 52.429386163039744 ], [ 4.873365968558735, 52.429446060366814 ], [ 4.873336749090781, 52.429485685897113 ], [ 4.873247466246784, 52.429543071124613 ], [ 4.873122428860135, 52.429553233054541 ], [ 4.873046378101727, 52.429556210580515 ], [ 4.87294321904302, 52.429554990052402 ], [ 4.872815494236083, 52.42954840505741 ], [ 4.872736455221486, 52.429542822192012 ], [ 4.872693175521077, 52.429586520830846 ], [ 4.872672269861472, 52.429606553339696 ], [ 4.872643280570021, 52.429608593492006 ], [ 4.872550569365191, 52.429678743699846 ], [ 4.872445993645628, 52.42974497762772 ], [ 4.872336181080555, 52.429806335400301 ], [ 4.872224212977288, 52.429863369649397 ], [ 4.872101102939454, 52.429917569205621 ], [ 4.871971326599645, 52.429963381170822 ], [ 4.871847838504014, 52.4300057960576 ], [ 4.871721581020426, 52.430043579136218 ], [ 4.87156018771121, 52.430080867682712 ], [ 4.871461580593682, 52.430101280887776 ], [ 4.872113196039836, 52.430082690997935 ], [ 4.872812860115236, 52.43009387533526 ], [ 4.874056143727521, 52.430150382164911 ], [ 4.87715077070881, 52.430699346952956 ], [ 4.880421292973006, 52.431313018687185 ], [ 4.883956449625261, 52.432180781436827 ], [ 4.88777202605146, 52.43337626363558 ], [ 4.888691774928757, 52.43356803229603 ], [ 4.891047745035158, 52.433413332942301 ], [ 4.893557605928103, 52.433436452446003 ], [ 4.895038288157147, 52.433570963920815 ], [ 4.898095201141574, 52.434168905666702 ], [ 4.898140095899922, 52.434145127310082 ] ] ] ] } },
{ "type": "Feature", "properties": { "buurtcode": "BU04310002", "buurtnaam": "Kerkstraat", "pc6_codes": "1511BB, 1511BH, 1511BJ, 1511BP, 1511BS, 1511CG, 1511EA, 1511EB, 1511EC, 1511ED, 1511EE, 1511EG, 1511EH, 1511EJ, 1511EK, 1511EL, 1511EM, 1511EN, 1511GG, 1511LH, 1511LJ", "wijkcode": "WK043100", "gemeentecode": "GM0431", "gemeentenaam": "Oostzaan", "oppervlakteLandInHa": 20, "AantalInwoners_5": 760, "Mannen_6": 395, "Vrouwen_7": 360, "HuishoudensTotaal_29": 320, "GemiddeldeHuishoudensgrootte_33": 2.4, "Woningvoorraad_35": 319, "NieuwbouwWoningen_36": 0, "NietWoningvoorraad_37": 17, "NieuwbouwNietWoningen_38": 0, "GemiddeldeWOZWaardeVanWoningen_39": 477, "PercentageEengezinswoning_40": 85, "PercentageTussenwoningEengezins_41": 18, "PercentageHoekwoningEengezins_42": 15, "PercentageTweeOnderEenKapWoningEe_43": 27, "PercentageVrijstaandeWoningEengezins_44": 25, "PercentageMeergezinswoning_45": 15, "Koopwoningen_47": 78, "HuurwoningenTotaal_48": 22, "InBezitWoningcorporatie_49": 16, "InBezitOverigeVerhuurders_50": 5, "BouwjaarMeerDanTienJaarGeleden_51": 90, "BouwjaarAfgelopenTienJaar_52": 10, "GemiddeldeElektriciteitslevering_53": 3030, "GemiddeldeElektriciteitsteruglevering_54": 620, "GemiddeldAardgasverbruik_55": 1000, "AardgasvrijeWoningen_57": 1, "Aardgaswoningen_58": 86, "WoningenMetZonnestroom_59": 31, "WoningenHoofdzElektrVerwarmd_60": 14, "k_20PersonenMetHoogsteInkomen_80": 19.9, "k_20HuishoudensMetHoogsteInkomen_85": 29.6, "MediaanVermogenVanParticuliereHuish_86": 368.9, "PersonenautoSTotaal_104": 390, "PersonenautoSBrandstofBenzine_105": 315, "PersonenautoSOverigeBrandstof_106": 80, "PersonenautoSPerHuishouden_107": 1.2, "Omgevingsadressendichtheid_121": 1363, "AantalInstallatiesBijWoningen_5": 66, "OpgesteldVermogenVanZonnepanelen_6": 242, "installaties_per_woning": 0.20689655172413793, "vermogen_per_woning": 0.75862068965517238, "installaties_per_100_woningen": 20.689655172413794, "vermogen_per_huishouden": 0.75625, "batterijdruk_score": 192.2, "koop_zon_score": 0.2418, "eengezins_zon_score": 0.2635, "betaalkracht_zon_score": 114.359, "overige_brandstof_zon_score": 24.8, "lichte_batterij_kansscore": 0.40730477501717022 }, "geometry": { "type": "MultiPolygon", "coordinates": [ [ [ [ 4.875393939932606, 52.43996894377333 ], [ 4.872439700349067, 52.439426725712288 ], [ 4.87267379200053, 52.439026951005872 ], [ 4.872431577062655, 52.438988826382655 ], [ 4.869565691849277, 52.438327552017221 ], [ 4.869863338931635, 52.437898289721744 ], [ 4.858121688085316, 52.435056553402966 ], [ 4.857959381201853, 52.435294593703432 ], [ 4.857572125888087, 52.435864350220051 ], [ 4.857512342327778, 52.43593613674863 ], [ 4.857470178386174, 52.435986809207073 ], [ 4.857090760271521, 52.436466690658008 ], [ 4.872282073700342, 52.440334630389636 ], [ 4.872660256081248, 52.440448617594193 ], [ 4.872417896095388, 52.4402939340264 ], [ 4.875176084821824, 52.440873784222433 ], [ 4.875393939932606, 52.43996894377333 ] ] ] ] } },
{ "type": "Feature", "properties": { "buurtcode": "BU04310003", "buurtnaam": "De Haal en De Heul en Noordeinde", "pc6_codes": "1511AA, 1511AB, 1511AC, 1511AD, 1511AE, 1511AG, 1511AH, 1511AJ, 1511AK, 1511AL, 1511AM, 1511AN, 1511AP, 1511AR, 1511AS, 1511AT, 1511AV, 1511AW, 1511AX, 1511AZ, 1511BW, 1511BX, 1511DA, 1511DB, 1511DC, 1511DD, 1511DE, 1511DG, 1511DH, 1511HX, 1511PA", "wijkcode": "WK043100", "gemeentecode": "GM0431", "gemeentenaam": "Oostzaan", "oppervlakteLandInHa": 688, "AantalInwoners_5": 1645, "Mannen_6": 840, "Vrouwen_7": 805, "HuishoudensTotaal_29": 610, "GemiddeldeHuishoudensgrootte_33": 2.7, "Woningvoorraad_35": 610, "NieuwbouwWoningen_36": 29, "NietWoningvoorraad_37": 70, "NieuwbouwNietWoningen_38": 7, "GemiddeldeWOZWaardeVanWoningen_39": 697, "PercentageEengezinswoning_40": 98, "PercentageTussenwoningEengezins_41": 26, "PercentageHoekwoningEengezins_42": 10, "PercentageTweeOnderEenKapWoningEe_43": 16, "PercentageVrijstaandeWoningEengezins_44": 46, "PercentageMeergezinswoning_45": 2, "Koopwoningen_47": 95, "HuurwoningenTotaal_48": 5, "InBezitWoningcorporatie_49": 2, "InBezitOverigeVerhuurders_50": 3, "BouwjaarMeerDanTienJaarGeleden_51": 72, "BouwjaarAfgelopenTienJaar_52": 28, "GemiddeldeElektriciteitslevering_53": 3660, "GemiddeldeElektriciteitsteruglevering_54": 1420, "GemiddeldAardgasverbruik_55": 1090, "AardgasvrijeWoningen_57": 3, "Aardgaswoningen_58": 91, "WoningenMetZonnestroom_59": 54, "WoningenHoofdzElektrVerwarmd_60": 8, "k_20PersonenMetHoogsteInkomen_80": 34.6, "k_20HuishoudensMetHoogsteInkomen_85": 47.8, "MediaanVermogenVanParticuliereHuish_86": 647.5, "PersonenautoSTotaal_104": 880, "PersonenautoSBrandstofBenzine_105": 660, "PersonenautoSOverigeBrandstof_106": 225, "PersonenautoSPerHuishouden_107": 1.4, "Omgevingsadressendichtheid_121": 326, "AantalInstallatiesBijWoningen_5": 253, "OpgesteldVermogenVanZonnepanelen_6": 1065, "installaties_per_woning": 0.41475409836065574, "vermogen_per_woning": 1.7459016393442623, "installaties_per_100_woningen": 41.475409836065573, "vermogen_per_huishouden": 1.7459016393442623, "batterijdruk_score": 766.8, "koop_zon_score": 0.513, "eengezins_zon_score": 0.5292, "betaalkracht_zon_score": 349.65, "overige_brandstof_zon_score": 121.5, "lichte_batterij_kansscore": 0.53895124539235684 }, "geometry": { "type": "MultiPolygon", "coordinates": [ [ [ [ 4.906347241107361, 52.479591333187756 ], [ 4.906179394800056, 52.479268828238595 ], [ 4.906107821837167, 52.479131307820296 ], [ 4.906080686521538, 52.479079169116481 ], [ 4.905871319009695, 52.478702660121932 ], [ 4.90583563065245, 52.478638488332123 ], [ 4.90530697302445, 52.477687863560035 ], [ 4.905166974633977, 52.477291170450279 ], [ 4.905079928644763, 52.476953371812087 ], [ 4.904987250084919, 52.47651807169715 ], [ 4.904935758362434, 52.476293138739521 ], [ 4.904779136435047, 52.475665650151271 ], [ 4.904701975219442, 52.475386975182211 ], [ 4.904538006552269, 52.474972010832019 ], [ 4.904373849636329, 52.474520646027948 ], [ 4.904296210830097, 52.473997679242309 ], [ 4.904160465515035, 52.473633905163432 ], [ 4.904030319503602, 52.473362689132742 ], [ 4.903866878421013, 52.473055575937892 ], [ 4.903666659446349, 52.472755259895919 ], [ 4.903506918975454, 52.472604085621995 ], [ 4.903355922433598, 52.472435367220129 ], [ 4.903132940764419, 52.472014129193539 ], [ 4.903101045409622, 52.471953872523827 ], [ 4.903080115979582, 52.471909622437231 ], [ 4.903058758389139, 52.471866844551144 ], [ 4.903038093901846, 52.471823943665036 ], [ 4.903011751130709, 52.471763332160677 ], [ 4.902989944276491, 52.471725306822186 ], [ 4.902973839487895, 52.471696103539536 ], [ 4.902952478811995, 52.471654970334569 ], [ 4.902911213127147, 52.471582245610854 ], [ 4.902875580888131, 52.47151251874574 ], [ 4.902841867674754, 52.471443617570216 ], [ 4.902811911376307, 52.471381076915584 ], [ 4.902778552247342, 52.471312114253166 ], [ 4.902759922563638, 52.471270255187939 ], [ 4.90273920160107, 52.471223156841319 ], [ 4.902716434898341, 52.471173380840511 ], [ 4.902693829896848, 52.471114222527092 ], [ 4.902669337498742, 52.471060772558324 ], [ 4.902646473607929, 52.4710091357286 ], [ 4.902621313975224, 52.470953463105261 ], [ 4.902592857202393, 52.470896500775048 ], [ 4.902562015577657, 52.47083692231098 ], [ 4.902538694088598, 52.470786775515307 ], [ 4.902513551316067, 52.470737645847827 ], [ 4.90249100616368, 52.470694557416138 ], [ 4.902438952054301, 52.470599238729264 ], [ 4.902362427218271, 52.470475428404086 ], [ 4.902250796241916, 52.470322714411417 ], [ 4.902222960400625, 52.470289733222756 ], [ 4.9022047218747, 52.470259262844941 ], [ 4.902181311043272, 52.470222695747097 ], [ 4.902157791428335, 52.470182632054282 ], [ 4.902135937371669, 52.470143680633718 ], [ 4.902111937008049, 52.470101835435578 ], [ 4.90208590903407, 52.470055667928321 ], [ 4.90206606622229, 52.47001449581574 ], [ 4.902046082355116, 52.469975453164601 ], [ 4.902026645428143, 52.469933509778286 ], [ 4.902006731038472, 52.469888140189646 ], [ 4.901992880519576, 52.469854793746855 ], [ 4.90196439629694, 52.469801812607052 ], [ 4.901949449161453, 52.469779893797394 ], [ 4.901933474508369, 52.46975907624617 ], [ 4.901914602491033, 52.469743459598241 ], [ 4.901889623114291, 52.469719792098203 ], [ 4.901858297888729, 52.469688351379048 ], [ 4.901834786105685, 52.469663719221025 ], [ 4.901808613340841, 52.469633476941254 ], [ 4.901776492233591, 52.469591427667311 ], [ 4.901750340289738, 52.469553932529706 ], [ 4.901718035513642, 52.46950583388535 ], [ 4.901692169123571, 52.469462444089039 ], [ 4.901670456939732, 52.469421363112687 ], [ 4.901646369283506, 52.469368777365808 ], [ 4.90162341494836, 52.469320204688444 ], [ 4.901602842205539, 52.469275883868249 ], [ 4.901580868737379, 52.469231808958668 ], [ 4.901510394395725, 52.469086803269988 ], [ 4.901468122065999, 52.469005670533662 ], [ 4.901387685034172, 52.468878122662261 ], [ 4.901253862157851, 52.46869926191372 ], [ 4.901153595398609, 52.468591198450476 ], [ 4.901027097528579, 52.468461034892101 ], [ 4.900883578003071, 52.468311747839273 ], [ 4.900779916706212, 52.468216782922859 ], [ 4.900723244309161, 52.468172673357799 ], [ 4.90068136922506, 52.468131895932586 ], [ 4.900526004251957, 52.468004120903522 ], [ 4.900375045011319, 52.46787056679765 ], [ 4.900245597199045, 52.467738736557614 ], [ 4.900095732661621, 52.467627538555071 ], [ 4.899988655708627, 52.467527669678852 ], [ 4.899909897491866, 52.467419342972441 ], [ 4.899776222317596, 52.467245379278289 ], [ 4.899733381558429, 52.46718823124943 ], [ 4.899659654762675, 52.467068124424713 ], [ 4.899605327242011, 52.466971725526307 ], [ 4.899580825349752, 52.466918346715282 ], [ 4.899573522738846, 52.466875958469906 ], [ 4.89957028249778, 52.466816142137468 ], [ 4.899571959802245, 52.466757433516399 ], [ 4.899582176643295, 52.466721013128186 ], [ 4.899601964694304, 52.466685378059239 ], [ 4.899638659109175, 52.466617870824578 ], [ 4.899672598857734, 52.466541265861942 ], [ 4.899683619723418, 52.466502646824829 ], [ 4.899674295768546, 52.466455397006619 ], [ 4.899653643487292, 52.466403903436564 ], [ 4.89962234693919, 52.46637956235805 ], [ 4.899447470179354, 52.466260540353382 ], [ 4.899109047678274, 52.466026739368282 ], [ 4.899044114221422, 52.465978218036774 ], [ 4.898903844270332, 52.465841155894552 ], [ 4.898860130769614, 52.465792640948195 ], [ 4.898829532077558, 52.465751819398285 ], [ 4.898816523502375, 52.465710522047075 ], [ 4.898812708030551, 52.465633600036277 ], [ 4.898830296887546, 52.465585247661799 ], [ 4.898859136071888, 52.465526848618786 ], [ 4.898905279564294, 52.465445854272616 ], [ 4.898938217137197, 52.46539075253412 ], [ 4.898940023850524, 52.465367050867052 ], [ 4.898938520254525, 52.46528996761112 ], [ 4.898873544115203, 52.465152118926696 ], [ 4.898824927537656, 52.465054619695444 ], [ 4.898747735162678, 52.464969055017129 ], [ 4.898665569429177, 52.464888817378288 ], [ 4.898583887725952, 52.464811412747324 ], [ 4.898545007182982, 52.464770431161163 ], [ 4.898447151074572, 52.464633372438747 ], [ 4.898380426842307, 52.464512790290129 ], [ 4.898326532545477, 52.464425658667601 ], [ 4.898283874522502, 52.464376356936512 ], [ 4.898193606063261, 52.464303814824639 ], [ 4.898142935900356, 52.464276490468833 ], [ 4.898080311966965, 52.464254976656299 ], [ 4.897927726269385, 52.464203774317603 ], [ 4.897606574937296, 52.464097447416762 ], [ 4.897496754145715, 52.464061951538952 ], [ 4.897449963229524, 52.464036512310905 ], [ 4.897392135903062, 52.464001806266822 ], [ 4.897328260656006, 52.463952506415673 ], [ 4.897224397013478, 52.463869445896606 ], [ 4.897179719935913, 52.463815273157877 ], [ 4.897169075350982, 52.463794548851425 ], [ 4.897152973870409, 52.463728459878375 ], [ 4.897103340197372, 52.463535975418587 ], [ 4.897078686632731, 52.463447588958402 ], [ 4.896992572830011, 52.463255421000262 ], [ 4.896911917241293, 52.463060741052637 ], [ 4.896847975651837, 52.462874227929383 ], [ 4.896812103363022, 52.462748002411573 ], [ 4.896755568272171, 52.462618168302413 ], [ 4.89670359387419, 52.462521606916788 ], [ 4.89664324549159, 52.462410612826552 ], [ 4.896590395984871, 52.462322684789271 ], [ 4.896517702832915, 52.462228949550095 ], [ 4.896442597271864, 52.462141810120016 ], [ 4.896353767079607, 52.46205702248745 ], [ 4.8962656553507, 52.461976470891301 ], [ 4.896206274349092, 52.461919010348673 ], [ 4.896170850003092, 52.461870645510977 ], [ 4.896131776341778, 52.461801099893485 ], [ 4.896100970393039, 52.461731705342331 ], [ 4.896090506434537, 52.461670942185847 ], [ 4.89608346086833, 52.46153420353658 ], [ 4.896074052095869, 52.461424786204134 ], [ 4.896052300034778, 52.461284742129017 ], [ 4.896043928262079, 52.461222414808553 ], [ 4.896011834980854, 52.461152394751267 ], [ 4.895993195273992, 52.461105771061568 ], [ 4.895957431088317, 52.461041712494705 ], [ 4.895908127438307, 52.460960692252861 ], [ 4.895841038155633, 52.460851575133375 ], [ 4.895795904221746, 52.460767426479713 ], [ 4.895747619861575, 52.460664903201327 ], [ 4.895664684920591, 52.46044321424219 ], [ 4.895581252404147, 52.460218710048096 ], [ 4.895534293963447, 52.460089651950405 ], [ 4.89552073491689, 52.460051973870556 ], [ 4.895479228919856, 52.460016175129375 ], [ 4.89542099633829, 52.459972209223579 ], [ 4.895393071754621, 52.459946928280395 ], [ 4.895346557934745, 52.459895740020414 ], [ 4.895333896459199, 52.459877928111638 ], [ 4.895204284204399, 52.459763005902857 ], [ 4.895164695135396, 52.459704386640077 ], [ 4.89510254059139, 52.459637414159644 ], [ 4.895035795341249, 52.459557246849982 ], [ 4.894966462120811, 52.459467703735498 ], [ 4.894881725532498, 52.459352940484095 ], [ 4.894808047751749, 52.459193761707105 ], [ 4.894779812082572, 52.459113223892146 ], [ 4.894718304497658, 52.459008083778279 ], [ 4.894679903292805, 52.458960505980222 ], [ 4.894591764351428, 52.458843580347484 ], [ 4.894526776872967, 52.45874051976638 ], [ 4.894460464691448, 52.458634892190524 ], [ 4.894408586574544, 52.458570181953071 ], [ 4.894278382315307, 52.458420474413899 ], [ 4.894214305266241, 52.458345422630252 ], [ 4.894177584196973, 52.45827920248432 ], [ 4.894062970196937, 52.458141998286081 ], [ 4.894002235794018, 52.458073359417575 ], [ 4.89395068219759, 52.458031128175449 ], [ 4.893825611037186, 52.457943859989236 ], [ 4.893714309525938, 52.45785676581734 ], [ 4.893651358477922, 52.457796997234233 ], [ 4.893597033386969, 52.457714436153374 ], [ 4.893560390514164, 52.457643974005471 ], [ 4.893560745781201, 52.457539603077301 ], [ 4.893549764288122, 52.457496614846363 ], [ 4.893524842272089, 52.45746618708975 ], [ 4.893460197935184, 52.457425069499983 ], [ 4.893407320603589, 52.457380280035437 ], [ 4.89335384293603, 52.457329969690569 ], [ 4.893318972656547, 52.457276069910044 ], [ 4.893278449485249, 52.457149985530677 ], [ 4.893254330701616, 52.457029191242185 ], [ 4.893239470132265, 52.456847419035505 ], [ 4.893152343865998, 52.456504801089402 ], [ 4.893110236532913, 52.456349410608517 ], [ 4.893083256609872, 52.456069911130527 ], [ 4.893053090722064, 52.455692371110324 ], [ 4.893034827678266, 52.45550843661583 ], [ 4.893046965875575, 52.455439858248624 ], [ 4.89305630069229, 52.455374638528042 ], [ 4.893079421033879, 52.455265895610928 ], [ 4.893086691688868, 52.45520107172306 ], [ 4.893083042133215, 52.455172179502284 ], [ 4.893069582731405, 52.455071885217116 ], [ 4.893055385907862, 52.454891400893338 ], [ 4.89304645427751, 52.454808552338697 ], [ 4.893062181339183, 52.454689964187672 ], [ 4.893070593072947, 52.454596726399473 ], [ 4.893067483610277, 52.454494444048919 ], [ 4.893058090541424, 52.454397590953256 ], [ 4.893057814554455, 52.45433140544359 ], [ 4.893055119994346, 52.454286824924253 ], [ 4.893061804159664, 52.454257382587507 ], [ 4.893062601723056, 52.454185961805138 ], [ 4.893077433470824, 52.454114590525293 ], [ 4.893132368139879, 52.453976060584409 ], [ 4.893205289841037, 52.453823450160378 ], [ 4.893426638019765, 52.453380395912525 ], [ 4.893551151055916, 52.453119538274187 ], [ 4.893646939064588, 52.452864636505652 ], [ 4.893723569971145, 52.452728668161214 ], [ 4.893916665433711, 52.45239621306262 ], [ 4.894101536636945, 52.452100545458919 ], [ 4.894313717710373, 52.451761778909578 ], [ 4.894385013704302, 52.451644814601778 ], [ 4.894407248692383, 52.451624352477054 ], [ 4.894459885727453, 52.451585825887669 ], [ 4.894531321227476, 52.451523659224094 ], [ 4.894551813882104, 52.451487910979182 ], [ 4.894566982281667, 52.451392607006817 ], [ 4.894589088836766, 52.451324195678566 ], [ 4.894613417502592, 52.45128345728974 ], [ 4.89467882059239, 52.451205465339072 ], [ 4.894713407385217, 52.45115369687008 ], [ 4.894723626848859, 52.451128969604667 ], [ 4.894725604401239, 52.451067592778443 ], [ 4.894734881117896, 52.451011252343356 ], [ 4.894757064754575, 52.450970244373629 ], [ 4.894820773105844, 52.450904360534452 ], [ 4.894876367824682, 52.450849776281963 ], [ 4.894895980065892, 52.450809809151693 ], [ 4.894896316838722, 52.450774246769761 ], [ 4.894878965160044, 52.450703577418558 ], [ 4.894874547208946, 52.450655089152065 ], [ 4.894902545793821, 52.450388859023299 ], [ 4.894920170433746, 52.450244556008535 ], [ 4.89493455024649, 52.450172427616636 ], [ 4.894954123254879, 52.450118763263625 ], [ 4.895076386529663, 52.449808826951148 ], [ 4.892421433841839, 52.449042300284368 ], [ 4.88812475871287, 52.44799605616015 ], [ 4.887494869900081, 52.448161357945658 ], [ 4.876904501455916, 52.445947709216199 ], [ 4.876324953934875, 52.446718144981801 ], [ 4.875370319612833, 52.44607590877974 ], [ 4.874122834472334, 52.445589680270096 ], [ 4.872764559308496, 52.445393930826128 ], [ 4.872578858978454, 52.445295384805164 ], [ 4.872247551318284, 52.445198452944275 ], [ 4.853977964670596, 52.441578135343633 ], [ 4.853878518787194, 52.44179682101003 ], [ 4.853572084099008, 52.442274310369363 ], [ 4.853258791993897, 52.442624746232006 ], [ 4.85300737172275, 52.442891003605425 ], [ 4.852933250210537, 52.44295706366001 ], [ 4.85075349063736, 52.444899628923601 ], [ 4.848308965140775, 52.447166780639165 ], [ 4.84826832065108, 52.44720446959878 ], [ 4.848195354019638, 52.447295784376358 ], [ 4.84791370959408, 52.44763914182181 ], [ 4.847853531460578, 52.447692425128629 ], [ 4.847555178319228, 52.447955635194397 ], [ 4.846631295372689, 52.448830808177192 ], [ 4.846527990562971, 52.448928185010843 ], [ 4.846237978839468, 52.449197208809572 ], [ 4.845838885922742, 52.449553075252737 ], [ 4.845141971700948, 52.450176245077706 ], [ 4.844928439158743, 52.45036585043546 ], [ 4.844820104739524, 52.450462519708061 ], [ 4.843403009528481, 52.451879285012289 ], [ 4.842950947488361, 52.452260827896296 ], [ 4.843165740177218, 52.452349469741975 ], [ 4.843198999115948, 52.45236283411981 ], [ 4.843429882150833, 52.452463808387094 ], [ 4.843769590703844, 52.452613310769664 ], [ 4.844068745454254, 52.45275351476527 ], [ 4.844090546745115, 52.452763732088044 ], [ 4.844426976285964, 52.452921402420678 ], [ 4.845124244909436, 52.453248176388229 ], [ 4.845098555229236, 52.453301328353703 ], [ 4.844880183601975, 52.453615641153483 ], [ 4.844766628035062, 52.453778740668994 ], [ 4.844715018168688, 52.453849722161387 ], [ 4.844512249114347, 52.454144917159823 ], [ 4.844424337356307, 52.454377230278979 ], [ 4.844388154976338, 52.454461709706038 ], [ 4.844392262811531, 52.454658116244744 ], [ 4.844448628509724, 52.454853189193656 ], [ 4.844562715532178, 52.455308060779039 ], [ 4.84467247884151, 52.455716194960587 ], [ 4.844774944341188, 52.456071736228893 ], [ 4.844791750585469, 52.456151739687321 ], [ 4.844796872568035, 52.456171967204845 ], [ 4.844911240733398, 52.456448418124552 ], [ 4.844918567675051, 52.456462804805021 ], [ 4.844924427245891, 52.456481678564195 ], [ 4.845188941221989, 52.456736167132206 ], [ 4.845275663059376, 52.456807664306936 ], [ 4.845310213664039, 52.456828808227876 ], [ 4.845479994462159, 52.456953819420342 ], [ 4.845785781291008, 52.457165175050122 ], [ 4.845826949602706, 52.457192613379682 ], [ 4.846053335699692, 52.457352250689333 ], [ 4.846127582841355, 52.45740217402102 ], [ 4.846564186449307, 52.457725489605174 ], [ 4.846664138013945, 52.457809125365472 ], [ 4.846927976081437, 52.458027656532394 ], [ 4.847199168413638, 52.458257428096729 ], [ 4.847306457631279, 52.458353652361289 ], [ 4.847410053554448, 52.458462001926058 ], [ 4.847672335914866, 52.45874839846757 ], [ 4.847825141427729, 52.458923740265156 ], [ 4.84801684826673, 52.459165605040859 ], [ 4.848167047771749, 52.459354604621822 ], [ 4.848217723321127, 52.459418359166186 ], [ 4.848280832497665, 52.459497754655061 ], [ 4.848307713872543, 52.459531562260715 ], [ 4.84856843780768, 52.459568697272942 ], [ 4.84859343367851, 52.459619626561064 ], [ 4.848605925862558, 52.459646169685499 ], [ 4.848650917264912, 52.459741822075443 ], [ 4.84868797965327, 52.459822860591089 ], [ 4.848701681063536, 52.459852815485974 ], [ 4.848706166984269, 52.459862623326096 ], [ 4.848726790901911, 52.459908913113594 ], [ 4.848801617417357, 52.460089552598994 ], [ 4.848928580114896, 52.460350768627123 ], [ 4.849051192212565, 52.460650431556516 ], [ 4.849139500151948, 52.460651937798701 ], [ 4.84915345099249, 52.460677157316447 ], [ 4.849286501292539, 52.461080583895644 ], [ 4.849309182052808, 52.461147796971602 ], [ 4.849428527843763, 52.461502304746737 ], [ 4.849467460516625, 52.461617342445727 ], [ 4.849530207171219, 52.461816593780746 ], [ 4.849556887553448, 52.461882872250584 ], [ 4.849688769772027, 52.462282518175407 ], [ 4.849730419020845, 52.462393281009632 ], [ 4.84986558815949, 52.462770913058478 ], [ 4.849885101028208, 52.462820451071153 ], [ 4.849984578174449, 52.463105762703862 ], [ 4.850033341310968, 52.463259715924863 ], [ 4.850126338198011, 52.463499610847748 ], [ 4.850338586892613, 52.464031476406433 ], [ 4.850312961362715, 52.464061154153889 ], [ 4.850220489621914, 52.464199656187333 ], [ 4.850206312403439, 52.464223247249727 ], [ 4.850326274847665, 52.464525790543668 ], [ 4.850378964243717, 52.464645024415788 ], [ 4.850469032456622, 52.464876852868933 ], [ 4.850495346903785, 52.464944450588511 ], [ 4.850517391098387, 52.46499288546827 ], [ 4.850620805754101, 52.465253965786843 ], [ 4.850798213676739, 52.465693136697702 ], [ 4.850825566876594, 52.465764954193268 ], [ 4.851138160458965, 52.466542506360796 ], [ 4.851158855781255, 52.466593083028222 ], [ 4.851228582127895, 52.466765240306501 ], [ 4.851103938600938, 52.46685155958312 ], [ 4.851184140160895, 52.467036077187508 ], [ 4.851384510143059, 52.467517169899999 ], [ 4.851646909716896, 52.468182050258172 ], [ 4.851796020890177, 52.468579029779441 ], [ 4.852150118879861, 52.469438391013732 ], [ 4.852313053382812, 52.469883191961848 ], [ 4.852504937847795, 52.470367066220355 ], [ 4.852662412734647, 52.47034847988003 ], [ 4.853391658928098, 52.470274606632806 ], [ 4.853465661803705, 52.4702082251478 ], [ 4.853506165284625, 52.470179952856846 ], [ 4.853550773374148, 52.470153011205227 ], [ 4.853639109707153, 52.470115930610348 ], [ 4.853728521032491, 52.470088543363978 ], [ 4.853831482408392, 52.470057828688986 ], [ 4.853918682349741, 52.470040506396252 ], [ 4.854040936498612, 52.470008629027845 ], [ 4.854196467123396, 52.469975364232738 ], [ 4.854191378224136, 52.469964115910869 ], [ 4.854287893562233, 52.469950457198784 ], [ 4.854330651140219, 52.46994024175541 ], [ 4.854474379735471, 52.469910536558466 ], [ 4.854547332663439, 52.469898155866815 ], [ 4.854689563845382, 52.469869342438557 ], [ 4.854730855067528, 52.469858670889138 ], [ 4.854845852545145, 52.469832925567957 ], [ 4.854879787019886, 52.46982089078368 ], [ 4.854955706010937, 52.469805377513332 ], [ 4.855148798636426, 52.469765467490717 ], [ 4.855211461981771, 52.46975082030098 ], [ 4.855307293978707, 52.469729059913597 ], [ 4.855509231805728, 52.469687831858209 ], [ 4.85565883296868, 52.469660389458298 ], [ 4.855798140978547, 52.46962977307841 ], [ 4.855901337343705, 52.469606238715194 ], [ 4.856034757091154, 52.469576952796693 ], [ 4.856146041637827, 52.469553894838747 ], [ 4.856233030663747, 52.469534367953777 ], [ 4.856293446832585, 52.469524194918655 ], [ 4.856369423143739, 52.46950014283042 ], [ 4.856437248712807, 52.469483253239751 ], [ 4.856523453156388, 52.469467767027517 ], [ 4.856577273788834, 52.469455335420619 ], [ 4.856648779726322, 52.469437105057388 ], [ 4.856771149173603, 52.469410033735144 ], [ 4.856848529051772, 52.46939407641262 ], [ 4.856955361318374, 52.469377738446362 ], [ 4.8570924411366, 52.469351154983009 ], [ 4.857235420851816, 52.469320993721489 ], [ 4.857247181481893, 52.469323275191684 ], [ 4.857259760461727, 52.469312528372264 ], [ 4.857377668534243, 52.46929172777223 ], [ 4.857502210780015, 52.46926870980171 ], [ 4.857577394974104, 52.46925049530978 ], [ 4.857682042099724, 52.469231010276403 ], [ 4.857829450570642, 52.469200859088168 ], [ 4.857897275125489, 52.469183968659706 ], [ 4.857973906249366, 52.469170254149446 ], [ 4.858059400641724, 52.469152516766933 ], [ 4.858158868433274, 52.46913661220978 ], [ 4.858239206814328, 52.469119301072865 ], [ 4.858402083754044, 52.469086503932054 ], [ 4.858570188604937, 52.469043537993279 ], [ 4.858922064282076, 52.46897659398185 ], [ 4.859191020023763, 52.468948411535081 ], [ 4.859680314146894, 52.468842127412017 ], [ 4.859979360932729, 52.468783303670669 ], [ 4.860277292906471, 52.468729048884967 ], [ 4.860481209925598, 52.468691380243413 ], [ 4.860616136294734, 52.468667317638307 ], [ 4.860672556952862, 52.468656342717374 ], [ 4.860730817314947, 52.468649060831794 ], [ 4.860824373696825, 52.468635069108757 ], [ 4.860891411702341, 52.468622271801884 ], [ 4.860960413760929, 52.468606427406819 ], [ 4.861023535007138, 52.468590098512955 ], [ 4.861134605045207, 52.468567322532834 ], [ 4.861242679851228, 52.468547669818307 ], [ 4.861364506743236, 52.468523701050991 ], [ 4.861440280606291, 52.468507634753692 ], [ 4.861496493161808, 52.468500514176753 ], [ 4.861637729449795, 52.468469207458213 ], [ 4.861717895853306, 52.468463675881928 ], [ 4.861800165839398, 52.468455735921339 ], [ 4.861914026731125, 52.468450686033556 ], [ 4.862026550504361, 52.468446699632864 ], [ 4.862125223771159, 52.46844416170628 ], [ 4.86221906295971, 52.468448423845174 ], [ 4.862313823791334, 52.468459349761595 ], [ 4.862407594998928, 52.468468105223735 ], [ 4.862479391735853, 52.468479603444415 ], [ 4.862586696313499, 52.468497523032006 ], [ 4.862701025953833, 52.468518718098494 ], [ 4.862842376536427, 52.468543492743791 ], [ 4.862939495087678, 52.468562876877733 ], [ 4.863029478445085, 52.468578355760464 ], [ 4.863124855589364, 52.468596923165357 ], [ 4.863179346898769, 52.46861334155534 ], [ 4.863222242876537, 52.46862718318522 ], [ 4.863276318964333, 52.468651328985217 ], [ 4.863366772652661, 52.468700432098125 ], [ 4.863450982860815, 52.46874489695481 ], [ 4.863553716087533, 52.468799734285398 ], [ 4.863665978809833, 52.468847702174486 ], [ 4.863798830973787, 52.468915488495277 ], [ 4.863867291467261, 52.468950338763165 ], [ 4.863964284657968, 52.469005312176648 ], [ 4.864039355413248, 52.469051165302126 ], [ 4.864120639660247, 52.46909427762305 ], [ 4.864207427170944, 52.469133729264868 ], [ 4.864278230092074, 52.46916966812767 ], [ 4.86436804344612, 52.469213366126588 ], [ 4.864448965238119, 52.469252333363087 ], [ 4.864513928918591, 52.469285541091629 ], [ 4.864565514285322, 52.469317593343462 ], [ 4.864680389959727, 52.469377534195694 ], [ 4.864776996596673, 52.469437987631508 ], [ 4.864858074760904, 52.469484963174573 ], [ 4.864963962208407, 52.469544666430345 ], [ 4.865078797773962, 52.469606853599181 ], [ 4.865101516704822, 52.469618376792347 ], [ 4.865206831229813, 52.469671812987684 ], [ 4.865284625785885, 52.4697127790892 ], [ 4.865302878844003, 52.469722386216731 ], [ 4.865402689461782, 52.469775851938124 ], [ 4.865502262060919, 52.469825811385434 ], [ 4.865588300544323, 52.469866606838011 ], [ 4.865669043656964, 52.469907190200772 ], [ 4.865726692530494, 52.469938109211526 ], [ 4.86577383433859, 52.469971471544248 ], [ 4.865817965079729, 52.470000596474584 ], [ 4.865836727365551, 52.470014465852337 ], [ 4.86585707544713, 52.470021152165224 ], [ 4.865877199960053, 52.470024332350434 ], [ 4.865897071467432, 52.470024006278756 ], [ 4.866013629371825, 52.470026423959567 ], [ 4.866078336453493, 52.470039138095572 ], [ 4.866110031795395, 52.470054520243536 ], [ 4.866209864666486, 52.470088752035274 ], [ 4.866279411594093, 52.470111643245318 ], [ 4.866305164162021, 52.470111801303254 ], [ 4.866318247029771, 52.47010433619652 ], [ 4.866335553196682, 52.470099406149707 ], [ 4.866374980082568, 52.470109357759469 ], [ 4.866426578082295, 52.47013178358754 ], [ 4.866467734969175, 52.470144798527492 ], [ 4.86638009600634, 52.470328532429669 ], [ 4.866361691186458, 52.470374261093141 ], [ 4.867226324107687, 52.470577039524095 ], [ 4.867403116490213, 52.470622338839952 ], [ 4.867583282145835, 52.470668659275582 ], [ 4.867761484567811, 52.470718017612363 ], [ 4.867918878222301, 52.470761047211532 ], [ 4.868066892948486, 52.470801950434925 ], [ 4.868204217941777, 52.470839553201209 ], [ 4.868369934279886, 52.470887031502258 ], [ 4.86859792439304, 52.470952873828807 ], [ 4.868762709011937, 52.471003322377719 ], [ 4.868961475347994, 52.471065117672907 ], [ 4.869138095621466, 52.471121657042652 ], [ 4.869336024333816, 52.471179664292677 ], [ 4.869520728855074, 52.471237155119141 ], [ 4.869634449663985, 52.471277304499765 ], [ 4.869708165849049, 52.471297623466477 ], [ 4.870222090770032, 52.471453740568982 ], [ 4.870468036055862, 52.471531395266837 ], [ 4.871461889684411, 52.471840992191552 ], [ 4.871803241210325, 52.471944853192007 ], [ 4.872334544834863, 52.472089829140899 ], [ 4.873849000348281, 52.472308032852141 ], [ 4.874696365511044, 52.472422091651261 ], [ 4.875593337755792, 52.472568848314808 ], [ 4.876168299977542, 52.472683177094318 ], [ 4.876488294724888, 52.472758082532138 ], [ 4.876722862918219, 52.472834785416637 ], [ 4.877310337863754, 52.473056662323721 ], [ 4.878008823495044, 52.473346050940897 ], [ 4.878611191733421, 52.473557667599948 ], [ 4.879132436520875, 52.473723465769417 ], [ 4.879603764558927, 52.473880024518856 ], [ 4.880176249665721, 52.474069009477596 ], [ 4.880712033919171, 52.474250159572634 ], [ 4.881318408104328, 52.474439301670955 ], [ 4.881918200408565, 52.474625275957514 ], [ 4.882250996178794, 52.474734822237522 ], [ 4.882437860642728, 52.47480183775712 ], [ 4.882581939158493, 52.474874027502729 ], [ 4.882819541809643, 52.475000162504493 ], [ 4.883254380060852, 52.475243236067335 ], [ 4.883614757381239, 52.47543887029525 ], [ 4.884153116978784, 52.475739190137382 ], [ 4.8843726910293, 52.475863376101508 ], [ 4.885663377453571, 52.476587303310914 ], [ 4.885682123221144, 52.476598230513083 ], [ 4.886321266121681, 52.47697102837683 ], [ 4.886343103472067, 52.476994928526302 ], [ 4.886394359432834, 52.477023159053751 ], [ 4.886418007012456, 52.47703018827869 ], [ 4.88645614295958, 52.477048495089171 ], [ 4.886812965799511, 52.477229095276414 ], [ 4.887443058788005, 52.477444432499176 ], [ 4.887989646085056, 52.477605822353524 ], [ 4.888287442070977, 52.477786268451467 ], [ 4.888712144328378, 52.478071780986774 ], [ 4.888952986828108, 52.478236114047419 ], [ 4.889810041739744, 52.478624987940947 ], [ 4.889972201543894, 52.478725033778922 ], [ 4.890046104060478, 52.478792237609809 ], [ 4.890160122069962, 52.478845984445364 ], [ 4.890305079725928, 52.478895933251671 ], [ 4.890532451246799, 52.478959187005053 ], [ 4.890839778386428, 52.478972858328994 ], [ 4.891239138720569, 52.478975571496512 ], [ 4.891853075516789, 52.47899345182654 ], [ 4.892303626025548, 52.478978229406934 ], [ 4.892421076233444, 52.478961005039359 ], [ 4.892635396099814, 52.478897791003178 ], [ 4.893098576384666, 52.478788905483675 ], [ 4.893450556392533, 52.478726676798026 ], [ 4.893743627203521, 52.47866710496082 ], [ 4.893976333104429, 52.47860480083736 ], [ 4.894185499388637, 52.478532143666371 ], [ 4.89461926750028, 52.478400328650288 ], [ 4.894949927328, 52.478297203691604 ], [ 4.895155397373188, 52.478241614725597 ], [ 4.895391725824862, 52.478223784060233 ], [ 4.895630964430072, 52.478227508041442 ], [ 4.895970274367055, 52.478262293446932 ], [ 4.896310341577371, 52.478291230146688 ], [ 4.896642308487845, 52.478320617692304 ], [ 4.897022111861922, 52.478363503525465 ], [ 4.897416618811685, 52.478418528066882 ], [ 4.897844981403919, 52.478474913281602 ], [ 4.898388181323702, 52.47853450247883 ], [ 4.898812891854956, 52.478583247732892 ], [ 4.899248601324158, 52.47865311241123 ], [ 4.899785922650094, 52.478710891480233 ], [ 4.900161290102511, 52.47877487862791 ], [ 4.900484401021346, 52.478816379122009 ], [ 4.900708181550076, 52.478835362094173 ], [ 4.900902493482331, 52.4788556797998 ], [ 4.901068075950736, 52.478902482446969 ], [ 4.901461063637871, 52.479009596810421 ], [ 4.901803864275252, 52.479114868761421 ], [ 4.902174720245266, 52.479214978780583 ], [ 4.902451003264024, 52.479273430547551 ], [ 4.902926674208448, 52.479343355102394 ], [ 4.903278812726137, 52.479398915072778 ], [ 4.904318418933123, 52.479549828082057 ], [ 4.904858184072545, 52.479615916477094 ], [ 4.905411890274271, 52.479688790675098 ], [ 4.905921601168693, 52.479739940736998 ], [ 4.906138537425681, 52.479767630500447 ], [ 4.906469642121102, 52.479826474955985 ], [ 4.906347241107361, 52.479591333187756 ] ] ] ] } }
]
}
