{
"type": "FeatureCollection",
"name": "Pekela",
"crs": { "type": "name", "properties": { "name": "urn:ogc:def:crs:EPSG::28992" } },
"features": [
{ "type": "Feature", "properties": { "buurtcode": "BU07650000", "buurtnaam": "Oude Pekela", "pc6_codes": "9663PG, 9665AA, 9665AB, 9665AC, 9665AD, 9665AE, 9665AG, 9665AH, 9665AJ, 9665AK, 9665AL, 9665AM, 9665AN, 9665AP, 9665AR, 9665AS, 9665AT, 9665AV, 9665AW, 9665AX, 9665AZ, 9665BA, 9665BB, 9665BC, 9665BD, 9665BE, 9665BG, 9665BH, 9665BJ, 9665BK, 9665BL, 9665BM, 9665BN, 9665BP, 9665BS, 9665BT, 9665BV, 9665BX, 9665BZ, 9665CA, 9665CB, 9665CC, 9665CD, 9665CE, 9665CG, 9665CH, 9665CJ, 9665CK, 9665CL, 9665CM, 9665CN, 9665CP, 9665CR, 9665CS, 9665CT, 9665CV, 9665CW, 9665CX, 9665CZ, 9665DA, 9665EA, 9665EB, 9665EC, 9665ED, 9665EE, 9665EG, 9665EH, 9665EJ, 9665EK, 9665EL, 9665EM, 9665EN, 9665EP, 9665ER, 9665ES, 9665ET, 9665EV, 9665EW, 9665EX, 9665EZ, 9665GA, 9665GB, 9665GC, 9665GD, 9665GE, 9665GG, 9665GH, 9665GJ, 9665GK, 9665GL, 9665GM, 9665GN, 9665GP, 9665GR, 9665GS, 9665GT, 9665GV, 9665GW, 9665GX, 9665HA, 9665HB, 9665HC, 9665HE, 9665HG, 9665HH, 9665HJ, 9665HK, 9665HL, 9665HM, 9665HN, 9665HP, 9665HR, 9665HS, 9665HT, 9665HV, 9665HW, 9665HX, 9665HZ, 9665JA, 9665JB, 9665JC, 9665JD, 9665JL, 9665JM, 9665JN, 9665JR, 9665JS, 9665JT, 9665JV, 9665JW, 9665JX, 9665JZ, 9665KA, 9665KB, 9665KC, 9665KD, 9665KE, 9665KG, 9665KH, 9665KJ, 9665KK, 9665KL, 9665KM, 9665KN, 9665KP, 9665KR, 9665KS, 9665KT, 9665KV, 9665KW, 9665KX, 9665LA, 9665LE, 9665LG, 9665LH, 9665LJ, 9665LK, 9665LM, 9665LP, 9665LR, 9665LS, 9665LT, 9665LV, 9665LW, 9665LX, 9665LZ, 9665MA, 9665MB, 9665MC, 9665MD, 9665ME, 9665MG, 9665MH, 9665MJ, 9665MK, 9665ML, 9665MN, 9665MP, 9665MR, 9665MS, 9665MT, 9665MV, 9665MX, 9665MZ, 9665NA, 9665NB, 9665NC, 9665ND, 9665NE, 9665NG, 9665NH, 9665NJ, 9665NK, 9665NL, 9665NM, 9665NN, 9665NP, 9665NR, 9665NS, 9665NT, 9665NV, 9665NX, 9665NZ, 9665PA, 9665PB, 9665PC, 9665PD, 9665PE, 9665PG, 9665PH, 9665PJ, 9665PK, 9665PL, 9665PM, 9665PN, 9665PR, 9665PT, 9665PV, 9665PW, 9665PX, 9665RA, 9665RB, 9665RC, 9665RD, 9665RE, 9665RG, 9665RH, 9665RJ, 9665RK, 9665RL, 9665RM, 9665RN, 9665RP, 9665RR, 9665RS, 9665RT, 9665RV, 9665RW, 9665RX, 9665SB, 9665SC, 9665SE, 9665SH, 9665SJ, 9665SK, 9665VA", "wijkcode": "WK076500", "gemeentecode": "GM0765", "gemeentenaam": "Pekela", "oppervlakteLandInHa": 963, "AantalInwoners_5": 7690, "Mannen_6": 3845, "Vrouwen_7": 3845, "HuishoudensTotaal_29": 3625, "GemiddeldeHuishoudensgrootte_33": 2.1, "Woningvoorraad_35": 3647, "NieuwbouwWoningen_36": 7, "NietWoningvoorraad_37": 317, "NieuwbouwNietWoningen_38": 66, "GemiddeldeWOZWaardeVanWoningen_39": 189, "PercentageEengezinswoning_40": 87, "PercentageTussenwoningEengezins_41": 22, "PercentageHoekwoningEengezins_42": 17, "PercentageTweeOnderEenKapWoningEe_43": 20, "PercentageVrijstaandeWoningEengezins_44": 28, "PercentageMeergezinswoning_45": 13, "Koopwoningen_47": 60, "HuurwoningenTotaal_48": 40, "InBezitWoningcorporatie_49": 27, "InBezitOverigeVerhuurders_50": 14, "BouwjaarMeerDanTienJaarGeleden_51": 98, "BouwjaarAfgelopenTienJaar_52": 2, "GemiddeldeElektriciteitslevering_53": 2640, "GemiddeldeElektriciteitsteruglevering_54": 1060, "GemiddeldAardgasverbruik_55": 1060, "AardgasvrijeWoningen_57": 2, "Aardgaswoningen_58": 93, "WoningenMetZonnestroom_59": 49, "WoningenHoofdzElektrVerwarmd_60": 7, "k_20PersonenMetHoogsteInkomen_80": 8.5, "k_20HuishoudensMetHoogsteInkomen_85": 9.5, "MediaanVermogenVanParticuliereHuish_86": 61.1, "PersonenautoSTotaal_104": 4340, "PersonenautoSBrandstofBenzine_105": 3605, "PersonenautoSOverigeBrandstof_106": 740, "PersonenautoSPerHuishouden_107": 1.2, "Omgevingsadressendichtheid_121": 661, "AantalInstallatiesBijWoningen_5": 1269, "OpgesteldVermogenVanZonnepanelen_6": 4753, "installaties_per_woning": 0.34795722511653415, "vermogen_per_woning": 1.3032629558541267, "installaties_per_100_woningen": 34.795722511653416, "vermogen_per_huishouden": 1.3111724137931033, "batterijdruk_score": 519.4, "koop_zon_score": 0.294, "eengezins_zon_score": 0.4263, "betaalkracht_zon_score": 29.939, "overige_brandstof_zon_score": 362.6, "lichte_batterij_kansscore": 0.43564853398818987 }, "geometry": { "type": "MultiPolygon", "coordinates": [ [ [ [ 264877.908999999985099, 571155.555000000051223 ], [ 264907.49900000001071, 571128.12699999997858 ], [ 264944.387999999977183, 571093.51500000001397 ], [ 264948.51, 571089.648000000044703 ], [ 264952.041000000026543, 571086.336000000010245 ], [ 264953.973999999987427, 571084.523000000044703 ], [ 264963.862000000022817, 571075.246000000042841 ], [ 264963.99900000001071, 571075.118000000016764 ], [ 264973.680999999982305, 571066.033000000054017 ], [ 264968.656000000017229, 571064.0 ], [ 264962.343999999982771, 571061.062999999965541 ], [ 264949.688000000023749, 571054.437999999965541 ], [ 264942.0, 571050.0 ], [ 264927.625, 571040.687999999965541 ], [ 264915.813000000023749, 571029.937999999965541 ], [ 264899.438000000023749, 571010.875 ], [ 264894.722, 571004.743999999947846 ], [ 264881.082, 570986.020999999949709 ], [ 264831.851000000024214, 570911.643000000040047 ], [ 264823.936999999976251, 570899.979000000050291 ], [ 264815.196999999985565, 570887.915999999968335 ], [ 264722.634000000020023, 570766.255 ], [ 264726.375500000023749, 570763.684499999973923 ], [ 264727.343999999982771, 570763.018999999971129 ], [ 264731.327999999979511, 570760.282 ], [ 264741.294999999983702, 570753.435999999986961 ], [ 264751.825000000011642, 570746.202999999979511 ], [ 264782.710000000020955, 570724.99 ], [ 264811.37, 570706.900000000023283 ], [ 264832.49, 570694.550000000046566 ], [ 264860.0, 570681.38 ], [ 264884.688000000023749, 570671.375 ], [ 264881.62400000001071, 570645.908999999985099 ], [ 264880.914999999979045, 570640.011999999987893 ], [ 264880.136999999987893, 570633.542999999946915 ], [ 264880.055999999982305, 570632.87300000002142 ], [ 264879.909999999974389, 570631.60999999998603 ], [ 264878.24, 570617.71999999997206 ], [ 264896.330000000016298, 570548.520000000018626 ], [ 264908.93, 570503.770000000018626 ], [ 264909.033, 570503.535999999963678 ], [ 264944.03000000002794, 570423.76 ], [ 264946.400000000023283, 570418.888999999966472 ], [ 264975.150000000023283, 570359.800000000046566 ], [ 264987.729999999981374, 570333.729999999981374 ], [ 264993.64000000001397, 570321.459999999962747 ], [ 264997.261, 570315.341000000014901 ], [ 264997.38, 570315.14000000001397 ], [ 264999.669999999983702, 570311.689999999944121 ], [ 265012.729999999981374, 570298.650000000023283 ], [ 265017.68, 570294.12 ], [ 265023.93, 570289.35999999998603 ], [ 265034.5, 570282.050000000046566 ], [ 265063.89000000001397, 570262.87 ], [ 265139.091000000014901, 570211.098 ], [ 265141.047000000020489, 570209.751000000047497 ], [ 265156.063000000023749, 570203.187999999965541 ], [ 265176.656000000017229, 570190.0 ], [ 265185.218999999982771, 570184.0 ], [ 265203.343999999982771, 570170.125 ], [ 265226.875, 570152.5 ], [ 265264.325000000011642, 570128.082999999984168 ], [ 265306.504000000015367, 570088.866000000038184 ], [ 265307.090000000025611, 570088.37 ], [ 265315.270000000018626, 570081.49 ], [ 265332.909999999974389, 570066.680000000051223 ], [ 265348.556999999971595, 570053.550000000046566 ], [ 265360.330000000016298, 570043.67000000004191 ], [ 265390.636, 570019.243999999947846 ], [ 265415.951, 570000.547999999951571 ], [ 265440.520000000018626, 569982.449999999953434 ], [ 265440.811999999976251, 569982.224999999976717 ], [ 265459.25, 569967.979999999981374 ], [ 265466.191, 569961.658000000054017 ], [ 265480.32, 569948.790000000037253 ], [ 265484.78000000002794, 569944.560000000055879 ], [ 265489.962999999988824, 569939.745 ], [ 265514.677000000025146, 569916.86199999996461 ], [ 265540.479, 569893.809 ], [ 265554.069000000017695, 569881.802999999956228 ], [ 265558.520000000018626, 569877.87 ], [ 265575.650000000023283, 569861.75 ], [ 265579.773999999975786, 569858.064999999944121 ], [ 265593.979, 569845.373999999952503 ], [ 265606.409999999974389, 569835.302999999956228 ], [ 265606.74800000002142, 569835.03000000002794 ], [ 265633.699000000022352, 569813.201 ], [ 265653.648999999975786, 569797.794 ], [ 265667.893999999971129, 569786.792999999946915 ], [ 265685.325000000011642, 569773.23499999998603 ], [ 265717.294, 569748.368999999947846 ], [ 265718.897999999986496, 569747.084999999962747 ], [ 265754.416000000026543, 569718.672000000020489 ], [ 265779.281000000017229, 569698.78000000002794 ], [ 265790.836000000010245, 569688.371000000042841 ], [ 265859.554, 569626.474000000045635 ], [ 265863.466000000014901, 569622.192000000039116 ], [ 265866.718, 569617.741999999969266 ], [ 265867.375, 569616.843 ], [ 265867.983, 569616.011999999987893 ], [ 265870.994, 569608.758999999961816 ], [ 265871.574000000022352, 569601.302999999956228 ], [ 265871.615, 569600.770000000018626 ], [ 265870.09499999997206, 569593.636000000056811 ], [ 265844.174999999988358, 569541.339999999967404 ], [ 265797.950000000011642, 569467.152 ], [ 265772.305999999982305, 569427.868000000016764 ], [ 265754.653999999980442, 569397.444999999948777 ], [ 265701.647, 569296.246000000042841 ], [ 265645.115999999979977, 569188.152 ], [ 265594.049999999988358, 569086.718 ], [ 265593.738000000012107, 569086.142 ], [ 265588.61099999997532, 569076.694000000017695 ], [ 265588.378000000026077, 569076.263999999966472 ], [ 265587.004499999980908, 569073.733299999963492 ], [ 265586.460000000020955, 569072.729999999981374 ], [ 265553.21999999997206, 569011.51 ], [ 265542.2844, 568987.514399999985471 ], [ 265474.0, 569094.3125 ], [ 265443.867299999983516, 569154.81629999994766 ], [ 265371.3125, 569300.5 ], [ 265336.906299999973271, 569368.1875 ], [ 264832.4999, 569155.187599999946542 ], [ 264596.406200000026729, 569036.375099999946542 ], [ 264093.593700000026729, 568772.875099999946542 ], [ 264337.093700000026729, 568241.187599999946542 ], [ 264497.906200000026729, 567903.812599999946542 ], [ 264361.093700000026729, 567842.812599999946542 ], [ 264311.093700000026729, 567814.312599999946542 ], [ 264173.093700000026729, 567722.875099999946542 ], [ 264100.3124, 567676.500099999946542 ], [ 263993.3124, 567592.125099999946542 ], [ 263864.3124, 567480.500099999946542 ], [ 263558.593700000026729, 567212.812599999946542 ], [ 263476.9999, 567120.187599999946542 ], [ 263421.3124, 567062.500099999946542 ], [ 263332.8124, 566959.125099999946542 ], [ 263106.9999, 566683.875099999946542 ], [ 262755.3124, 566264.812599999946542 ], [ 262695.093700000026729, 566184.875099999946542 ], [ 262417.406299999973271, 566726.6875 ], [ 262221.3125, 567115.875 ], [ 261979.5938, 567633.375 ], [ 261962.3767, 567622.989900000044145 ], [ 261777.9602, 567871.698500000056811 ], [ 261784.908300000010058, 567896.017 ], [ 261277.0215, 568321.543799999984913 ], [ 261283.9062, 568330.000099999946542 ], [ 261274.0938, 568337.8125 ], [ 261404.5937, 568517.375099999946542 ], [ 261630.4062, 568806.375099999946542 ], [ 261797.4062, 569043.125099999946542 ], [ 261965.4999, 569253.687599999946542 ], [ 262095.5937, 569405.187599999946542 ], [ 262201.593700000026729, 569507.375099999946542 ], [ 262378.906200000026729, 569645.000099999946542 ], [ 262590.1874, 569818.000099999946542 ], [ 262821.4999, 570001.000099999946542 ], [ 263074.093700000026729, 570162.312599999946542 ], [ 263382.093700000026729, 570363.812599999946542 ], [ 263599.8124, 570479.625099999946542 ], [ 263874.593700000026729, 570659.875099999946542 ], [ 264206.6874, 570872.312599999946542 ], [ 264360.6874, 570985.312599999946542 ], [ 264402.8124, 571021.375099999946542 ], [ 264431.406200000026729, 571061.875099999946542 ], [ 264464.1875, 571127.3125 ], [ 264467.684599999978673, 571160.1605 ], [ 264467.685999999986961, 571160.17359999998007 ], [ 264467.687199999985751, 571160.185399999958463 ], [ 264468.12300000002142, 571164.14359999995213 ], [ 264468.12689999997383, 571164.1788 ], [ 264482.009000000020023, 571164.560000000055879 ], [ 264485.115999999979977, 571164.645000000018626 ], [ 264486.576, 571164.685000000055879 ], [ 264515.581, 571165.481000000028871 ], [ 264536.781000000017229, 571166.062999999965541 ], [ 264545.172000000020489, 571166.202999999979511 ], [ 264615.034999999974389, 571167.368999999947846 ], [ 264640.033, 571167.785999999963678 ], [ 264641.656000000017229, 571167.812999999965541 ], [ 264660.01, 571167.930000000051223 ], [ 264849.340000000025611, 571171.011999999987893 ], [ 264853.224999999976717, 571171.074999999953434 ], [ 264853.428000000014435, 571171.892 ], [ 264855.487000000022817, 571176.339000000036322 ], [ 264877.908999999985099, 571155.555000000051223 ] ] ] ] } },
{ "type": "Feature", "properties": { "buurtcode": "BU07650009", "buurtnaam": "Verspreide huizen Oude Pekela", "pc6_codes": "9665BT, 9665BW, 9665DA, 9665JE, 9665JG, 9665JJ, 9665JK, 9665JP, 9665PA, 9665PB, 9665TZ", "wijkcode": "WK076500", "gemeentecode": "GM0765", "gemeentenaam": "Pekela", "oppervlakteLandInHa": 959, "AantalInwoners_5": 120, "Mannen_6": 60, "Vrouwen_7": 65, "HuishoudensTotaal_29": 45, "GemiddeldeHuishoudensgrootte_33": 2.6, "Woningvoorraad_35": 48, "NieuwbouwWoningen_36": 0, "NietWoningvoorraad_37": 7, "NieuwbouwNietWoningen_38": 0, "GemiddeldeWOZWaardeVanWoningen_39": 329, "PercentageEengezinswoning_40": 100, "PercentageTussenwoningEengezins_41": 0, "PercentageHoekwoningEengezins_42": 0, "PercentageTweeOnderEenKapWoningEe_43": 4, "PercentageVrijstaandeWoningEengezins_44": 96, "PercentageMeergezinswoning_45": 0, "Koopwoningen_47": 92, "HuurwoningenTotaal_48": 8, "InBezitWoningcorporatie_49": 0, "InBezitOverigeVerhuurders_50": 8, "BouwjaarMeerDanTienJaarGeleden_51": 100, "BouwjaarAfgelopenTienJaar_52": 0, "GemiddeldeElektriciteitslevering_53": 3490, "GemiddeldeElektriciteitsteruglevering_54": 1570, "GemiddeldAardgasverbruik_55": 1170, "AardgasvrijeWoningen_57": null, "Aardgaswoningen_58": null, "WoningenMetZonnestroom_59": null, "WoningenHoofdzElektrVerwarmd_60": null, "k_20PersonenMetHoogsteInkomen_80": null, "k_20HuishoudensMetHoogsteInkomen_85": null, "MediaanVermogenVanParticuliereHuish_86": null, "PersonenautoSTotaal_104": 75, "PersonenautoSBrandstofBenzine_105": 50, "PersonenautoSOverigeBrandstof_106": 25, "PersonenautoSPerHuishouden_107": null, "Omgevingsadressendichtheid_121": 142, "AantalInstallatiesBijWoningen_5": 12, "OpgesteldVermogenVanZonnepanelen_6": 63, "installaties_per_woning": 0.25, "vermogen_per_woning": 1.3125, "installaties_per_100_woningen": 25.0, "vermogen_per_huishouden": 1.4, "batterijdruk_score": null, "koop_zon_score": null, "eengezins_zon_score": null, "betaalkracht_zon_score": null, "overige_brandstof_zon_score": null, "lichte_batterij_kansscore": null }, "geometry": { "type": "MultiPolygon", "coordinates": [ [ [ [ 264768.825000000011642, 567474.572999999974854 ], [ 264767.50199999997858, 567471.981999999959953 ], [ 264763.537000000011176, 567464.207999999984168 ], [ 264762.357000000018161, 567461.895999999949709 ], [ 264762.033, 567461.26 ], [ 264749.729999999981374, 567437.533999999985099 ], [ 264744.455000000016298, 567448.145000000018626 ], [ 264737.816, 567461.498999999952503 ], [ 264726.292000000015832, 567484.679 ], [ 264719.520000000018626, 567466.868999999947846 ], [ 264713.669999999983702, 567450.386999999987893 ], [ 264709.37400000001071, 567438.865 ], [ 264705.941, 567427.447999999974854 ], [ 264703.684, 567414.15500000002794 ], [ 264700.666000000026543, 567394.408999999985099 ], [ 264700.446, 567389.87300000002142 ], [ 264697.827, 567336.613000000012107 ], [ 264697.065, 567335.13800000003539 ], [ 264694.771, 567330.701 ], [ 264594.242000000027474, 567134.51300000003539 ], [ 264562.995999999984633, 567073.535000000032596 ], [ 264553.093999999982771, 567054.212000000057742 ], [ 264530.321999999985565, 567009.770999999949709 ], [ 264529.01500000001397, 567007.221000000019558 ], [ 264527.479, 567004.22199999995064 ], [ 264494.18, 566939.238000000012107 ], [ 264494.166000000026543, 566939.209999999962747 ], [ 264472.489, 566897.248999999952503 ], [ 264443.571, 566841.270000000018626 ], [ 264435.632999999972526, 566825.866000000038184 ], [ 264403.315, 566763.15300000004936 ], [ 264398.686999999976251, 566754.175999999977648 ], [ 264397.913999999989755, 566752.675000000046566 ], [ 264396.365999999979977, 566749.67000000004191 ], [ 264394.99800000002142, 566747.013999999966472 ], [ 264394.833999999973457, 566746.696 ], [ 264392.729, 566742.658000000054017 ], [ 264391.162000000011176, 566739.652 ], [ 264390.86099999997532, 566739.072999999974854 ], [ 264344.935999999986961, 566650.961000000010245 ], [ 264293.761, 566551.280999999959022 ], [ 264245.603, 566455.545999999972992 ], [ 264203.24800000002142, 566376.057000000029802 ], [ 264199.195, 566368.294 ], [ 264162.053000000014435, 566297.148000000044703 ], [ 264145.287000000011176, 566264.297999999951571 ], [ 264124.695, 566223.949999999953434 ], [ 264106.81, 566189.829000000027008 ], [ 264090.538999999989755, 566158.898000000044703 ], [ 264084.503000000026077, 566147.224999999976717 ], [ 264065.577, 566110.62699999997858 ], [ 264035.891, 566052.297999999951571 ], [ 264035.581, 566051.712000000057742 ], [ 264016.599999999976717, 566015.807999999960884 ], [ 264015.147999999986496, 566012.920999999972992 ], [ 263998.423, 565979.655999999959022 ], [ 263990.689000000013039, 565964.484000000054948 ], [ 263988.966000000014901, 565961.104000000050291 ], [ 263986.011, 565967.263999999966472 ], [ 263975.783, 565988.587000000057742 ], [ 263944.283, 566054.256999999983236 ], [ 263763.865999999979977, 566430.392 ], [ 263721.918, 566347.758000000030734 ], [ 263684.63, 566274.302999999956228 ], [ 263686.75199999997858, 566269.924 ], [ 263652.196, 566203.785000000032596 ], [ 263651.066, 566206.908999999985099 ], [ 263650.802000000025146, 566206.385 ], [ 263612.718, 566130.797000000020489 ], [ 263579.86099999997532, 566065.582999999984168 ], [ 263557.869, 566022.87699999997858 ], [ 263438.643999999971129, 565791.351999999955297 ], [ 263346.37400000001071, 565612.17000000004191 ], [ 263341.368000000016764, 565602.447999999974854 ], [ 263338.716000000014901, 565597.297000000020489 ], [ 263291.787000000011176, 565506.165999999968335 ], [ 263268.544999999983702, 565461.032 ], [ 263216.028, 565358.579000000027008 ], [ 263164.986299999989569, 565259.759700000053272 ], [ 262892.406299999973271, 565807.125 ], [ 262701.6875, 566172.125 ], [ 262695.093700000026729, 566184.875099999946542 ], [ 262755.3124, 566264.812599999946542 ], [ 263106.9999, 566683.875099999946542 ], [ 263332.8124, 566959.125099999946542 ], [ 263421.3124, 567062.500099999946542 ], [ 263476.9999, 567120.187599999946542 ], [ 263558.593700000026729, 567212.812599999946542 ], [ 263864.3124, 567480.500099999946542 ], [ 263993.3124, 567592.125099999946542 ], [ 264100.3124, 567676.500099999946542 ], [ 264173.093700000026729, 567722.875099999946542 ], [ 264311.093700000026729, 567814.312599999946542 ], [ 264361.093700000026729, 567842.812599999946542 ], [ 264497.906200000026729, 567903.812599999946542 ], [ 264337.093700000026729, 568241.187599999946542 ], [ 264093.593700000026729, 568772.875099999946542 ], [ 264596.406200000026729, 569036.375099999946542 ], [ 264832.4999, 569155.187599999946542 ], [ 265336.906299999973271, 569368.1875 ], [ 265371.3125, 569300.5 ], [ 265443.867299999983516, 569154.81629999994766 ], [ 265474.0, 569094.3125 ], [ 265542.2844, 568987.514399999985471 ], [ 265540.659999999974389, 568983.949999999953434 ], [ 265509.909999999974389, 568916.540000000037253 ], [ 265509.06, 568914.680000000051223 ], [ 265506.868000000016764, 568910.412999999942258 ], [ 265506.093, 568908.905999999959022 ], [ 265505.278, 568907.319999999948777 ], [ 265459.960000000020955, 568819.12 ], [ 265407.59499999997206, 568719.819999999948777 ], [ 265347.425999999977648, 568600.51 ], [ 265315.221000000019558, 568536.650000000023283 ], [ 265313.085000000020955, 568532.444000000017695 ], [ 265247.795999999972992, 568405.807999999960884 ], [ 265231.762999999977183, 568374.709000000031665 ], [ 265197.412000000011176, 568307.365 ], [ 265191.702999999979511, 568296.172000000020489 ], [ 265155.787000000011176, 568225.753000000026077 ], [ 265124.206, 568163.422000000020489 ], [ 265121.304, 568157.694000000017695 ], [ 265115.270000000018626, 568145.738999999943189 ], [ 265099.941999999980908, 568117.245 ], [ 265093.088999999978114, 568104.081 ], [ 265043.629000000015367, 568009.077999999979511 ], [ 265038.891, 568000.0 ], [ 265019.386999999987893, 567962.631999999983236 ], [ 265000.919, 567926.439000000013039 ], [ 264982.757999999972526, 567890.256000000052154 ], [ 264896.0, 567721.895999999949709 ], [ 264816.433000000019092, 567567.488999999943189 ], [ 264798.142999999981839, 567531.995 ], [ 264768.825000000011642, 567474.572999999974854 ] ] ], [ [ [ 261725.49, 571350.32999999995809 ], [ 261777.071, 571412.263999999966472 ], [ 261802.670000000012806, 571443.0 ], [ 261933.480000000010477, 571333.13 ], [ 261907.753999999986263, 571302.501000000047497 ], [ 261889.72, 571281.03000000002794 ], [ 262015.13, 571176.430000000051223 ], [ 262070.221, 571130.577999999979511 ], [ 262104.44, 571102.099999999976717 ], [ 262134.018000000010943, 571077.393000000040047 ], [ 262135.992, 571082.145999999949709 ], [ 262138.075000000011642, 571086.858 ], [ 262149.461000000010245, 571113.417999999946915 ], [ 262149.934, 571114.522 ], [ 262155.385699999984354, 571114.658700000029057 ], [ 262161.824000000022352, 571114.819999999948777 ], [ 262162.194000000017695, 571114.829000000027008 ], [ 262186.022999999986496, 571115.425999999977648 ], [ 262366.153, 571119.939000000013039 ], [ 262435.936999999976251, 571121.687999999965541 ], [ 262437.881, 571121.729000000050291 ], [ 262708.728, 571127.371000000042841 ], [ 262890.039999999979045, 571131.148999999975786 ], [ 262915.875, 571131.687999999965541 ], [ 263000.0, 571133.375 ], [ 263047.936999999976251, 571134.312999999965541 ], [ 263201.875, 571136.75 ], [ 263372.087999999988824, 571143.390999999945052 ], [ 263388.509000000020023, 571144.032 ], [ 263389.23599999997532, 571144.060000000055879 ], [ 263401.367000000027474, 571144.533999999985099 ], [ 263405.204000000027008, 571144.682999999960884 ], [ 263408.984, 571144.82999999995809 ], [ 263413.369, 571144.868999999947846 ], [ 263425.402, 571145.136999999987893 ], [ 263489.093999999982771, 571146.562999999965541 ], [ 263545.75, 571147.812999999965541 ], [ 263582.718999999982771, 571148.812999999965541 ], [ 263612.593999999982771, 571149.25 ], [ 263703.906000000017229, 571150.625 ], [ 263739.152, 571151.287000000011176 ], [ 263747.218999999982771, 571151.437999999965541 ], [ 263770.375, 571151.687999999965541 ], [ 263824.281000000017229, 571152.687999999965541 ], [ 263893.061999999976251, 571153.875 ], [ 263950.686999999976251, 571154.75 ], [ 263973.936999999976251, 571155.062999999965541 ], [ 263988.0, 571155.375 ], [ 263992.686999999976251, 571155.375 ], [ 263996.717, 571155.444999999948777 ], [ 264035.311999999976251, 571156.125 ], [ 264076.151000000012573, 571156.756000000052154 ], [ 264118.978, 571157.557999999960884 ], [ 264159.069000000017695, 571158.309 ], [ 264196.580000000016298, 571159.011000000056811 ], [ 264215.556999999971595, 571159.366999999969266 ], [ 264238.868000000016764, 571159.804 ], [ 264267.541000000026543, 571160.341999999945983 ], [ 264297.159999999974389, 571160.898000000044703 ], [ 264298.227000000013504, 571160.917999999946915 ], [ 264324.444000000017695, 571161.408999999985099 ], [ 264330.420999999972992, 571161.520999999949709 ], [ 264401.977000000013504, 571162.86199999996461 ], [ 264459.343999999982771, 571163.937999999965541 ], [ 264460.217, 571163.962000000057742 ], [ 264464.385, 571164.076 ], [ 264466.75199999997858, 571164.140999999945052 ], [ 264468.12689999997383, 571164.1788 ], [ 264468.12300000002142, 571164.14359999995213 ], [ 264467.687199999985751, 571160.185399999958463 ], [ 264467.685999999986961, 571160.17359999998007 ], [ 264467.684599999978673, 571160.1605 ], [ 264464.1875, 571127.3125 ], [ 264431.406200000026729, 571061.875099999946542 ], [ 264402.8124, 571021.375099999946542 ], [ 264360.6874, 570985.312599999946542 ], [ 264206.6874, 570872.312599999946542 ], [ 263874.593700000026729, 570659.875099999946542 ], [ 263599.8124, 570479.625099999946542 ], [ 263382.093700000026729, 570363.812599999946542 ], [ 263074.093700000026729, 570162.312599999946542 ], [ 262821.4999, 570001.000099999946542 ], [ 262590.1874, 569818.000099999946542 ], [ 262378.906200000026729, 569645.000099999946542 ], [ 262201.593700000026729, 569507.375099999946542 ], [ 262095.5937, 569405.187599999946542 ], [ 261965.4999, 569253.687599999946542 ], [ 261797.4062, 569043.125099999946542 ], [ 261630.4062, 568806.375099999946542 ], [ 261404.5937, 568517.375099999946542 ], [ 261274.0938, 568337.8125 ], [ 261283.9062, 568330.000099999946542 ], [ 261277.0215, 568321.543799999984913 ], [ 261070.4999, 568067.875099999946542 ], [ 260744.203100000013364, 568342.8125 ], [ 260311.513, 568717.768700000015087 ], [ 260337.780999999988126, 568748.375 ], [ 260347.297, 568758.875 ], [ 260357.984, 568771.375 ], [ 260381.703, 568799.625 ], [ 260384.01500000001397, 568802.687999999965541 ], [ 260386.75, 568807.0 ], [ 260388.922, 568810.937999999965541 ], [ 260390.859, 568815.75 ], [ 260392.312, 568820.312999999965541 ], [ 260393.5, 568826.0 ], [ 260394.062, 568833.687999999965541 ], [ 260398.297, 568964.062999999965541 ], [ 260399.40470000001369, 568997.263799999956973 ], [ 260400.672, 569035.25 ], [ 260400.780999999988126, 569038.187999999965541 ], [ 260404.123, 569138.082999999984168 ], [ 260405.844000000011874, 569189.5 ], [ 260408.036, 569250.287000000011176 ], [ 260414.117, 569418.885 ], [ 260419.36799999998766, 569564.457000000053085 ], [ 260419.5, 569568.125 ], [ 260423.780999999988126, 569682.444000000017695 ], [ 260425.26500000001397, 569722.062999999965541 ], [ 260427.625, 569801.312999999965541 ], [ 260430.212999999988824, 569869.136000000056811 ], [ 260432.047, 569917.187999999965541 ], [ 260436.386, 570029.106000000028871 ], [ 260436.689000000013039, 570036.915999999968335 ], [ 260437.719000000011874, 570063.5 ], [ 260440.438, 570148.697000000043772 ], [ 260440.771, 570159.118999999947846 ], [ 260441.799, 570184.069999999948777 ], [ 260442.159000000014203, 570192.792999999946915 ], [ 260446.321, 570287.126000000047497 ], [ 260446.309, 570293.209000000031665 ], [ 260446.26500000001397, 570314.937999999965541 ], [ 260443.733, 570330.591999999945983 ], [ 260439.875, 570354.437999999965541 ], [ 260437.538, 570369.312999999965541 ], [ 260436.453, 570376.089000000036322 ], [ 260436.047, 570378.478 ], [ 260434.562, 570387.212999999988824 ], [ 260432.453, 570399.625 ], [ 260481.734, 570418.562999999965541 ], [ 260554.26500000001397, 570447.25 ], [ 260581.155999999988126, 570458.5 ], [ 260583.22, 570459.386000000056811 ], [ 260608.51500000001397, 570470.25 ], [ 260639.875, 570482.875 ], [ 260668.812, 570494.937999999965541 ], [ 260699.109, 570507.562999999965541 ], [ 260722.01500000001397, 570517.312999999965541 ], [ 260736.297, 570523.625 ], [ 260748.469000000011874, 570528.937999999965541 ], [ 260798.924, 570549.055000000051223 ], [ 260807.791, 570556.559 ], [ 260811.89000000001397, 570561.312000000034459 ], [ 260841.79, 570594.098 ], [ 260875.810999999986961, 570631.40500000002794 ], [ 260893.844000000011874, 570651.179 ], [ 260900.957, 570658.979000000050291 ], [ 260912.89000000001397, 570672.062999999965541 ], [ 260969.543, 570734.403999999980442 ], [ 260993.655999999988126, 570760.937999999965541 ], [ 261000.609, 570768.0 ], [ 261013.469000000011874, 570782.687999999965541 ], [ 261014.022, 570783.307000000029802 ], [ 261029.672, 570800.812999999965541 ], [ 261047.734, 570821.25 ], [ 261064.937, 570839.812999999965541 ], [ 261074.469000000011874, 570849.25 ], [ 261076.915, 570851.957999999984168 ], [ 261080.905999999988126, 570856.375 ], [ 261103.01500000001397, 570881.437999999965541 ], [ 261111.109, 570890.375 ], [ 261116.39000000001397, 570895.812999999965541 ], [ 261131.922, 570912.893999999971129 ], [ 261151.625, 570934.562999999965541 ], [ 261157.469000000011874, 570940.937999999965541 ], [ 261186.946, 570973.454000000027008 ], [ 261223.078, 571013.312999999965541 ], [ 261234.922, 571026.687999999965541 ], [ 261261.144999999989523, 571056.115 ], [ 261270.437, 571066.625 ], [ 261290.625, 571088.75 ], [ 261298.083000000013271, 571096.449000000022352 ], [ 261300.797, 571099.25 ], [ 261301.911, 571100.501000000047497 ], [ 261307.75, 571107.062999999965541 ], [ 261316.375, 571116.625 ], [ 261321.51500000001397, 571122.125 ], [ 261331.937, 571134.0 ], [ 261334.547, 571136.375 ], [ 261338.375, 571140.5 ], [ 261345.422, 571148.687999999965541 ], [ 261349.5, 571152.937999999965541 ], [ 261362.375, 571167.562999999965541 ], [ 261367.797, 571173.812999999965541 ], [ 261370.918, 571177.177999999956228 ], [ 261378.172, 571185.0 ], [ 261381.030999999988126, 571188.187999999965541 ], [ 261391.89000000001397, 571200.437999999965541 ], [ 261401.578, 571211.437999999965541 ], [ 261406.953, 571217.437999999965541 ], [ 261408.028, 571218.517 ], [ 261410.687, 571221.187999999965541 ], [ 261424.461000000010245, 571236.506999999983236 ], [ 261433.469000000011874, 571246.5 ], [ 261441.812, 571255.812999999965541 ], [ 261452.89000000001397, 571266.812999999965541 ], [ 261467.39000000001397, 571283.5 ], [ 261482.5, 571299.937999999965541 ], [ 261503.625, 571323.687999999965541 ], [ 261516.937, 571338.25 ], [ 261530.875, 571352.0 ], [ 261533.672, 571355.625 ], [ 261547.969000000011874, 571372.0 ], [ 261564.155999999988126, 571390.5 ], [ 261596.984, 571425.937999999965541 ], [ 261599.547, 571428.25 ], [ 261599.643000000010943, 571428.36199999996461 ], [ 261615.981999999989057, 571446.991000000038184 ], [ 261620.10999999998603, 571441.579000000027008 ], [ 261622.665, 571438.172999999951571 ], [ 261633.733, 571427.956 ], [ 261712.915, 571361.545999999972992 ], [ 261725.49, 571350.32999999995809 ] ] ] ] } },
{ "type": "Feature", "properties": { "buurtcode": "BU07650100", "buurtnaam": "Nieuwe Pekela", "pc6_codes": "9663AJ, 9663AK, 9663AM, 9663AN, 9663AW, 9663AX, 9663BA, 9663BB, 9663BC, 9663BD, 9663BE, 9663BG, 9663BP, 9663BR, 9663BS, 9663BT, 9663BV, 9663BW, 9663BX, 9663BZ, 9663CA, 9663CB, 9663CC, 9663CE, 9663CG, 9663CH, 9663CJ, 9663CK, 9663CL, 9663CM, 9663CN, 9663CP, 9663CR, 9663CS, 9663CT, 9663CV, 9663CW, 9663CZ, 9663DA, 9663DB, 9663DC, 9663DD, 9663EA, 9663EB, 9663EC, 9663ED, 9663EE, 9663EG, 9663EH, 9663EJ, 9663EK, 9663EL, 9663EM, 9663EN, 9663EP, 9663ER, 9663ES, 9663ET, 9663EV, 9663EW, 9663EZ, 9663GA, 9663GB, 9663GC, 9663GD, 9663GE, 9663GG, 9663HA, 9663HB, 9663HC, 9663HD, 9663HE, 9663HG, 9663HH, 9663HJ, 9663JA, 9663JB, 9663JC, 9663JD, 9663JE, 9663JH, 9663JK, 9663JL, 9663JM, 9663JN, 9663JR, 9663JS, 9663KA, 9663PA, 9663PB, 9663PC, 9663PD, 9663PE, 9663PH, 9663PJ, 9663PK, 9663PL, 9663PM, 9663PN, 9663PP, 9663PR, 9663PS, 9663PT, 9663PV, 9663PW, 9663PX, 9663PZ, 9663RA, 9663RB, 9663RC, 9663RD, 9663RE, 9663RH, 9663RJ, 9663RK, 9663RL, 9663RM, 9663RN, 9663RP, 9663RR, 9663RS, 9663RT, 9663RV, 9663RW, 9663RX, 9663RZ, 9663SB, 9663SC, 9663SE, 9663SG, 9663SH, 9663SJ, 9663SK, 9663SL, 9663SM, 9663SN, 9663SP, 9663SR, 9663SV, 9663SW", "wijkcode": "WK076501", "gemeentecode": "GM0765", "gemeentenaam": "Pekela", "oppervlakteLandInHa": 1112, "AantalInwoners_5": 4010, "Mannen_6": 2010, "Vrouwen_7": 2000, "HuishoudensTotaal_29": 1810, "GemiddeldeHuishoudensgrootte_33": 2.2, "Woningvoorraad_35": 1826, "NieuwbouwWoningen_36": 1, "NietWoningvoorraad_37": 268, "NieuwbouwNietWoningen_38": 0, "GemiddeldeWOZWaardeVanWoningen_39": 204, "PercentageEengezinswoning_40": 88, "PercentageTussenwoningEengezins_41": 17, "PercentageHoekwoningEengezins_42": 12, "PercentageTweeOnderEenKapWoningEe_43": 17, "PercentageVrijstaandeWoningEengezins_44": 43, "PercentageMeergezinswoning_45": 12, "Koopwoningen_47": 69, "HuurwoningenTotaal_48": 31, "InBezitWoningcorporatie_49": 24, "InBezitOverigeVerhuurders_50": 7, "BouwjaarMeerDanTienJaarGeleden_51": 98, "BouwjaarAfgelopenTienJaar_52": 2, "GemiddeldeElektriciteitslevering_53": 2800, "GemiddeldeElektriciteitsteruglevering_54": 1190, "GemiddeldAardgasverbruik_55": 1090, "AardgasvrijeWoningen_57": 3, "Aardgaswoningen_58": 89, "WoningenMetZonnestroom_59": 46, "WoningenHoofdzElektrVerwarmd_60": 9, "k_20PersonenMetHoogsteInkomen_80": 10.1, "k_20HuishoudensMetHoogsteInkomen_85": 10.6, "MediaanVermogenVanParticuliereHuish_86": 94.1, "PersonenautoSTotaal_104": 2330, "PersonenautoSBrandstofBenzine_105": 1895, "PersonenautoSOverigeBrandstof_106": 435, "PersonenautoSPerHuishouden_107": 1.3, "Omgevingsadressendichtheid_121": 379, "AantalInstallatiesBijWoningen_5": 492, "OpgesteldVermogenVanZonnepanelen_6": 2220, "installaties_per_woning": 0.26944140197152244, "vermogen_per_woning": 1.2157721796276013, "installaties_per_100_woningen": 26.944140197152244, "vermogen_per_huishouden": 1.2265193370165746, "batterijdruk_score": 547.4, "koop_zon_score": 0.3174, "eengezins_zon_score": 0.4048, "betaalkracht_zon_score": 43.286, "overige_brandstof_zon_score": 200.1, "lichte_batterij_kansscore": 0.44801877620492531 }, "geometry": { "type": "MultiPolygon", "coordinates": [ [ [ [ 261784.908300000010058, 567896.017 ], [ 261777.9602, 567871.698500000056811 ], [ 261962.3767, 567622.989900000044145 ], [ 261979.5938, 567633.375 ], [ 262221.3125, 567115.875 ], [ 262417.406299999973271, 566726.6875 ], [ 262695.093700000026729, 566184.875099999946542 ], [ 262395.406200000026729, 565786.812599999946542 ], [ 261984.9999, 565230.687599999946542 ], [ 261599.203, 564716.500099999946542 ], [ 261376.5937, 564436.312599999946542 ], [ 260904.703, 563922.625099999946542 ], [ 260636.703, 563428.812599999946542 ], [ 260349.4062, 562887.875099999946542 ], [ 260000.0, 563132.125 ], [ 259708.5, 563341.8125 ], [ 259242.0938, 563647.3125 ], [ 258677.9063, 564085.875 ], [ 258773.9063, 564581.125 ], [ 258824.5, 564801.687599999946542 ], [ 258910.296899999986636, 565064.8125 ], [ 259010.0, 565353.3125 ], [ 259103.5937, 565583.625099999946542 ], [ 259155.203, 565676.312599999946542 ], [ 259199.29680000001099, 565761.875099999946542 ], [ 259263.5937, 565853.875099999946542 ], [ 259360.703, 565985.375099999946542 ], [ 259467.4062, 566102.312599999946542 ], [ 259534.29680000001099, 566188.000099999946542 ], [ 259626.4062, 566296.000099999946542 ], [ 259731.203, 566403.375099999946542 ], [ 259999.9999, 566707.125099999946542 ], [ 260071.5937, 566818.625099999946542 ], [ 260239.79680000001099, 567046.812599999946542 ], [ 260255.9687, 567066.750099999946542 ], [ 260065.4063, 567228.25 ], [ 260334.2812, 567527.750099999946542 ], [ 260392.1405, 567490.312599999946542 ], [ 260517.7187, 567389.250099999946542 ], [ 261070.4999, 568067.875099999946542 ], [ 261277.0215, 568321.543799999984913 ], [ 261784.908300000010058, 567896.017 ] ] ] ] } },
{ "type": "Feature", "properties": { "buurtcode": "BU07650101", "buurtnaam": "Boven-Pekela", "pc6_codes": "9663SR, 9663ST, 9663SV, 9663TA, 9663TB, 9663TC, 9663TD, 9663TJ, 9663TK, 9663TL, 9663TM, 9663TN, 9663TP, 9663TR, 9663TS, 9663TT, 9663TV, 9663TW", "wijkcode": "WK076501", "gemeentecode": "GM0765", "gemeentenaam": "Pekela", "oppervlakteLandInHa": 758, "AantalInwoners_5": 585, "Mannen_6": 310, "Vrouwen_7": 270, "HuishoudensTotaal_29": 235, "GemiddeldeHuishoudensgrootte_33": 2.5, "Woningvoorraad_35": 237, "NieuwbouwWoningen_36": 1, "NietWoningvoorraad_37": 14, "NieuwbouwNietWoningen_38": 0, "GemiddeldeWOZWaardeVanWoningen_39": 281, "PercentageEengezinswoning_40": 100, "PercentageTussenwoningEengezins_41": 0, "PercentageHoekwoningEengezins_42": 1, "PercentageTweeOnderEenKapWoningEe_43": 3, "PercentageVrijstaandeWoningEengezins_44": 96, "PercentageMeergezinswoning_45": 0, "Koopwoningen_47": 92, "HuurwoningenTotaal_48": 8, "InBezitWoningcorporatie_49": 0, "InBezitOverigeVerhuurders_50": 8, "BouwjaarMeerDanTienJaarGeleden_51": 96, "BouwjaarAfgelopenTienJaar_52": 4, "GemiddeldeElektriciteitslevering_53": 4040, "GemiddeldeElektriciteitsteruglevering_54": 1960, "GemiddeldAardgasverbruik_55": 1100, "AardgasvrijeWoningen_57": 6, "Aardgaswoningen_58": 74, "WoningenMetZonnestroom_59": 56, "WoningenHoofdzElektrVerwarmd_60": 22, "k_20PersonenMetHoogsteInkomen_80": 17.5, "k_20HuishoudensMetHoogsteInkomen_85": 21.2, "MediaanVermogenVanParticuliereHuish_86": 165.8, "PersonenautoSTotaal_104": 370, "PersonenautoSBrandstofBenzine_105": 275, "PersonenautoSOverigeBrandstof_106": 95, "PersonenautoSPerHuishouden_107": 1.6, "Omgevingsadressendichtheid_121": 43, "AantalInstallatiesBijWoningen_5": 88, "OpgesteldVermogenVanZonnepanelen_6": 445, "installaties_per_woning": 0.37130801687763715, "vermogen_per_woning": 1.8776371308016877, "installaties_per_100_woningen": 37.130801687763714, "vermogen_per_huishouden": 1.8936170212765957, "batterijdruk_score": 1097.6, "koop_zon_score": 0.5152, "eengezins_zon_score": 0.56, "betaalkracht_zon_score": 92.848, "overige_brandstof_zon_score": 53.2, "lichte_batterij_kansscore": 0.55424188065034996 }, "geometry": { "type": "MultiPolygon", "coordinates": [ [ [ [ 259242.0938, 563647.3125 ], [ 259708.5, 563341.8125 ], [ 260000.0, 563132.125 ], [ 260349.4062, 562887.875099999946542 ], [ 260115.9999, 562457.812599999946542 ], [ 259999.9999, 562248.687599999946542 ], [ 259468.4062, 561215.125099999946542 ], [ 259908.4999, 560323.312599999946542 ], [ 259999.9999, 560163.312599999946542 ], [ 260173.9999, 559804.125099999946542 ], [ 260221.8835, 559709.2789000000339 ], [ 260221.9058, 559709.234799999976531 ], [ 260190.288999999989755, 559721.555999999982305 ], [ 260167.208000000013271, 559730.559 ], [ 260166.13, 559731.087999999988824 ], [ 260145.951, 559741.006000000052154 ], [ 260131.564000000013039, 559745.802999999956228 ], [ 260124.297, 559748.226000000024214 ], [ 260110.774, 559753.496000000042841 ], [ 260097.057, 559758.841999999945983 ], [ 260005.075000000011642, 559794.425000000046566 ], [ 259885.37, 559841.182000000029802 ], [ 259865.026000000012573, 559849.128999999957159 ], [ 259695.922, 559915.691 ], [ 259609.719000000011874, 559949.621999999973923 ], [ 259503.845, 559991.300999999977648 ], [ 259478.348, 560001.339000000036322 ], [ 259414.997, 560026.008999999961816 ], [ 259363.255, 560046.47199999995064 ], [ 259315.403, 560064.979999999981374 ], [ 259310.700000000011642, 560066.974999999976717 ], [ 259306.168, 560071.522 ], [ 259305.538, 560072.153999999980442 ], [ 259304.988000000012107, 560072.70499999995809 ], [ 259304.009, 560073.116999999969266 ], [ 259299.28, 560075.106999999959953 ], [ 259290.602000000013504, 560078.758000000030734 ], [ 259268.908, 560088.20499999995809 ], [ 259255.272, 560094.089999999967404 ], [ 259243.202, 560099.299 ], [ 259217.041, 560111.224000000045635 ], [ 259192.117, 560123.26 ], [ 259176.592, 560131.324999999953434 ], [ 259166.25700000001234, 560136.694000000017695 ], [ 259142.241, 560149.805000000051223 ], [ 259129.247, 560156.895999999949709 ], [ 259116.378, 560164.202000000048429 ], [ 259100.562, 560173.696 ], [ 259092.032, 560178.816 ], [ 259059.511999999987893, 560199.253999999957159 ], [ 259043.821999999985565, 560208.974000000045635 ], [ 259031.597, 560217.060000000055879 ], [ 259028.566, 560219.064000000013039 ], [ 259020.011, 560224.72199999995064 ], [ 258997.945, 560239.878999999957159 ], [ 258976.329999999987194, 560255.398999999975786 ], [ 258962.479, 560266.106000000028871 ], [ 258954.579, 560272.214000000036322 ], [ 258934.241, 560288.228 ], [ 258915.672, 560303.778999999980442 ], [ 258899.396, 560317.758000000030734 ], [ 258898.229, 560318.755 ], [ 258897.1, 560319.721000000019558 ], [ 258890.64000000001397, 560325.26500000001397 ], [ 258872.340999999985797, 560340.283999999985099 ], [ 258855.635, 560355.723 ], [ 258825.128, 560384.346000000019558 ], [ 258779.702, 560430.802999999956228 ], [ 258778.079999999987194, 560431.672000000020489 ], [ 258777.647999999986496, 560431.929 ], [ 258776.636999999987893, 560432.53000000002794 ], [ 258759.71, 560450.339999999967404 ], [ 258732.706, 560478.616000000038184 ], [ 258727.062, 560484.238000000012107 ], [ 258725.923, 560485.37300000002142 ], [ 258716.25700000001234, 560494.47199999995064 ], [ 258715.297, 560495.397 ], [ 258713.421, 560497.207000000053085 ], [ 258644.88200000001234, 560565.861000000033528 ], [ 258607.901000000012573, 560602.854000000050291 ], [ 258605.726, 560605.04500000004191 ], [ 258603.544, 560607.245 ], [ 258577.503, 560633.788999999989755 ], [ 258546.337, 560664.753000000026077 ], [ 258544.50099999998929, 560666.577000000048429 ], [ 258498.026000000012573, 560713.321 ], [ 258489.309, 560722.020000000018626 ], [ 258444.318999999988591, 560766.919 ], [ 258432.847, 560778.466000000014901 ], [ 258432.049999999988358, 560779.268000000040047 ], [ 258431.565, 560779.756000000052154 ], [ 258409.275, 560802.189999999944121 ], [ 258373.978, 560837.944999999948777 ], [ 258363.557, 560848.50199999997858 ], [ 258315.935, 560896.008999999961816 ], [ 258307.43, 560904.493999999947846 ], [ 258288.780999999988126, 560923.212000000057742 ], [ 258260.526000000012573, 560951.773000000044703 ], [ 258258.528, 560953.773000000044703 ], [ 258256.63200000001234, 560955.669 ], [ 258229.423, 560982.881000000052154 ], [ 258200.875, 561011.581 ], [ 258200.553000000014435, 561011.90500000002794 ], [ 258173.776000000012573, 561038.804 ], [ 258142.092, 561070.49800000002142 ], [ 258101.602000000013504, 561110.998999999952503 ], [ 258083.435, 561129.204000000027008 ], [ 258067.721, 561144.951 ], [ 258035.75099999998929, 561177.207000000053085 ], [ 258019.924999999988358, 561192.805999999982305 ], [ 258003.557, 561208.937000000034459 ], [ 257984.07, 561228.143999999971129 ], [ 257981.891, 561230.292000000015832 ], [ 257973.752, 561238.072999999974854 ], [ 257969.255, 561242.359000000054948 ], [ 257951.921, 561259.79500000004191 ], [ 257913.657, 561298.256999999983236 ], [ 257906.886999999987893, 561305.92000000004191 ], [ 257859.071999999985565, 561353.751000000047497 ], [ 257851.969000000011874, 561360.709999999962747 ], [ 257839.274, 561373.077999999979511 ], [ 257806.489, 561404.925000000046566 ], [ 257760.019, 561449.986000000033528 ], [ 257742.443999999988591, 561468.34499999997206 ], [ 257706.577, 561505.59699999995064 ], [ 257679.905, 561532.805000000051223 ], [ 257674.595, 561538.223 ], [ 257621.381, 561592.116000000038184 ], [ 257618.598999999987427, 561594.964999999967404 ], [ 257581.439000000013039, 561632.419 ], [ 257572.423, 561641.297999999951571 ], [ 257554.326, 561659.996999999973923 ], [ 257530.522, 561684.084000000031665 ], [ 257508.731, 561706.432999999960884 ], [ 257504.698, 561710.511000000056811 ], [ 257486.730000000010477, 561728.680999999982305 ], [ 257464.949, 561750.979999999981374 ], [ 257446.062, 561770.04500000004191 ], [ 257443.608, 561772.523000000044703 ], [ 257418.036, 561798.609000000054948 ], [ 257403.060999999986961, 561813.116999999969266 ], [ 257389.094000000011874, 561826.716000000014901 ], [ 257388.613000000012107, 561827.204000000027008 ], [ 257387.62400000001071, 561828.206 ], [ 257378.282, 561837.949000000022352 ], [ 257363.766, 561853.310000000055879 ], [ 257349.102000000013504, 561868.729000000050291 ], [ 257333.396, 561885.841000000014901 ], [ 257328.575000000011642, 561891.084000000031665 ], [ 257321.593, 561898.675000000046566 ], [ 257315.6, 561905.00199999997858 ], [ 257298.649, 561924.211000000010245 ], [ 257283.778, 561941.582999999984168 ], [ 257275.529, 561950.138999999966472 ], [ 257274.783, 561949.393000000040047 ], [ 257273.75099999998929, 561948.361000000033528 ], [ 257269.483, 561953.042999999946915 ], [ 257265.991, 561956.875 ], [ 257247.348999999987427, 561979.229000000050291 ], [ 257222.00700000001234, 562010.275000000023283 ], [ 257221.829999999987194, 562010.50199999997858 ], [ 257184.723, 562058.086000000010245 ], [ 257144.915, 562113.633999999961816 ], [ 257125.211000000010245, 562144.094000000040978 ], [ 257106.623, 562172.827999999979511 ], [ 257056.778, 562258.758000000030734 ], [ 257052.304, 562267.150999999954365 ], [ 257027.030999999988126, 562314.564999999944121 ], [ 257004.116, 562361.549 ], [ 256981.715999999985797, 562406.348 ], [ 256979.959, 562409.863000000012107 ], [ 256960.566, 562454.773999999975786 ], [ 256924.840999999985797, 562545.616999999969266 ], [ 256910.551, 562588.48699999996461 ], [ 256900.003999999986263, 562618.427999999956228 ], [ 256884.693, 562671.505 ], [ 256860.87599999998929, 562759.285999999963678 ], [ 256844.204999999987194, 562836.179 ], [ 256843.184, 562846.386000000056811 ], [ 256842.503999999986263, 562850.810000000055879 ], [ 256843.184, 562853.532 ], [ 256845.225, 562854.892 ], [ 256863.115, 562859.706 ], [ 256858.269, 562864.62 ], [ 256848.98499999998603, 562874.035999999963678 ], [ 256847.238000000012107, 562875.807000000029802 ], [ 256830.017, 562894.493999999947846 ], [ 256833.533, 562897.160999999963678 ], [ 256831.441, 562900.143999999971129 ], [ 256828.89000000001397, 562906.001000000047497 ], [ 256827.394999999989523, 562911.927999999956228 ], [ 256825.326, 562923.773000000044703 ], [ 256824.540799999987939, 562931.622500000055879 ], [ 256822.223, 562954.792000000015832 ], [ 256825.174, 562955.444000000017695 ], [ 256834.589, 562957.518000000040047 ], [ 256878.64000000001397, 562967.25 ], [ 256937.01500000001397, 562977.75 ], [ 257000.0, 562989.062000000034459 ], [ 257000.109, 562989.125 ], [ 257062.51500000001397, 563000.0 ], [ 257203.734, 563025.312000000034459 ], [ 257323.715, 563046.093 ], [ 257324.268000000010943, 563046.189000000013039 ], [ 257341.218, 563049.125 ], [ 257487.57, 563072.290000000037253 ], [ 257530.468, 563079.0 ], [ 257610.078, 563091.812000000034459 ], [ 257611.359, 563091.87300000002142 ], [ 257717.734, 563096.920999999972992 ], [ 257718.062, 563096.937000000034459 ], [ 257833.532, 563133.929 ], [ 257837.237, 563135.116000000038184 ], [ 257843.312, 563137.062000000034459 ], [ 257842.775, 563146.189999999944121 ], [ 257836.207, 563257.903999999980442 ], [ 257810.195, 563257.638999999966472 ], [ 257801.922, 563257.555999999982305 ], [ 257790.593, 563382.875 ], [ 257784.5, 563465.5 ], [ 257776.14000000001397, 563576.312000000034459 ], [ 257775.37400000001071, 563584.312000000034459 ], [ 257784.071, 563584.821 ], [ 258675.687, 563637.0 ], [ 258674.416999999986729, 563654.99800000002142 ], [ 258669.924, 563718.657 ], [ 258666.375, 563768.915000000037253 ], [ 258662.578, 563822.687000000034459 ], [ 258658.336000000010245, 563883.26 ], [ 258658.002, 563888.025999999954365 ], [ 258650.401000000012573, 563996.554 ], [ 258646.833000000013271, 564047.493000000016764 ], [ 258644.6392, 564078.8188 ], [ 258677.9063, 564085.875 ], [ 259242.0938, 563647.3125 ] ] ] ] } },
{ "type": "Feature", "properties": { "buurtcode": "BU07650109", "buurtnaam": "Verspreide huizen Nieuwe Pekela", "pc6_codes": "9663AL, 9663AV, 9663AZ, 9663BC, 9663BN, 9663HJ, 9663RG, 9663TZ, 9663VZ", "wijkcode": "WK076501", "gemeentecode": "GM0765", "gemeentenaam": "Pekela", "oppervlakteLandInHa": 1112, "AantalInwoners_5": 110, "Mannen_6": 45, "Vrouwen_7": 60, "HuishoudensTotaal_29": 40, "GemiddeldeHuishoudensgrootte_33": 2.8, "Woningvoorraad_35": 39, "NieuwbouwWoningen_36": 0, "NietWoningvoorraad_37": 47, "NieuwbouwNietWoningen_38": 0, "GemiddeldeWOZWaardeVanWoningen_39": 269, "PercentageEengezinswoning_40": 97, "PercentageTussenwoningEengezins_41": 0, "PercentageHoekwoningEengezins_42": 0, "PercentageTweeOnderEenKapWoningEe_43": 0, "PercentageVrijstaandeWoningEengezins_44": 97, "PercentageMeergezinswoning_45": 3, "Koopwoningen_47": 85, "HuurwoningenTotaal_48": 15, "InBezitWoningcorporatie_49": 0, "InBezitOverigeVerhuurders_50": 15, "BouwjaarMeerDanTienJaarGeleden_51": 97, "BouwjaarAfgelopenTienJaar_52": 3, "GemiddeldeElektriciteitslevering_53": 3980, "GemiddeldeElektriciteitsteruglevering_54": 2260, "GemiddeldAardgasverbruik_55": 1310, "AardgasvrijeWoningen_57": null, "Aardgaswoningen_58": null, "WoningenMetZonnestroom_59": null, "WoningenHoofdzElektrVerwarmd_60": null, "k_20PersonenMetHoogsteInkomen_80": null, "k_20HuishoudensMetHoogsteInkomen_85": null, "MediaanVermogenVanParticuliereHuish_86": null, "PersonenautoSTotaal_104": 60, "PersonenautoSBrandstofBenzine_105": 35, "PersonenautoSOverigeBrandstof_106": 20, "PersonenautoSPerHuishouden_107": null, "Omgevingsadressendichtheid_121": 223, "AantalInstallatiesBijWoningen_5": 19, "OpgesteldVermogenVanZonnepanelen_6": 112, "installaties_per_woning": 0.48717948717948717, "vermogen_per_woning": 2.8717948717948718, "installaties_per_100_woningen": 48.717948717948715, "vermogen_per_huishouden": 2.8, "batterijdruk_score": null, "koop_zon_score": null, "eengezins_zon_score": null, "betaalkracht_zon_score": null, "overige_brandstof_zon_score": null, "lichte_batterij_kansscore": null }, "geometry": { "type": "MultiPolygon", "coordinates": [ [ [ [ 262727.199000000022352, 564416.866000000038184 ], [ 262727.03000000002794, 564416.540999999968335 ], [ 262715.929, 564395.167000000015832 ], [ 262691.319000000017695, 564442.280999999959022 ], [ 262618.893999999971129, 564405.593 ], [ 262627.25, 564389.49800000002142 ], [ 262655.858, 564334.395000000018626 ], [ 262585.871999999973923, 564296.643999999971129 ], [ 262565.993000000016764, 564285.859000000054948 ], [ 262562.981000000028871, 564288.268999999971129 ], [ 262555.064000000013039, 564304.103 ], [ 262550.191999999980908, 564307.756000000052154 ], [ 262541.058000000019092, 564312.628000000026077 ], [ 262527.050999999977648, 564318.109000000054948 ], [ 262508.173, 564321.153999999980442 ], [ 262502.082999999984168, 564320.54500000004191 ], [ 262498.429, 564318.718 ], [ 262496.602000000013504, 564313.846000000019558 ], [ 262494.776000000012573, 564300.449000000022352 ], [ 262490.512999999977183, 564270.609000000054948 ], [ 262486.859, 564251.121999999973923 ], [ 262477.723999999987427, 564213.974000000045635 ], [ 262469.808000000019092, 564186.569999999948777 ], [ 262443.012999999977183, 564091.571 ], [ 262412.564000000013039, 563991.089999999967404 ], [ 262374.063000000023749, 563873.104000000050291 ], [ 262366.086000000010245, 563848.658000000054017 ], [ 262382.795999999972992, 563813.719000000040978 ], [ 262373.99, 563809.32999999995809 ], [ 262361.169999999983702, 563802.939999999944121 ], [ 262352.88, 563777.199999999953434 ], [ 262345.700000000011642, 563754.88 ], [ 262338.206, 563731.136999999987893 ], [ 262320.35999999998603, 563674.60999999998603 ], [ 262330.063000000023749, 563657.037999999942258 ], [ 262329.436999999976251, 563655.875 ], [ 262328.489, 563654.074000000022352 ], [ 262323.658, 563644.89000000001397 ], [ 262313.368000000016764, 563625.332000000053085 ], [ 262304.724999999976717, 563608.90300000004936 ], [ 262303.625, 563606.812000000034459 ], [ 262295.544999999983702, 563591.535000000032596 ], [ 262290.468999999982771, 563581.937000000034459 ], [ 262286.031000000017229, 563574.256000000052154 ], [ 262285.125, 563572.687000000034459 ], [ 262276.893999999971129, 563556.332999999984168 ], [ 262270.781000000017229, 563544.187000000034459 ], [ 262267.663, 563538.567000000039116 ], [ 262261.593999999982771, 563527.625 ], [ 262257.705000000016298, 563519.898999999975786 ], [ 262252.061999999976251, 563508.687000000034459 ], [ 262248.651000000012573, 563502.555000000051223 ], [ 262246.811999999976251, 563499.25 ], [ 262238.053000000014435, 563482.552000000025146 ], [ 262232.781000000017229, 563472.5 ], [ 262228.744, 563463.081 ], [ 262228.656000000017229, 563462.875 ], [ 262224.125, 563449.312000000034459 ], [ 262222.098, 563442.910000000032596 ], [ 262220.781000000017229, 563438.75 ], [ 262217.468999999982771, 563429.5 ], [ 262214.460000000020955, 563421.946 ], [ 262213.311999999976251, 563419.062000000034459 ], [ 262208.656000000017229, 563408.375 ], [ 262204.375, 563401.062000000034459 ], [ 262199.311999999976251, 563393.062000000034459 ], [ 262193.843999999982771, 563385.562000000034459 ], [ 262185.718999999982771, 563375.0 ], [ 262176.75, 563363.25 ], [ 262171.718999999982771, 563356.974000000045635 ], [ 262170.686999999976251, 563355.687000000034459 ], [ 262162.031000000017229, 563338.187000000034459 ], [ 262139.859, 563295.25 ], [ 262136.411, 563288.204000000027008 ], [ 262126.89000000001397, 563268.75 ], [ 262124.764, 563264.67000000004191 ], [ 262118.719000000011874, 563253.067000000039116 ], [ 262112.594000000011874, 563241.312000000034459 ], [ 262107.49299999998766, 563230.837999999988824 ], [ 262106.75, 563229.312000000034459 ], [ 262101.24900000001071, 563218.381000000052154 ], [ 262092.39000000001397, 563200.778999999980442 ], [ 262087.469000000011874, 563191.0 ], [ 262077.109, 563171.125 ], [ 262067.859, 563153.062000000034459 ], [ 262064.731999999989057, 563147.131000000052154 ], [ 262064.530999999988126, 563146.75 ], [ 262053.625, 563124.625 ], [ 262053.188, 563123.783000000054017 ], [ 262043.01500000001397, 563104.187000000034459 ], [ 262030.63, 563080.925000000046566 ], [ 262025.812, 563071.875 ], [ 262008.437, 563039.312000000034459 ], [ 262002.0, 563026.062000000034459 ], [ 262000.0, 563022.187000000034459 ], [ 261988.594000000011874, 563000.0 ], [ 261986.655999999988126, 562996.25 ], [ 261969.937, 562964.937000000034459 ], [ 261958.741, 562943.535999999963678 ], [ 261944.530999999988126, 562916.375 ], [ 261930.054, 562888.273999999975786 ], [ 261928.435999999986961, 562885.133000000030734 ], [ 261916.453, 562861.875 ], [ 261894.51500000001397, 562819.625 ], [ 261890.26, 562812.050000000046566 ], [ 261887.053000000014435, 562806.339000000036322 ], [ 261886.405999999988126, 562805.187000000034459 ], [ 261881.189000000013039, 562795.052000000025146 ], [ 261875.989, 562784.949999999953434 ], [ 261870.878999999986263, 562775.023999999975786 ], [ 261865.983, 562765.51300000003539 ], [ 261858.609, 562751.187000000034459 ], [ 261851.271, 562737.223 ], [ 261842.828, 562721.187000000034459 ], [ 261802.312, 562643.937000000034459 ], [ 261772.234, 562586.812000000034459 ], [ 261745.422, 562535.562000000034459 ], [ 261719.594000000011874, 562486.062000000034459 ], [ 261704.563, 562457.0 ], [ 261691.405999999988126, 562431.562000000034459 ], [ 261664.109, 562379.875 ], [ 261623.280999999988126, 562301.125 ], [ 261596.453, 562250.25 ], [ 261581.155999999988126, 562220.75 ], [ 261558.155999999988126, 562176.312000000034459 ], [ 261525.859, 562114.812000000034459 ], [ 261500.0, 562065.25 ], [ 261497.969000000011874, 562061.375 ], [ 261494.468, 562054.73499999998603 ], [ 261473.187, 562014.375 ], [ 261460.780999999988126, 561990.5 ], [ 261421.25, 561916.067000000039116 ], [ 261348.307999999989988, 561778.723 ], [ 261341.75, 561766.375 ], [ 261315.89000000001397, 561715.312000000034459 ], [ 261296.687, 561677.25 ], [ 261295.719000000011874, 561674.0 ], [ 261277.344000000011874, 561638.187000000034459 ], [ 261255.984, 561597.0 ], [ 261243.178000000014435, 561572.064999999944121 ], [ 261225.297, 561537.25 ], [ 261197.344000000011874, 561483.375 ], [ 261183.780999999988126, 561454.375 ], [ 261141.89000000001397, 561373.937000000034459 ], [ 261138.54, 561367.268000000040047 ], [ 261132.030999999988126, 561354.312000000034459 ], [ 261103.51500000001397, 561298.312000000034459 ], [ 261102.99900000001071, 561297.310000000055879 ], [ 261067.359, 561228.062000000034459 ], [ 261066.847, 561227.067999999970198 ], [ 261059.01500000001397, 561211.875 ], [ 261033.609, 561162.375 ], [ 261031.450000000011642, 561158.162999999942258 ], [ 261023.453, 561142.562000000034459 ], [ 261002.094000000011874, 561100.25 ], [ 260995.707, 561087.832000000053085 ], [ 260950.530999999988126, 561000.0 ], [ 260948.26500000001397, 560995.625 ], [ 260869.828, 560847.687000000034459 ], [ 260853.116, 560815.483 ], [ 260802.25, 560717.5 ], [ 260771.703, 560658.625 ], [ 260753.030999999988126, 560622.312000000034459 ], [ 260746.547, 560613.562000000034459 ], [ 260745.381, 560611.307999999960884 ], [ 260742.312, 560605.375 ], [ 260737.562, 560595.75 ], [ 260712.117, 560546.435999999986961 ], [ 260693.155999999988126, 560509.687000000034459 ], [ 260667.780999999988126, 560461.437000000034459 ], [ 260665.784000000014203, 560457.550999999977648 ], [ 260607.155999999988126, 560343.437000000034459 ], [ 260555.647, 560244.537999999942258 ], [ 260544.625, 560223.375 ], [ 260538.978, 560212.456 ], [ 260503.155999999988126, 560143.187000000034459 ], [ 260447.89000000001397, 560037.625 ], [ 260441.253, 560024.98699999996461 ], [ 260421.14000000001397, 559986.687000000034459 ], [ 260401.375, 559949.437000000034459 ], [ 260400.318999999988591, 559947.415999999968335 ], [ 260366.030999999988126, 559882.125 ], [ 260331.625, 559815.562000000034459 ], [ 260299.469000000011874, 559753.812000000034459 ], [ 260280.547, 559717.625 ], [ 260271.336000000010245, 559699.635 ], [ 260267.199, 559691.555000000051223 ], [ 260190.288999999989755, 559721.555999999982305 ], [ 260221.9058, 559709.234799999976531 ], [ 260221.8835, 559709.2789000000339 ], [ 260173.9999, 559804.125099999946542 ], [ 259999.9999, 560163.312599999946542 ], [ 259908.4999, 560323.312599999946542 ], [ 259468.4062, 561215.125099999946542 ], [ 259999.9999, 562248.687599999946542 ], [ 260115.9999, 562457.812599999946542 ], [ 260349.4062, 562887.875099999946542 ], [ 260636.703, 563428.812599999946542 ], [ 260904.703, 563922.625099999946542 ], [ 261376.5937, 564436.312599999946542 ], [ 261599.203, 564716.500099999946542 ], [ 261984.9999, 565230.687599999946542 ], [ 262395.406200000026729, 565786.812599999946542 ], [ 262695.093700000026729, 566184.875099999946542 ], [ 262701.6875, 566172.125 ], [ 262892.406299999973271, 565807.125 ], [ 263164.986299999989569, 565259.759700000053272 ], [ 263161.73499999998603, 565253.464999999967404 ], [ 263161.700000000011642, 565253.398000000044703 ], [ 263005.016, 564951.738000000012107 ], [ 262974.038999999989755, 564892.099000000045635 ], [ 262933.717, 564814.468 ], [ 262888.356000000028871, 564727.135 ], [ 262844.289999999979045, 564642.295999999972992 ], [ 262839.077999999979511, 564632.261999999987893 ], [ 262786.8581000000122, 564531.725300000049174 ], [ 262755.549999999988358, 564471.449000000022352 ], [ 262727.199000000022352, 564416.866000000038184 ] ] ], [ [ [ 260299.75, 568704.062999999965541 ], [ 260300.901000000012573, 568705.403999999980442 ], [ 260311.513, 568717.768700000015087 ], [ 260744.203100000013364, 568342.8125 ], [ 261070.4999, 568067.875099999946542 ], [ 260517.7187, 567389.250099999946542 ], [ 260392.1405, 567490.312599999946542 ], [ 260334.2812, 567527.750099999946542 ], [ 260065.4063, 567228.25 ], [ 260255.9687, 567066.750099999946542 ], [ 260239.79680000001099, 567046.812599999946542 ], [ 260071.5937, 566818.625099999946542 ], [ 259999.9999, 566707.125099999946542 ], [ 259731.203, 566403.375099999946542 ], [ 259626.4062, 566296.000099999946542 ], [ 259534.29680000001099, 566188.000099999946542 ], [ 259467.4062, 566102.312599999946542 ], [ 259360.703, 565985.375099999946542 ], [ 259263.5937, 565853.875099999946542 ], [ 259199.29680000001099, 565761.875099999946542 ], [ 259155.203, 565676.312599999946542 ], [ 259103.5937, 565583.625099999946542 ], [ 259010.0, 565353.3125 ], [ 258910.296899999986636, 565064.8125 ], [ 258824.5, 564801.687599999946542 ], [ 258773.9063, 564581.125 ], [ 258677.9063, 564085.875 ], [ 258644.6392, 564078.8188 ], [ 258642.937, 564103.125 ], [ 258640.155999999988126, 564105.125 ], [ 258607.812, 564129.062000000034459 ], [ 258593.093, 564139.937000000034459 ], [ 258521.328, 564192.875 ], [ 258455.093, 564241.375 ], [ 258373.734, 564300.812000000034459 ], [ 258363.047, 564309.875 ], [ 258298.123, 564356.912999999942258 ], [ 258264.359, 564381.375 ], [ 258187.562, 564438.437000000034459 ], [ 258113.14000000001397, 564493.375 ], [ 258085.302, 564513.73499999998603 ], [ 258059.39000000001397, 564532.687000000034459 ], [ 258068.812, 564585.437000000034459 ], [ 258080.546, 564642.437000000034459 ], [ 258091.934, 564705.995 ], [ 258092.229, 564707.643999999971129 ], [ 258094.655999999988126, 564721.187000000034459 ], [ 258095.484, 564726.062000000034459 ], [ 258112.036, 564818.812999999965541 ], [ 258112.593, 564821.937000000034459 ], [ 258130.644999999989523, 564906.817999999970198 ], [ 258148.25, 564996.937000000034459 ], [ 258149.958000000013271, 565005.643999999971129 ], [ 258150.359, 565007.687000000034459 ], [ 258169.258, 565104.402 ], [ 258185.76500000001397, 565188.875 ], [ 258202.687, 565273.812000000034459 ], [ 258213.64000000001397, 565329.687000000034459 ], [ 258222.844000000011874, 565377.993000000016764 ], [ 258227.609, 565403.0 ], [ 258239.655999999988126, 565467.25 ], [ 258240.875, 565473.562000000034459 ], [ 258273.953, 565644.125 ], [ 258276.23499999998603, 565654.378999999957159 ], [ 258278.421, 565664.312000000034459 ], [ 258309.75700000001234, 565829.822000000043772 ], [ 258310.019999999989523, 565831.180000000051223 ], [ 258312.01500000001397, 565836.925999999977648 ], [ 258329.859, 565927.562000000034459 ], [ 258330.486, 565930.883999999961816 ], [ 258331.170000000012806, 565934.506000000052154 ], [ 258333.909000000014203, 565949.761000000056811 ], [ 258338.530999999988126, 565975.5 ], [ 258339.937, 565988.187000000034459 ], [ 258340.06, 565996.052999999956228 ], [ 258340.187, 566004.125 ], [ 258340.187, 566063.125 ], [ 258339.718, 566085.687000000034459 ], [ 258339.085, 566091.709999999962747 ], [ 258339.005, 566092.469000000040978 ], [ 258337.916300000011688, 566102.824299999978393 ], [ 258336.896, 566112.528999999980442 ], [ 258336.405999999988126, 566117.187000000034459 ], [ 258334.343, 566142.0 ], [ 258332.046, 566176.5 ], [ 258332.687, 566184.375 ], [ 258334.64000000001397, 566194.687000000034459 ], [ 258336.546, 566200.0 ], [ 258338.796, 566207.625 ], [ 258341.062, 566217.437000000034459 ], [ 258342.125, 566223.625 ], [ 258343.125, 566227.25 ], [ 258345.171, 566232.25 ], [ 258354.432, 566248.922000000020489 ], [ 258356.355000000010477, 566252.383000000030734 ], [ 258363.163, 566264.64000000001397 ], [ 258368.555, 566274.34699999995064 ], [ 258374.4, 566270.481000000028871 ], [ 258384.84, 566260.714000000036322 ], [ 258410.165, 566237.023999999975786 ], [ 258418.698, 566229.030999999959022 ], [ 258426.904, 566221.628999999957159 ], [ 258432.730000000010477, 566216.375 ], [ 258436.01500000001397, 566218.75 ], [ 258491.218, 566291.625 ], [ 258638.968, 566486.875 ], [ 258699.484, 566566.562000000034459 ], [ 258709.593, 566579.5 ], [ 258716.718, 566588.812000000034459 ], [ 258724.468, 566599.312000000034459 ], [ 258731.828, 566608.75 ], [ 258738.953, 566618.062000000034459 ], [ 258746.89000000001397, 566627.562000000034459 ], [ 258754.530999999988126, 566636.562000000034459 ], [ 258762.405999999988126, 566645.625 ], [ 258770.718, 566654.812000000034459 ], [ 258778.734, 566663.75 ], [ 258847.1605, 566736.323199999984354 ], [ 258891.405999999988126, 566783.25 ], [ 258899.51500000001397, 566791.937000000034459 ], [ 258907.625, 566800.687000000034459 ], [ 258916.797, 566809.125 ], [ 258925.51500000001397, 566816.937000000034459 ], [ 258972.125, 566858.437000000034459 ], [ 258972.441, 566858.738999999943189 ], [ 258972.981999999989057, 566859.194000000017695 ], [ 259038.405999999988126, 566917.0 ], [ 259050.797, 566928.312000000034459 ], [ 259063.172, 566939.125 ], [ 259075.0, 566949.75 ], [ 259086.76500000001397, 566959.75 ], [ 259099.859, 566971.5 ], [ 259113.984, 566983.5 ], [ 259129.953, 566997.312000000034459 ], [ 259133.218, 567000.0 ], [ 259146.125, 567010.687000000034459 ], [ 259162.297, 567024.187000000034459 ], [ 259178.375, 567037.25 ], [ 259192.297, 567048.75 ], [ 259204.187, 567059.25 ], [ 259239.32, 567095.569999999948777 ], [ 259280.49, 567136.199999999953434 ], [ 259327.306000000011409, 567182.302000000025146 ], [ 259329.65, 567184.60999999998603 ], [ 259331.976, 567186.981000000028871 ], [ 259337.082, 567192.182999999960884 ], [ 259337.788999999989755, 567192.89000000001397 ], [ 259342.287000000011176, 567197.464999999967404 ], [ 259344.866, 567200.087999999988824 ], [ 259340.783, 567202.709999999962747 ], [ 259331.41, 567208.729999999981374 ], [ 259323.670000000012806, 567212.38 ], [ 259307.16, 567216.770000000018626 ], [ 259301.01, 567217.64000000001397 ], [ 259293.416, 567218.13800000003539 ], [ 259285.429, 567218.662000000011176 ], [ 259287.34, 567221.915000000037253 ], [ 259301.6, 567246.189999999944121 ], [ 259564.323, 567694.912999999942258 ], [ 259735.759, 567987.719000000040978 ], [ 259755.401000000012573, 568022.462000000057742 ], [ 259758.21, 568027.430000000051223 ], [ 259758.453, 568027.875 ], [ 259759.343, 568029.403999999980442 ], [ 259771.019999999989523, 568049.449000000022352 ], [ 259772.643000000010943, 568052.234000000054948 ], [ 259774.26500000001397, 568055.018999999971129 ], [ 259775.682999999989988, 568057.452999999979511 ], [ 259777.75, 568061.0 ], [ 259826.078, 568142.312999999965541 ], [ 259850.75099999998929, 568184.851000000024214 ], [ 259864.352000000013504, 568208.336000000010245 ], [ 259878.21, 568232.329000000027008 ], [ 259895.045000000012806, 568261.484000000054948 ], [ 259923.412000000011176, 568310.594000000040978 ], [ 259978.255, 568401.881000000052154 ], [ 260000.0, 568440.197999999974854 ], [ 260011.784000000014203, 568460.962999999988824 ], [ 260020.136, 568475.745 ], [ 260036.325000000011642, 568504.447000000043772 ], [ 260049.4754, 568526.619100000010803 ], [ 260096.352000000013504, 568605.65500000002794 ], [ 260139.905, 568679.935000000055879 ], [ 260145.206, 568688.979000000050291 ], [ 260145.218, 568689.0 ], [ 260152.676, 568684.995 ], [ 260169.902, 568675.745 ], [ 260178.601, 568671.074000000022352 ], [ 260188.51500000001397, 568665.75 ], [ 260192.796, 568663.435000000055879 ], [ 260214.75, 568651.562999999965541 ], [ 260215.797, 568651.125 ], [ 260217.109, 568650.937999999965541 ], [ 260237.101, 568685.376000000047497 ], [ 260242.878, 568730.272 ], [ 260244.248, 568732.142 ], [ 260244.94, 568733.087000000057742 ], [ 260245.046, 568733.231000000028871 ], [ 260246.144, 568734.731000000028871 ], [ 260246.896, 568735.758000000030734 ], [ 260244.043, 568738.496000000042841 ], [ 260244.752, 568753.04500000004191 ], [ 260244.806000000011409, 568754.147 ], [ 260282.514, 568723.660000000032596 ], [ 260293.865, 568714.476000000024214 ], [ 260291.0, 568711.099999999976717 ], [ 260299.75, 568704.062999999965541 ] ] ] ] } }
]
}
