{
"type": "FeatureCollection",
"name": "Renswoude",
"crs": { "type": "name", "properties": { "name": "urn:ogc:def:crs:EPSG::28992" } },
"features": [
{ "type": "Feature", "properties": { "buurtcode": "BU03390000", "buurtnaam": "Renswoude", "pc6_codes": "3927AA, 3927AB, 3927AC, 3927AD, 3927AE, 3927AG, 3927AH, 3927AJ, 3927AK, 3927AL, 3927AM, 3927AN, 3927AP, 3927AR, 3927AS, 3927AV, 3927AX, 3927AZ, 3927BA, 3927BB, 3927BC, 3927BD, 3927BE, 3927BG, 3927BH, 3927BJ, 3927BK, 3927BL, 3927BM, 3927BN, 3927BP, 3927BR, 3927BS, 3927BT, 3927BV, 3927BW, 3927BX, 3927CA, 3927CC, 3927CK, 3927CL, 3927DA, 3927DB, 3927DC, 3927DD, 3927DE, 3927DG, 3927DH, 3927DJ, 3927DK, 3927DL, 3927DM, 3927GA, 3927GB, 3927GC, 3927GD, 3927GE, 3927GG, 3927GK, 3927GL, 3927GM, 3927PA, 3927PB, 3927PC, 3927PD, 3927SW, 3927WC, 3927WD", "wijkcode": "WK033900", "gemeentecode": "GM0339", "gemeentenaam": "Renswoude", "oppervlakteLandInHa": 112, "AantalInwoners_5": 3545, "Mannen_6": 1760, "Vrouwen_7": 1785, "HuishoudensTotaal_29": 1460, "GemiddeldeHuishoudensgrootte_33": 2.4, "Woningvoorraad_35": 1431, "NieuwbouwWoningen_36": 37, "NietWoningvoorraad_37": 215, "NieuwbouwNietWoningen_38": 0, "GemiddeldeWOZWaardeVanWoningen_39": 444, "PercentageEengezinswoning_40": 83, "PercentageTussenwoningEengezins_41": 37, "PercentageHoekwoningEengezins_42": 21, "PercentageTweeOnderEenKapWoningEe_43": 14, "PercentageVrijstaandeWoningEengezins_44": 12, "PercentageMeergezinswoning_45": 17, "Koopwoningen_47": 69, "HuurwoningenTotaal_48": 31, "InBezitWoningcorporatie_49": 0, "InBezitOverigeVerhuurders_50": 31, "BouwjaarMeerDanTienJaarGeleden_51": 87, "BouwjaarAfgelopenTienJaar_52": 13, "GemiddeldeElektriciteitslevering_53": 2780, "GemiddeldeElektriciteitsteruglevering_54": 1020, "GemiddeldAardgasverbruik_55": 920, "AardgasvrijeWoningen_57": 8, "Aardgaswoningen_58": 88, "WoningenMetZonnestroom_59": 47, "WoningenHoofdzElektrVerwarmd_60": 11, "k_20PersonenMetHoogsteInkomen_80": 18.5, "k_20HuishoudensMetHoogsteInkomen_85": 21.7, "MediaanVermogenVanParticuliereHuish_86": 287.3, "PersonenautoSTotaal_104": 1975, "PersonenautoSBrandstofBenzine_105": 1610, "PersonenautoSOverigeBrandstof_106": 365, "PersonenautoSPerHuishouden_107": 1.4, "Omgevingsadressendichtheid_121": 610, "AantalInstallatiesBijWoningen_5": 505, "OpgesteldVermogenVanZonnepanelen_6": 1929, "installaties_per_woning": 0.35290006988120198, "vermogen_per_woning": 1.3480083857442349, "installaties_per_100_woningen": 35.290006988120197, "vermogen_per_huishouden": 1.3212328767123287, "batterijdruk_score": 479.4, "koop_zon_score": 0.3243, "eengezins_zon_score": 0.3901, "betaalkracht_zon_score": 135.031, "overige_brandstof_zon_score": 171.55, "lichte_batterij_kansscore": 0.43387745881526207 }, "geometry": { "type": "MultiPolygon", "coordinates": [ [ [ [ 165382.0731, 454677.9338 ], [ 165424.9803, 454661.9683 ], [ 165399.036400000011781, 454562.184100000013132 ], [ 165494.8292, 454543.225099999981467 ], [ 165477.8659, 454476.369699999981094 ], [ 165524.764399999985471, 454455.414899999974295 ], [ 165515.7839, 454372.59409999998752 ], [ 165409.0147, 454381.5747 ], [ 165371.3997, 454384.7624 ], [ 165378.8522, 454380.2244 ], [ 165390.5625, 454373.093799999973271 ], [ 165449.7655, 454313.406399999978021 ], [ 165517.3749, 454278.6875 ], [ 165578.4687, 454247.6875 ], [ 165651.9687, 454227.093799999973271 ], [ 165675.5624, 454195.906399999978021 ], [ 165815.85930000001099, 454148.906299999973271 ], [ 166188.5155, 454026.5 ], [ 165980.1249, 453769.3126 ], [ 166148.8749, 453668.906299999973271 ], [ 166173.875, 453576.0 ], [ 166164.171899999986636, 453526.8125 ], [ 166061.1874, 453390.1876 ], [ 165999.3124, 453316.3126 ], [ 165929.328, 453292.406399999978021 ], [ 165876.328, 453304.5001 ], [ 165796.5312, 453292.5001 ], [ 165748.6405, 453273.593899999978021 ], [ 165655.734399999986636, 453278.406399999978021 ], [ 165609.25, 453309.093799999973271 ], [ 165565.7501, 453350.093899999978021 ], [ 165565.546899999986636, 453387.0001 ], [ 165584.1563, 453435.8125 ], [ 165581.1562, 453483.406299999973271 ], [ 165412.453100000013364, 453522.093799999973271 ], [ 165341.0624, 453561.093799999973271 ], [ 165189.3749, 453605.3125 ], [ 165161.606399999989662, 453612.961000000010245 ], [ 165045.304899999988265, 453548.710499999986496 ], [ 165025.5595, 453541.18849999998929 ], [ 165002.0532, 453537.4275 ], [ 164791.436599999986356, 453575.037599999981467 ], [ 164811.1819, 453688.808100000023842 ], [ 164818.704, 453882.500300000014249 ], [ 164846.9116, 454145.771100000012666 ], [ 164847.8517, 454153.293200000014622 ], [ 164850.67249999998603, 454158.934799999988172 ], [ 164855.3737, 454163.6361 ], [ 164861.955500000010943, 454168.337300000013784 ], [ 164867.597, 454169.277599999972153 ], [ 164869.3665, 454173.701200000010431 ], [ 164850.0939, 454177.8126 ], [ 164862.67180000001099, 454194.1876 ], [ 164958.2655, 454209.093899999978021 ], [ 164979.4688, 454255.406299999973271 ], [ 164992.0624, 454316.8125 ], [ 165011.0096, 454356.100900000019465 ], [ 165000.897300000011455, 454417.496900000027381 ], [ 164958.9879, 454514.287599999981467 ], [ 165048.7936, 454559.190599999972619 ], [ 165068.7505, 454585.134499999985565 ], [ 165123.6318, 454582.141 ], [ 165193.4808, 454606.089199999987613 ], [ 165215.4333, 454635.026599999982864 ], [ 165274.306000000011409, 454673.9425 ], [ 165296.2585, 454686.9144 ], [ 165382.0731, 454677.9338 ] ] ] ] } },
{ "type": "Feature", "properties": { "buurtcode": "BU03390009", "buurtnaam": "Verspreide huizen", "pc6_codes": "3927AC, 3927AD, 3927AT, 3927AV, 3927AW, 3927BD, 3927BR, 3927BZ, 3927CA, 3927CB, 3927CC, 3927CD, 3927CE, 3927CG, 3927CH, 3927CJ, 3927CK, 3927CL, 3927CM, 3927CN, 3927CP, 3927CR, 3927CS, 3927CT, 3927CV, 3927CW, 3927CX, 3927CZ, 3927DA, 3927EA, 3927EB, 3927EC, 3927ED, 3927EE, 3927EG, 3927EH, 3927EJ, 3927GG, 3927GH, 3927GJ, 3927GX, 3927GZ, 3927SC, 3927SG, 3927SH, 3927SJ, 3927SK, 3927SL, 3927SM, 3927SN, 3927SP, 3927SR, 3927SV, 3927SW", "wijkcode": "WK033900", "gemeentecode": "GM0339", "gemeentenaam": "Renswoude", "oppervlakteLandInHa": 1727, "AantalInwoners_5": 2210, "Mannen_6": 1145, "Vrouwen_7": 1065, "HuishoudensTotaal_29": 800, "GemiddeldeHuishoudensgrootte_33": 2.8, "Woningvoorraad_35": 764, "NieuwbouwWoningen_36": 6, "NietWoningvoorraad_37": 124, "NieuwbouwNietWoningen_38": 0, "GemiddeldeWOZWaardeVanWoningen_39": 649, "PercentageEengezinswoning_40": 90, "PercentageTussenwoningEengezins_41": 29, "PercentageHoekwoningEengezins_42": 10, "PercentageTweeOnderEenKapWoningEe_43": 9, "PercentageVrijstaandeWoningEengezins_44": 43, "PercentageMeergezinswoning_45": 10, "Koopwoningen_47": 84, "HuurwoningenTotaal_48": 15, "InBezitWoningcorporatie_49": 0, "InBezitOverigeVerhuurders_50": 15, "BouwjaarMeerDanTienJaarGeleden_51": 69, "BouwjaarAfgelopenTienJaar_52": 31, "GemiddeldeElektriciteitslevering_53": 3510, "GemiddeldeElektriciteitsteruglevering_54": 1990, "GemiddeldAardgasverbruik_55": 1010, "AardgasvrijeWoningen_57": 9, "Aardgaswoningen_58": 77, "WoningenMetZonnestroom_59": 60, "WoningenHoofdzElektrVerwarmd_60": 14, "k_20PersonenMetHoogsteInkomen_80": 25.7, "k_20HuishoudensMetHoogsteInkomen_85": 34.3, "MediaanVermogenVanParticuliereHuish_86": 463.0, "PersonenautoSTotaal_104": 1345, "PersonenautoSBrandstofBenzine_105": 1055, "PersonenautoSOverigeBrandstof_106": 290, "PersonenautoSPerHuishouden_107": 1.7, "Omgevingsadressendichtheid_121": 378, "AantalInstallatiesBijWoningen_5": 326, "OpgesteldVermogenVanZonnepanelen_6": 1551, "installaties_per_woning": 0.42670157068062825, "vermogen_per_woning": 2.0301047120418847, "installaties_per_100_woningen": 42.670157068062828, "vermogen_per_huishouden": 1.93875, "batterijdruk_score": 1194.0, "koop_zon_score": 0.504, "eengezins_zon_score": 0.54, "betaalkracht_zon_score": 277.8, "overige_brandstof_zon_score": 174.0, "lichte_batterij_kansscore": 0.53054835200578465 }, "geometry": { "type": "MultiPolygon", "coordinates": [ [ [ [ 166190.491, 457441.918 ], [ 166227.519999999989523, 457342.299999999988358 ], [ 166250.85999999998603, 457280.479999999981374 ], [ 166261.5, 457251.099999999976717 ], [ 166297.56, 457155.520000000018626 ], [ 166304.818, 457136.229 ], [ 166326.799999999988358, 457077.799999999988358 ], [ 166344.980000000010477, 457030.71999999997206 ], [ 166356.06, 457000.0 ], [ 166362.35, 456985.356000000028871 ], [ 166364.285, 456980.691 ], [ 166366.918, 456975.773999999975786 ], [ 166368.528, 456973.746999999973923 ], [ 166371.46, 456970.053000000014435 ], [ 166376.09, 456964.221000000019558 ], [ 166394.97, 456943.586000000010245 ], [ 166444.815, 456891.558000000019092 ], [ 166437.162000000011176, 456872.708999999973457 ], [ 166423.996000000013737, 456857.768999999971129 ], [ 166410.480000000010477, 456842.142999999981839 ], [ 166408.672, 456840.158999999985099 ], [ 166402.278, 456833.142999999981839 ], [ 166396.657, 456825.920999999972992 ], [ 166378.777, 456804.520000000018626 ], [ 166370.805, 456794.832 ], [ 166362.162000000011176, 456784.422000000020489 ], [ 166357.0, 456778.403 ], [ 166356.834, 456777.978 ], [ 166355.394, 456774.276000000012573 ], [ 166342.954, 456744.916000000026543 ], [ 166334.006, 456723.25099999998929 ], [ 166327.271, 456706.278 ], [ 166326.971, 456705.521 ], [ 166317.00099999998929, 456681.642999999981839 ], [ 166309.888, 456664.753000000026077 ], [ 166305.307, 456653.869 ], [ 166298.068999999988591, 456637.304 ], [ 166293.276000000012573, 456626.332999999984168 ], [ 166283.13200000001234, 456603.205000000016298 ], [ 166280.274, 456596.642 ], [ 166277.579, 456592.229 ], [ 166266.165, 456573.428000000014435 ], [ 166263.655999999988126, 456569.435999999986961 ], [ 166249.956, 456554.773999999975786 ], [ 166232.865, 456536.201 ], [ 166231.353, 456534.927000000025146 ], [ 166217.411, 456523.174 ], [ 166216.812, 456522.715000000025611 ], [ 166215.812, 456521.931999999971595 ], [ 166197.505, 456507.913999999989755 ], [ 166192.622, 456504.371999999973923 ], [ 166187.155, 456500.406000000017229 ], [ 166187.704999999987194, 456498.183000000019092 ], [ 166191.745, 456482.151000000012573 ], [ 166194.074, 456472.911000000021886 ], [ 166202.847, 456469.431999999971595 ], [ 166256.595, 456446.978 ], [ 166301.661, 456428.096000000019558 ], [ 166347.980000000010477, 456409.338999999978114 ], [ 166355.848999999987427, 456406.016 ], [ 166361.937, 456403.446 ], [ 166394.026000000012573, 456389.898999999975786 ], [ 166399.729, 456387.711000000010245 ], [ 166424.22, 456377.74900000001071 ], [ 166452.149, 456365.746999999973923 ], [ 166459.293, 456362.072999999974854 ], [ 166460.534000000014203, 456351.025000000023283 ], [ 166460.38200000001234, 456345.358 ], [ 166460.47, 456340.582999999984168 ], [ 166461.627, 456335.870999999984633 ], [ 166462.950000000011642, 456331.657 ], [ 166466.826, 456297.114 ], [ 166465.47, 456285.859 ], [ 166464.386, 456281.112000000022817 ], [ 166462.821, 456276.239 ], [ 166459.85, 456270.40500000002794 ], [ 166455.541, 456264.101000000024214 ], [ 166452.152, 456258.729999999981374 ], [ 166448.894999999989523, 456252.781000000017229 ], [ 166446.313, 456246.96999999997206 ], [ 166444.446, 456240.615 ], [ 166443.212999999988824, 456235.079000000027008 ], [ 166442.416, 456228.788999999989755 ], [ 166442.519, 456227.038999999989755 ], [ 166443.435999999986961, 456223.093 ], [ 166444.943, 456217.427000000025146 ], [ 166445.946999999985565, 456210.365 ], [ 166447.310999999986961, 456202.153999999980442 ], [ 166449.00700000001234, 456194.938000000023749 ], [ 166453.236, 456176.262999999977183 ], [ 166457.098, 456160.581 ], [ 166460.174, 456148.091000000014901 ], [ 166462.136999999987893, 456144.598 ], [ 166465.427, 456140.10999999998603 ], [ 166470.530999999988126, 456134.657 ], [ 166477.596, 456127.369 ], [ 166481.327, 456122.854 ], [ 166484.74299999998766, 456118.71999999997206 ], [ 166489.365, 456111.960000000020955 ], [ 166489.589, 456111.631999999983236 ], [ 166493.397999999986496, 456101.603 ], [ 166494.372, 456099.37300000002142 ], [ 166504.535, 456076.119 ], [ 166511.979, 456059.087 ], [ 166515.622, 456049.581 ], [ 166518.661, 456041.147999999986496 ], [ 166520.37599999998929, 456036.391 ], [ 166521.628999999986263, 456032.914999999979045 ], [ 166524.073, 456028.24900000001071 ], [ 166527.185999999986961, 456022.24900000001071 ], [ 166530.299, 456016.027 ], [ 166534.745, 456006.917000000015832 ], [ 166537.064000000013039, 456002.246999999973923 ], [ 166546.181000000011409, 455983.892999999981839 ], [ 166558.913, 455964.843 ], [ 166558.101, 455956.115999999979977 ], [ 166550.869, 455952.767999999981839 ], [ 166523.928000000014435, 455960.879000000015367 ], [ 166523.105000000010477, 455955.987000000022817 ], [ 166479.522999999986496, 455931.575000000011642 ], [ 166480.087, 455928.929 ], [ 166481.673, 455900.256 ], [ 166481.82, 455899.423 ], [ 166501.335, 455788.843999999982771 ], [ 166501.631, 455783.721000000019558 ], [ 166502.730000000010477, 455764.718999999982771 ], [ 166502.871000000013737, 455762.75199999997858 ], [ 166510.189000000013039, 455661.012999999977183 ], [ 166510.764, 455653.273999999975786 ], [ 166518.403, 455550.521 ], [ 166518.336000000010245, 455539.197999999974854 ], [ 166516.405, 455524.878000000026077 ], [ 166514.116, 455516.863000000012107 ], [ 166513.788999999989755, 455514.298 ], [ 166512.021, 455502.521 ], [ 166506.94, 455468.523999999975786 ], [ 166500.533, 455424.528999999980442 ], [ 166497.442000000010012, 455402.086000000010245 ], [ 166495.011999999987893, 455384.977000000013504 ], [ 166494.178000000014435, 455378.441999999980908 ], [ 166495.71, 455373.99 ], [ 166498.049999999988358, 455367.19 ], [ 166508.64000000001397, 455375.979999999981374 ], [ 166549.829999999987194, 455439.840000000025611 ], [ 166551.223, 455440.327999999979511 ], [ 166552.638, 455440.74900000001071 ], [ 166554.071, 455441.099999999976717 ], [ 166555.519999999989523, 455441.381999999983236 ], [ 166556.981, 455441.593 ], [ 166558.451, 455441.733 ], [ 166559.924999999988358, 455441.803000000014435 ], [ 166561.401000000012573, 455441.799999999988358 ], [ 166562.875, 455441.727000000013504 ], [ 166564.344000000011874, 455441.582 ], [ 166565.804, 455441.365999999979977 ], [ 166567.252, 455441.080000000016298 ], [ 166568.685, 455440.723999999987427 ], [ 166570.098999999987427, 455440.299999999988358 ], [ 166571.49, 455439.806999999971595 ], [ 166572.856, 455439.24800000002142 ], [ 166574.193, 455438.62300000002142 ], [ 166575.49900000001071, 455437.934 ], [ 166576.769999999989523, 455437.184 ], [ 166578.003, 455436.371999999973923 ], [ 166579.195, 455435.50199999997858 ], [ 166580.344000000011874, 455434.575000000011642 ], [ 166581.446, 455433.593999999982771 ], [ 166582.5, 455432.56 ], [ 166606.29, 455404.99 ], [ 166641.31, 455414.049999999988358 ], [ 166642.361, 455413.69 ], [ 166642.384, 455413.680999999982305 ], [ 166643.386, 455413.261999999987893 ], [ 166643.432, 455413.240999999979977 ], [ 166644.381, 455412.770000000018626 ], [ 166644.448, 455412.733 ], [ 166645.343, 455412.213999999978114 ], [ 166645.428000000014435, 455412.158999999985099 ], [ 166646.266, 455411.597 ], [ 166646.36799999998766, 455411.522 ], [ 166647.147999999986496, 455410.922000000020489 ], [ 166647.264, 455410.824000000022352 ], [ 166647.984, 455410.191 ], [ 166648.113000000012107, 455410.068000000028405 ], [ 166648.771, 455409.407 ], [ 166648.909000000014203, 455409.257999999972526 ], [ 166649.506, 455408.575000000011642 ], [ 166649.65, 455408.397 ], [ 166650.185999999986961, 455407.696 ], [ 166650.332, 455407.489 ], [ 166650.807999999989988, 455406.776000000012573 ], [ 166650.953, 455406.538 ], [ 166651.36799999998766, 455405.816999999980908 ], [ 166651.51, 455405.547000000020489 ], [ 166651.866, 455404.824000000022352 ], [ 166652.0, 455404.522999999986496 ], [ 166652.298, 455403.800999999977648 ], [ 166652.421, 455403.468 ], [ 166652.663999999989755, 455402.75199999997858 ], [ 166652.772, 455402.386999999987893 ], [ 166652.961000000010245, 455401.681999999971595 ], [ 166653.051, 455401.286000000021886 ], [ 166653.188, 455400.59499999997206 ], [ 166653.256, 455400.169 ], [ 166653.344000000011874, 455399.495999999984633 ], [ 166653.386999999987893, 455399.039999999979045 ], [ 166653.429, 455398.387999999977183 ], [ 166653.443, 455397.906000000017229 ], [ 166653.442000000010012, 455397.278 ], [ 166653.424, 455396.770000000018626 ], [ 166653.384, 455396.168 ], [ 166653.344000000011874, 455395.76400000002468 ], [ 166653.253999999986263, 455395.066 ], [ 166653.204999999987194, 455394.76500000001397 ], [ 166653.053000000014435, 455393.973 ], [ 166653.00700000001234, 455393.775000000023283 ], [ 166652.780999999988126, 455392.896 ], [ 166652.752, 455392.799 ], [ 166652.441, 455391.838999999978114 ], [ 166643.21, 455366.85999999998603 ], [ 166661.450000000011642, 455348.71999999997206 ], [ 166662.24, 455347.745999999984633 ], [ 166662.973999999987427, 455346.728 ], [ 166663.647, 455345.669 ], [ 166664.258, 455344.574000000022352 ], [ 166664.806000000011409, 455343.445 ], [ 166665.287000000011176, 455342.287000000011176 ], [ 166665.701, 455341.102000000013504 ], [ 166666.046, 455339.896 ], [ 166666.321999999985565, 455338.672000000020489 ], [ 166666.526000000012573, 455337.434 ], [ 166666.659000000014203, 455336.186999999976251 ], [ 166666.72, 455334.934 ], [ 166666.709, 455333.679 ], [ 166666.625, 455332.428000000014435 ], [ 166666.47, 455331.183000000019092 ], [ 166666.24299999998766, 455329.949000000022352 ], [ 166665.946, 455328.729999999981374 ], [ 166665.579, 455327.53000000002794 ], [ 166665.144, 455326.354 ], [ 166664.642, 455325.204000000027008 ], [ 166664.074, 455324.085000000020955 ], [ 166663.443999999988591, 455323.00099999998929 ], [ 166662.75099999998929, 455321.955000000016298 ], [ 166662.0, 455320.950000000011642 ], [ 166619.586000000010245, 455263.963999999978114 ], [ 166618.301, 455262.237000000022817 ], [ 166616.6, 455259.950000000011642 ], [ 166628.067000000010012, 455249.957999999984168 ], [ 166641.241, 455239.82 ], [ 166660.022, 455234.174999999988358 ], [ 166670.958000000013271, 455226.859 ], [ 166674.446999999985565, 455217.979 ], [ 166683.299999999988358, 455210.840000000025611 ], [ 166698.236, 455201.783999999985099 ], [ 166703.909000000014203, 455193.481000000028871 ], [ 166705.304, 455188.132999999972526 ], [ 166710.564000000013039, 455183.243000000016764 ], [ 166721.157, 455178.843999999982771 ], [ 166734.336000000010245, 455175.608 ], [ 166748.644999999989523, 455175.664999999979045 ], [ 166754.026000000012573, 455172.441 ], [ 166757.198, 455168.385 ], [ 166759.424999999988358, 455162.669 ], [ 166770.003999999986263, 455154.13 ], [ 166783.464, 455147.473999999987427 ], [ 166801.711000000010245, 455155.055999999982305 ], [ 166815.188, 455155.518999999971129 ], [ 166842.0, 455146.041000000026543 ], [ 166859.006, 455146.892999999981839 ], [ 166876.284000000014203, 455149.337999999988824 ], [ 166877.867, 455148.76500000001397 ], [ 166894.037000000011176, 455142.923 ], [ 166894.138, 455140.76 ], [ 166897.259, 455139.487000000022817 ], [ 166896.327, 455127.528 ], [ 166895.673, 455119.136 ], [ 166895.6686, 455119.0798 ], [ 166893.030999999988126, 455085.228 ], [ 166890.26, 455053.028999999980442 ], [ 166889.68, 455021.273999999975786 ], [ 166887.49900000001071, 454996.782 ], [ 166887.585, 454971.933000000019092 ], [ 166886.616, 454942.90500000002794 ], [ 166885.753999999986263, 454923.585000000020955 ], [ 166885.35999999998603, 454882.085000000020955 ], [ 166885.283, 454873.935999999986961 ], [ 166884.979, 454866.424999999988358 ], [ 166887.72, 454841.352000000013504 ], [ 166890.905999999988126, 454821.093 ], [ 166893.459, 454807.789999999979045 ], [ 166897.378999999986263, 454791.14000000001397 ], [ 166900.07, 454781.022 ], [ 166902.214, 454775.555999999982305 ], [ 166906.206, 454767.351000000024214 ], [ 166910.37, 454755.495 ], [ 166910.497, 454755.145000000018626 ], [ 166914.644999999989523, 454743.734 ], [ 166917.659000000014203, 454734.261 ], [ 166920.695, 454716.908999999985099 ], [ 166931.926, 454670.896 ], [ 166937.185999999986961, 454657.037000000011176 ], [ 166942.013, 454649.941999999980908 ], [ 166959.946999999985565, 454637.544999999983702 ], [ 166960.104, 454637.396 ], [ 166968.723999999987427, 454629.256999999983236 ], [ 166998.479, 454597.467 ], [ 167012.909000000014203, 454581.041000000026543 ], [ 167020.123, 454572.223999999987427 ], [ 167022.272, 454568.338999999978114 ], [ 167024.871000000013737, 454560.321 ], [ 167026.619, 454539.336000000010245 ], [ 167028.279, 454501.131999999983236 ], [ 167029.017, 454484.091000000014901 ], [ 167029.056000000011409, 454483.197999999974854 ], [ 167029.952, 454476.436999999976251 ], [ 167031.334, 454472.145000000018626 ], [ 167031.862, 454470.505 ], [ 167033.339, 454465.370999999984633 ], [ 167033.825000000011642, 454459.343 ], [ 167025.676, 454409.32 ], [ 167021.103, 454384.424 ], [ 167015.753, 454352.60999999998603 ], [ 167014.035, 454339.137999999977183 ], [ 167012.854, 454331.156000000017229 ], [ 167011.416, 454320.354 ], [ 167007.529, 454293.428000000014435 ], [ 167000.0, 454240.385 ], [ 166999.886, 454239.582 ], [ 166994.905999999988126, 454203.006999999983236 ], [ 166993.861, 454195.330000000016298 ], [ 166993.721, 454194.569000000017695 ], [ 166993.25700000001234, 454192.055999999982305 ], [ 166992.394999999989523, 454185.03000000002794 ], [ 166980.987, 454122.242000000027474 ], [ 166972.804, 454068.025000000023283 ], [ 166961.252, 454000.0 ], [ 166953.623, 453952.305 ], [ 166953.005, 453948.441999999980908 ], [ 166945.858, 453903.759000000020023 ], [ 166900.665, 453828.229 ], [ 166872.022999999986496, 453782.713999999978114 ], [ 166868.711000000010245, 453777.4509 ], [ 166865.764, 453772.767 ], [ 166850.313, 453747.435999999986961 ], [ 166826.378999999986263, 453708.822999999974854 ], [ 166815.242, 453690.51400000002468 ], [ 166804.608, 453672.87 ], [ 166794.847, 453656.268999999971129 ], [ 166794.832, 453656.243000000016764 ], [ 166793.50700000001234, 453653.989 ], [ 166793.452, 453653.772999999986496 ], [ 166793.362, 453652.772999999986496 ], [ 166793.337, 453651.767999999981839 ], [ 166793.378, 453650.76500000001397 ], [ 166793.48499999998603, 453649.766 ], [ 166793.655999999988126, 453648.776000000012573 ], [ 166793.892, 453647.799999999988358 ], [ 166794.191, 453646.841000000014901 ], [ 166814.113000000012107, 453599.527 ], [ 166818.443, 453585.527 ], [ 166825.700000000011642, 453560.950000000011642 ], [ 166833.976, 453543.381 ], [ 166842.571999999985565, 453525.294 ], [ 166849.907, 453507.12300000002142 ], [ 166886.927, 453417.922000000020489 ], [ 166887.424, 453416.707 ], [ 166889.659000000014203, 453411.25 ], [ 166889.825000000011642, 453410.84499999997206 ], [ 166892.044, 453405.163 ], [ 166898.668, 453389.117000000027474 ], [ 166898.93, 453388.483 ], [ 166901.74, 453381.134000000020023 ], [ 166900.128999999986263, 453368.838999999978114 ], [ 166897.988000000012107, 453307.329000000027008 ], [ 166898.574, 453297.142999999981839 ], [ 166898.435, 453260.033 ], [ 166897.253, 453241.378000000026077 ], [ 166892.729, 453221.268999999971129 ], [ 166888.59, 453205.800999999977648 ], [ 166886.405999999988126, 453197.636 ], [ 166880.269999999989523, 453158.634000000020023 ], [ 166878.170000000012806, 453134.598 ], [ 166875.4, 453081.522999999986496 ], [ 166874.532, 453049.424 ], [ 166873.996000000013737, 452962.788 ], [ 166875.549999999988358, 452953.526000000012573 ], [ 166875.777, 452917.526000000012573 ], [ 166872.25099999998929, 452857.384000000020023 ], [ 166870.054, 452837.864 ], [ 166868.211000000010245, 452821.481000000028871 ], [ 166866.303000000014435, 452808.221000000019558 ], [ 166864.174, 452796.60999999998603 ], [ 166863.43, 452794.909999999974389 ], [ 166854.700000000011642, 452788.729999999981374 ], [ 166850.708000000013271, 452786.711000000010245 ], [ 166846.450000000011642, 452784.539999999979045 ], [ 166847.098, 452784.37 ], [ 166854.170000000012806, 452782.51 ], [ 166854.149, 452781.691 ], [ 166851.21, 452668.0 ], [ 166849.74, 452627.94 ], [ 166848.309, 452580.48499999998603 ], [ 166846.62, 452524.090000000025611 ], [ 166844.84, 452483.14000000001397 ], [ 166842.712, 452450.237000000022817 ], [ 166837.85999999998603, 452375.200000000011642 ], [ 166829.34, 452334.049999999988358 ], [ 166825.32, 452319.57 ], [ 166821.429, 452308.424 ], [ 166821.04, 452307.35999999998603 ], [ 166820.782, 452306.202999999979511 ], [ 166819.786, 452301.729999999981374 ], [ 166816.99, 452289.169999999983702 ], [ 166812.997, 452267.696999999985565 ], [ 166811.068, 452259.838999999978114 ], [ 166810.423, 452257.212 ], [ 166808.644999999989523, 452249.76500000001397 ], [ 166796.957, 452186.304 ], [ 166794.32, 452173.161000000021886 ], [ 166793.457, 452168.863000000012107 ], [ 166792.928000000014435, 452166.222 ], [ 166783.524, 452094.928000000014435 ], [ 166773.921, 452023.612000000022817 ], [ 166771.543, 452003.854 ], [ 166768.619, 451942.657 ], [ 166768.381, 451937.683000000019092 ], [ 166766.299999999988358, 451877.971000000019558 ], [ 166763.935, 451842.675999999977648 ], [ 166759.659000000014203, 451798.406000000017229 ], [ 166759.008, 451792.924999999988358 ], [ 166755.218, 451760.988000000012107 ], [ 166755.131, 451760.495999999984633 ], [ 166749.358, 451729.009000000020023 ], [ 166744.38200000001234, 451703.566 ], [ 166741.49900000001071, 451686.174999999988358 ], [ 166739.002, 451657.088999999978114 ], [ 166737.016, 451631.897 ], [ 166731.919, 451600.39000000001397 ], [ 166725.347, 451559.471000000019558 ], [ 166723.904, 451551.398999999975786 ], [ 166718.826, 451524.37 ], [ 166713.344000000011874, 451495.194000000017695 ], [ 166708.122, 451467.033 ], [ 166702.932999999989988, 451439.050999999977648 ], [ 166702.098, 451434.549 ], [ 166698.174, 451413.392 ], [ 166697.839, 451411.503000000026077 ], [ 166692.64000000001397, 451382.159999999974389 ], [ 166686.6, 451354.0 ], [ 166736.799999999988358, 451338.299999999988358 ], [ 166741.200000000011642, 451336.599999999976717 ], [ 166744.25, 451335.200000000011642 ], [ 166749.6, 451331.599999999976717 ], [ 166753.0, 451328.400000000023283 ], [ 166758.799999999988358, 451319.400000000023283 ], [ 166760.200000000011642, 451315.799999999988358 ], [ 166760.4, 451313.200000000011642 ], [ 166759.6, 451308.599999999976717 ], [ 166754.700000000011642, 451296.400000000023283 ], [ 166714.6, 451211.799999999988358 ], [ 166707.63, 451195.76 ], [ 166709.536, 451186.12 ], [ 166709.068, 451182.762999999977183 ], [ 166709.787000000011176, 451162.021 ], [ 166708.644, 451161.636999999987893 ], [ 166707.644999999989523, 451161.158 ], [ 166703.715399999986403, 451162.4707 ], [ 166651.105000000010477, 451180.045999999972992 ], [ 166645.113000000012107, 451186.039999999979045 ], [ 166633.454, 451188.669999999983702 ], [ 166567.087999999988824, 451204.900000000023283 ], [ 166511.899, 451218.538999999989755 ], [ 166510.636999999987893, 451217.107000000018161 ], [ 166477.615, 451223.803000000014435 ], [ 166476.921, 451217.429 ], [ 166474.536, 451195.543 ], [ 166457.087, 451199.743000000016764 ], [ 166407.133, 451206.385 ], [ 166359.752, 451213.825000000011642 ], [ 166310.590999999985797, 451219.408999999985099 ], [ 166308.666, 451219.643999999971129 ], [ 166283.429, 451222.731000000028871 ], [ 166205.033, 451225.299999999988358 ], [ 166146.79, 451227.058000000019092 ], [ 166093.288, 451228.919 ], [ 165957.616, 451234.134000000020023 ], [ 165956.814000000013039, 451234.164999999979045 ], [ 165877.077, 451237.933000000019092 ], [ 165862.956, 451238.457 ], [ 165838.53, 451239.18 ], [ 165799.56, 451240.602000000013504 ], [ 165791.356, 451219.228 ], [ 165789.93, 451215.490999999979977 ], [ 165784.886, 451202.273999999975786 ], [ 165759.865, 451136.706 ], [ 165757.399, 451130.288 ], [ 165710.252, 451007.533 ], [ 165709.50099999998929, 451005.555999999982305 ], [ 165618.782, 450768.38900000002468 ], [ 165605.924999999988358, 450733.99900000001071 ], [ 165605.454, 450732.738000000012107 ], [ 165605.146, 450731.913999999989755 ], [ 165605.082, 450731.742000000027474 ], [ 165600.13, 450718.496999999973923 ], [ 165597.5, 450714.348999999987427 ], [ 165592.203, 450705.061999999976251 ], [ 165590.886999999987893, 450697.958999999973457 ], [ 165590.517, 450695.381 ], [ 165587.468, 450679.549 ], [ 165574.82, 450610.467 ], [ 165570.268000000010943, 450586.213999999978114 ], [ 165564.147999999986496, 450563.602000000013504 ], [ 165562.233, 450557.528 ], [ 165558.995, 450547.256 ], [ 165558.277, 450545.413 ], [ 165555.644, 450538.65500000002794 ], [ 165554.443, 450535.575000000011642 ], [ 165554.263, 450535.112000000022817 ], [ 165545.75700000001234, 450517.03000000002794 ], [ 165542.0128, 450510.364899999985937 ], [ 165532.924, 450494.185999999986961 ], [ 165521.00099999998929, 450479.99800000002142 ], [ 165498.052, 450452.688000000023749 ], [ 165496.651000000012573, 450451.021 ], [ 165487.098, 450439.674 ], [ 165460.333000000013271, 450407.88 ], [ 165446.386999999987893, 450393.583999999973457 ], [ 165434.356, 450384.396 ], [ 165418.9, 450374.466000000014901 ], [ 165406.38200000001234, 450346.913 ], [ 165405.28, 450344.488000000012107 ], [ 165402.157, 450337.614 ], [ 165365.258, 450355.147 ], [ 165306.162000000011176, 450353.418 ], [ 165301.486, 450353.56 ], [ 165301.445, 450353.560999999986961 ], [ 165271.587, 450354.467 ], [ 165256.163, 450354.935 ], [ 165254.112, 450354.996999999973923 ], [ 165247.014, 450355.212 ], [ 165206.837, 450357.017 ], [ 165187.873, 450357.869 ], [ 165171.159000000014203, 450360.38900000002468 ], [ 165168.231999999989057, 450360.830000000016298 ], [ 165166.32, 450359.62 ], [ 165166.106, 450359.467 ], [ 165112.027, 450320.98499999998603 ], [ 165095.49900000001071, 450309.223999999987427 ], [ 165021.75700000001234, 450256.75 ], [ 165008.655999999988126, 450247.427000000025146 ], [ 164969.24, 450219.38 ], [ 164953.88200000001234, 450208.420999999972992 ], [ 164935.03, 450194.96999999997206 ], [ 164919.49, 450186.24 ], [ 164916.844000000011874, 450184.734 ], [ 164913.090999999985797, 450182.598999999987427 ], [ 164910.43, 450180.238000000012107 ], [ 164910.276000000012573, 450180.101000000024214 ], [ 164910.056000000011409, 450179.906000000017229 ], [ 164908.518000000010943, 450177.85999999998603 ], [ 164908.836000000010245, 450177.63900000002468 ], [ 164913.72, 450174.23499999998603 ], [ 164920.663, 450169.397 ], [ 164907.356, 450152.76500000001397 ], [ 164905.258, 450150.132999999972526 ], [ 164903.836000000010245, 450148.348999999987427 ], [ 164898.35, 450141.212 ], [ 164894.950000000011642, 450136.76 ], [ 164877.079999999987194, 450148.049999999988358 ], [ 164852.980000000010477, 450160.049999999988358 ], [ 164824.723999999987427, 450167.142999999981839 ], [ 164805.019999999989523, 450176.21999999997206 ], [ 164786.91, 450188.520000000018626 ], [ 164784.193, 450190.65500000002794 ], [ 164779.44, 450194.39000000001397 ], [ 164767.147, 450205.253000000026077 ], [ 164752.609, 450218.099999999976717 ], [ 164754.424999999988358, 450221.950000000011642 ], [ 164754.89000000001397, 450222.936999999976251 ], [ 164738.987, 450234.908 ], [ 164737.222, 450236.348999999987427 ], [ 164733.32, 450239.533 ], [ 164706.932999999989988, 450261.581 ], [ 164707.565, 450264.063000000023749 ], [ 164697.654, 450273.408999999985099 ], [ 164680.347, 450278.694000000017695 ], [ 164658.056000000011409, 450284.988000000012107 ], [ 164629.704, 450292.799999999988358 ], [ 164619.193, 450296.870999999984633 ], [ 164601.139, 450303.863000000012107 ], [ 164579.498, 450312.104999999981374 ], [ 164577.166999999986729, 450313.195 ], [ 164573.005, 450315.141 ], [ 164553.53, 450325.982000000018161 ], [ 164548.98499999998603, 450328.800999999977648 ], [ 164535.353, 450338.121999999973923 ], [ 164522.586000000010245, 450347.443000000028405 ], [ 164513.932, 450356.112000000022817 ], [ 164500.301, 450370.199000000022352 ], [ 164489.699, 450380.82 ], [ 164479.746000000013737, 450390.572999999974854 ], [ 164463.73499999998603, 450405.960000000020955 ], [ 164448.155999999988126, 450421.348 ], [ 164431.497, 450438.037000000011176 ], [ 164416.135, 450453.858 ], [ 164399.476, 450472.061999999976251 ], [ 164388.225, 450484.199000000022352 ], [ 164376.325000000011642, 450496.552000000025146 ], [ 164357.068999999988591, 450516.490999999979977 ], [ 164344.953, 450529.278 ], [ 164328.293, 450546.615999999979977 ], [ 164313.581, 450562.003000000026077 ], [ 164294.973, 450581.509000000020023 ], [ 164282.641, 450594.946 ], [ 164273.337999999988824, 450604.914999999979045 ], [ 164262.303000000014435, 450616.618000000016764 ], [ 164247.158, 450632.223 ], [ 164217.223, 450660.717 ], [ 164214.59, 450663.223 ], [ 164198.639, 450680.194000000017695 ], [ 164161.144, 450719.517999999981839 ], [ 164133.179, 450748.286000000021886 ], [ 164119.315, 450763.571 ], [ 164113.222, 450770.287000000011176 ], [ 164110.497, 450773.292000000015832 ], [ 164109.149, 450774.778 ], [ 164099.478, 450786.591000000014901 ], [ 164096.1, 450790.716000000014901 ], [ 164072.07, 450815.552000000025146 ], [ 164043.483, 450844.112000000022817 ], [ 164039.943, 450847.87599999998929 ], [ 164027.329999999987194, 450861.284999999974389 ], [ 164003.166999999986729, 450885.056999999971595 ], [ 163989.089, 450899.896 ], [ 163971.247, 450917.922000000020489 ], [ 163958.889, 450927.700000000011642 ], [ 163956.051, 450929.837 ], [ 163954.893000000010943, 450930.772999999986496 ], [ 163946.462, 450936.496999999973923 ], [ 163936.549999999988358, 450943.382999999972526 ], [ 163933.259, 450945.027 ], [ 163935.352000000013504, 450949.234 ], [ 163935.428000000014435, 450949.386999999987893 ], [ 163935.844000000011874, 450950.223999999987427 ], [ 163936.071, 450950.680999999982305 ], [ 163936.592, 450951.729 ], [ 163937.942000000010012, 450955.246999999973923 ], [ 163938.111, 450955.688000000023749 ], [ 163937.367, 450958.189000000013039 ], [ 163929.674999999988358, 450969.005 ], [ 163924.19, 450976.642999999981839 ], [ 163911.949, 450994.261 ], [ 163908.476, 450999.243000000016764 ], [ 163901.307999999989988, 451009.50099999998929 ], [ 163896.136999999987893, 451016.902 ], [ 163889.383, 451025.465000000025611 ], [ 163889.203, 451025.693000000028405 ], [ 163887.415, 451027.939000000013039 ], [ 163886.403, 451029.210000000020955 ], [ 163885.098, 451030.848 ], [ 163875.726, 451042.923 ], [ 163864.87, 451057.707 ], [ 163864.275, 451069.994 ], [ 163863.443999999988591, 451084.575000000011642 ], [ 163861.365, 451110.40500000002794 ], [ 163860.117, 451125.819000000017695 ], [ 163858.663, 451149.982000000018161 ], [ 163856.586000000010245, 451180.810999999986961 ], [ 163853.884, 451215.805 ], [ 163851.39000000001397, 451253.091000000014901 ], [ 163849.521, 451288.503000000026077 ], [ 163847.052, 451324.386999999987893 ], [ 163847.027, 451324.746999999973923 ], [ 163845.888, 451338.601000000024214 ], [ 163845.503999999986263, 451343.267999999981839 ], [ 163844.116, 451360.158 ], [ 163843.834, 451369.525000000023283 ], [ 163843.821, 451369.955000000016298 ], [ 163843.389, 451384.262999999977183 ], [ 163842.479, 451392.49800000002142 ], [ 163842.215999999985797, 451395.53000000002794 ], [ 163841.347, 451405.060999999986961 ], [ 163840.805, 451411.330000000016298 ], [ 163840.329999999987194, 451419.153999999980442 ], [ 163839.74299999998766, 451429.949000000022352 ], [ 163839.15, 451439.536000000021886 ], [ 163838.598999999987427, 451447.902 ], [ 163837.87599999998929, 451458.99900000001071 ], [ 163836.893000000010943, 451470.917000000015832 ], [ 163836.616, 451474.272999999986496 ], [ 163835.037000000011176, 451490.441 ], [ 163834.973999999987427, 451492.240999999979977 ], [ 163834.798, 451497.272 ], [ 163834.666999999986729, 451500.0 ], [ 163834.291, 451507.802000000025146 ], [ 163833.519, 451523.819000000017695 ], [ 163831.913999999989755, 451547.716000000014901 ], [ 163831.426, 451554.982000000018161 ], [ 163829.092, 451589.728 ], [ 163828.155999999988126, 451597.006999999983236 ], [ 163810.503, 451597.84499999997206 ], [ 163800.0, 451597.553000000014435 ], [ 163799.875, 451597.549999999988358 ], [ 163791.627, 451597.73499999998603 ], [ 163785.295000000012806, 451597.679 ], [ 163780.168, 451597.805 ], [ 163776.744, 451597.973999999987427 ], [ 163776.517, 451597.98499999998603 ], [ 163765.291, 451598.537000000011176 ], [ 163769.24900000001071, 451613.867000000027474 ], [ 163771.707, 451623.00199999997858 ], [ 163774.354, 451631.87699999997858 ], [ 163775.871000000013737, 451637.352000000013504 ], [ 163778.481999999989057, 451647.253000000026077 ], [ 163784.655999999988126, 451670.827999999979511 ], [ 163785.03, 451672.262999999977183 ], [ 163786.489, 451678.083999999973457 ], [ 163791.681000000011409, 451696.957999999984168 ], [ 163797.934, 451720.085000000020955 ], [ 163812.179, 451772.712 ], [ 163806.661, 451776.109 ], [ 163804.74, 451777.568000000028405 ], [ 163800.0, 451780.099999999976717 ], [ 163798.479, 451780.912000000011176 ], [ 163791.733, 451784.642999999981839 ], [ 163786.068999999988591, 451788.805 ], [ 163780.671, 451793.213999999978114 ], [ 163778.238000000012107, 451794.822999999974854 ], [ 163777.913, 451795.175999999977648 ], [ 163776.855000000010477, 451796.327 ], [ 163771.702, 451801.93 ], [ 163766.287000000011176, 451807.135 ], [ 163760.663999999989755, 451811.920999999972992 ], [ 163751.916999999986729, 451818.788999999989755 ], [ 163738.378999999986263, 451828.568000000028405 ], [ 163721.302, 451840.429 ], [ 163707.556000000011409, 451849.792000000015832 ], [ 163695.684, 451851.656000000017229 ], [ 163689.019, 451852.901000000012573 ], [ 163680.688, 451855.603 ], [ 163665.275, 451860.173 ], [ 163654.861, 451863.706 ], [ 163640.907, 451869.73599999997532 ], [ 163627.783, 451875.027 ], [ 163625.077, 451875.555 ], [ 163610.081, 451875.543 ], [ 163587.168, 451874.275000000023283 ], [ 163569.672, 451873.428000000014435 ], [ 163554.259, 451873.62300000002142 ], [ 163550.718, 451874.662000000011176 ], [ 163543.844000000011874, 451877.156000000017229 ], [ 163533.639, 451880.689000000013039 ], [ 163525.307999999989988, 451882.973999999987427 ], [ 163511.560999999986961, 451886.712999999988824 ], [ 163489.9, 451893.362000000022817 ], [ 163474.28, 451898.76500000001397 ], [ 163459.283, 451903.544 ], [ 163448.66, 451906.659999999974389 ], [ 163440.121000000013737, 451909.153999999980442 ], [ 163433.456, 451910.189000000013039 ], [ 163417.418, 451912.468 ], [ 163412.003, 451913.713999999978114 ], [ 163402.005, 451917.038 ], [ 163391.174999999988358, 451919.738000000012107 ], [ 163384.093, 451921.19 ], [ 163377.011999999987893, 451922.227000000013504 ], [ 163363.889, 451922.631999999983236 ], [ 163358.282, 451923.037000000011176 ], [ 163333.782, 451924.918 ], [ 163314.426, 451927.300999999977648 ], [ 163292.633, 451930.005 ], [ 163286.321, 451930.90500000002794 ], [ 163279.858, 451931.356000000028871 ], [ 163270.24, 451931.506 ], [ 163262.272999999986496, 451933.458999999973457 ], [ 163255.959, 451936.012999999977183 ], [ 163249.192000000010012, 451940.37 ], [ 163241.825000000011642, 451945.026000000012573 ], [ 163235.362, 451946.979999999981374 ], [ 163228.147, 451948.481000000028871 ], [ 163219.88, 451950.434 ], [ 163209.208000000013271, 451952.387999999977183 ], [ 163195.53, 451955.092 ], [ 163183.957, 451957.495 ], [ 163175.238000000012107, 451960.199000000022352 ], [ 163168.62400000001071, 451962.00099999998929 ], [ 163160.958000000013271, 451964.40500000002794 ], [ 163154.344000000011874, 451966.957999999984168 ], [ 163144.420000000012806, 451971.466000000014901 ], [ 163134.949, 451976.121999999973923 ], [ 163104.73499999998603, 451985.587 ], [ 163082.788, 451992.196999999985565 ], [ 163070.161, 451996.102000000013504 ], [ 163063.848, 451997.755 ], [ 163050.772, 452000.007999999972526 ], [ 163043.858, 452001.208999999973457 ], [ 163035.44, 452002.561999999976251 ], [ 163027.325000000011642, 452003.613000000012107 ], [ 163012.745, 452005.867000000027474 ], [ 162997.866, 452008.419999999983702 ], [ 162978.174, 452013.227000000013504 ], [ 162962.692000000010012, 452016.532 ], [ 162951.119, 452018.935999999986961 ], [ 162939.394, 452021.338999999978114 ], [ 162931.729, 452022.990999999979977 ], [ 162924.214, 452023.743000000016764 ], [ 162919.405999999988126, 452023.441999999980908 ], [ 162909.788, 452022.39000000001397 ], [ 162905.881, 452022.539999999979045 ], [ 162883.48499999998603, 452027.347 ], [ 162866.049, 452030.803000000014435 ], [ 162847.26, 452034.708999999973457 ], [ 162826.818, 452039.365 ], [ 162795.252, 452047.928000000014435 ], [ 162770.302, 452051.382999999972526 ], [ 162764.981999999989057, 452052.13900000002468 ], [ 162739.641, 452055.739 ], [ 162717.847, 452058.893999999971129 ], [ 162703.568999999988591, 452060.696 ], [ 162696.956, 452061.447999999974854 ], [ 162686.886, 452062.799 ], [ 162679.671, 452064.152 ], [ 162676.815, 452064.902 ], [ 162669.75, 452067.606000000028871 ], [ 162659.377, 452071.511999999987893 ], [ 162653.063, 452074.066 ], [ 162645.698, 452075.718999999982771 ], [ 162614.434, 452081.12699999997858 ], [ 162595.946999999985565, 452084.581 ], [ 162590.454, 452085.232000000018161 ], [ 162590.057, 452093.00199999997858 ], [ 162589.557, 452098.025000000023283 ], [ 162587.547, 452117.912000000011176 ], [ 162585.049, 452141.903 ], [ 162581.397999999986496, 452175.297000000020489 ], [ 162579.668, 452192.185999999986961 ], [ 162576.593, 452220.973999999987427 ], [ 162576.245, 452224.463999999978114 ], [ 162574.37, 452240.169999999983702 ], [ 162572.922, 452253.547000000020489 ], [ 162570.719000000011874, 452275.047000000020489 ], [ 162569.041999999986729, 452289.853 ], [ 162568.065, 452303.379000000015367 ], [ 162568.024, 452303.949000000022352 ], [ 162566.049, 452320.946999999985565 ], [ 162558.631, 452400.054 ], [ 162550.604, 452471.303000000014435 ], [ 162550.538999999989755, 452472.170999999972992 ], [ 162550.25099999998929, 452476.036000000021886 ], [ 162549.818999999988591, 452481.837999999988824 ], [ 162547.722, 452497.38900000002468 ], [ 162547.399, 452500.0 ], [ 162544.636, 452522.357000000018161 ], [ 162542.426, 452551.791000000026543 ], [ 162541.519, 452559.903 ], [ 162540.139, 452572.243000000016764 ], [ 162540.021, 452573.952 ], [ 162539.706, 452578.489 ], [ 162539.659000000014203, 452579.169999999983702 ], [ 162539.633, 452579.473 ], [ 162539.631, 452579.495999999984633 ], [ 162537.877, 452600.120999999984633 ], [ 162537.284000000014203, 452605.357000000018161 ], [ 162537.146, 452606.571 ], [ 162536.97, 452608.12599999998929 ], [ 162534.411, 452630.718 ], [ 162531.326, 452663.802000000025146 ], [ 162531.272999999986496, 452664.375 ], [ 162531.237, 452664.65500000002794 ], [ 162528.195, 452688.038 ], [ 162524.087999999988824, 452721.156000000017229 ], [ 162523.748, 452723.62599999998929 ], [ 162521.992, 452736.384000000020023 ], [ 162519.135, 452769.73599999997532 ], [ 162516.329999999987194, 452795.495 ], [ 162514.253, 452810.596000000019558 ], [ 162511.06, 452827.566 ], [ 162509.739, 452842.365 ], [ 162508.437, 452862.489 ], [ 162507.998, 452891.286000000021886 ], [ 162506.468, 452926.446999999985565 ], [ 162503.179, 452947.408 ], [ 162500.0, 452962.38900000002468 ], [ 162495.488000000012107, 452983.651000000012573 ], [ 162492.922, 452998.435999999986961 ], [ 162492.651000000012573, 453000.0 ], [ 162492.329, 453001.857000000018161 ], [ 162490.480000000010477, 453010.148999999975786 ], [ 162490.407, 453010.478 ], [ 162490.35, 453010.732000000018161 ], [ 162490.033, 453012.15500000002794 ], [ 162489.238000000012107, 453015.386 ], [ 162485.134, 453029.634000000020023 ], [ 162481.532, 453042.420999999972992 ], [ 162476.347, 453060.522999999986496 ], [ 162473.693, 453070.082 ], [ 162472.937, 453073.181999999971595 ], [ 162472.647999999986496, 453075.414999999979045 ], [ 162472.54, 453078.369 ], [ 162472.576, 453082.331 ], [ 162474.340999999985797, 453090.435999999986961 ], [ 162476.571999999985565, 453099.0 ], [ 162479.348, 453109.875 ], [ 162480.952, 453116.435999999986961 ], [ 162483.006, 453126.577 ], [ 162483.761999999987893, 453131.728 ], [ 162483.878, 453137.94 ], [ 162483.62599999998929, 453144.063000000023749 ], [ 162482.726, 453150.979 ], [ 162481.908, 453159.995 ], [ 162480.171, 453177.052000000025146 ], [ 162478.412000000011176, 453192.272 ], [ 162476.973999999987427, 453207.688000000023749 ], [ 162476.181000000011409, 453216.754000000015367 ], [ 162475.544, 453222.882999999972526 ], [ 162473.602000000013504, 453245.916000000026543 ], [ 162472.953, 453253.768999999971129 ], [ 162471.634, 453269.691999999980908 ], [ 162471.418, 453273.365999999979977 ], [ 162469.747, 453293.700000000011642 ], [ 162468.919, 453302.994 ], [ 162467.528, 453316.069000000017695 ], [ 162464.788, 453339.783 ], [ 162464.065, 453346.259000000020023 ], [ 162462.275, 453360.869 ], [ 162461.163999999989755, 453369.582999999984168 ], [ 162459.698, 453380.901000000012573 ], [ 162458.653, 453393.256 ], [ 162456.498, 453417.553000000014435 ], [ 162454.217, 453435.223999999987427 ], [ 162453.134, 453445.62300000002142 ], [ 162451.230000000010477, 453459.147 ], [ 162449.598999999987427, 453470.114 ], [ 162448.352000000013504, 453479.522999999986496 ], [ 162447.666999999986729, 453486.151000000012573 ], [ 162447.182999999989988, 453495.083999999973457 ], [ 162447.147, 453501.027 ], [ 162446.788999999989755, 453508.909999999974389 ], [ 162446.465, 453513.629000000015367 ], [ 162444.836000000010245, 453526.093999999982771 ], [ 162444.151000000012573, 453530.631999999983236 ], [ 162443.021, 453536.603 ], [ 162441.112, 453548.238000000012107 ], [ 162438.923, 453560.354 ], [ 162437.62599999998929, 453568.315 ], [ 162436.041, 453578.827 ], [ 162435.861, 453579.89000000001397 ], [ 162432.337999999988824, 453602.064000000013039 ], [ 162430.356, 453611.358 ], [ 162429.24, 453617.555 ], [ 162429.116, 453619.786000000021886 ], [ 162428.945, 453621.653999999980442 ], [ 162429.688, 453630.701 ], [ 162430.307999999989988, 453636.526000000012573 ], [ 162430.928000000014435, 453642.349999999976717 ], [ 162432.787000000011176, 453656.602000000013504 ], [ 162435.258, 453675.363000000012107 ], [ 162435.9, 453680.543 ], [ 162437.358, 453681.87599999998929 ], [ 162450.067000000010012, 453693.517 ], [ 162461.438, 453704.10999999998603 ], [ 162465.276000000012573, 453707.685 ], [ 162473.084, 453710.924999999988358 ], [ 162468.679, 453715.688000000023749 ], [ 162468.123, 453716.071 ], [ 162482.059, 453709.037000000011176 ], [ 162503.191, 453699.295999999972992 ], [ 162536.663, 453686.851000000024214 ], [ 162551.590999999985797, 453682.215000000025611 ], [ 162562.563, 453679.62 ], [ 162562.777, 453679.569000000017695 ], [ 162574.306000000011409, 453678.091000000014901 ], [ 162588.321999999985565, 453676.161000000021886 ], [ 162601.204, 453675.621999999973923 ], [ 162617.76, 453675.577999999979511 ], [ 162636.365, 453675.842 ], [ 162652.263, 453676.193000000028405 ], [ 162667.458000000013271, 453676.528999999980442 ], [ 162684.152, 453676.895000000018626 ], [ 162702.34, 453677.332 ], [ 162703.003999999986263, 453677.343 ], [ 162704.722, 453677.37 ], [ 162709.701, 453677.449000000022352 ], [ 162714.541999999986729, 453677.659999999974389 ], [ 162725.592, 453678.332999999984168 ], [ 162726.212999999988824, 453679.245 ], [ 162727.139, 453680.479 ], [ 162727.837999999988824, 453681.409999999974389 ], [ 162729.685, 453684.090000000025611 ], [ 162733.902, 453690.180999999982305 ], [ 162738.807, 453696.558000000019092 ], [ 162744.503999999986263, 453704.757999999972526 ], [ 162751.778, 453715.271 ], [ 162758.748, 453725.302000000025146 ], [ 162766.348999999987427, 453735.772 ], [ 162773.552, 453745.794999999983702 ], [ 162778.702, 453753.06 ], [ 162781.863000000012107, 453757.157 ], [ 162784.184, 453760.428000000014435 ], [ 162785.859, 453762.462 ], [ 162788.865, 453766.797000000020489 ], [ 162794.797, 453775.598 ], [ 162798.932999999989988, 453780.98499999998603 ], [ 162802.834, 453786.580000000016298 ], [ 162808.525, 453794.406000000017229 ], [ 162815.415, 453804.337 ], [ 162819.926, 453810.836000000010245 ], [ 162826.668, 453818.699000000022352 ], [ 162836.586000000010245, 453832.385 ], [ 162847.601, 453847.283999999985099 ], [ 162857.036, 453861.713999999978114 ], [ 162863.481999999989057, 453872.298 ], [ 162869.788, 453883.451 ], [ 162873.768000000010943, 453893.314000000013039 ], [ 162874.487, 453895.185 ], [ 162876.756, 453902.201 ], [ 162930.615, 453902.341000000014901 ], [ 163000.0, 453902.685999999986961 ], [ 163026.606999999989057, 453902.818000000028405 ], [ 163047.606, 453902.966000000014901 ], [ 163047.471, 453904.275000000023283 ], [ 163047.76500000001397, 453908.129000000015367 ], [ 163048.519999999989523, 453920.195 ], [ 163048.458000000013271, 453921.971000000019558 ], [ 163050.047, 453942.254000000015367 ], [ 163054.807, 453991.0 ], [ 163055.465, 453995.460000000020955 ], [ 163055.89000000001397, 454000.0 ], [ 163060.952, 454054.093999999982771 ], [ 163065.019999999989523, 454102.789999999979045 ], [ 163065.077, 454103.473 ], [ 163065.288, 454105.994 ], [ 163068.423, 454163.727000000013504 ], [ 163069.946999999985565, 454189.26 ], [ 163070.331100000010338, 454196.654199999989942 ], [ 163074.405999999988126, 454275.092 ], [ 163075.712999999988824, 454280.479 ], [ 163080.272, 454299.267999999981839 ], [ 163106.596, 454292.417000000015832 ], [ 163108.009, 454292.066999999980908 ], [ 163122.497, 454288.478 ], [ 163129.23499999998603, 454286.809 ], [ 163145.962999999988824, 454282.62300000002142 ], [ 163153.769999999989523, 454281.147999999986496 ], [ 163164.033, 454279.153 ], [ 163177.076, 454276.585000000020955 ], [ 163179.612, 454276.862000000022817 ], [ 163179.674999999988358, 454276.869 ], [ 163185.568, 454278.043 ], [ 163187.252, 454278.379000000015367 ], [ 163188.715999999985797, 454278.670999999972992 ], [ 163201.3972, 454281.354999999981374 ], [ 163233.823, 454288.218 ], [ 163236.036, 454288.68 ], [ 163254.356999999989057, 454292.506 ], [ 163272.932999999989988, 454295.767999999981839 ], [ 163283.29, 454297.667000000015832 ], [ 163289.775, 454298.906000000017229 ], [ 163306.231, 454302.056999999971595 ], [ 163333.077, 454307.196999999985565 ], [ 163357.405999999988126, 454307.06 ], [ 163357.704, 454307.058000000019092 ], [ 163358.269999999989523, 454307.055 ], [ 163363.636999999987893, 454306.295999999972992 ], [ 163385.221, 454343.783999999985099 ], [ 163385.845, 454344.868000000016764 ], [ 163389.07, 454349.949000000022352 ], [ 163399.965, 454376.427000000025146 ], [ 163401.066, 454378.666000000026543 ], [ 163402.522999999986496, 454380.832999999984168 ], [ 163407.00099999998929, 454385.488000000012107 ], [ 163426.912000000011176, 454405.767999999981839 ], [ 163428.44, 454407.544999999983702 ], [ 163431.14000000001397, 454411.702999999979511 ], [ 163437.774, 454416.837 ], [ 163438.25, 454417.370999999984633 ], [ 163438.553000000014435, 454420.978 ], [ 163442.744, 454427.137999999977183 ], [ 163441.88, 454427.642999999981839 ], [ 163442.682999999989988, 454430.311999999976251 ], [ 163443.12400000001071, 454432.332 ], [ 163443.062, 454434.928000000014435 ], [ 163442.715, 454438.968 ], [ 163441.439000000013039, 454445.099999999976717 ], [ 163440.013, 454449.86099999997532 ], [ 163437.222, 454456.427000000025146 ], [ 163427.655999999988126, 454476.259000000020023 ], [ 163423.497, 454484.881 ], [ 163417.49, 454497.337 ], [ 163415.928000000014435, 454500.0 ], [ 163412.828, 454505.283 ], [ 163408.726, 454511.702 ], [ 163396.86799999998766, 454529.984 ], [ 163399.405999999988126, 454531.25199999997858 ], [ 163412.522, 454537.809 ], [ 163412.755, 454537.778999999980442 ], [ 163430.579, 454535.553000000014435 ], [ 163462.992, 454531.972 ], [ 163484.310999999986961, 454529.615999999979977 ], [ 163516.221, 454525.60999999998603 ], [ 163521.044, 454525.650000000023283 ], [ 163524.234, 454525.675999999977648 ], [ 163526.056000000011409, 454522.718 ], [ 163534.267, 454526.06 ], [ 163557.99900000001071, 454525.939000000013039 ], [ 163566.663999999989755, 454525.150000000023283 ], [ 163571.101, 454524.511 ], [ 163587.208000000013271, 454520.651000000012573 ], [ 163610.063, 454515.444000000017695 ], [ 163626.47, 454512.090000000025611 ], [ 163633.529, 454510.865 ], [ 163640.894999999989523, 454510.354 ], [ 163659.199, 454509.843999999982771 ], [ 163663.904, 454509.041000000026543 ], [ 163674.87, 454507.305999999982305 ], [ 163683.6, 454506.004000000015367 ], [ 163690.34, 454505.210000000020955 ], [ 163697.919, 454505.063000000023749 ], [ 163702.828, 454505.132999999972526 ], [ 163709.25700000001234, 454506.429 ], [ 163723.153, 454509.99 ], [ 163723.526000000012573, 454510.224999999976717 ], [ 163726.769, 454512.273999999975786 ], [ 163732.049999999988358, 454516.772 ], [ 163738.321, 454521.585000000020955 ], [ 163743.402, 454524.992000000027474 ], [ 163744.301, 454525.59499999997206 ], [ 163748.717, 454528.185999999986961 ], [ 163751.878999999986263, 454530.080000000016298 ], [ 163753.536, 454523.423 ], [ 163770.185999999986961, 454521.776000000012573 ], [ 163771.681000000011409, 454532.929 ], [ 163777.703, 454534.257999999972526 ], [ 163789.574, 454539.021 ], [ 163814.334, 454544.87300000002142 ], [ 163828.703, 454547.946999999985565 ], [ 163840.932, 454550.517 ], [ 163856.252, 454552.86099999997532 ], [ 163873.24, 454554.298 ], [ 163890.228, 454555.424 ], [ 163906.071, 454556.168 ], [ 163949.402, 454557.648999999975786 ], [ 163973.318, 454557.783 ], [ 164000.0, 454558.032 ], [ 164064.699, 454558.636 ], [ 164063.125, 454556.384000000020023 ], [ 164063.529, 454548.664999999979045 ], [ 164069.196, 454538.852000000013504 ], [ 164074.317000000010012, 454537.408 ], [ 164074.165, 454533.956 ], [ 164074.158, 454533.800999999977648 ], [ 164075.066, 454529.313000000023749 ], [ 164075.15, 454528.896 ], [ 164081.829, 454522.631 ], [ 164087.31, 454516.581 ], [ 164087.581, 454516.281000000017229 ], [ 164092.891, 454511.11099999997532 ], [ 164102.87599999998929, 454499.168 ], [ 164110.969000000011874, 454486.5 ], [ 164112.026000000012573, 454483.892 ], [ 164113.394999999989523, 454480.511 ], [ 164118.764, 454471.65500000002794 ], [ 164127.973, 454456.463999999978114 ], [ 164144.943999999988591, 454455.587 ], [ 164158.488000000012107, 454447.778999999980442 ], [ 164174.143000000010943, 454438.288999999989755 ], [ 164175.46, 454438.011999999987893 ], [ 164177.340999999985797, 454438.386999999987893 ], [ 164179.525, 454440.829000000027008 ], [ 164185.82, 454450.76400000002468 ], [ 164186.787000000011176, 454452.364 ], [ 164188.818, 454453.09499999997206 ], [ 164191.47, 454452.520000000018626 ], [ 164200.252, 454448.054 ], [ 164222.002, 454435.87599999998929 ], [ 164239.166, 454426.919999999983702 ], [ 164250.37400000001071, 454419.28000000002794 ], [ 164258.202, 454412.395000000018626 ], [ 164264.339, 454405.479 ], [ 164268.646, 454401.604999999981374 ], [ 164278.671, 454387.069000000017695 ], [ 164280.723999999987427, 454382.680999999982305 ], [ 164281.247, 454381.563000000023749 ], [ 164285.608, 454371.577999999979511 ], [ 164336.605000000010477, 454422.087999999988824 ], [ 164347.603, 454432.993000000016764 ], [ 164351.85999999998603, 454437.215000000025611 ], [ 164354.929, 454440.695 ], [ 164361.920000000012806, 454448.625 ], [ 164365.293, 454452.298 ], [ 164370.18, 454457.620999999984633 ], [ 164385.29, 454474.226000000024214 ], [ 164401.32, 454495.191 ], [ 164414.524, 454512.460000000020955 ], [ 164505.959, 454654.972 ], [ 164575.727000000013504, 454721.23599999997532 ], [ 164593.230000000010477, 454733.819000000017695 ], [ 164611.577, 454746.968999999982771 ], [ 164613.899, 454748.634000000020023 ], [ 164640.204999999987194, 454767.262999999977183 ], [ 164644.247, 454768.172000000020489 ], [ 164648.780999999988126, 454769.191 ], [ 164659.687, 454770.71999999997206 ], [ 164667.071, 454771.57 ], [ 164669.133, 454772.286000000021886 ], [ 164671.234, 454774.273999999975786 ], [ 164686.560999999986961, 454790.849999999976717 ], [ 164693.317000000010012, 454796.186999999976251 ], [ 164705.127, 454806.006 ], [ 164713.051, 454810.585000000020955 ], [ 164731.392, 454821.424999999988358 ], [ 164751.356999999989057, 454833.152 ], [ 164757.264, 454834.400000000023283 ], [ 164785.076, 454839.71999999997206 ], [ 164793.344000000011874, 454841.299999999988358 ], [ 164806.861, 454844.816999999980908 ], [ 164820.72, 454848.503000000026077 ], [ 164825.233, 454852.462 ], [ 164836.416999999986729, 454863.36099999997532 ], [ 164845.046, 454872.729 ], [ 164856.662000000011176, 454887.229999999981374 ], [ 164866.424999999988358, 454899.778 ], [ 164871.304, 454910.73599999997532 ], [ 164873.443, 454915.284999999974389 ], [ 164875.427, 454923.179 ], [ 164875.935999999986961, 454927.721000000019558 ], [ 164876.557999999989988, 454933.003000000026077 ], [ 164880.127, 454949.528 ], [ 164882.212, 454965.897999999986496 ], [ 164883.905999999988126, 454981.968999999982771 ], [ 164884.859, 454989.88900000002468 ], [ 164886.9, 454997.101000000024214 ], [ 164888.032, 455004.086000000010245 ], [ 164889.165, 455010.104999999981374 ], [ 164891.144, 455014.454000000027008 ], [ 164896.477000000013504, 455025.299 ], [ 164900.733, 455032.397 ], [ 164902.188, 455034.536000000021886 ], [ 164911.708000000013271, 455048.895000000018626 ], [ 164909.847, 455050.797000000020489 ], [ 164898.315, 455062.588999999978114 ], [ 164896.079999999987194, 455064.87 ], [ 164888.723999999987427, 455072.37400000001071 ], [ 164879.152, 455082.37699999997858 ], [ 164877.291999999986729, 455084.457999999984168 ], [ 164875.486, 455085.59499999997206 ], [ 164869.51, 455088.396 ], [ 164858.516, 455093.01 ], [ 164837.682999999989988, 455099.955000000016298 ], [ 164807.72, 455109.961000000010245 ], [ 164763.502, 455124.129000000015367 ], [ 164692.698, 455146.012999999977183 ], [ 164644.127, 455161.477000000013504 ], [ 164643.703, 455161.62400000001071 ], [ 164611.158, 455172.892 ], [ 164579.72, 455183.26400000002468 ], [ 164569.181000000011409, 455187.090000000025611 ], [ 164556.858, 455191.103 ], [ 164561.778, 455200.188000000023749 ], [ 164562.968, 455202.386 ], [ 164597.867, 455266.826 ], [ 164598.15, 455267.348999999987427 ], [ 164599.583000000013271, 455270.049999999988358 ], [ 164617.679, 455304.169 ], [ 164622.439000000013039, 455313.170999999972992 ], [ 164625.538, 455319.032 ], [ 164626.878999999986263, 455321.569000000017695 ], [ 164650.872, 455366.947999999974854 ], [ 164679.449, 455420.672000000020489 ], [ 164714.285, 455486.806999999971595 ], [ 164712.98499999998603, 455487.327 ], [ 164738.423, 455536.006 ], [ 164758.62, 455572.679 ], [ 164781.151000000012573, 455615.574000000022352 ], [ 164807.486, 455664.079000000027008 ], [ 164812.312, 455671.096000000019558 ], [ 164845.161, 455733.609 ], [ 164884.657, 455721.972 ], [ 164901.598999999987427, 455716.924 ], [ 164951.567000000010012, 455702.463999999978114 ], [ 164954.807, 455701.302000000025146 ], [ 165014.407, 455684.25099999998929 ], [ 165017.533, 455683.354 ], [ 165073.377, 455667.343999999982771 ], [ 165093.803000000014435, 455661.142999999981839 ], [ 165145.475, 455646.53000000002794 ], [ 165179.299999999988358, 455636.903 ], [ 165208.817000000010012, 455628.021 ], [ 165249.606, 455616.401000000012573 ], [ 165274.611, 455608.691 ], [ 165275.222, 455610.368000000016764 ], [ 165282.519, 455654.958999999973457 ], [ 165286.671, 455677.707 ], [ 165294.431000000011409, 455719.407 ], [ 165298.763, 455743.896 ], [ 165321.089, 455865.922000000020489 ], [ 165339.50700000001234, 455968.493000000016764 ], [ 165339.578, 455968.929 ], [ 165354.234, 456059.003000000026077 ], [ 165347.846, 456059.579000000027008 ], [ 165346.25, 456059.71999999997206 ], [ 165345.969000000011874, 456059.745 ], [ 165301.244, 456063.710000000020955 ], [ 165238.323, 456069.629000000015367 ], [ 165133.886, 456079.12 ], [ 165143.405, 456092.702999999979511 ], [ 165154.828, 456109.321999999985565 ], [ 165163.582, 456122.755 ], [ 165171.553000000014435, 456134.617000000027474 ], [ 165178.318999999988591, 456145.463999999978114 ], [ 165181.4, 456150.402 ], [ 165203.78, 456185.771 ], [ 165248.560999999986961, 456255.938000000023749 ], [ 165265.483, 456282.392 ], [ 165306.888, 456347.189000000013039 ], [ 165314.498, 456358.821 ], [ 165353.975, 456420.174 ], [ 165385.614, 456468.49900000001071 ], [ 165390.144999999989523, 456475.907 ], [ 165392.038, 456480.253000000026077 ], [ 165394.538, 456496.343 ], [ 165396.277, 456503.082999999984168 ], [ 165399.353, 456528.521 ], [ 165405.196, 456572.151000000012573 ], [ 165412.403, 456629.216000000014901 ], [ 165406.57, 456633.295999999972992 ], [ 165382.294, 456650.275000000023283 ], [ 165378.446, 456654.151000000012573 ], [ 165372.093, 456659.386 ], [ 165365.446999999985565, 456663.849999999976717 ], [ 165307.659000000014203, 456701.511999999987893 ], [ 165191.219000000011874, 456778.865999999979977 ], [ 165074.897999999986496, 456846.436999999976251 ], [ 165066.665, 456849.984 ], [ 165060.68, 456852.947999999974854 ], [ 165055.723999999987427, 456855.338999999978114 ], [ 165048.416999999986729, 456857.375 ], [ 165040.076, 456859.326 ], [ 165031.451, 456860.99800000002142 ], [ 165008.75700000001234, 456864.766 ], [ 164997.035, 456866.746999999973923 ], [ 164985.032, 456868.729999999981374 ], [ 164977.267, 456869.776000000012573 ], [ 164969.383, 456892.166000000026543 ], [ 164937.496000000013737, 456984.125 ], [ 164937.28, 456984.759000000020023 ], [ 164934.078, 456994.179 ], [ 164932.1, 457000.0 ], [ 164930.54, 457004.94 ], [ 164926.38, 457018.099999999976717 ], [ 164923.0, 457026.979999999981374 ], [ 164914.6, 457051.64000000001397 ], [ 164907.980000000010477, 457070.56 ], [ 164892.469000000011874, 457115.071 ], [ 164889.492, 457123.615 ], [ 165000.0, 457151.12 ], [ 165004.26, 457152.18 ], [ 165039.6, 457161.340000000025611 ], [ 165044.469000000011874, 457162.518999999971129 ], [ 165048.114, 457163.402 ], [ 165072.799999999988358, 457169.38 ], [ 165121.980000000010477, 457181.26 ], [ 165125.54, 457182.039999999979045 ], [ 165126.6, 457182.24 ], [ 165128.44, 457182.35999999998603 ], [ 165130.35999999998603, 457182.74 ], [ 165131.16, 457182.979999999981374 ], [ 165138.464, 457184.810999999986961 ], [ 165172.4, 457193.32 ], [ 165196.019999999989523, 457198.88 ], [ 165233.12, 457208.479999999981374 ], [ 165247.639, 457212.197999999974854 ], [ 165261.94, 457215.85999999998603 ], [ 165290.76, 457222.85999999998603 ], [ 165295.799999999988358, 457224.24 ], [ 165324.34, 457230.539999999979045 ], [ 165346.46, 457235.400000000023283 ], [ 165347.9, 457235.76 ], [ 165354.35999999998603, 457237.32 ], [ 165362.198, 457239.153 ], [ 165382.538999999989755, 457244.039999999979045 ], [ 165392.892, 457246.527 ], [ 165425.74, 457252.799999999988358 ], [ 165485.56, 457268.06 ], [ 165541.480000000010477, 457281.460000000020955 ], [ 165560.46, 457285.700000000011642 ], [ 165562.935, 457286.226000000024214 ], [ 165574.065, 457288.592 ], [ 165607.420000000012806, 457243.26 ], [ 165638.54, 457200.419999999983702 ], [ 165659.866, 457170.24900000001071 ], [ 165660.0, 457170.06 ], [ 165692.66, 457125.26 ], [ 165707.32, 457104.979999999981374 ], [ 165708.04, 457104.020000000018626 ], [ 165708.6, 457103.35999999998603 ], [ 165709.1, 457102.94 ], [ 165709.54, 457102.599999999976717 ], [ 165710.1, 457102.200000000011642 ], [ 165711.38, 457101.419999999983702 ], [ 165736.46, 457091.159999999974389 ], [ 165740.480000000010477, 457089.82 ], [ 165743.908, 457090.00199999997858 ], [ 165807.367, 457112.555 ], [ 165810.761, 457114.03000000002794 ], [ 165813.456, 457115.023999999975786 ], [ 165830.291999999986729, 457120.852000000013504 ], [ 165887.144, 457141.125 ], [ 165900.658, 457145.387999999977183 ], [ 165902.138, 457157.62699999997858 ], [ 165902.771, 457161.621999999973923 ], [ 165907.291999999986729, 457190.148999999975786 ], [ 165899.494, 457207.257999999972526 ], [ 165898.298, 457209.981000000028871 ], [ 165892.268000000010943, 457223.706 ], [ 165881.723, 457247.101000000024214 ], [ 165874.209, 457264.006 ], [ 165865.9, 457283.048 ], [ 165858.445, 457299.724999999976717 ], [ 165844.814000000013039, 457330.333999999973457 ], [ 165830.958000000013271, 457361.792000000015832 ], [ 165853.9, 457369.200000000011642 ], [ 165860.980000000010477, 457371.479999999981374 ], [ 165869.097, 457374.321 ], [ 166053.066, 457435.805999999982305 ], [ 166054.479, 457436.278 ], [ 166058.546, 457437.637999999977183 ], [ 166061.877, 457438.75099999998929 ], [ 166067.03, 457440.462999999988824 ], [ 166070.098, 457441.49900000001071 ], [ 166070.4, 457441.599999999976717 ], [ 166075.621000000013737, 457443.343 ], [ 166075.821999999985565, 457443.409999999974389 ], [ 166176.74, 457477.099999999976717 ], [ 166189.94, 457443.400000000023283 ], [ 166190.491, 457441.918 ] ], [ [ 165215.4333, 454635.026599999982864 ], [ 165193.4808, 454606.089199999987613 ], [ 165123.6318, 454582.141 ], [ 165068.7505, 454585.134499999985565 ], [ 165048.7936, 454559.190599999972619 ], [ 164958.9879, 454514.287599999981467 ], [ 165000.897300000011455, 454417.496900000027381 ], [ 165011.0096, 454356.100900000019465 ], [ 164992.0624, 454316.8125 ], [ 164979.4688, 454255.406299999973271 ], [ 164958.2655, 454209.093899999978021 ], [ 164862.67180000001099, 454194.1876 ], [ 164850.0939, 454177.8126 ], [ 164869.3665, 454173.701200000010431 ], [ 164867.597, 454169.277599999972153 ], [ 164861.955500000010943, 454168.337300000013784 ], [ 164855.3737, 454163.6361 ], [ 164850.67249999998603, 454158.934799999988172 ], [ 164847.8517, 454153.293200000014622 ], [ 164846.9116, 454145.771100000012666 ], [ 164818.704, 453882.500300000014249 ], [ 164811.1819, 453688.808100000023842 ], [ 164791.436599999986356, 453575.037599999981467 ], [ 165002.0532, 453537.4275 ], [ 165025.5595, 453541.18849999998929 ], [ 165045.304899999988265, 453548.710499999986496 ], [ 165161.606399999989662, 453612.961000000010245 ], [ 165189.3749, 453605.3125 ], [ 165341.0624, 453561.093799999973271 ], [ 165412.453100000013364, 453522.093799999973271 ], [ 165581.1562, 453483.406299999973271 ], [ 165584.1563, 453435.8125 ], [ 165565.546899999986636, 453387.0001 ], [ 165565.7501, 453350.093899999978021 ], [ 165609.25, 453309.093799999973271 ], [ 165655.734399999986636, 453278.406399999978021 ], [ 165748.6405, 453273.593899999978021 ], [ 165796.5312, 453292.5001 ], [ 165876.328, 453304.5001 ], [ 165929.328, 453292.406399999978021 ], [ 165999.3124, 453316.3126 ], [ 166061.1874, 453390.1876 ], [ 166164.171899999986636, 453526.8125 ], [ 166173.875, 453576.0 ], [ 166148.8749, 453668.906299999973271 ], [ 165980.1249, 453769.3126 ], [ 166188.5155, 454026.5 ], [ 165815.85930000001099, 454148.906299999973271 ], [ 165675.5624, 454195.906399999978021 ], [ 165651.9687, 454227.093799999973271 ], [ 165578.4687, 454247.6875 ], [ 165517.3749, 454278.6875 ], [ 165449.7655, 454313.406399999978021 ], [ 165390.5625, 454373.093799999973271 ], [ 165378.8522, 454380.2244 ], [ 165371.3997, 454384.7624 ], [ 165409.0147, 454381.5747 ], [ 165515.7839, 454372.59409999998752 ], [ 165524.764399999985471, 454455.414899999974295 ], [ 165477.8659, 454476.369699999981094 ], [ 165494.8292, 454543.225099999981467 ], [ 165399.036400000011781, 454562.184100000013132 ], [ 165424.9803, 454661.9683 ], [ 165382.0731, 454677.9338 ], [ 165296.2585, 454686.9144 ], [ 165274.306000000011409, 454673.9425 ], [ 165215.4333, 454635.026599999982864 ] ] ] ] } }
]
}
