{
"type": "FeatureCollection",
"name": "Reusel-De_Mierden",
"crs": { "type": "name", "properties": { "name": "urn:ogc:def:crs:OGC:1.3:CRS84" } },
"features": [
{ "type": "Feature", "properties": { "buurtcode": "BU16670000", "buurtnaam": "Reusel", "pc6_codes": "5541AA, 5541AB, 5541AC, 5541AD, 5541AE, 5541AG, 5541AH, 5541AJ, 5541AK, 5541AL, 5541AM, 5541AN, 5541AP, 5541AR, 5541AT, 5541AV, 5541AW, 5541BA, 5541BB, 5541BC, 5541BD, 5541BE, 5541BH, 5541BJ, 5541BK, 5541BL, 5541BM, 5541BN, 5541BP, 5541BR, 5541BS, 5541BT, 5541BV, 5541BW, 5541BX, 5541BZ, 5541CA, 5541CB, 5541CC, 5541CD, 5541CE, 5541CG, 5541CH, 5541CJ, 5541CK, 5541CL, 5541CM, 5541CN, 5541CP, 5541CR, 5541CS, 5541CT, 5541CV, 5541CW, 5541CX, 5541CZ, 5541DA, 5541DB, 5541DC, 5541DD, 5541DE, 5541DG, 5541DH, 5541DJ, 5541DK, 5541DL, 5541DM, 5541DN, 5541DP, 5541DR, 5541DT, 5541DV, 5541DX, 5541DZ, 5541EA, 5541EB, 5541EC, 5541ED, 5541EE, 5541EG, 5541EH, 5541EJ, 5541EK, 5541EL, 5541EM, 5541EN, 5541EP, 5541ER, 5541ES, 5541ET, 5541EV, 5541EW, 5541EX, 5541EZ, 5541GA, 5541GB, 5541GD, 5541GE, 5541GH, 5541GJ, 5541GK, 5541GL, 5541GM, 5541GN, 5541GP, 5541GR, 5541GS, 5541GT, 5541HA, 5541HB, 5541HC, 5541HD, 5541HE, 5541HG, 5541HH, 5541HJ, 5541HK, 5541HL, 5541HM, 5541HN, 5541HP, 5541KA, 5541KB, 5541NV, 5541PJ, 5541RE, 5541RL, 5541RN, 5541RP, 5541RS, 5541RT, 5541RW, 5541RX, 5541RZ, 5541TA, 5541TB, 5541TC, 5541TD, 5541TE, 5541TG, 5541TH, 5541TJ, 5541TK, 5541TL, 5541TM, 5541TN, 5541TP, 5541TR, 5541TS, 5541VA, 5541VB, 5541VC, 5541VD, 5541VE, 5541VG, 5541VH, 5541VJ, 5541VK, 5541VL, 5541VM, 5541VN, 5541VP, 5541VR, 5541VS, 5541VT, 5541VV, 5541VW, 5541VX, 5541VZ, 5541WB, 5541WC, 5541WJ, 5541WP, 5541WR", "wijkcode": "WK166700", "gemeentecode": "GM1667", "gemeentenaam": "Reusel-De Mierden", "oppervlakteLandInHa": 232, "AantalInwoners_5": 7130, "Mannen_6": 3670, "Vrouwen_7": 3460, "HuishoudensTotaal_29": 3190, "GemiddeldeHuishoudensgrootte_33": 2.2, "Woningvoorraad_35": 3296, "NieuwbouwWoningen_36": 53, "NietWoningvoorraad_37": 301, "NieuwbouwNietWoningen_38": 1, "GemiddeldeWOZWaardeVanWoningen_39": 401, "PercentageEengezinswoning_40": 83, "PercentageTussenwoningEengezins_41": 21, "PercentageHoekwoningEengezins_42": 14, "PercentageTweeOnderEenKapWoningEe_43": 22, "PercentageVrijstaandeWoningEengezins_44": 26, "PercentageMeergezinswoning_45": 17, "Koopwoningen_47": 74, "HuurwoningenTotaal_48": 26, "InBezitWoningcorporatie_49": 15, "InBezitOverigeVerhuurders_50": 11, "BouwjaarMeerDanTienJaarGeleden_51": 92, "BouwjaarAfgelopenTienJaar_52": 8, "GemiddeldeElektriciteitslevering_53": 2920, "GemiddeldeElektriciteitsteruglevering_54": 1190, "GemiddeldAardgasverbruik_55": 910, "AardgasvrijeWoningen_57": 8, "Aardgaswoningen_58": 83, "WoningenMetZonnestroom_59": 45, "WoningenHoofdzElektrVerwarmd_60": 14, "k_20PersonenMetHoogsteInkomen_80": 14.6, "k_20HuishoudensMetHoogsteInkomen_85": 18.1, "MediaanVermogenVanParticuliereHuish_86": 330.6, "PersonenautoSTotaal_104": 4015, "PersonenautoSBrandstofBenzine_105": 3375, "PersonenautoSOverigeBrandstof_106": 640, "PersonenautoSPerHuishouden_107": 1.3, "Omgevingsadressendichtheid_121": 912, "AantalInstallatiesBijWoningen_5": 1090, "OpgesteldVermogenVanZonnepanelen_6": 5083, "installaties_per_woning": 0.33070388349514562, "vermogen_per_woning": 1.5421723300970873, "installaties_per_100_woningen": 33.070388349514559, "vermogen_per_huishouden": 1.5934169278996866, "batterijdruk_score": 535.5, "koop_zon_score": 0.333, "eengezins_zon_score": 0.3735, "betaalkracht_zon_score": 148.77, "overige_brandstof_zon_score": 288.0, "lichte_batterij_kansscore": 0.44963589133505322 }, "geometry": { "type": "MultiPolygon", "coordinates": [ [ [ [ 5.155390388336019, 51.371321715484584 ], [ 5.158386419503918, 51.371062743935134 ], [ 5.158736894978924, 51.370977476206207 ], [ 5.159221105073025, 51.371521401307575 ], [ 5.162098562984311, 51.371279519068565 ], [ 5.16454960632466, 51.371046022600922 ], [ 5.164426157243953, 51.370560765198896 ], [ 5.164749524243146, 51.370279976441722 ], [ 5.164998323721504, 51.369970873124466 ], [ 5.16482351757063, 51.36959462629035 ], [ 5.164508537946376, 51.368985927915894 ], [ 5.163999031139341, 51.368935519387605 ], [ 5.163952469663201, 51.368711179137115 ], [ 5.163892183241051, 51.368558816900197 ], [ 5.163757223926259, 51.36816810991882 ], [ 5.163667021880671, 51.367939285928529 ], [ 5.163608660294764, 51.367577377172452 ], [ 5.165141733739545, 51.367221880391561 ], [ 5.166051395446372, 51.368461527691061 ], [ 5.16772497248296, 51.367445309465069 ], [ 5.168354838147704, 51.367387504555161 ], [ 5.171806743409472, 51.368495613704781 ], [ 5.173679887646689, 51.368823495994015 ], [ 5.174176231988261, 51.367953619560645 ], [ 5.174717327011225, 51.366672025900506 ], [ 5.175197122227538, 51.363991725937986 ], [ 5.17510457625753, 51.363387064811675 ], [ 5.177504301952704, 51.362984664158553 ], [ 5.176621487061791, 51.362058637920384 ], [ 5.17592792858007, 51.361159351481078 ], [ 5.175994108476726, 51.36018868719411 ], [ 5.176111781863135, 51.359288340607335 ], [ 5.175753518478041, 51.358803984770454 ], [ 5.174514966603311, 51.358086284903479 ], [ 5.171852653948616, 51.356992074951307 ], [ 5.171332952982295, 51.356981282083247 ], [ 5.170716167963537, 51.356865813422992 ], [ 5.169801382149687, 51.356631246274745 ], [ 5.168603674892942, 51.356390317152425 ], [ 5.168951142675466, 51.355739242611584 ], [ 5.163147732258241, 51.354118738726122 ], [ 5.162888709755345, 51.353988943826948 ], [ 5.161983122917632, 51.35368270418541 ], [ 5.160876275095211, 51.353390955039266 ], [ 5.159537987886491, 51.353184417231084 ], [ 5.15826084540682, 51.35308753450861 ], [ 5.156280478443792, 51.352954977452555 ], [ 5.154403729532985, 51.352738324118832 ], [ 5.153440025986042, 51.352584428417863 ], [ 5.152857586906764, 51.353883819157844 ], [ 5.152053292077921, 51.355658601709152 ], [ 5.151811302160387, 51.356085079063703 ], [ 5.152703970206137, 51.356413002305118 ], [ 5.153744144621296, 51.356542898036885 ], [ 5.15512592666167, 51.356680487833785 ], [ 5.155203044429434, 51.35761799976639 ], [ 5.155682084901549, 51.358570915273276 ], [ 5.155888086677332, 51.359577221685569 ], [ 5.155640543053108, 51.359951448773955 ], [ 5.155151195115383, 51.360186993267881 ], [ 5.155168306407675, 51.360483655998983 ], [ 5.15545168505674, 51.360697140527151 ], [ 5.156264599923223, 51.360892853692242 ], [ 5.157064845628339, 51.361111289385704 ], [ 5.156795126692543, 51.361924237431168 ], [ 5.156859289444498, 51.362547116240933 ], [ 5.156534961574307, 51.363109114008132 ], [ 5.156262704003103, 51.363843124668762 ], [ 5.156191640275213, 51.363965174223289 ], [ 5.153900347955576, 51.368129705028757 ], [ 5.154646044540841, 51.368331194953676 ], [ 5.15533304895976, 51.368515989067404 ], [ 5.154425115898565, 51.371486364080077 ], [ 5.154234009436148, 51.371867442248444 ], [ 5.154929459104224, 51.371989616555815 ], [ 5.155390388336019, 51.371321715484584 ] ] ] ] } },
{ "type": "Feature", "properties": { "buurtcode": "BU16670001", "buurtnaam": "Voorste Heikant en Weijereind", "pc6_codes": "5541DZ, 5541NB, 5541NC, 5541ND, 5541NE, 5541NG, 5541NJ, 5541NL, 5541NM, 5541NR, 5541RA, 5541RC, 5541RD, 5541RE, 5541RH, 5541RJ, 5541RK, 5541RZ, 5541SJ, 5541SK, 5541SM, 5541SZ", "wijkcode": "WK166700", "gemeentecode": "GM1667", "gemeentenaam": "Reusel-De Mierden", "oppervlakteLandInHa": 215, "AantalInwoners_5": 425, "Mannen_6": 215, "Vrouwen_7": 210, "HuishoudensTotaal_29": 145, "GemiddeldeHuishoudensgrootte_33": 2.9, "Woningvoorraad_35": 139, "NieuwbouwWoningen_36": 1, "NietWoningvoorraad_37": 63, "NieuwbouwNietWoningen_38": 9, "GemiddeldeWOZWaardeVanWoningen_39": 624, "PercentageEengezinswoning_40": 92, "PercentageTussenwoningEengezins_41": 1, "PercentageHoekwoningEengezins_42": 2, "PercentageTweeOnderEenKapWoningEe_43": 9, "PercentageVrijstaandeWoningEengezins_44": 80, "PercentageMeergezinswoning_45": 8, "Koopwoningen_47": 91, "HuurwoningenTotaal_48": 9, "InBezitWoningcorporatie_49": 0, "InBezitOverigeVerhuurders_50": 9, "BouwjaarMeerDanTienJaarGeleden_51": 76, "BouwjaarAfgelopenTienJaar_52": 24, "GemiddeldeElektriciteitslevering_53": 4680, "GemiddeldeElektriciteitsteruglevering_54": 2460, "GemiddeldAardgasverbruik_55": 1240, "AardgasvrijeWoningen_57": 14, "Aardgaswoningen_58": 60, "WoningenMetZonnestroom_59": 48, "WoningenHoofdzElektrVerwarmd_60": 29, "k_20PersonenMetHoogsteInkomen_80": 21.0, "k_20HuishoudensMetHoogsteInkomen_85": 47.6, "MediaanVermogenVanParticuliereHuish_86": 669.7, "PersonenautoSTotaal_104": 240, "PersonenautoSBrandstofBenzine_105": 165, "PersonenautoSOverigeBrandstof_106": 75, "PersonenautoSPerHuishouden_107": 1.6, "Omgevingsadressendichtheid_121": 429, "AantalInstallatiesBijWoningen_5": 48, "OpgesteldVermogenVanZonnepanelen_6": 375, "installaties_per_woning": 0.34532374100719426, "vermogen_per_woning": 2.6978417266187051, "installaties_per_100_woningen": 34.532374100719423, "vermogen_per_huishouden": 2.5862068965517242, "batterijdruk_score": 1180.8, "koop_zon_score": 0.4368, "eengezins_zon_score": 0.4416, "betaalkracht_zon_score": 321.456, "overige_brandstof_zon_score": 36.0, "lichte_batterij_kansscore": 0.5343190057993763 }, "geometry": { "type": "MultiPolygon", "coordinates": [ [ [ [ 5.178988693283697, 51.362817942803915 ], [ 5.180694356717538, 51.362832773443259 ], [ 5.184114388648495, 51.362873891348528 ], [ 5.186675608115058, 51.362915963841601 ], [ 5.186605756276202, 51.36150292628529 ], [ 5.186596505772255, 51.361310495618262 ], [ 5.185801190016601, 51.358668120535079 ], [ 5.185105689679786, 51.357214392378474 ], [ 5.184192367228704, 51.356632189798134 ], [ 5.181873288930309, 51.356096950301399 ], [ 5.179274727057285, 51.355768750774779 ], [ 5.177044385660337, 51.355324303807592 ], [ 5.175981279895166, 51.354906091618098 ], [ 5.174112036015031, 51.352753537995447 ], [ 5.171883076086788, 51.350533716804996 ], [ 5.171312723933601, 51.350340246251378 ], [ 5.170764445383139, 51.350033612276775 ], [ 5.170117632221485, 51.349601792944156 ], [ 5.169346401221403, 51.349066366060725 ], [ 5.169990859934421, 51.348763074640942 ], [ 5.169800931991249, 51.348283507039454 ], [ 5.169123914389041, 51.347561458151198 ], [ 5.16851984755099, 51.346924653916979 ], [ 5.167856052429495, 51.346447003124638 ], [ 5.166929721740608, 51.346280930524472 ], [ 5.166110244077587, 51.34628106468957 ], [ 5.165105392118797, 51.345984211282534 ], [ 5.164015570159712, 51.345776512268685 ], [ 5.162509814344619, 51.345509294780179 ], [ 5.16051266030396, 51.345072001475643 ], [ 5.159298373483179, 51.344783116488699 ], [ 5.158964063030497, 51.344186396597181 ], [ 5.158648289038854, 51.343606846424855 ], [ 5.158259190192955, 51.343072094260592 ], [ 5.157978329635936, 51.343001599026948 ], [ 5.157402441322611, 51.343047936609217 ], [ 5.155850632777302, 51.343132227096127 ], [ 5.153954821148532, 51.343127606045819 ], [ 5.15405453067644, 51.343539321533278 ], [ 5.154152403250711, 51.344048224169654 ], [ 5.153762336161864, 51.343976658152911 ], [ 5.153081181583132, 51.343861809089702 ], [ 5.152184104915293, 51.343609442391887 ], [ 5.150198881750718, 51.343111884617805 ], [ 5.148322537628212, 51.342643166877799 ], [ 5.14804940137912, 51.343029122503445 ], [ 5.147682329829168, 51.343494098836615 ], [ 5.147289552460603, 51.34394188674198 ], [ 5.14708929284506, 51.344368440385068 ], [ 5.146776798848837, 51.344856840408319 ], [ 5.146528774069738, 51.345323743964293 ], [ 5.146326706526318, 51.345835685743069 ], [ 5.146369781258165, 51.346343639488062 ], [ 5.146366095716962, 51.346532396658155 ], [ 5.146496815986721, 51.346750924435163 ], [ 5.146659514622194, 51.346944518521596 ], [ 5.147020270343704, 51.346578690088762 ], [ 5.147932578396921, 51.346968768060528 ], [ 5.149580587806099, 51.347475509202759 ], [ 5.151880237116244, 51.348272027445226 ], [ 5.153574200766991, 51.348801276568345 ], [ 5.154272184927636, 51.348973459546329 ], [ 5.154340491360996, 51.349961514780354 ], [ 5.153922985525623, 51.351037645031568 ], [ 5.15360407090087, 51.352217061537949 ], [ 5.153440025986042, 51.352584428417863 ], [ 5.154403729532985, 51.352738324118832 ], [ 5.156280478443792, 51.352954977452555 ], [ 5.15826084540682, 51.35308753450861 ], [ 5.159537987886491, 51.353184417231084 ], [ 5.160876275095211, 51.353390955039266 ], [ 5.161983122917632, 51.35368270418541 ], [ 5.162888709755345, 51.353988943826948 ], [ 5.163147732258241, 51.354118738726122 ], [ 5.168951142675466, 51.355739242611584 ], [ 5.168603674892942, 51.356390317152425 ], [ 5.169801382149687, 51.356631246274745 ], [ 5.170716167963537, 51.356865813422992 ], [ 5.171332952982295, 51.356981282083247 ], [ 5.171852653948616, 51.356992074951307 ], [ 5.174514966603311, 51.358086284903479 ], [ 5.175753518478041, 51.358803984770454 ], [ 5.176111781863135, 51.359288340607335 ], [ 5.175994108476726, 51.36018868719411 ], [ 5.17592792858007, 51.361159351481078 ], [ 5.176621487061791, 51.362058637920384 ], [ 5.177504301952704, 51.362984664158553 ], [ 5.178988693283697, 51.362817942803915 ] ] ] ] } },
{ "type": "Feature", "properties": { "buurtcode": "BU16670002", "buurtnaam": "De Voort en Achterste Heikant", "pc6_codes": "5541BG, 5541EH, 5541EJ, 5541NS, 5541NT, 5541NV, 5541NW, 5541NX, 5541NZ, 5541PA, 5541PB, 5541PC, 5541PD, 5541PE, 5541PG, 5541PH, 5541PJ, 5541PR", "wijkcode": "WK166700", "gemeentecode": "GM1667", "gemeentenaam": "Reusel-De Mierden", "oppervlakteLandInHa": 243, "AantalInwoners_5": 310, "Mannen_6": 150, "Vrouwen_7": 160, "HuishoudensTotaal_29": 125, "GemiddeldeHuishoudensgrootte_33": 2.5, "Woningvoorraad_35": 121, "NieuwbouwWoningen_36": 1, "NietWoningvoorraad_37": 39, "NieuwbouwNietWoningen_38": 0, "GemiddeldeWOZWaardeVanWoningen_39": 550, "PercentageEengezinswoning_40": 93, "PercentageTussenwoningEengezins_41": 0, "PercentageHoekwoningEengezins_42": 0, "PercentageTweeOnderEenKapWoningEe_43": 26, "PercentageVrijstaandeWoningEengezins_44": 66, "PercentageMeergezinswoning_45": 7, "Koopwoningen_47": 86, "HuurwoningenTotaal_48": 14, "InBezitWoningcorporatie_49": 0, "InBezitOverigeVerhuurders_50": 14, "BouwjaarMeerDanTienJaarGeleden_51": 86, "BouwjaarAfgelopenTienJaar_52": 14, "GemiddeldeElektriciteitslevering_53": 4290, "GemiddeldeElektriciteitsteruglevering_54": 2150, "GemiddeldAardgasverbruik_55": 1180, "AardgasvrijeWoningen_57": 11, "Aardgaswoningen_58": 71, "WoningenMetZonnestroom_59": 54, "WoningenHoofdzElektrVerwarmd_60": 19, "k_20PersonenMetHoogsteInkomen_80": 17.4, "k_20HuishoudensMetHoogsteInkomen_85": 29.8, "MediaanVermogenVanParticuliereHuish_86": 602.7, "PersonenautoSTotaal_104": 200, "PersonenautoSBrandstofBenzine_105": 150, "PersonenautoSOverigeBrandstof_106": 50, "PersonenautoSPerHuishouden_107": 1.6, "Omgevingsadressendichtheid_121": 226, "AantalInstallatiesBijWoningen_5": 44, "OpgesteldVermogenVanZonnepanelen_6": 300, "installaties_per_woning": 0.36363636363636365, "vermogen_per_woning": 2.4793388429752068, "installaties_per_100_woningen": 36.363636363636367, "vermogen_per_huishouden": 2.4, "batterijdruk_score": 1161.0, "koop_zon_score": 0.4644, "eengezins_zon_score": 0.5022, "betaalkracht_zon_score": 325.458, "overige_brandstof_zon_score": 27.0, "lichte_batterij_kansscore": 0.52893128525153232 }, "geometry": { "type": "MultiPolygon", "coordinates": [ [ [ [ 5.154646044540841, 51.368331194953676 ], [ 5.153900347955576, 51.368129705028757 ], [ 5.156191640275213, 51.363965174223289 ], [ 5.156262704003103, 51.363843124668762 ], [ 5.156534961574307, 51.363109114008132 ], [ 5.156859289444498, 51.362547116240933 ], [ 5.156795126692543, 51.361924237431168 ], [ 5.157064845628339, 51.361111289385704 ], [ 5.156264599923223, 51.360892853692242 ], [ 5.15545168505674, 51.360697140527151 ], [ 5.155168306407675, 51.360483655998983 ], [ 5.155151195115383, 51.360186993267881 ], [ 5.155640543053108, 51.359951448773955 ], [ 5.155888086677332, 51.359577221685569 ], [ 5.155682084901549, 51.358570915273276 ], [ 5.155203044429434, 51.35761799976639 ], [ 5.15512592666167, 51.356680487833785 ], [ 5.153744144621296, 51.356542898036885 ], [ 5.152703970206137, 51.356413002305118 ], [ 5.151811302160387, 51.356085079063703 ], [ 5.152053292077921, 51.355658601709152 ], [ 5.152857586906764, 51.353883819157844 ], [ 5.153440025986042, 51.352584428417863 ], [ 5.15360407090087, 51.352217061537949 ], [ 5.153922985525623, 51.351037645031568 ], [ 5.154340491360996, 51.349961514780354 ], [ 5.154272184927636, 51.348973459546329 ], [ 5.153574200766991, 51.348801276568345 ], [ 5.151880237116244, 51.348272027445226 ], [ 5.149580587806099, 51.347475509202759 ], [ 5.147932578396921, 51.346968768060528 ], [ 5.147020270343704, 51.346578690088762 ], [ 5.146659514622194, 51.346944518521596 ], [ 5.146330533428441, 51.347280074444768 ], [ 5.145541237798908, 51.347506812846973 ], [ 5.143826329819584, 51.347188638748271 ], [ 5.141327133902005, 51.346418506762312 ], [ 5.14021919664747, 51.347465039428563 ], [ 5.13924810436304, 51.348123651653523 ], [ 5.138535410495192, 51.347740955407879 ], [ 5.137836336020393, 51.347248731620141 ], [ 5.13721067984181, 51.347482784691707 ], [ 5.136873949422187, 51.347868577807432 ], [ 5.136424999285318, 51.348349635053218 ], [ 5.135730535892639, 51.348040556301953 ], [ 5.135019225269375, 51.347656997437838 ], [ 5.134306514985663, 51.347285228916029 ], [ 5.133377274919241, 51.34685427644532 ], [ 5.132549718148915, 51.346772696312648 ], [ 5.131710903116701, 51.346774510308414 ], [ 5.131687048207949, 51.347045122184326 ], [ 5.130135185770617, 51.347953143637703 ], [ 5.130025460261161, 51.348017917321506 ], [ 5.129625048400858, 51.348254741032498 ], [ 5.127966959662251, 51.349235352816692 ], [ 5.127405289113749, 51.349567522523671 ], [ 5.127260177273774, 51.349649140578556 ], [ 5.126740012234911, 51.349958127728826 ], [ 5.126627939871785, 51.350022452528201 ], [ 5.126282557599565, 51.350228399920084 ], [ 5.126913436971331, 51.350495920710067 ], [ 5.128043619874454, 51.350893944127222 ], [ 5.129565379388572, 51.351381867031897 ], [ 5.131169094874742, 51.351859838565801 ], [ 5.132583835172309, 51.352244116120922 ], [ 5.133965867395159, 51.352827744360155 ], [ 5.135014139206672, 51.353254454089488 ], [ 5.13599439111979, 51.353817244088845 ], [ 5.13734263678485, 51.354566208116253 ], [ 5.138759355240659, 51.355395358926913 ], [ 5.140304335249333, 51.356409032640855 ], [ 5.141666099164169, 51.357341402141117 ], [ 5.142450347585838, 51.357799510728313 ], [ 5.143215618931369, 51.358075271613622 ], [ 5.144981929186514, 51.358548336262075 ], [ 5.146608673945392, 51.359076703161826 ], [ 5.147293613097302, 51.359322496152991 ], [ 5.147769131654966, 51.359549877748471 ], [ 5.147851128399294, 51.360041898819091 ], [ 5.147743797303162, 51.360531565312783 ], [ 5.147349108312847, 51.361059123577874 ], [ 5.147144074639673, 51.361526116612481 ], [ 5.146272818357961, 51.361763645076614 ], [ 5.145532173727105, 51.361991325473625 ], [ 5.1447497377019, 51.362229589319796 ], [ 5.144335882321055, 51.362597265892404 ], [ 5.14407076782468, 51.363006544653594 ], [ 5.143907650300333, 51.363472776254937 ], [ 5.143928045025438, 51.363940233776333 ], [ 5.143356061449767, 51.365935384455405 ], [ 5.150893650076933, 51.368618032893337 ], [ 5.152460743838716, 51.36882962443206 ], [ 5.154088617989994, 51.368961541284435 ], [ 5.154646044540841, 51.368331194953676 ] ] ] ] } },
{ "type": "Feature", "properties": { "buurtcode": "BU16670008", "buurtnaam": "Buitengebied ten noorden van Reusel", "pc6_codes": "5541GH, 5541PE, 5541PG, 5541PK, 5541PL, 5541PM, 5541RH, 5541RL, 5541RM, 5541RN, 5541RP, 5541RR, 5541RV, 5541RX, 5541SH, 5541SL, 5541ST, 5541SV, 5541WC, 5541WD, 5541WE, 5541WG, 5541WH, 5541WJ, 5541WK, 5541WL, 5541WN", "wijkcode": "WK166700", "gemeentecode": "GM1667", "gemeentenaam": "Reusel-De Mierden", "oppervlakteLandInHa": 644, "AantalInwoners_5": 745, "Mannen_6": 375, "Vrouwen_7": 370, "HuishoudensTotaal_29": 285, "GemiddeldeHuishoudensgrootte_33": 2.6, "Woningvoorraad_35": 297, "NieuwbouwWoningen_36": 15, "NietWoningvoorraad_37": 23, "NieuwbouwNietWoningen_38": 0, "GemiddeldeWOZWaardeVanWoningen_39": 461, "PercentageEengezinswoning_40": 94, "PercentageTussenwoningEengezins_41": 31, "PercentageHoekwoningEengezins_42": 16, "PercentageTweeOnderEenKapWoningEe_43": 13, "PercentageVrijstaandeWoningEengezins_44": 32, "PercentageMeergezinswoning_45": 6, "Koopwoningen_47": 77, "HuurwoningenTotaal_48": 23, "InBezitWoningcorporatie_49": 16, "InBezitOverigeVerhuurders_50": 6, "BouwjaarMeerDanTienJaarGeleden_51": 51, "BouwjaarAfgelopenTienJaar_52": 49, "GemiddeldeElektriciteitslevering_53": 3900, "GemiddeldeElektriciteitsteruglevering_54": 2070, "GemiddeldAardgasverbruik_55": 590, "AardgasvrijeWoningen_57": 43, "Aardgaswoningen_58": 46, "WoningenMetZonnestroom_59": 72, "WoningenHoofdzElektrVerwarmd_60": 49, "k_20PersonenMetHoogsteInkomen_80": 22.0, "k_20HuishoudensMetHoogsteInkomen_85": 27.3, "MediaanVermogenVanParticuliereHuish_86": 358.7, "PersonenautoSTotaal_104": 400, "PersonenautoSBrandstofBenzine_105": 315, "PersonenautoSOverigeBrandstof_106": 85, "PersonenautoSPerHuishouden_107": 1.4, "Omgevingsadressendichtheid_121": 612, "AantalInstallatiesBijWoningen_5": 119, "OpgesteldVermogenVanZonnepanelen_6": 780, "installaties_per_woning": 0.40067340067340068, "vermogen_per_woning": 2.6262626262626263, "installaties_per_100_woningen": 40.067340067340069, "vermogen_per_huishouden": 2.736842105263158, "batterijdruk_score": 1490.4, "koop_zon_score": 0.5544, "eengezins_zon_score": 0.6768, "betaalkracht_zon_score": 258.264, "overige_brandstof_zon_score": 61.2, "lichte_batterij_kansscore": 0.54724003918445907 }, "geometry": { "type": "MultiPolygon", "coordinates": [ [ [ [ 5.151509186264551, 51.377913638694551 ], [ 5.154081739713415, 51.377873865303201 ], [ 5.154562486342958, 51.377955723867764 ], [ 5.159702768908506, 51.378032155441289 ], [ 5.163926346889703, 51.377867845721347 ], [ 5.166659823012051, 51.377822766047032 ], [ 5.169781081960965, 51.377780873399736 ], [ 5.17175501554383, 51.377705603436844 ], [ 5.182352938457701, 51.377856719327092 ], [ 5.183057994885585, 51.377875090630567 ], [ 5.18299707595591, 51.377696893833175 ], [ 5.1828452326836, 51.377576123157532 ], [ 5.182771224257519, 51.377464757904193 ], [ 5.182851089580985, 51.377270516501191 ], [ 5.182824441099333, 51.377106987230619 ], [ 5.18268334772574, 51.376841572299021 ], [ 5.182461519199774, 51.376664217450738 ], [ 5.182463652991647, 51.376538378929276 ], [ 5.18252724335265, 51.376420513404945 ], [ 5.182479190157808, 51.376276608440044 ], [ 5.182570292292707, 51.376128455098417 ], [ 5.182913905388751, 51.376070630650098 ], [ 5.183215737946075, 51.375786134247889 ], [ 5.183203492538665, 51.375784840926137 ], [ 5.183641655939879, 51.375376951634742 ], [ 5.184179524248967, 51.374876245834884 ], [ 5.184221790118046, 51.374844373435344 ], [ 5.184347015223588, 51.374763198305324 ], [ 5.184464823083443, 51.374702783112625 ], [ 5.185215752608643, 51.374370082559849 ], [ 5.185350257687688, 51.374310486395764 ], [ 5.187132808865585, 51.373520670395209 ], [ 5.187567346658905, 51.373328040317965 ], [ 5.188517298372937, 51.372905807612248 ], [ 5.190436654455604, 51.372054017015905 ], [ 5.190551389057974, 51.371986750068764 ], [ 5.190659076457735, 51.371905080171388 ], [ 5.190739917462628, 51.371814529032804 ], [ 5.190790089021007, 51.371712474549305 ], [ 5.191092821066028, 51.370709005290202 ], [ 5.191203820758989, 51.370329606614739 ], [ 5.191250232756739, 51.370125775160346 ], [ 5.191282609882188, 51.36988606404946 ], [ 5.191406523164249, 51.368968756029766 ], [ 5.191418068465611, 51.36888170153594 ], [ 5.191527509954391, 51.368056296847676 ], [ 5.191587683359574, 51.367615689080971 ], [ 5.191652997324086, 51.367137948437936 ], [ 5.191672118159277, 51.36706559420734 ], [ 5.191721392194326, 51.366993730964751 ], [ 5.191786808305976, 51.366938200315396 ], [ 5.191896042107768, 51.366881143019363 ], [ 5.192064262740115, 51.366821262990577 ], [ 5.192154581285032, 51.366788461366866 ], [ 5.192101848176588, 51.366769344011921 ], [ 5.190691289096051, 51.366258114509591 ], [ 5.190604793289419, 51.366226768833073 ], [ 5.191435696693877, 51.365336600723786 ], [ 5.191701086672714, 51.365067195040233 ], [ 5.191730945582115, 51.365045564256476 ], [ 5.191853424018337, 51.364952565262726 ], [ 5.192137967685082, 51.364796718409337 ], [ 5.192900511787421, 51.364510855121146 ], [ 5.195151718526811, 51.363693732557991 ], [ 5.195882797897975, 51.363427609136757 ], [ 5.196185993851246, 51.363317589610617 ], [ 5.19635562813851, 51.363255089990297 ], [ 5.196522645452772, 51.363176163423276 ], [ 5.197470527228779, 51.362700883840809 ], [ 5.197371593097496, 51.362681379086467 ], [ 5.196356862203636, 51.362481557295389 ], [ 5.195391792968228, 51.362291498203533 ], [ 5.195736462595204, 51.362051409117598 ], [ 5.196332249383522, 51.361636386979413 ], [ 5.196286770203129, 51.361634712541793 ], [ 5.19434860338834, 51.361633168501463 ], [ 5.191933556448245, 51.361633401443406 ], [ 5.191941887284048, 51.361480067519253 ], [ 5.191942549554969, 51.361467881696882 ], [ 5.186605756276202, 51.36150292628529 ], [ 5.186675608115058, 51.362915963841601 ], [ 5.184114388648495, 51.362873891348528 ], [ 5.180694356717538, 51.362832773443259 ], [ 5.178988693283697, 51.362817942803915 ], [ 5.177504301952704, 51.362984664158553 ], [ 5.17510457625753, 51.363387064811675 ], [ 5.175197122227538, 51.363991725937986 ], [ 5.174717327011225, 51.366672025900506 ], [ 5.174176231988261, 51.367953619560645 ], [ 5.173679887646689, 51.368823495994015 ], [ 5.171806743409472, 51.368495613704781 ], [ 5.168354838147704, 51.367387504555161 ], [ 5.16772497248296, 51.367445309465069 ], [ 5.166051395446372, 51.368461527691061 ], [ 5.165141733739545, 51.367221880391561 ], [ 5.163608660294764, 51.367577377172452 ], [ 5.163667021880671, 51.367939285928529 ], [ 5.163757223926259, 51.36816810991882 ], [ 5.163892183241051, 51.368558816900197 ], [ 5.163952469663201, 51.368711179137115 ], [ 5.163999031139341, 51.368935519387605 ], [ 5.164508537946376, 51.368985927915894 ], [ 5.16482351757063, 51.36959462629035 ], [ 5.164998323721504, 51.369970873124466 ], [ 5.164749524243146, 51.370279976441722 ], [ 5.164426157243953, 51.370560765198896 ], [ 5.16454960632466, 51.371046022600922 ], [ 5.162098562984311, 51.371279519068565 ], [ 5.159221105073025, 51.371521401307575 ], [ 5.158736894978924, 51.370977476206207 ], [ 5.158386419503918, 51.371062743935134 ], [ 5.155390388336019, 51.371321715484584 ], [ 5.154929459104224, 51.371989616555815 ], [ 5.154234009436148, 51.371867442248444 ], [ 5.154425115898565, 51.371486364080077 ], [ 5.15533304895976, 51.368515989067404 ], [ 5.154646044540841, 51.368331194953676 ], [ 5.154088617989994, 51.368961541284435 ], [ 5.152460743838716, 51.36882962443206 ], [ 5.150893650076933, 51.368618032893337 ], [ 5.143356061449767, 51.365935384455405 ], [ 5.143928045025438, 51.363940233776333 ], [ 5.143907650300333, 51.363472776254937 ], [ 5.14407076782468, 51.363006544653594 ], [ 5.144335882321055, 51.362597265892404 ], [ 5.1447497377019, 51.362229589319796 ], [ 5.145532173727105, 51.361991325473625 ], [ 5.146272818357961, 51.361763645076614 ], [ 5.147144074639673, 51.361526116612481 ], [ 5.147349108312847, 51.361059123577874 ], [ 5.147743797303162, 51.360531565312783 ], [ 5.147851128399294, 51.360041898819091 ], [ 5.147769131654966, 51.359549877748471 ], [ 5.147293613097302, 51.359322496152991 ], [ 5.146608673945392, 51.359076703161826 ], [ 5.144981929186514, 51.358548336262075 ], [ 5.143215618931369, 51.358075271613622 ], [ 5.142450347585838, 51.357799510728313 ], [ 5.141666099164169, 51.357341402141117 ], [ 5.140304335249333, 51.356409032640855 ], [ 5.138759355240659, 51.355395358926913 ], [ 5.13734263678485, 51.354566208116253 ], [ 5.13599439111979, 51.353817244088845 ], [ 5.135014139206672, 51.353254454089488 ], [ 5.133965867395159, 51.352827744360155 ], [ 5.132583835172309, 51.352244116120922 ], [ 5.131169094874742, 51.351859838565801 ], [ 5.129565379388572, 51.351381867031897 ], [ 5.128043619874454, 51.350893944127222 ], [ 5.126913436971331, 51.350495920710067 ], [ 5.126282557599565, 51.350228399920084 ], [ 5.125974915406816, 51.350411840313484 ], [ 5.125147197838481, 51.350898953190942 ], [ 5.124552754031313, 51.351254190552481 ], [ 5.123963653669851, 51.351754290833796 ], [ 5.123224189038947, 51.352382973550299 ], [ 5.1231688928326, 51.352427747184045 ], [ 5.123106914009591, 51.352483732615013 ], [ 5.123052190155534, 51.352528786141725 ], [ 5.122845587193564, 51.352708057081401 ], [ 5.122793895678194, 51.352749953319538 ], [ 5.122437005541958, 51.353055525225074 ], [ 5.122380366469299, 51.353101374086997 ], [ 5.122129849073787, 51.353317083307552 ], [ 5.12123949554165, 51.354074695620945 ], [ 5.121190176409532, 51.354115437011586 ], [ 5.121175070230107, 51.354125991301295 ], [ 5.12109505843573, 51.354196334507776 ], [ 5.121042299253843, 51.354243512924974 ], [ 5.12016838641721, 51.354989487197344 ], [ 5.120093377885651, 51.355050672642136 ], [ 5.120051840801174, 51.35508595722694 ], [ 5.120003092120228, 51.355126978075234 ], [ 5.11940177326255, 51.355639665542867 ], [ 5.119127299888699, 51.356170450239013 ], [ 5.118733056395909, 51.356933731470043 ], [ 5.1187005422448, 51.356996676788519 ], [ 5.11833592446897, 51.357702550762333 ], [ 5.118317688246502, 51.357734796330149 ], [ 5.118095201930024, 51.358171010872077 ], [ 5.11760904511039, 51.359113150152886 ], [ 5.117565424083768, 51.359189211035236 ], [ 5.117431369427239, 51.359454446853555 ], [ 5.117340095576903, 51.35963506249152 ], [ 5.117270717448783, 51.359769274846059 ], [ 5.117133401211771, 51.36003434097023 ], [ 5.117093786938129, 51.360112379494588 ], [ 5.116841642073017, 51.360597286930272 ], [ 5.116767674877347, 51.360737366990136 ], [ 5.116744871006357, 51.360786518559912 ], [ 5.11671793311737, 51.360833062783264 ], [ 5.116685535385822, 51.360897230277253 ], [ 5.116677172181626, 51.360910532213055 ], [ 5.116618699850985, 51.361025731289871 ], [ 5.116595689972716, 51.361068401457054 ], [ 5.116570383384453, 51.361118002014791 ], [ 5.117912917618794, 51.361498224935616 ], [ 5.119759080984305, 51.362028316641698 ], [ 5.123756598891404, 51.36325370861082 ], [ 5.125902191280959, 51.363901232688001 ], [ 5.12710592227184, 51.364323586512555 ], [ 5.127746580596898, 51.364539901696006 ], [ 5.127948837950482, 51.364599620722267 ], [ 5.128162118653461, 51.364693634408269 ], [ 5.128611511954452, 51.364970754730344 ], [ 5.129266588939403, 51.36541799209197 ], [ 5.131159936322642, 51.366548286618603 ], [ 5.135397828252654, 51.369109477899201 ], [ 5.137385828823958, 51.37030223438768 ], [ 5.138778848230692, 51.371081613348046 ], [ 5.141699053019588, 51.373381051459361 ], [ 5.142000279475383, 51.373449943931746 ], [ 5.142849725104354, 51.374147511442636 ], [ 5.144613341147542, 51.374948382564632 ], [ 5.144932528758552, 51.374891462376276 ], [ 5.145893988549424, 51.37559654353376 ], [ 5.14639758255124, 51.376232976195944 ], [ 5.146684976626549, 51.376461939930934 ], [ 5.1470159868092, 51.376633408201599 ], [ 5.147293208459019, 51.376877517077979 ], [ 5.147973131777904, 51.3770614975464 ], [ 5.148264120180464, 51.377163498752481 ], [ 5.149024452968733, 51.377336681402809 ], [ 5.148990655896193, 51.377491387722074 ], [ 5.149199635333513, 51.377612320130375 ], [ 5.149776055224563, 51.377808438306118 ], [ 5.150020615502188, 51.378036463410297 ], [ 5.15094466089981, 51.378192832867676 ], [ 5.151509186264551, 51.377913638694551 ] ] ] ] } },
{ "type": "Feature", "properties": { "buurtcode": "BU16670009", "buurtnaam": "Buitengebied ten zuiden van Reusel", "pc6_codes": "5541NA, 5541NB, 5541NE, 5541NH, 5541NK, 5541NL, 5541NM, 5541NN, 5541NP, 5541NR, 5541NS, 5541PP, 5541PZ, 5541RA, 5541RB, 5541RC, 5541RJ, 5541SG", "wijkcode": "WK166700", "gemeentecode": "GM1667", "gemeentenaam": "Reusel-De Mierden", "oppervlakteLandInHa": 1755, "AantalInwoners_5": 240, "Mannen_6": 135, "Vrouwen_7": 100, "HuishoudensTotaal_29": 85, "GemiddeldeHuishoudensgrootte_33": 2.8, "Woningvoorraad_35": 78, "NieuwbouwWoningen_36": 2, "NietWoningvoorraad_37": 24, "NieuwbouwNietWoningen_38": 0, "GemiddeldeWOZWaardeVanWoningen_39": 610, "PercentageEengezinswoning_40": 96, "PercentageTussenwoningEengezins_41": 0, "PercentageHoekwoningEengezins_42": 0, "PercentageTweeOnderEenKapWoningEe_43": 3, "PercentageVrijstaandeWoningEengezins_44": 94, "PercentageMeergezinswoning_45": 4, "Koopwoningen_47": 86, "HuurwoningenTotaal_48": 14, "InBezitWoningcorporatie_49": 0, "InBezitOverigeVerhuurders_50": 14, "BouwjaarMeerDanTienJaarGeleden_51": 95, "BouwjaarAfgelopenTienJaar_52": 5, "GemiddeldeElektriciteitslevering_53": 4330, "GemiddeldeElektriciteitsteruglevering_54": 2500, "GemiddeldAardgasverbruik_55": 1550, "AardgasvrijeWoningen_57": null, "Aardgaswoningen_58": null, "WoningenMetZonnestroom_59": null, "WoningenHoofdzElektrVerwarmd_60": null, "k_20PersonenMetHoogsteInkomen_80": 26.7, "k_20HuishoudensMetHoogsteInkomen_85": null, "MediaanVermogenVanParticuliereHuish_86": null, "PersonenautoSTotaal_104": 110, "PersonenautoSBrandstofBenzine_105": 60, "PersonenautoSOverigeBrandstof_106": 50, "PersonenautoSPerHuishouden_107": 1.3, "Omgevingsadressendichtheid_121": 40, "AantalInstallatiesBijWoningen_5": 7, "OpgesteldVermogenVanZonnepanelen_6": 40, "installaties_per_woning": 0.089743589743589744, "vermogen_per_woning": 0.51282051282051277, "installaties_per_100_woningen": 8.9743589743589745, "vermogen_per_huishouden": 0.47058823529411764, "batterijdruk_score": null, "koop_zon_score": null, "eengezins_zon_score": null, "betaalkracht_zon_score": null, "overige_brandstof_zon_score": null, "lichte_batterij_kansscore": null }, "geometry": { "type": "MultiPolygon", "coordinates": [ [ [ [ 5.191942549554969, 51.361467881696882 ], [ 5.191947503515018, 51.361376688455579 ], [ 5.191947550428326, 51.361375789660308 ], [ 5.191949565737616, 51.361340961673761 ], [ 5.191949569577401, 51.361340062806399 ], [ 5.191955144407133, 51.360048435354052 ], [ 5.191961756777936, 51.358513807971399 ], [ 5.19196176061717, 51.358512909103894 ], [ 5.191962670924885, 51.358390537927484 ], [ 5.191887749376551, 51.358378682162041 ], [ 5.191891990633033, 51.358273125507232 ], [ 5.19189533036917, 51.357961895987508 ], [ 5.191911034543538, 51.356655175208388 ], [ 5.191913625795293, 51.356273769312295 ], [ 5.191913974030742, 51.356222498119237 ], [ 5.191914356059443, 51.356186840425131 ], [ 5.191942703353408, 51.35576483955365 ], [ 5.191987884371542, 51.355091955132764 ], [ 5.192069604530214, 51.3539503689573 ], [ 5.192112959154798, 51.353344663231582 ], [ 5.192113065510514, 51.353343288132017 ], [ 5.192283184757575, 51.350876792071368 ], [ 5.192321732348318, 51.350781225268378 ], [ 5.192339402884317, 51.350737434678848 ], [ 5.193895820234276, 51.350983602302222 ], [ 5.194494481520175, 51.351075532347529 ], [ 5.195114391662004, 51.349687650685937 ], [ 5.195233435606239, 51.349703765801557 ], [ 5.195991426788914, 51.349806700920411 ], [ 5.19606638968522, 51.349815857511871 ], [ 5.196105985139218, 51.349821216780377 ], [ 5.196243293485466, 51.34983956303693 ], [ 5.196292013526556, 51.349846069766727 ], [ 5.196292848117159, 51.349842143052733 ], [ 5.196082772561442, 51.348042737978588 ], [ 5.196068572292115, 51.347995721551762 ], [ 5.196037127770865, 51.347943148774839 ], [ 5.193865244899536, 51.345226117425462 ], [ 5.19387814745865, 51.345202507409617 ], [ 5.194428766064381, 51.344194612240358 ], [ 5.194469540371133, 51.344119983176739 ], [ 5.194493951130996, 51.344076383168364 ], [ 5.195255747095429, 51.342682577536841 ], [ 5.200338137539692, 51.333381413931619 ], [ 5.200787387947903, 51.332559042465519 ], [ 5.201260209894975, 51.331698181075126 ], [ 5.201731973288167, 51.330839203703697 ], [ 5.202221179937015, 51.329948431914517 ], [ 5.203209378709508, 51.328148956025295 ], [ 5.203275473588888, 51.3280286020915 ], [ 5.204532828880956, 51.325738879348293 ], [ 5.204697766203753, 51.325438499946003 ], [ 5.200990800783273, 51.323121188257801 ], [ 5.200255056280721, 51.322661215569077 ], [ 5.196564729667085, 51.320359240560741 ], [ 5.193545160580805, 51.320208734424064 ], [ 5.190556258085932, 51.320070156757659 ], [ 5.181062935535892, 51.317866786845954 ], [ 5.17779165586126, 51.317104460381586 ], [ 5.177380822801597, 51.317008710199921 ], [ 5.177126135732194, 51.316935748011772 ], [ 5.175560884724578, 51.316487603601679 ], [ 5.175318266124841, 51.31641784138948 ], [ 5.173062755421512, 51.315771642231354 ], [ 5.171098885303155, 51.31474185065975 ], [ 5.171078925825315, 51.314731386677657 ], [ 5.167862065811779, 51.313044396156698 ], [ 5.162639768158156, 51.310316605357023 ], [ 5.160778895327975, 51.31066654123466 ], [ 5.15993999311566, 51.310824287832972 ], [ 5.157128900774194, 51.31135282960512 ], [ 5.155588168732357, 51.311642487332072 ], [ 5.148527727128471, 51.312935025711724 ], [ 5.144415228585441, 51.313679545227608 ], [ 5.14004347685213, 51.314470821733465 ], [ 5.137120133684976, 51.314999829345929 ], [ 5.136325654117907, 51.315143586720794 ], [ 5.135437944543239, 51.315304206949094 ], [ 5.134353252865257, 51.315500456073742 ], [ 5.13416168087815, 51.317832204129864 ], [ 5.134006450009493, 51.319721369612623 ], [ 5.133996008075648, 51.319850767249157 ], [ 5.133991510837154, 51.319906514823565 ], [ 5.133668050095899, 51.32391578283579 ], [ 5.133627310937728, 51.324417168652317 ], [ 5.133498804544455, 51.325998858373339 ], [ 5.133327603238545, 51.328105785420867 ], [ 5.133277281361144, 51.328719258066016 ], [ 5.133117412992083, 51.330667908090909 ], [ 5.13298532740141, 51.332277894668337 ], [ 5.132663384152592, 51.335954235328281 ], [ 5.132542981202874, 51.337328956673666 ], [ 5.132486141222501, 51.337977848212041 ], [ 5.132428012077245, 51.338641469471227 ], [ 5.13232952718753, 51.339765784437624 ], [ 5.132272450282035, 51.340417461804606 ], [ 5.132198897794404, 51.34124897721523 ], [ 5.131988271425166, 51.343630277570647 ], [ 5.131981332247305, 51.343708662357677 ], [ 5.131938514709721, 51.344192730270429 ], [ 5.131889174339898, 51.344752370365278 ], [ 5.131766522256473, 51.346143606818472 ], [ 5.131763902112642, 51.346173272976294 ], [ 5.131710903116701, 51.346774510308414 ], [ 5.132549718148915, 51.346772696312648 ], [ 5.133377274919241, 51.34685427644532 ], [ 5.134306514985663, 51.347285228916029 ], [ 5.135019225269375, 51.347656997437838 ], [ 5.135730535892639, 51.348040556301953 ], [ 5.136424999285318, 51.348349635053218 ], [ 5.136873949422187, 51.347868577807432 ], [ 5.13721067984181, 51.347482784691707 ], [ 5.137836336020393, 51.347248731620141 ], [ 5.138535410495192, 51.347740955407879 ], [ 5.13924810436304, 51.348123651653523 ], [ 5.14021919664747, 51.347465039428563 ], [ 5.141327133902005, 51.346418506762312 ], [ 5.143826329819584, 51.347188638748271 ], [ 5.145541237798908, 51.347506812846973 ], [ 5.146330533428441, 51.347280074444768 ], [ 5.146659514622194, 51.346944518521596 ], [ 5.146496815986721, 51.346750924435163 ], [ 5.146366095716962, 51.346532396658155 ], [ 5.146369781258165, 51.346343639488062 ], [ 5.146326706526318, 51.345835685743069 ], [ 5.146528774069738, 51.345323743964293 ], [ 5.146776798848837, 51.344856840408319 ], [ 5.14708929284506, 51.344368440385068 ], [ 5.147289552460603, 51.34394188674198 ], [ 5.147682329829168, 51.343494098836615 ], [ 5.14804940137912, 51.343029122503445 ], [ 5.148322537628212, 51.342643166877799 ], [ 5.150198881750718, 51.343111884617805 ], [ 5.152184104915293, 51.343609442391887 ], [ 5.153081181583132, 51.343861809089702 ], [ 5.153762336161864, 51.343976658152911 ], [ 5.154152403250711, 51.344048224169654 ], [ 5.15405453067644, 51.343539321533278 ], [ 5.153954821148532, 51.343127606045819 ], [ 5.155850632777302, 51.343132227096127 ], [ 5.157402441322611, 51.343047936609217 ], [ 5.157978329635936, 51.343001599026948 ], [ 5.158259190192955, 51.343072094260592 ], [ 5.158648289038854, 51.343606846424855 ], [ 5.158964063030497, 51.344186396597181 ], [ 5.159298373483179, 51.344783116488699 ], [ 5.16051266030396, 51.345072001475643 ], [ 5.162509814344619, 51.345509294780179 ], [ 5.164015570159712, 51.345776512268685 ], [ 5.165105392118797, 51.345984211282534 ], [ 5.166110244077587, 51.34628106468957 ], [ 5.166929721740608, 51.346280930524472 ], [ 5.167856052429495, 51.346447003124638 ], [ 5.16851984755099, 51.346924653916979 ], [ 5.169123914389041, 51.347561458151198 ], [ 5.169800931991249, 51.348283507039454 ], [ 5.169990859934421, 51.348763074640942 ], [ 5.169346401221403, 51.349066366060725 ], [ 5.170117632221485, 51.349601792944156 ], [ 5.170764445383139, 51.350033612276775 ], [ 5.171312723933601, 51.350340246251378 ], [ 5.171883076086788, 51.350533716804996 ], [ 5.174112036015031, 51.352753537995447 ], [ 5.175981279895166, 51.354906091618098 ], [ 5.177044385660337, 51.355324303807592 ], [ 5.179274727057285, 51.355768750774779 ], [ 5.181873288930309, 51.356096950301399 ], [ 5.184192367228704, 51.356632189798134 ], [ 5.185105689679786, 51.357214392378474 ], [ 5.185801190016601, 51.358668120535079 ], [ 5.186596505772255, 51.361310495618262 ], [ 5.186605756276202, 51.36150292628529 ], [ 5.191942549554969, 51.361467881696882 ] ] ] ] } },
{ "type": "Feature", "properties": { "buurtcode": "BU16670100", "buurtnaam": "Hooge Mierde", "pc6_codes": "5095AB, 5095AC, 5095AD, 5095AE, 5095AG, 5095AH, 5095AK, 5095AL, 5095AM, 5095AN, 5095AP, 5095AR, 5095AS, 5095AT, 5095AV, 5095AW, 5095AX, 5095AZ, 5095BE, 5095BG, 5095BH, 5095BJ, 5095BK, 5095BL, 5095BS, 5095BT, 5095BV, 5095BW, 5095BX, 5095BZ, 5095CA, 5095CB, 5095CD, 5095CW, 5095CX, 5095CZ, 5095DA, 5095DB, 5095DC, 5095DD, 5095DE, 5095DX, 5095DZ, 5095EB, 5095EG", "wijkcode": "WK166701", "gemeentecode": "GM1667", "gemeentenaam": "Reusel-De Mierden", "oppervlakteLandInHa": 125, "AantalInwoners_5": 1485, "Mannen_6": 780, "Vrouwen_7": 710, "HuishoudensTotaal_29": 620, "GemiddeldeHuishoudensgrootte_33": 2.4, "Woningvoorraad_35": 615, "NieuwbouwWoningen_36": 6, "NietWoningvoorraad_37": 38, "NieuwbouwNietWoningen_38": 1, "GemiddeldeWOZWaardeVanWoningen_39": 450, "PercentageEengezinswoning_40": 97, "PercentageTussenwoningEengezins_41": 10, "PercentageHoekwoningEengezins_42": 8, "PercentageTweeOnderEenKapWoningEe_43": 36, "PercentageVrijstaandeWoningEengezins_44": 43, "PercentageMeergezinswoning_45": 3, "Koopwoningen_47": 80, "HuurwoningenTotaal_48": 20, "InBezitWoningcorporatie_49": 13, "InBezitOverigeVerhuurders_50": 7, "BouwjaarMeerDanTienJaarGeleden_51": 87, "BouwjaarAfgelopenTienJaar_52": 13, "GemiddeldeElektriciteitslevering_53": 3630, "GemiddeldeElektriciteitsteruglevering_54": 1740, "GemiddeldAardgasverbruik_55": 1030, "AardgasvrijeWoningen_57": 15, "Aardgaswoningen_58": 74, "WoningenMetZonnestroom_59": 54, "WoningenHoofdzElektrVerwarmd_60": 22, "k_20PersonenMetHoogsteInkomen_80": 19.3, "k_20HuishoudensMetHoogsteInkomen_85": 27.8, "MediaanVermogenVanParticuliereHuish_86": 369.3, "PersonenautoSTotaal_104": 875, "PersonenautoSBrandstofBenzine_105": 700, "PersonenautoSOverigeBrandstof_106": 175, "PersonenautoSPerHuishouden_107": 1.4, "Omgevingsadressendichtheid_121": 209, "AantalInstallatiesBijWoningen_5": 220, "OpgesteldVermogenVanZonnepanelen_6": 1217, "installaties_per_woning": 0.35772357723577236, "vermogen_per_woning": 1.9788617886178861, "installaties_per_100_woningen": 35.772357723577237, "vermogen_per_huishouden": 1.9629032258064516, "batterijdruk_score": 939.6, "koop_zon_score": 0.432, "eengezins_zon_score": 0.5238, "betaalkracht_zon_score": 199.422, "overige_brandstof_zon_score": 94.5, "lichte_batterij_kansscore": 0.51530423142509607 }, "geometry": { "type": "MultiPolygon", "coordinates": [ [ [ [ 5.133200245966274, 51.391143428602881 ], [ 5.136642796470095, 51.39085593000523 ], [ 5.136601477880361, 51.389999383430037 ], [ 5.137339819654148, 51.388684117029854 ], [ 5.138655755120397, 51.386076542678666 ], [ 5.139723842829202, 51.38407235695621 ], [ 5.137782944845942, 51.381202781547877 ], [ 5.129775141724862, 51.384458609729691 ], [ 5.128599780134202, 51.38407369590886 ], [ 5.128108278779279, 51.38470611204027 ], [ 5.123688379888695, 51.383796501215699 ], [ 5.122961399569095, 51.383559183216278 ], [ 5.122086934177156, 51.382979391343099 ], [ 5.121155943394553, 51.382281485721315 ], [ 5.119067384475552, 51.381035413246714 ], [ 5.113761159469827, 51.387298924195541 ], [ 5.114870289348426, 51.38778438383374 ], [ 5.119464730515384, 51.388255975149129 ], [ 5.121202541409597, 51.388346186514354 ], [ 5.124150668638392, 51.390045565140554 ], [ 5.127275599954196, 51.391800038402209 ], [ 5.133200245966274, 51.391143428602881 ] ] ] ] } },
{ "type": "Feature", "properties": { "buurtcode": "BU16670109", "buurtnaam": "Verspreide huizen Hooge Mierde", "pc6_codes": "5095AA, 5095AC, 5095AD, 5095AH, 5095AJ, 5095AK, 5095AZ, 5095BA, 5095BB, 5095BC, 5095BD, 5095BM, 5095BN, 5095BP, 5095BR, 5095EA, 5095EB, 5095EC, 5095ED, 5095EE, 5095EX, 5095EZ, 5095NA", "wijkcode": "WK166701", "gemeentecode": "GM1667", "gemeentenaam": "Reusel-De Mierden", "oppervlakteLandInHa": 1979, "AantalInwoners_5": 475, "Mannen_6": 255, "Vrouwen_7": 225, "HuishoudensTotaal_29": 190, "GemiddeldeHuishoudensgrootte_33": 2.5, "Woningvoorraad_35": 139, "NieuwbouwWoningen_36": 3, "NietWoningvoorraad_37": 95, "NieuwbouwNietWoningen_38": 0, "GemiddeldeWOZWaardeVanWoningen_39": 568, "PercentageEengezinswoning_40": 95, "PercentageTussenwoningEengezins_41": 0, "PercentageHoekwoningEengezins_42": 0, "PercentageTweeOnderEenKapWoningEe_43": 20, "PercentageVrijstaandeWoningEengezins_44": 75, "PercentageMeergezinswoning_45": 5, "Koopwoningen_47": 83, "HuurwoningenTotaal_48": 17, "InBezitWoningcorporatie_49": 0, "InBezitOverigeVerhuurders_50": 17, "BouwjaarMeerDanTienJaarGeleden_51": 90, "BouwjaarAfgelopenTienJaar_52": 10, "GemiddeldeElektriciteitslevering_53": 4460, "GemiddeldeElektriciteitsteruglevering_54": 3130, "GemiddeldAardgasverbruik_55": 1300, "AardgasvrijeWoningen_57": 9, "Aardgaswoningen_58": 72, "WoningenMetZonnestroom_59": 58, "WoningenHoofdzElektrVerwarmd_60": 15, "k_20PersonenMetHoogsteInkomen_80": 21.1, "k_20HuishoudensMetHoogsteInkomen_85": 38.9, "MediaanVermogenVanParticuliereHuish_86": 484.6, "PersonenautoSTotaal_104": 255, "PersonenautoSBrandstofBenzine_105": 185, "PersonenautoSOverigeBrandstof_106": 65, "PersonenautoSPerHuishouden_107": 1.3, "Omgevingsadressendichtheid_121": 70, "AantalInstallatiesBijWoningen_5": 47, "OpgesteldVermogenVanZonnepanelen_6": 365, "installaties_per_woning": 0.33812949640287771, "vermogen_per_woning": 2.6258992805755397, "installaties_per_100_woningen": 33.812949640287769, "vermogen_per_huishouden": 1.9210526315789473, "batterijdruk_score": 1815.4, "koop_zon_score": 0.4814, "eengezins_zon_score": 0.551, "betaalkracht_zon_score": 281.068, "overige_brandstof_zon_score": 37.7, "lichte_batterij_kansscore": 0.56347878049510158 }, "geometry": { "type": "MultiPolygon", "coordinates": [ [ [ [ 5.101743636683879, 51.416744222794605 ], [ 5.103943293515553, 51.415333857369475 ], [ 5.106948131035063, 51.41361162375901 ], [ 5.108826462474068, 51.412507134864484 ], [ 5.111438241571277, 51.411806596586764 ], [ 5.11701502831911, 51.410371615132128 ], [ 5.119442632783558, 51.407947724529571 ], [ 5.1234181309341, 51.404701735568359 ], [ 5.127079698987975, 51.401990864288351 ], [ 5.132336909731201, 51.403963134917795 ], [ 5.135907165616312, 51.404924528097915 ], [ 5.141072997536568, 51.405901828387037 ], [ 5.141783086167526, 51.405062034775916 ], [ 5.141867542097277, 51.403512499563199 ], [ 5.142873073207376, 51.402548321058646 ], [ 5.142894248361302, 51.402074490289479 ], [ 5.142918525228658, 51.401565835563581 ], [ 5.142791282569649, 51.400629897841483 ], [ 5.142959954027168, 51.399446547409369 ], [ 5.143658674269083, 51.398313461955659 ], [ 5.144891178825712, 51.397323615630775 ], [ 5.146672647778254, 51.396020564212776 ], [ 5.146603964174903, 51.394867056625223 ], [ 5.146563839317848, 51.393747876482365 ], [ 5.146928660771283, 51.392424475502132 ], [ 5.14795001602131, 51.391072084705947 ], [ 5.149435061172744, 51.38869142074919 ], [ 5.149931850235094, 51.386829798041525 ], [ 5.155600769085548, 51.386524056127612 ], [ 5.154081739713415, 51.377873865303201 ], [ 5.151509186264551, 51.377913638694551 ], [ 5.15094466089981, 51.378192832867676 ], [ 5.150020615502188, 51.378036463410297 ], [ 5.149776055224563, 51.377808438306118 ], [ 5.149199635333513, 51.377612320130375 ], [ 5.148990655896193, 51.377491387722074 ], [ 5.149024452968733, 51.377336681402809 ], [ 5.148264120180464, 51.377163498752481 ], [ 5.147973131777904, 51.3770614975464 ], [ 5.147293208459019, 51.376877517077979 ], [ 5.1470159868092, 51.376633408201599 ], [ 5.146684976626549, 51.376461939930934 ], [ 5.14639758255124, 51.376232976195944 ], [ 5.145893988549424, 51.37559654353376 ], [ 5.144932528758552, 51.374891462376276 ], [ 5.144613341147542, 51.374948382564632 ], [ 5.142849725104354, 51.374147511442636 ], [ 5.142000279475383, 51.373449943931746 ], [ 5.141699053019588, 51.373381051459361 ], [ 5.138778848230692, 51.371081613348046 ], [ 5.137385828823958, 51.37030223438768 ], [ 5.135397828252654, 51.369109477899201 ], [ 5.131159936322642, 51.366548286618603 ], [ 5.129266588939403, 51.36541799209197 ], [ 5.128611511954452, 51.364970754730344 ], [ 5.128162118653461, 51.364693634408269 ], [ 5.127948837950482, 51.364599620722267 ], [ 5.127746580596898, 51.364539901696006 ], [ 5.12710592227184, 51.364323586512555 ], [ 5.125902191280959, 51.363901232688001 ], [ 5.123756598891404, 51.36325370861082 ], [ 5.119759080984305, 51.362028316641698 ], [ 5.117912917618794, 51.361498224935616 ], [ 5.116570383384453, 51.361118002014791 ], [ 5.116563528332555, 51.361131436881273 ], [ 5.116351280661616, 51.36128321358003 ], [ 5.11615119264147, 51.361413229411269 ], [ 5.115870258217257, 51.361627083699624 ], [ 5.115288580102662, 51.362042968779207 ], [ 5.114392394508841, 51.362683679401847 ], [ 5.113229954525537, 51.36351471500484 ], [ 5.112731608805087, 51.363870971939349 ], [ 5.11182701585316, 51.364517656576069 ], [ 5.110479951194861, 51.365474493727845 ], [ 5.110404527741956, 51.365528067477015 ], [ 5.109360796107975, 51.36626941381126 ], [ 5.10775288442543, 51.367411413289361 ], [ 5.106150856332534, 51.368554986850022 ], [ 5.106108249264151, 51.368585374013598 ], [ 5.102323446548636, 51.371285139839287 ], [ 5.101328773956953, 51.371993464651737 ], [ 5.100347111485, 51.372692518629655 ], [ 5.100253313268976, 51.372759308032755 ], [ 5.100247687506231, 51.372763249242531 ], [ 5.099799171425787, 51.373083582659596 ], [ 5.09579283663821, 51.375943840165874 ], [ 5.094318087533241, 51.376996863994627 ], [ 5.094175976597204, 51.37709831366687 ], [ 5.090604598786181, 51.379647638528468 ], [ 5.089495976396321, 51.380438916571727 ], [ 5.087241294852356, 51.382048068420843 ], [ 5.085947341271137, 51.382971492084735 ], [ 5.085307248652141, 51.383427544461711 ], [ 5.084375447448703, 51.384091375448776 ], [ 5.084130080308971, 51.384266153695769 ], [ 5.0838419878961, 51.384471382079823 ], [ 5.082899317442928, 51.385143083140086 ], [ 5.082670759327194, 51.385307340391257 ], [ 5.081719686588101, 51.385990803254522 ], [ 5.081338467095999, 51.386264752251037 ], [ 5.075042348829967, 51.390742450111944 ], [ 5.074503395421118, 51.391125689332092 ], [ 5.072718489857833, 51.392394822194333 ], [ 5.071181694993085, 51.393487467839044 ], [ 5.072930302947188, 51.395597907780228 ], [ 5.075956134886431, 51.399249523083562 ], [ 5.076358219835355, 51.399734720539783 ], [ 5.078036105814219, 51.401759275941302 ], [ 5.07971677780929, 51.403786996052965 ], [ 5.079800058367475, 51.403887467066831 ], [ 5.080091429115023, 51.404238984507593 ], [ 5.080210165529761, 51.404382227142101 ], [ 5.083761938925773, 51.408666612978209 ], [ 5.083825375093157, 51.408743128364975 ], [ 5.083873968313948, 51.408801735498834 ], [ 5.083954287112466, 51.408898609273457 ], [ 5.088318350442096, 51.414161454340061 ], [ 5.091592288397048, 51.418086863069497 ], [ 5.09273825985874, 51.419460678018169 ], [ 5.095124295646476, 51.422167358553246 ], [ 5.095163747457539, 51.422212113329962 ], [ 5.095237391882373, 51.42228324569794 ], [ 5.095456428843438, 51.422500672820981 ], [ 5.100046381860924, 51.417824043288945 ], [ 5.101743636683879, 51.416744222794605 ] ], [ [ 5.121202541409597, 51.388346186514354 ], [ 5.119464730515384, 51.388255975149129 ], [ 5.114870289348426, 51.38778438383374 ], [ 5.113761159469827, 51.387298924195541 ], [ 5.119067384475552, 51.381035413246714 ], [ 5.121155943394553, 51.382281485721315 ], [ 5.122086934177156, 51.382979391343099 ], [ 5.122961399569095, 51.383559183216278 ], [ 5.123688379888695, 51.383796501215699 ], [ 5.128108278779279, 51.38470611204027 ], [ 5.128599780134202, 51.38407369590886 ], [ 5.129775141724862, 51.384458609729691 ], [ 5.137782944845942, 51.381202781547877 ], [ 5.139723842829202, 51.38407235695621 ], [ 5.138655755120397, 51.386076542678666 ], [ 5.137339819654148, 51.388684117029854 ], [ 5.136601477880361, 51.389999383430037 ], [ 5.136642796470095, 51.39085593000523 ], [ 5.133200245966274, 51.391143428602881 ], [ 5.127275599954196, 51.391800038402209 ], [ 5.124150668638392, 51.390045565140554 ], [ 5.121202541409597, 51.388346186514354 ] ] ] ] } },
{ "type": "Feature", "properties": { "buurtcode": "BU16670200", "buurtnaam": "Lage Mierde", "pc6_codes": "5094AA, 5094AB, 5094AC, 5094AD, 5094AE, 5094AH, 5094CA, 5094CB, 5094CC, 5094CD, 5094CE, 5094CG, 5094CH, 5094CJ, 5094CK, 5094CL, 5094EA, 5094EB, 5094ED, 5094EK, 5094EP, 5094ER, 5094ES, 5094ET, 5094EV, 5094EW, 5094EX, 5094EZ, 5094GA, 5094GB, 5094GC, 5094GD, 5094GE, 5094GG, 5094GH, 5094GJ, 5094GK, 5094GL, 5094GM, 5094GN, 5094GP, 5094HA, 5094HB, 5094HC, 5094HD", "wijkcode": "WK166702", "gemeentecode": "GM1667", "gemeentenaam": "Reusel-De Mierden", "oppervlakteLandInHa": 102, "AantalInwoners_5": 1470, "Mannen_6": 755, "Vrouwen_7": 715, "HuishoudensTotaal_29": 620, "GemiddeldeHuishoudensgrootte_33": 2.3, "Woningvoorraad_35": 671, "NieuwbouwWoningen_36": 4, "NietWoningvoorraad_37": 58, "NieuwbouwNietWoningen_38": 0, "GemiddeldeWOZWaardeVanWoningen_39": 425, "PercentageEengezinswoning_40": 87, "PercentageTussenwoningEengezins_41": 7, "PercentageHoekwoningEengezins_42": 9, "PercentageTweeOnderEenKapWoningEe_43": 28, "PercentageVrijstaandeWoningEengezins_44": 43, "PercentageMeergezinswoning_45": 13, "Koopwoningen_47": 73, "HuurwoningenTotaal_48": 27, "InBezitWoningcorporatie_49": 15, "InBezitOverigeVerhuurders_50": 12, "BouwjaarMeerDanTienJaarGeleden_51": 91, "BouwjaarAfgelopenTienJaar_52": 9, "GemiddeldeElektriciteitslevering_53": 3410, "GemiddeldeElektriciteitsteruglevering_54": 1600, "GemiddeldAardgasverbruik_55": 990, "AardgasvrijeWoningen_57": 10, "Aardgaswoningen_58": 74, "WoningenMetZonnestroom_59": 50, "WoningenHoofdzElektrVerwarmd_60": 19, "k_20PersonenMetHoogsteInkomen_80": 18.9, "k_20HuishoudensMetHoogsteInkomen_85": 26.9, "MediaanVermogenVanParticuliereHuish_86": 382.3, "PersonenautoSTotaal_104": 905, "PersonenautoSBrandstofBenzine_105": 715, "PersonenautoSOverigeBrandstof_106": 190, "PersonenautoSPerHuishouden_107": 1.5, "Omgevingsadressendichtheid_121": 225, "AantalInstallatiesBijWoningen_5": 237, "OpgesteldVermogenVanZonnepanelen_6": 1279, "installaties_per_woning": 0.35320417287630401, "vermogen_per_woning": 1.9061102831594634, "installaties_per_100_woningen": 35.320417287630399, "vermogen_per_huishouden": 2.0629032258064517, "batterijdruk_score": 800.0, "koop_zon_score": 0.365, "eengezins_zon_score": 0.435, "betaalkracht_zon_score": 191.15, "overige_brandstof_zon_score": 95.0, "lichte_batterij_kansscore": 0.46952849434543309 }, "geometry": { "type": "MultiPolygon", "coordinates": [ [ [ [ 5.152689927031189, 51.407845690595934 ], [ 5.15350922050195, 51.40612430798096 ], [ 5.154311389080405, 51.402157388900292 ], [ 5.154876566620588, 51.395583260091016 ], [ 5.153954431833494, 51.395245184914309 ], [ 5.149920094495229, 51.398206981881188 ], [ 5.146432198927822, 51.400191683064925 ], [ 5.142894248361302, 51.402074490289479 ], [ 5.142873073207376, 51.402548321058646 ], [ 5.141867542097277, 51.403512499563199 ], [ 5.141783086167526, 51.405062034775916 ], [ 5.141072997536568, 51.405901828387037 ], [ 5.14686495823635, 51.411860787371474 ], [ 5.14904942086568, 51.412230994791869 ], [ 5.152689927031189, 51.407845690595934 ] ] ] ] } },
{ "type": "Feature", "properties": { "buurtcode": "BU16670209", "buurtnaam": "Verspreide huizen Lage Mierde", "pc6_codes": "5094BA, 5094BB, 5094BC, 5094BD, 5094BE, 5094BG, 5094BH, 5094BJ, 5094BK, 5094BL, 5094BM, 5094BP, 5094CH, 5094CJ, 5094CL, 5094DX, 5094DZ, 5094EE, 5094EG, 5094EH, 5094EJ, 5094EK, 5094EL, 5094EM, 5094EN, 5094HD", "wijkcode": "WK166702", "gemeentecode": "GM1667", "gemeentenaam": "Reusel-De Mierden", "oppervlakteLandInHa": 1813, "AantalInwoners_5": 430, "Mannen_6": 225, "Vrouwen_7": 205, "HuishoudensTotaal_29": 195, "GemiddeldeHuishoudensgrootte_33": 2.2, "Woningvoorraad_35": 134, "NieuwbouwWoningen_36": 0, "NietWoningvoorraad_37": 160, "NieuwbouwNietWoningen_38": 0, "GemiddeldeWOZWaardeVanWoningen_39": 588, "PercentageEengezinswoning_40": 96, "PercentageTussenwoningEengezins_41": 0, "PercentageHoekwoningEengezins_42": 0, "PercentageTweeOnderEenKapWoningEe_43": 6, "PercentageVrijstaandeWoningEengezins_44": 90, "PercentageMeergezinswoning_45": 4, "Koopwoningen_47": 83, "HuurwoningenTotaal_48": 17, "InBezitWoningcorporatie_49": 0, "InBezitOverigeVerhuurders_50": 17, "BouwjaarMeerDanTienJaarGeleden_51": 96, "BouwjaarAfgelopenTienJaar_52": 4, "GemiddeldeElektriciteitslevering_53": 4260, "GemiddeldeElektriciteitsteruglevering_54": 2010, "GemiddeldAardgasverbruik_55": 1410, "AardgasvrijeWoningen_57": 7, "Aardgaswoningen_58": 69, "WoningenMetZonnestroom_59": 49, "WoningenHoofdzElektrVerwarmd_60": 15, "k_20PersonenMetHoogsteInkomen_80": 21.4, "k_20HuishoudensMetHoogsteInkomen_85": 30.9, "MediaanVermogenVanParticuliereHuish_86": 388.7, "PersonenautoSTotaal_104": 230, "PersonenautoSBrandstofBenzine_105": 170, "PersonenautoSOverigeBrandstof_106": 55, "PersonenautoSPerHuishouden_107": 1.2, "Omgevingsadressendichtheid_121": 76, "AantalInstallatiesBijWoningen_5": 38, "OpgesteldVermogenVanZonnepanelen_6": 238, "installaties_per_woning": 0.28358208955223879, "vermogen_per_woning": 1.7761194029850746, "installaties_per_100_woningen": 28.35820895522388, "vermogen_per_huishouden": 1.2205128205128206, "batterijdruk_score": 984.9, "koop_zon_score": 0.4067, "eengezins_zon_score": 0.4704, "betaalkracht_zon_score": 190.463, "overige_brandstof_zon_score": 26.95, "lichte_batterij_kansscore": 0.51497910353137522 }, "geometry": { "type": "MultiPolygon", "coordinates": [ [ [ [ 5.158652295780679, 51.432154382952703 ], [ 5.159864898978455, 51.431911179274316 ], [ 5.165204843426544, 51.430844043138961 ], [ 5.166906468235902, 51.430503925135795 ], [ 5.169309894970857, 51.430021877342114 ], [ 5.170765628103267, 51.429733081737858 ], [ 5.171729015439736, 51.429192961734586 ], [ 5.173458333740282, 51.428240218857979 ], [ 5.175667625068743, 51.429287805457783 ], [ 5.175719894817942, 51.429312421361608 ], [ 5.176648721782986, 51.42974982801389 ], [ 5.177137695134133, 51.429787400861592 ], [ 5.177678460676573, 51.430004182598893 ], [ 5.177948095539895, 51.430119299230469 ], [ 5.178153519849217, 51.430261023691145 ], [ 5.179465944565509, 51.429924060900611 ], [ 5.180903218641714, 51.429565290723758 ], [ 5.181378100733024, 51.429478776740666 ], [ 5.181697139097392, 51.429420651560889 ], [ 5.18320281429265, 51.429141415660773 ], [ 5.184049275430013, 51.428977553555328 ], [ 5.184980787731348, 51.428764026258371 ], [ 5.185216308743389, 51.428844118894183 ], [ 5.185963635176297, 51.429160895182022 ], [ 5.186703509923586, 51.429448036081169 ], [ 5.187144273147553, 51.429594031766122 ], [ 5.18754244500264, 51.429655117546481 ], [ 5.187813128915353, 51.429696640593377 ], [ 5.189553946894576, 51.429998888824258 ], [ 5.190113266225922, 51.430099132664409 ], [ 5.190182475330543, 51.430112399961786 ], [ 5.190204328575205, 51.430116589622273 ], [ 5.190226849782006, 51.430115944482871 ], [ 5.190694218604267, 51.430175158712487 ], [ 5.191020000434389, 51.430215823227826 ], [ 5.190824152165072, 51.429847927857104 ], [ 5.190769263884963, 51.429744815973763 ], [ 5.190777025215906, 51.429745647005234 ], [ 5.190781794179357, 51.428845139654221 ], [ 5.19081906550177, 51.421817130442946 ], [ 5.190822872736947, 51.421393516990101 ], [ 5.190837266788037, 51.41979601388806 ], [ 5.190838975760088, 51.419606013419518 ], [ 5.190846141236033, 51.418809472971837 ], [ 5.190847653846092, 51.418641701242016 ], [ 5.190851534695915, 51.418210869898111 ], [ 5.190896267391842, 51.41800147223281 ], [ 5.191090114667895, 51.417093902362197 ], [ 5.19109062815828, 51.417091494250442 ], [ 5.191115186831597, 51.41697649798904 ], [ 5.191156498964706, 51.416783085381773 ], [ 5.191475409478841, 51.415289903513511 ], [ 5.191491076468949, 51.415216545942222 ], [ 5.191693994392192, 51.414266455569482 ], [ 5.191755236426429, 51.413979674397737 ], [ 5.191772618647752, 51.413898301724842 ], [ 5.192048013774071, 51.412608675517284 ], [ 5.192090256650725, 51.412410877603051 ], [ 5.192596336955113, 51.410040823478319 ], [ 5.19264287223727, 51.409822888788263 ], [ 5.193131854698172, 51.407532677269373 ], [ 5.193142911947129, 51.407480830768186 ], [ 5.193143351791777, 51.407478791061187 ], [ 5.193738867719103, 51.40468931378728 ], [ 5.193748823747745, 51.404642651885723 ], [ 5.193773838153051, 51.40452546250512 ], [ 5.193777327863586, 51.404509108824634 ], [ 5.19378265040493, 51.404484164968473 ], [ 5.193786521191552, 51.404466059119471 ], [ 5.193926853882525, 51.403808686074186 ], [ 5.194031774697787, 51.403317141007655 ], [ 5.194130447403662, 51.402854870740299 ], [ 5.194138789865172, 51.402815765643417 ], [ 5.194348165274655, 51.401834876443552 ], [ 5.194556505329724, 51.400858821044629 ], [ 5.194668610473129, 51.400333561525535 ], [ 5.194684003306071, 51.400261434475873 ], [ 5.194731456862329, 51.400039086906915 ], [ 5.194749362026212, 51.399955216634631 ], [ 5.183723022806761, 51.39977812844181 ], [ 5.178969893008303, 51.399684349899943 ], [ 5.175207550947944, 51.398835442831121 ], [ 5.174220261678032, 51.399133644395768 ], [ 5.17315817918273, 51.399482261103749 ], [ 5.17256450517479, 51.399533417468156 ], [ 5.171652025592764, 51.39953089307992 ], [ 5.170067639008399, 51.399410258747849 ], [ 5.165830145742429, 51.399074207278524 ], [ 5.161902115471345, 51.398328488103793 ], [ 5.162296127606359, 51.397422510368912 ], [ 5.162373062829947, 51.394337558794284 ], [ 5.161976679205756, 51.392862642484488 ], [ 5.161133150243995, 51.391112703609501 ], [ 5.159646811640068, 51.389535100240593 ], [ 5.157918068361721, 51.388777503851614 ], [ 5.155402390013873, 51.3882385446326 ], [ 5.155600769085548, 51.386524056127612 ], [ 5.149931850235094, 51.386829798041525 ], [ 5.149435061172744, 51.38869142074919 ], [ 5.14795001602131, 51.391072084705947 ], [ 5.146928660771283, 51.392424475502132 ], [ 5.146563839317848, 51.393747876482365 ], [ 5.146603964174903, 51.394867056625223 ], [ 5.146672647778254, 51.396020564212776 ], [ 5.144891178825712, 51.397323615630775 ], [ 5.143658674269083, 51.398313461955659 ], [ 5.142959954027168, 51.399446547409369 ], [ 5.142791282569649, 51.400629897841483 ], [ 5.142918525228658, 51.401565835563581 ], [ 5.142894248361302, 51.402074490289479 ], [ 5.146432198927822, 51.400191683064925 ], [ 5.149920094495229, 51.398206981881188 ], [ 5.153954431833494, 51.395245184914309 ], [ 5.154876566620588, 51.395583260091016 ], [ 5.154311389080405, 51.402157388900292 ], [ 5.15350922050195, 51.40612430798096 ], [ 5.152689927031189, 51.407845690595934 ], [ 5.14904942086568, 51.412230994791869 ], [ 5.14686495823635, 51.411860787371474 ], [ 5.141072997536568, 51.405901828387037 ], [ 5.135907165616312, 51.404924528097915 ], [ 5.132336909731201, 51.403963134917795 ], [ 5.127079698987975, 51.401990864288351 ], [ 5.1234181309341, 51.404701735568359 ], [ 5.119442632783558, 51.407947724529571 ], [ 5.11701502831911, 51.410371615132128 ], [ 5.111438241571277, 51.411806596586764 ], [ 5.108826462474068, 51.412507134864484 ], [ 5.106948131035063, 51.41361162375901 ], [ 5.103943293515553, 51.415333857369475 ], [ 5.101743636683879, 51.416744222794605 ], [ 5.100046381860924, 51.417824043288945 ], [ 5.095456428843438, 51.422500672820981 ], [ 5.095861057968094, 51.422902321529158 ], [ 5.096808672508174, 51.423854756747509 ], [ 5.098841383795841, 51.425869758852265 ], [ 5.102020556081361, 51.428922728159932 ], [ 5.112896413992828, 51.428515432446865 ], [ 5.11530436012464, 51.428425112415532 ], [ 5.116162479158802, 51.428392915298431 ], [ 5.11629206350506, 51.428392883581637 ], [ 5.119459113293304, 51.428274835261305 ], [ 5.120845842291928, 51.428296803696881 ], [ 5.122722574403181, 51.428334878232647 ], [ 5.127124286886882, 51.428420751524854 ], [ 5.129679352332998, 51.428470749492455 ], [ 5.129696518869649, 51.428471119950835 ], [ 5.132758236520609, 51.428536728914246 ], [ 5.141279101543543, 51.428718902794515 ], [ 5.141304463425647, 51.428719450608305 ], [ 5.141686056769034, 51.42872760668309 ], [ 5.141686410851804, 51.428766007228461 ], [ 5.141802874951616, 51.428770018424018 ], [ 5.141828594554757, 51.428770899458407 ], [ 5.141854665317789, 51.428773327284695 ], [ 5.141904167359984, 51.428766321254486 ], [ 5.141907862910731, 51.428766302054953 ], [ 5.143116416146381, 51.4287612761687 ], [ 5.143122067337845, 51.428761243042921 ], [ 5.148404821681377, 51.428727227035296 ], [ 5.149055946958121, 51.428775217770792 ], [ 5.150840457526189, 51.428908839863297 ], [ 5.150978207352955, 51.428917756880743 ], [ 5.152444229487567, 51.429026035401691 ], [ 5.152499813517966, 51.428968547501363 ], [ 5.153134502585046, 51.42831206384087 ], [ 5.153151112240011, 51.428294883759818 ], [ 5.153211529927543, 51.42835432142062 ], [ 5.153465294048155, 51.428429526079256 ], [ 5.153543867968566, 51.428495579662034 ], [ 5.153551191232101, 51.428595791518461 ], [ 5.15344539576447, 51.428690006133863 ], [ 5.1533999009496, 51.428729123784436 ], [ 5.153454396645562, 51.428779884333991 ], [ 5.153614581879613, 51.428802101517917 ], [ 5.153786244899793, 51.428770337241467 ], [ 5.154052141249059, 51.428675327625214 ], [ 5.154187195869104, 51.428595391021027 ], [ 5.154285867412044, 51.428614697965109 ], [ 5.154277679988891, 51.428745341572039 ], [ 5.154316470185559, 51.428813868028705 ], [ 5.1544373089333, 51.428842810027326 ], [ 5.154623205603321, 51.428859243419943 ], [ 5.154766684982612, 51.428866971879984 ], [ 5.154846450148169, 51.428922689931476 ], [ 5.154866040625569, 51.429031609215151 ], [ 5.15489382802789, 51.429038765605988 ], [ 5.154903125596466, 51.429017319062218 ], [ 5.1549037439105, 51.42899755411171 ], [ 5.154895920866626, 51.428972289245941 ], [ 5.154888202418369, 51.428943429102326 ], [ 5.154880141459144, 51.428925354732726 ], [ 5.154871856950915, 51.428914470888493 ], [ 5.154896157879214, 51.428781764943992 ], [ 5.157747493823511, 51.428821040690039 ], [ 5.157837213577378, 51.428825163070627 ], [ 5.157948249789563, 51.428830855332336 ], [ 5.157994224219983, 51.429084696980617 ], [ 5.158553217017318, 51.432174251723531 ], [ 5.158652295780679, 51.432154382952703 ] ] ] ] } },
{ "type": "Feature", "properties": { "buurtcode": "BU16670300", "buurtnaam": "Hulsel", "pc6_codes": "5096BC, 5096BD, 5096BE, 5096BG, 5096BH, 5096BJ, 5096BK, 5096BM, 5096BS, 5096BT, 5096BV, 5096BW, 5096BX, 5096CA, 5096CC, 5096CD, 5096CE, 5096CH, 5096CJ, 5096CK, 5096CL, 5096CM", "wijkcode": "WK166703", "gemeentecode": "GM1667", "gemeentenaam": "Reusel-De Mierden", "oppervlakteLandInHa": 48, "AantalInwoners_5": 645, "Mannen_6": 315, "Vrouwen_7": 330, "HuishoudensTotaal_29": 260, "GemiddeldeHuishoudensgrootte_33": 2.5, "Woningvoorraad_35": 259, "NieuwbouwWoningen_36": 1, "NietWoningvoorraad_37": 15, "NieuwbouwNietWoningen_38": 0, "GemiddeldeWOZWaardeVanWoningen_39": 497, "PercentageEengezinswoning_40": 98, "PercentageTussenwoningEengezins_41": 5, "PercentageHoekwoningEengezins_42": 6, "PercentageTweeOnderEenKapWoningEe_43": 39, "PercentageVrijstaandeWoningEengezins_44": 47, "PercentageMeergezinswoning_45": 2, "Koopwoningen_47": 89, "HuurwoningenTotaal_48": 11, "InBezitWoningcorporatie_49": 7, "InBezitOverigeVerhuurders_50": 4, "BouwjaarMeerDanTienJaarGeleden_51": 89, "BouwjaarAfgelopenTienJaar_52": 11, "GemiddeldeElektriciteitslevering_53": 3380, "GemiddeldeElektriciteitsteruglevering_54": 1830, "GemiddeldAardgasverbruik_55": 940, "AardgasvrijeWoningen_57": 8, "Aardgaswoningen_58": 80, "WoningenMetZonnestroom_59": 63, "WoningenHoofdzElektrVerwarmd_60": 18, "k_20PersonenMetHoogsteInkomen_80": 20.5, "k_20HuishoudensMetHoogsteInkomen_85": 28.2, "MediaanVermogenVanParticuliereHuish_86": 453.8, "PersonenautoSTotaal_104": 415, "PersonenautoSBrandstofBenzine_105": 340, "PersonenautoSOverigeBrandstof_106": 75, "PersonenautoSPerHuishouden_107": 1.6, "Omgevingsadressendichtheid_121": 105, "AantalInstallatiesBijWoningen_5": 112, "OpgesteldVermogenVanZonnepanelen_6": 545, "installaties_per_woning": 0.43243243243243246, "vermogen_per_woning": 2.1042471042471043, "installaties_per_100_woningen": 43.243243243243242, "vermogen_per_huishouden": 2.0961538461538463, "batterijdruk_score": 1152.9, "koop_zon_score": 0.5607, "eengezins_zon_score": 0.6174, "betaalkracht_zon_score": 285.894, "overige_brandstof_zon_score": 47.25, "lichte_batterij_kansscore": 0.55413718761755804 }, "geometry": { "type": "MultiPolygon", "coordinates": [ [ [ [ 5.184038630486753, 51.390893764455051 ], [ 5.183764776079365, 51.390566927273944 ], [ 5.183854820254647, 51.390553118469164 ], [ 5.183922771177897, 51.390114756028936 ], [ 5.184512264306196, 51.389356234283078 ], [ 5.184025284703739, 51.388718872978373 ], [ 5.18386575525042, 51.388097529713384 ], [ 5.183862987296761, 51.387408201839662 ], [ 5.180967412352581, 51.386640762383088 ], [ 5.178317800736516, 51.38610206189454 ], [ 5.175521459926697, 51.385658539287931 ], [ 5.172912989841137, 51.385609676276005 ], [ 5.171717746490256, 51.385606631375616 ], [ 5.168251008862522, 51.387791459838326 ], [ 5.170649638373916, 51.389986659720066 ], [ 5.171699589478662, 51.389454617712161 ], [ 5.174389202244386, 51.389382869592851 ], [ 5.177689824536315, 51.390098391598578 ], [ 5.177099928954624, 51.391014741868929 ], [ 5.17721080010203, 51.391654826519868 ], [ 5.179609142804317, 51.391682714120954 ], [ 5.179687917757445, 51.390995779354178 ], [ 5.17970131887029, 51.390994976227141 ], [ 5.181791985446129, 51.390869441401442 ], [ 5.18278424493211, 51.391752204311736 ], [ 5.184038630486753, 51.390893764455051 ] ] ] ] } },
{ "type": "Feature", "properties": { "buurtcode": "BU16670309", "buurtnaam": "Verspreide huizen Hulsel", "pc6_codes": "5096BA, 5096BB, 5096BC, 5096BD, 5096BE, 5096BG, 5096BJ, 5096BK, 5096BL, 5096BN, 5096BP, 5096BR, 5096BS, 5096CM, 5096CN", "wijkcode": "WK166703", "gemeentecode": "GM1667", "gemeentenaam": "Reusel-De Mierden", "oppervlakteLandInHa": 627, "AantalInwoners_5": 220, "Mannen_6": 120, "Vrouwen_7": 100, "HuishoudensTotaal_29": 80, "GemiddeldeHuishoudensgrootte_33": 2.7, "Woningvoorraad_35": 81, "NieuwbouwWoningen_36": 18, "NietWoningvoorraad_37": 12, "NieuwbouwNietWoningen_38": 0, "GemiddeldeWOZWaardeVanWoningen_39": 603, "PercentageEengezinswoning_40": 91, "PercentageTussenwoningEengezins_41": 6, "PercentageHoekwoningEengezins_42": 5, "PercentageTweeOnderEenKapWoningEe_43": 7, "PercentageVrijstaandeWoningEengezins_44": 73, "PercentageMeergezinswoning_45": 9, "Koopwoningen_47": 93, "HuurwoningenTotaal_48": 7, "InBezitWoningcorporatie_49": 0, "InBezitOverigeVerhuurders_50": 7, "BouwjaarMeerDanTienJaarGeleden_51": 79, "BouwjaarAfgelopenTienJaar_52": 21, "GemiddeldeElektriciteitslevering_53": 4270, "GemiddeldeElektriciteitsteruglevering_54": 2680, "GemiddeldAardgasverbruik_55": 1110, "AardgasvrijeWoningen_57": null, "Aardgaswoningen_58": null, "WoningenMetZonnestroom_59": null, "WoningenHoofdzElektrVerwarmd_60": null, "k_20PersonenMetHoogsteInkomen_80": 16.6, "k_20HuishoudensMetHoogsteInkomen_85": null, "MediaanVermogenVanParticuliereHuish_86": null, "PersonenautoSTotaal_104": 105, "PersonenautoSBrandstofBenzine_105": 80, "PersonenautoSOverigeBrandstof_106": 25, "PersonenautoSPerHuishouden_107": 1.3, "Omgevingsadressendichtheid_121": 78, "AantalInstallatiesBijWoningen_5": 31, "OpgesteldVermogenVanZonnepanelen_6": 254, "installaties_per_woning": 0.38271604938271603, "vermogen_per_woning": 3.1358024691358026, "installaties_per_100_woningen": 38.271604938271601, "vermogen_per_huishouden": 3.175, "batterijdruk_score": null, "koop_zon_score": null, "eengezins_zon_score": null, "betaalkracht_zon_score": null, "overige_brandstof_zon_score": null, "lichte_batterij_kansscore": null }, "geometry": { "type": "MultiPolygon", "coordinates": [ [ [ [ 5.194770509939431, 51.399856123019134 ], [ 5.195082188901374, 51.399362643555818 ], [ 5.195351418039234, 51.398936347066027 ], [ 5.196710665140194, 51.396784067725136 ], [ 5.196802240416909, 51.396639049357773 ], [ 5.1980382238917, 51.394688961227473 ], [ 5.198173162800054, 51.39447597643963 ], [ 5.198472219108835, 51.394001226858173 ], [ 5.198998535456965, 51.393165703433816 ], [ 5.199010727366176, 51.39314635240391 ], [ 5.199025970431919, 51.393122260248568 ], [ 5.199921024492339, 51.391707423855287 ], [ 5.200219363500555, 51.391235810166293 ], [ 5.200938862861886, 51.390098386507184 ], [ 5.200959367406308, 51.39006596995084 ], [ 5.200901410756162, 51.389967441921236 ], [ 5.199936702330808, 51.388327217318682 ], [ 5.199906442226357, 51.388275753245615 ], [ 5.198518371763138, 51.385915504545352 ], [ 5.197940990555373, 51.384933647677855 ], [ 5.19784018141724, 51.384762212911987 ], [ 5.197748274320678, 51.384605875595369 ], [ 5.197679918578564, 51.384489594274861 ], [ 5.197430976340912, 51.384066153174452 ], [ 5.197402590431807, 51.384017882479668 ], [ 5.197484608639911, 51.383970959905021 ], [ 5.197711427463984, 51.3838267448766 ], [ 5.197684369668987, 51.383693766649365 ], [ 5.197625609116924, 51.383404926315421 ], [ 5.197612193109901, 51.38333898119236 ], [ 5.198007094677743, 51.383093250283316 ], [ 5.199268821339823, 51.382308101930292 ], [ 5.197477449552062, 51.381215732643135 ], [ 5.196906172676553, 51.380867351863621 ], [ 5.195949297722809, 51.38028380282735 ], [ 5.196979007921819, 51.379464545893825 ], [ 5.195224490108637, 51.378839507785138 ], [ 5.195023492564577, 51.378927293338073 ], [ 5.195022983127268, 51.378922061058304 ], [ 5.194871035525527, 51.378863276026358 ], [ 5.193978086009067, 51.378517801659484 ], [ 5.193608646921875, 51.378378861559035 ], [ 5.193056715220296, 51.378171293358562 ], [ 5.193028059057162, 51.378175038905418 ], [ 5.19301417914159, 51.378264085127043 ], [ 5.192963314017856, 51.378271991421386 ], [ 5.19257116355764, 51.378212524512492 ], [ 5.190870760748925, 51.377964750034081 ], [ 5.190851310878522, 51.377961912812303 ], [ 5.190214877610177, 51.377869163716625 ], [ 5.188508371324639, 51.377620454546211 ], [ 5.188316798239333, 51.377534411522348 ], [ 5.188413563123764, 51.377266748223391 ], [ 5.18843105223578, 51.377218364718523 ], [ 5.188374229858577, 51.377119976094974 ], [ 5.18821136207051, 51.376838009487273 ], [ 5.188134557005667, 51.376674849804829 ], [ 5.18811187826991, 51.376589148482687 ], [ 5.188139857343225, 51.376480252801954 ], [ 5.188139789329396, 51.376420046158351 ], [ 5.188140260634071, 51.376348137105722 ], [ 5.188141711482695, 51.37625249048277 ], [ 5.188142942341538, 51.376171072647018 ], [ 5.188142990870585, 51.375902813003542 ], [ 5.18815725047584, 51.375517643186534 ], [ 5.188156342969858, 51.375511664130791 ], [ 5.188135872567985, 51.37537743640857 ], [ 5.187987716386293, 51.374513141521156 ], [ 5.187975668541992, 51.374519287214468 ], [ 5.187489966762244, 51.374766968110244 ], [ 5.1863741122812, 51.375335989570019 ], [ 5.18614330291177, 51.375435456768166 ], [ 5.186128449111572, 51.37544269405948 ], [ 5.185847809430353, 51.375579395981639 ], [ 5.185854497384148, 51.375691317252617 ], [ 5.18556730570799, 51.375808573549342 ], [ 5.185414634113843, 51.37584075885718 ], [ 5.185205415059379, 51.375863677544032 ], [ 5.184971863682341, 51.37590003677095 ], [ 5.184560828144224, 51.375928087349685 ], [ 5.1833214963995, 51.375797298893055 ], [ 5.183273706263715, 51.375792253568179 ], [ 5.183215737946075, 51.375786134247889 ], [ 5.182913905388751, 51.376070630650098 ], [ 5.182570292292707, 51.376128455098417 ], [ 5.182479190157808, 51.376276608440044 ], [ 5.18252724335265, 51.376420513404945 ], [ 5.182463652991647, 51.376538378929276 ], [ 5.182461519199774, 51.376664217450738 ], [ 5.18268334772574, 51.376841572299021 ], [ 5.182824441099333, 51.377106987230619 ], [ 5.182851089580985, 51.377270516501191 ], [ 5.182771224257519, 51.377464757904193 ], [ 5.1828452326836, 51.377576123157532 ], [ 5.18299707595591, 51.377696893833175 ], [ 5.183057994885585, 51.377875090630567 ], [ 5.182352938457701, 51.377856719327092 ], [ 5.17175501554383, 51.377705603436844 ], [ 5.169781081960965, 51.377780873399736 ], [ 5.166659823012051, 51.377822766047032 ], [ 5.163926346889703, 51.377867845721347 ], [ 5.159702768908506, 51.378032155441289 ], [ 5.154562486342958, 51.377955723867764 ], [ 5.154081739713415, 51.377873865303201 ], [ 5.155600769085548, 51.386524056127612 ], [ 5.155402390013873, 51.3882385446326 ], [ 5.157918068361721, 51.388777503851614 ], [ 5.159646811640068, 51.389535100240593 ], [ 5.161133150243995, 51.391112703609501 ], [ 5.161976679205756, 51.392862642484488 ], [ 5.162373062829947, 51.394337558794284 ], [ 5.162296127606359, 51.397422510368912 ], [ 5.161902115471345, 51.398328488103793 ], [ 5.165830145742429, 51.399074207278524 ], [ 5.170067639008399, 51.399410258747849 ], [ 5.171652025592764, 51.39953089307992 ], [ 5.17256450517479, 51.399533417468156 ], [ 5.17315817918273, 51.399482261103749 ], [ 5.174220261678032, 51.399133644395768 ], [ 5.175207550947944, 51.398835442831121 ], [ 5.178969893008303, 51.399684349899943 ], [ 5.183723022806761, 51.39977812844181 ], [ 5.194749362026212, 51.399955216634631 ], [ 5.19475429640918, 51.399932104888521 ], [ 5.194770509939431, 51.399856123019134 ] ], [ [ 5.17970131887029, 51.390994976227141 ], [ 5.179687917757445, 51.390995779354178 ], [ 5.179609142804317, 51.391682714120954 ], [ 5.17721080010203, 51.391654826519868 ], [ 5.177099928954624, 51.391014741868929 ], [ 5.177689824536315, 51.390098391598578 ], [ 5.174389202244386, 51.389382869592851 ], [ 5.171699589478662, 51.389454617712161 ], [ 5.170649638373916, 51.389986659720066 ], [ 5.168251008862522, 51.387791459838326 ], [ 5.171717746490256, 51.385606631375616 ], [ 5.172912989841137, 51.385609676276005 ], [ 5.175521459926697, 51.385658539287931 ], [ 5.178317800736516, 51.38610206189454 ], [ 5.180967412352581, 51.386640762383088 ], [ 5.183862987296761, 51.387408201839662 ], [ 5.18386575525042, 51.388097529713384 ], [ 5.184025284703739, 51.388718872978373 ], [ 5.184512264306196, 51.389356234283078 ], [ 5.183922771177897, 51.390114756028936 ], [ 5.183854820254647, 51.390553118469164 ], [ 5.183764776079365, 51.390566927273944 ], [ 5.184038630486753, 51.390893764455051 ], [ 5.18278424493211, 51.391752204311736 ], [ 5.181791985446129, 51.390869441401442 ], [ 5.17970131887029, 51.390994976227141 ] ] ] ] } }
]
}
