{
"type": "FeatureCollection",
"name": "Rozendaal",
"crs": { "type": "name", "properties": { "name": "urn:ogc:def:crs:EPSG::28992" } },
"features": [
{ "type": "Feature", "properties": { "buurtcode": "BU02770000", "buurtnaam": "Rozendaal", "pc6_codes": "6891AA, 6891AB, 6891AC, 6891AD, 6891AE, 6891AG, 6891AH, 6891AJ, 6891AK, 6891AL, 6891AM, 6891AN, 6891AP, 6891AR, 6891AS, 6891AT, 6891AV, 6891AW, 6891AX, 6891AZ, 6891BB, 6891BC, 6891BD, 6891BE, 6891BG, 6891CA, 6891CB, 6891CC, 6891CD, 6891CE, 6891CG, 6891CH, 6891CJ, 6891CK, 6891CL, 6891CM, 6891CN, 6891CP, 6891CR, 6891CS, 6891CT, 6891CV, 6891CW, 6891CX, 6891CZ, 6891DA, 6891DB, 6891DC, 6891DD, 6891DE, 6891DG, 6891DH, 6891DJ, 6891DK, 6891DL, 6891DM, 6891EA, 6891EB, 6891EC, 6891ED, 6891EE, 6891EG, 6891EH, 6891EJ, 6891EK, 6891EL, 6891EM", "wijkcode": "WK027700", "gemeentecode": "GM0277", "gemeentenaam": "Rozendaal", "oppervlakteLandInHa": 116, "AantalInwoners_5": 1820, "Mannen_6": 900, "Vrouwen_7": 920, "HuishoudensTotaal_29": 745, "GemiddeldeHuishoudensgrootte_33": 2.4, "Woningvoorraad_35": 701, "NieuwbouwWoningen_36": 1, "NietWoningvoorraad_37": 26, "NieuwbouwNietWoningen_38": 2, "GemiddeldeWOZWaardeVanWoningen_39": 768, "PercentageEengezinswoning_40": 98, "PercentageTussenwoningEengezins_41": 18, "PercentageHoekwoningEengezins_42": 14, "PercentageTweeOnderEenKapWoningEe_43": 33, "PercentageVrijstaandeWoningEengezins_44": 33, "PercentageMeergezinswoning_45": 2, "Koopwoningen_47": 89, "HuurwoningenTotaal_48": 11, "InBezitWoningcorporatie_49": 7, "InBezitOverigeVerhuurders_50": 4, "BouwjaarMeerDanTienJaarGeleden_51": 88, "BouwjaarAfgelopenTienJaar_52": 12, "GemiddeldeElektriciteitslevering_53": 3910, "GemiddeldeElektriciteitsteruglevering_54": 1480, "GemiddeldAardgasverbruik_55": 1400, "AardgasvrijeWoningen_57": 5, "Aardgaswoningen_58": 81, "WoningenMetZonnestroom_59": 58, "WoningenHoofdzElektrVerwarmd_60": 18, "k_20PersonenMetHoogsteInkomen_80": 39.1, "k_20HuishoudensMetHoogsteInkomen_85": 47.6, "MediaanVermogenVanParticuliereHuish_86": 596.5, "PersonenautoSTotaal_104": 1040, "PersonenautoSBrandstofBenzine_105": 700, "PersonenautoSOverigeBrandstof_106": 340, "PersonenautoSPerHuishouden_107": 1.4, "Omgevingsadressendichtheid_121": 970, "AantalInstallatiesBijWoningen_5": null, "OpgesteldVermogenVanZonnepanelen_6": null, "installaties_per_woning": null, "vermogen_per_woning": null, "installaties_per_100_woningen": null, "vermogen_per_huishouden": null, "batterijdruk_score": 858.4, "koop_zon_score": 0.5162, "eengezins_zon_score": 0.5684, "betaalkracht_zon_score": 345.97, "overige_brandstof_zon_score": 197.2, "lichte_batterij_kansscore": 0.53871196048964032 }, "geometry": { "type": "MultiPolygon", "coordinates": [ [ [ [ 195017.9062, 446982.1876 ], [ 194938.203100000013364, 446958.3125 ], [ 194958.4063, 446900.8125 ], [ 194880.5, 446862.406299999973271 ], [ 194960.9063, 446600.093799999973271 ], [ 195116.4062, 446643.3126 ], [ 195189.79680000001099, 446621.406399999978021 ], [ 195250.703, 446618.8126 ], [ 195362.4063, 446616.093799999973271 ], [ 195405.203100000013364, 446437.593799999973271 ], [ 195413.5938, 446401.8125 ], [ 195416.6729, 446394.3347 ], [ 195412.840999999985797, 446384.794 ], [ 195410.517, 446380.338999999978114 ], [ 195407.062, 446373.718 ], [ 195401.639, 446363.414999999979045 ], [ 195398.958000000013271, 446358.473 ], [ 195396.813, 446354.245 ], [ 195394.549, 446349.004000000015367 ], [ 195391.869, 446341.381 ], [ 195386.986, 446327.681999999971595 ], [ 195385.241, 446322.549999999988358 ], [ 195382.877, 446315.592 ], [ 195379.541, 446306.538999999989755 ], [ 195374.538999999989755, 446292.663 ], [ 195366.498, 446271.163 ], [ 195361.852000000013504, 446259.966000000014901 ], [ 195360.005, 446256.392999999981839 ], [ 195357.324, 446250.49800000002142 ], [ 195354.702, 446245.137999999977183 ], [ 195353.964, 446243.791000000026543 ], [ 195351.604, 446239.481000000028871 ], [ 195346.279, 446229.935999999986961 ], [ 195346.122, 446229.65500000002794 ], [ 195342.256, 446222.729 ], [ 195336.924, 446219.523999999975786 ], [ 195336.538, 446219.292000000015832 ], [ 195333.253999999986263, 446217.318000000028405 ], [ 195328.942000000010012, 446214.727000000013504 ], [ 195320.840999999985797, 446214.606000000028871 ], [ 195294.325000000011642, 446214.158 ], [ 195280.429, 446214.142 ], [ 195278.934, 446213.878000000026077 ], [ 195278.628, 446213.859 ], [ 195267.003, 446213.153 ], [ 195260.388, 446211.917000000015832 ], [ 195256.49900000001071, 446210.664999999979045 ], [ 195254.142, 446209.906000000017229 ], [ 195247.047, 446207.348 ], [ 195236.055, 446203.267999999981839 ], [ 195227.534000000014203, 446200.104999999981374 ], [ 195217.337999999988824, 446196.023999999975786 ], [ 195199.43, 446188.857000000018161 ], [ 195198.337, 446188.414999999979045 ], [ 195195.505, 446187.271 ], [ 195179.446999999985565, 446180.783 ], [ 195164.981999999989057, 446174.939000000013039 ], [ 195163.329999999987194, 446174.256999999983236 ], [ 195149.619, 446168.599999999976717 ], [ 195149.034000000014203, 446168.368000000016764 ], [ 195131.952, 446161.585000000020955 ], [ 195130.533, 446161.021 ], [ 195129.207, 446160.38 ], [ 195124.227000000013504, 446158.46999999997206 ], [ 195116.810999999986961, 446154.177000000025146 ], [ 195110.962, 446151.786000000021886 ], [ 195105.416, 446149.593 ], [ 195098.171, 446146.729 ], [ 195094.41, 446145.212999999988824 ], [ 195082.605000000010477, 446140.454000000027008 ], [ 195082.170000000012806, 446140.278999999980442 ], [ 195076.302, 446138.006999999983236 ], [ 195066.223, 446134.103 ], [ 195064.916, 446133.597 ], [ 195058.924999999988358, 446131.277 ], [ 195053.913999999989755, 446129.152 ], [ 195049.138, 446127.12699999997858 ], [ 195030.35999999998603, 446119.743000000016764 ], [ 195022.533, 446116.794999999983702 ], [ 195017.904, 446115.050999999977648 ], [ 195014.202, 446113.657 ], [ 195013.619, 446113.446999999985565 ], [ 195013.709, 446113.172000000020489 ], [ 195011.622, 446112.25199999997858 ], [ 195011.172, 446112.054 ], [ 195011.019999999989523, 446112.511999999987893 ], [ 195009.297, 446111.892 ], [ 195001.163999999989755, 446108.585000000020955 ], [ 195000.0, 446108.11099999997532 ], [ 194989.404, 446103.803000000014435 ], [ 194985.39000000001397, 446102.170999999972992 ], [ 194983.269, 446101.314000000013039 ], [ 194976.275, 446098.48599999997532 ], [ 194968.342, 446095.34499999997206 ], [ 194960.334, 446091.87699999997858 ], [ 194953.489, 446089.216000000014901 ], [ 194933.604, 446081.48599999997532 ], [ 194933.138, 446082.436999999976251 ], [ 194932.255, 446082.256 ], [ 194932.549, 446081.337999999988824 ], [ 194926.883, 446079.169999999983702 ], [ 194911.469000000011874, 446073.270000000018626 ], [ 194879.863000000012107, 446061.191 ], [ 194801.055, 446030.375 ], [ 194712.352000000013504, 445995.854999999981374 ], [ 194668.678000000014435, 445978.789999999979045 ], [ 194578.16, 445942.700000000011642 ], [ 194559.361, 445935.056999999971595 ], [ 194554.457, 445933.01400000002468 ], [ 194546.509, 445927.968 ], [ 194539.726, 445929.163999999989755 ], [ 194476.386999999987893, 445940.272 ], [ 194468.894999999989523, 445941.582999999984168 ], [ 194462.574, 445942.681999999971595 ], [ 194451.393000000010943, 445944.599999999976717 ], [ 194451.839, 445942.636 ], [ 194451.977000000013504, 445941.967 ], [ 194437.707, 445944.533 ], [ 194430.616, 445945.808000000019092 ], [ 194414.303000000014435, 445948.742000000027474 ], [ 194389.91, 445953.408999999985099 ], [ 194354.685999999986961, 445959.397 ], [ 194326.215999999985797, 445964.211000000010245 ], [ 194296.344000000011874, 445968.901000000012573 ], [ 194274.279, 445972.642 ], [ 194250.261999999987893, 445976.933000000019092 ], [ 194233.556000000011409, 445979.577999999979511 ], [ 194214.959, 445982.522 ], [ 194195.01, 445985.444000000017695 ], [ 194182.943999999988591, 445987.211000000010245 ], [ 194105.057999999989988, 445962.256 ], [ 194080.532, 445954.300999999977648 ], [ 194031.654, 445938.447999999974854 ], [ 194017.291999999986729, 445933.789999999979045 ], [ 194000.0, 445928.180999999982305 ], [ 193970.907, 445918.700000000011642 ], [ 193931.75099999998929, 445905.912000000011176 ], [ 193912.824, 445899.731000000028871 ], [ 193904.13200000001234, 445896.794 ], [ 193896.496000000013737, 445894.212999999988824 ], [ 193836.09, 445873.782 ], [ 193830.628, 445871.934 ], [ 193826.712, 445870.60999999998603 ], [ 193824.76500000001397, 445869.951 ], [ 193808.142, 445864.38 ], [ 193803.9, 445862.958999999973457 ], [ 193753.26, 445846.033999999985099 ], [ 193753.075000000011642, 445847.13900000002468 ], [ 193751.567000000010012, 445856.167000000015832 ], [ 193750.613000000012107, 445861.881 ], [ 193745.865, 445883.335000000020955 ], [ 193741.702, 445899.157 ], [ 193739.056000000011409, 445909.055999999982305 ], [ 193737.331, 445919.07 ], [ 193736.50700000001234, 445922.662000000011176 ], [ 193728.943, 445958.281000000017229 ], [ 193719.416, 446005.091000000014901 ], [ 193718.424999999988358, 446010.200000000011642 ], [ 193717.992, 446012.434 ], [ 193716.108, 446022.147 ], [ 193716.084, 446022.272999999986496 ], [ 193713.2943, 446036.6521 ], [ 193751.5, 446089.3125 ], [ 193771.5, 446142.593799999973271 ], [ 193812.9062, 446216.1876 ], [ 193852.9999, 446281.5001 ], [ 193891.4062, 446337.3126 ], [ 193935.9999, 446402.093899999978021 ], [ 193993.9062, 446468.1876 ], [ 194069.4999, 446537.5001 ], [ 194157.4063, 446589.593899999978021 ], [ 194153.5937, 446611.3126 ], [ 194229.9062, 446623.093899999978021 ], [ 194174.29680000001099, 446745.1876 ], [ 194444.5938, 446835.3126 ], [ 194400.29680000001099, 446993.593899999978021 ], [ 194796.4062, 447086.0001 ], [ 194937.296899999986636, 447130.6875 ], [ 195017.9062, 446982.1876 ] ] ] ] } },
{ "type": "Feature", "properties": { "buurtcode": "BU02770009", "buurtnaam": "Verspreide huizen Imbosch en Terlet", "pc6_codes": "6891DM, 6891DN, 6891DZ, 6891ZZ", "wijkcode": "WK027700", "gemeentecode": "GM0277", "gemeentenaam": "Rozendaal", "oppervlakteLandInHa": 2674, "AantalInwoners_5": 15, "Mannen_6": 10, "Vrouwen_7": 5, "HuishoudensTotaal_29": 5, "GemiddeldeHuishoudensgrootte_33": 2.2, "Woningvoorraad_35": 8, "NieuwbouwWoningen_36": 0, "NietWoningvoorraad_37": 11, "NieuwbouwNietWoningen_38": 0, "GemiddeldeWOZWaardeVanWoningen_39": null, "PercentageEengezinswoning_40": null, "PercentageTussenwoningEengezins_41": null, "PercentageHoekwoningEengezins_42": null, "PercentageTweeOnderEenKapWoningEe_43": null, "PercentageVrijstaandeWoningEengezins_44": null, "PercentageMeergezinswoning_45": null, "Koopwoningen_47": null, "HuurwoningenTotaal_48": null, "InBezitWoningcorporatie_49": null, "InBezitOverigeVerhuurders_50": null, "BouwjaarMeerDanTienJaarGeleden_51": null, "BouwjaarAfgelopenTienJaar_52": null, "GemiddeldeElektriciteitslevering_53": 3010, "GemiddeldeElektriciteitsteruglevering_54": 90, "GemiddeldAardgasverbruik_55": 1360, "AardgasvrijeWoningen_57": null, "Aardgaswoningen_58": null, "WoningenMetZonnestroom_59": null, "WoningenHoofdzElektrVerwarmd_60": null, "k_20PersonenMetHoogsteInkomen_80": null, "k_20HuishoudensMetHoogsteInkomen_85": null, "MediaanVermogenVanParticuliereHuish_86": null, "PersonenautoSTotaal_104": 10, "PersonenautoSBrandstofBenzine_105": 10, "PersonenautoSOverigeBrandstof_106": 0, "PersonenautoSPerHuishouden_107": null, "Omgevingsadressendichtheid_121": 320, "AantalInstallatiesBijWoningen_5": null, "OpgesteldVermogenVanZonnepanelen_6": null, "installaties_per_woning": null, "vermogen_per_woning": null, "installaties_per_100_woningen": null, "vermogen_per_huishouden": null, "batterijdruk_score": null, "koop_zon_score": null, "eengezins_zon_score": null, "betaalkracht_zon_score": null, "overige_brandstof_zon_score": null, "lichte_batterij_kansscore": null }, "geometry": { "type": "MultiPolygon", "coordinates": [ [ [ [ 196571.627, 454617.822999999974854 ], [ 196585.295000000012806, 454611.878000000026077 ], [ 196598.461000000010245, 454605.799 ], [ 196607.174999999988358, 454601.897 ], [ 196672.41, 454572.14000000001397 ], [ 196737.901000000012573, 454543.821999999985565 ], [ 196805.663999999989755, 454512.695 ], [ 196899.238000000012107, 454472.129000000015367 ], [ 196969.37599999998929, 454440.471000000019558 ], [ 197065.149, 454396.988000000012107 ], [ 197268.696, 454307.929 ], [ 197291.334, 454298.651000000012573 ], [ 197376.468, 454260.702999999979511 ], [ 197483.25099999998929, 454215.017999999981839 ], [ 197493.158, 454210.064000000013039 ], [ 197499.763, 454207.311999999976251 ], [ 197545.405999999988126, 454187.591000000014901 ], [ 197595.684, 454166.73499999998603 ], [ 197612.816, 454159.286000000021886 ], [ 197618.775, 454152.955000000016298 ], [ 197618.46, 454142.237000000022817 ], [ 197617.631, 454114.325000000011642 ], [ 197620.943999999988591, 454078.75199999997858 ], [ 197623.69, 454049.647999999986496 ], [ 197625.184, 454025.23499999998603 ], [ 197625.85, 454003.827 ], [ 197626.291999999986729, 453999.887999999977183 ], [ 197627.961000000010245, 453975.429 ], [ 197628.634, 453925.653 ], [ 197630.878, 453892.506999999983236 ], [ 197630.529, 453891.468999999982771 ], [ 197604.212999999988824, 453813.146 ], [ 197599.402, 453798.794 ], [ 197558.212, 453675.90500000002794 ], [ 197541.962, 453627.371999999973923 ], [ 197525.98499999998603, 453578.943000000028405 ], [ 197486.335, 453462.332 ], [ 197475.577, 453430.691999999980908 ], [ 197465.264, 453387.647 ], [ 197462.845, 453382.066999999980908 ], [ 197460.74, 453376.885 ], [ 197458.938, 453371.382999999972526 ], [ 197455.635, 453362.661000000021886 ], [ 197453.305, 453356.816999999980908 ], [ 197451.738000000012107, 453352.645000000018626 ], [ 197449.419, 453346.521 ], [ 197446.608, 453340.46999999997206 ], [ 197444.812, 453336.342 ], [ 197443.837, 453333.337 ], [ 197443.193, 453330.26500000001397 ], [ 197442.725, 453327.082999999984168 ], [ 197442.393000000010943, 453322.695 ], [ 197442.022999999986496, 453313.642 ], [ 197441.745, 453311.841000000014901 ], [ 197441.182999999989988, 453308.891 ], [ 197440.761999999987893, 453306.643999999971129 ], [ 197439.358, 453302.852000000013504 ], [ 197436.921, 453298.835000000020955 ], [ 197436.575000000011642, 453298.53000000002794 ], [ 197436.801, 453296.208999999973457 ], [ 197436.942000000010012, 453293.961000000010245 ], [ 197436.915, 453291.173 ], [ 197436.807, 453286.648999999975786 ], [ 197436.691, 453280.538999999989755 ], [ 197436.973, 453272.650000000023283 ], [ 197436.543, 453261.371999999973923 ], [ 197436.953, 453250.049999999988358 ], [ 197438.030999999988126, 453237.561999999976251 ], [ 197438.779, 453223.598999999987427 ], [ 197439.143000000010943, 453217.017999999981839 ], [ 197439.68, 453196.734 ], [ 197439.869, 453180.918 ], [ 197440.516, 453164.341000000014901 ], [ 197440.954, 453149.512999999977183 ], [ 197441.371000000013737, 453134.728 ], [ 197441.299999999988358, 453127.863000000012107 ], [ 197441.222, 453117.706 ], [ 197441.22, 453117.482000000018161 ], [ 197441.21, 453107.566999999980908 ], [ 197440.825000000011642, 453101.604999999981374 ], [ 197441.646, 453065.331 ], [ 197442.206, 453058.614 ], [ 197443.328, 453045.561999999976251 ], [ 197444.223, 453033.24900000001071 ], [ 197445.230000000010477, 453023.483 ], [ 197445.688, 453012.533 ], [ 197445.901000000012573, 453000.077 ], [ 197445.921, 452998.886999999987893 ], [ 197445.217, 452982.256 ], [ 197446.469000000011874, 452965.84499999997206 ], [ 197447.43, 452951.479 ], [ 197447.420000000012806, 452937.862000000022817 ], [ 197447.06, 452930.701 ], [ 197446.486, 452923.892999999981839 ], [ 197446.321, 452917.043 ], [ 197446.416999999986729, 452911.683000000019092 ], [ 197446.551, 452906.342 ], [ 197446.509, 452899.742000000027474 ], [ 197446.135, 452894.011999999987893 ], [ 197445.60999999998603, 452888.300999999977648 ], [ 197445.123, 452883.663999999989755 ], [ 197444.446, 452877.341000000014901 ], [ 197443.704, 452869.903 ], [ 197442.761999999987893, 452862.379000000015367 ], [ 197442.734, 452862.156000000017229 ], [ 197442.133, 452855.603 ], [ 197441.074, 452847.49 ], [ 197439.725, 452840.439000000013039 ], [ 197438.785, 452835.093 ], [ 197437.809, 452829.211000000010245 ], [ 197436.897999999986496, 452823.721000000019558 ], [ 197432.780999999988126, 452779.843 ], [ 197431.934, 452774.847 ], [ 197430.837999999988824, 452767.407 ], [ 197430.812, 452767.218 ], [ 197429.703, 452759.066999999980908 ], [ 197428.312, 452749.653999999980442 ], [ 197427.377, 452739.079000000027008 ], [ 197425.747, 452726.37300000002142 ], [ 197424.127, 452715.229 ], [ 197422.717, 452701.99800000002142 ], [ 197421.486, 452690.511 ], [ 197419.911, 452678.185999999986961 ], [ 197419.01, 452669.743000000016764 ], [ 197418.068999999988591, 452660.255 ], [ 197416.883, 452649.593 ], [ 197415.696, 452640.984 ], [ 197414.814000000013039, 452633.161000000021886 ], [ 197414.347, 452629.321999999985565 ], [ 197413.791999999986729, 452624.76500000001397 ], [ 197412.855000000010477, 452616.941999999980908 ], [ 197411.578, 452602.534999999974389 ], [ 197410.092, 452587.115999999979977 ], [ 197407.696999999985565, 452568.927000000025146 ], [ 197405.432999999989988, 452553.314000000013039 ], [ 197404.135, 452541.195 ], [ 197402.549, 452527.582999999984168 ], [ 197400.723, 452511.338999999978114 ], [ 197398.432999999989988, 452499.168 ], [ 197397.698, 452495.26500000001397 ], [ 197395.995, 452484.034999999974389 ], [ 197394.991, 452477.783999999985099 ], [ 197393.845, 452473.254000000015367 ], [ 197392.299, 452468.037000000011176 ], [ 197390.013, 452462.066 ], [ 197387.587999999988824, 452456.104 ], [ 197384.38200000001234, 452447.294 ], [ 197380.836000000010245, 452438.324000000022352 ], [ 197368.47, 452407.493000000016764 ], [ 197365.638, 452399.685999999986961 ], [ 197363.35, 452393.868000000016764 ], [ 197360.748, 452387.473 ], [ 197358.355000000010477, 452381.107000000018161 ], [ 197355.583000000013271, 452373.778999999980442 ], [ 197352.589, 452365.831 ], [ 197350.608, 452360.575000000011642 ], [ 197347.71, 452353.833999999973457 ], [ 197345.373, 452347.979999999981374 ], [ 197342.729, 452341.408999999985099 ], [ 197339.288, 452332.358 ], [ 197337.1, 452326.645000000018626 ], [ 197334.596, 452320.03000000002794 ], [ 197331.934, 452313.406000000017229 ], [ 197328.897, 452305.832 ], [ 197326.729, 452299.865 ], [ 197324.296, 452294.255 ], [ 197321.727000000013504, 452288.947999999974854 ], [ 197318.905999999988126, 452281.958999999973457 ], [ 197316.812, 452277.159999999974389 ], [ 197315.115, 452272.658 ], [ 197314.12, 452269.00099999998929 ], [ 197309.769999999989523, 452257.01 ], [ 197308.56, 452253.78000000002794 ], [ 197307.31, 452250.68 ], [ 197305.730000000010477, 452247.12 ], [ 197304.49, 452243.35999999998603 ], [ 197303.200000000011642, 452239.71999999997206 ], [ 197301.81, 452235.549999999988358 ], [ 197300.480000000010477, 452232.32 ], [ 197299.821999999985565, 452230.852000000013504 ], [ 197299.049999999988358, 452229.13 ], [ 197297.28, 452225.539999999979045 ], [ 197295.4, 452222.13 ], [ 197288.769999999989523, 452212.289999999979045 ], [ 197287.01, 452209.700000000011642 ], [ 197284.670000000012806, 452206.840000000025611 ], [ 197280.769999999989523, 452202.669999999983702 ], [ 197273.670000000012806, 452195.590000000025611 ], [ 197268.01, 452190.520000000018626 ], [ 197253.0, 452175.38 ], [ 197238.69, 452159.840000000025611 ], [ 197225.04, 452144.10999999998603 ], [ 197209.730000000010477, 452126.349999999976717 ], [ 197191.019999999989523, 452104.599999999976717 ], [ 197183.62, 452094.56 ], [ 197174.91, 452083.5 ], [ 197165.6, 452072.830000000016298 ], [ 197158.65, 452065.289999999979045 ], [ 197150.269999999989523, 452057.960000000020955 ], [ 197138.81, 452048.37 ], [ 197130.97, 452041.909999999974389 ], [ 197125.99, 452037.090000000025611 ], [ 197105.43, 452017.85999999998603 ], [ 197085.07, 452000.0 ], [ 197083.35999999998603, 451998.5 ], [ 197062.53, 451978.289999999979045 ], [ 197057.82, 451974.270000000018626 ], [ 197052.730000000010477, 451970.330000000016298 ], [ 197047.54, 451967.18 ], [ 197041.63, 451964.039999999979045 ], [ 197034.32, 451960.88 ], [ 197031.851, 451960.098 ], [ 197023.688, 451957.592 ], [ 197017.109, 451955.572999999974854 ], [ 197000.002, 451950.322999999974854 ], [ 196986.560999999986961, 451946.26500000001397 ], [ 196940.975, 451931.093999999982771 ], [ 196928.62599999998929, 451927.848999999987427 ], [ 196927.961000000010245, 451927.732000000018161 ], [ 196921.74900000001071, 451926.642999999981839 ], [ 196917.321999999985565, 451926.028999999980442 ], [ 196913.211000000010245, 451926.146 ], [ 196908.527, 451926.51400000002468 ], [ 196906.66, 451926.810999999986961 ], [ 196903.503999999986263, 451927.314000000013039 ], [ 196897.505, 451928.242000000027474 ], [ 196888.182, 451929.49800000002142 ], [ 196872.305, 451932.521 ], [ 196849.918, 451936.191999999980908 ], [ 196807.68, 451944.395000000018626 ], [ 196785.253, 451948.476000000024214 ], [ 196769.288, 451951.417000000015832 ], [ 196762.691, 451952.423 ], [ 196745.85999999998603, 451954.990999999979977 ], [ 196738.136999999987893, 451956.700000000011642 ], [ 196725.518000000010943, 451959.637999999977183 ], [ 196714.359, 451961.382999999972526 ], [ 196705.18, 451963.186999999976251 ], [ 196691.323, 451965.435999999986961 ], [ 196677.018000000010943, 451966.903 ], [ 196671.719000000011874, 451966.781000000017229 ], [ 196667.53, 451966.011 ], [ 196661.176, 451965.615 ], [ 196656.424, 451966.886 ], [ 196652.601, 451968.375 ], [ 196648.019, 451969.409999999974389 ], [ 196640.702, 451970.504000000015367 ], [ 196629.324, 451971.419 ], [ 196621.748, 451972.753000000026077 ], [ 196598.557, 451977.445 ], [ 196583.975, 451981.212 ], [ 196572.748, 451983.778 ], [ 196561.200000000011642, 451986.505 ], [ 196550.13200000001234, 451988.590000000025611 ], [ 196541.791999999986729, 451989.071 ], [ 196534.397, 451991.032 ], [ 196524.519, 451993.645000000018626 ], [ 196520.181000000011409, 451994.865 ], [ 196512.989, 451996.457 ], [ 196503.231999999989057, 451998.136999999987893 ], [ 196497.269, 451999.474999999976717 ], [ 196492.117, 452000.966000000014901 ], [ 196483.169, 452002.457 ], [ 196475.306000000011409, 452003.135 ], [ 196470.337, 452002.967 ], [ 196463.98499999998603, 452003.772999999986496 ], [ 196458.011, 452005.586000000010245 ], [ 196451.968, 452007.444000000017695 ], [ 196449.646, 452007.74 ], [ 196447.989, 452007.645000000018626 ], [ 196443.412000000011176, 452006.927000000025146 ], [ 196437.981, 452007.306999999971595 ], [ 196429.208000000013271, 452008.338999999978114 ], [ 196413.726, 452011.435999999986961 ], [ 196394.115, 452015.822999999974854 ], [ 196384.826, 452016.597 ], [ 196375.718, 452016.990999999979977 ], [ 196354.389, 452019.745999999984633 ], [ 196344.659000000014203, 452021.082999999984168 ], [ 196330.284000000014203, 452024.318000000028405 ], [ 196310.701, 452028.528 ], [ 196301.84, 452029.745999999984633 ], [ 196294.354, 452031.282 ], [ 196284.59, 452033.286000000021886 ], [ 196280.246000000013737, 452034.055999999982305 ], [ 196277.343, 452034.217 ], [ 196273.184, 452033.602000000013504 ], [ 196259.179, 452032.835000000020955 ], [ 196237.253999999986263, 452032.314000000013039 ], [ 196223.41, 452031.78000000002794 ], [ 196214.317000000010012, 452032.662000000011176 ], [ 196205.282, 452032.468 ], [ 196167.378999999986263, 452029.117000000027474 ], [ 196148.0, 452028.833999999973457 ], [ 196119.204999999987194, 452025.955000000016298 ], [ 196084.896, 452024.153 ], [ 196053.066, 452023.017 ], [ 196012.13, 452020.544999999983702 ], [ 196000.191, 452020.13 ], [ 195974.827, 452019.246999999973923 ], [ 195947.106, 452017.254000000015367 ], [ 195917.571, 452015.699000000022352 ], [ 195902.804, 452015.115999999979977 ], [ 195892.31, 452015.135 ], [ 195884.087999999988824, 452014.76500000001397 ], [ 195866.753, 452011.286000000021886 ], [ 195850.995, 452008.973 ], [ 195819.639, 452003.142 ], [ 195794.062, 451998.228 ], [ 195772.269, 451994.81 ], [ 195768.310999999986961, 451994.097 ], [ 195739.952, 451989.778 ], [ 195724.932999999989988, 451988.256999999983236 ], [ 195686.96, 451980.587 ], [ 195677.737, 451978.354999999981374 ], [ 195666.547, 451975.505 ], [ 195524.305, 451952.836000000010245 ], [ 195518.86799999998766, 451951.96999999997206 ], [ 195579.669, 451790.678000000014435 ], [ 195673.972, 451533.989 ], [ 195751.221, 451325.528 ], [ 195777.734, 451252.882999999972526 ], [ 195787.950000000011642, 451231.896 ], [ 195848.589, 451107.284999999974389 ], [ 195848.835, 451106.788 ], [ 195905.35, 450992.673 ], [ 195966.593, 450869.034999999974389 ], [ 195989.274, 450823.673 ], [ 196015.661, 450770.900000000023283 ], [ 196068.331, 450664.641 ], [ 196117.200000000011642, 450565.941999999980908 ], [ 196117.36799999998766, 450565.61099999997532 ], [ 196155.359, 450490.637999999977183 ], [ 196159.344000000011874, 450478.604999999981374 ], [ 196194.581, 450374.851000000024214 ], [ 196195.208000000013271, 450373.004000000015367 ], [ 196197.056000000011409, 450367.76400000002468 ], [ 196202.035, 450353.408999999985099 ], [ 196202.174999999988358, 450353.004000000015367 ], [ 196205.66, 450342.955000000016298 ], [ 196208.408, 450335.033999999985099 ], [ 196211.682999999989988, 450325.89000000001397 ], [ 196231.562, 450270.615999999979977 ], [ 196235.313, 450259.564000000013039 ], [ 196265.807999999989988, 450169.713999999978114 ], [ 196336.935999999986961, 449942.818000000028405 ], [ 196341.902, 449926.706 ], [ 196375.136, 449820.743000000016764 ], [ 196457.536, 449605.674999999988358 ], [ 196537.483, 449403.897 ], [ 196622.544, 449194.195 ], [ 196679.519, 449048.35999999998603 ], [ 196683.875, 449037.033999999985099 ], [ 196698.4203, 449000.671099999977741 ], [ 196708.268000000010943, 448976.052000000025146 ], [ 196769.119, 448828.032 ], [ 196766.931000000011409, 448822.587999999988824 ], [ 196736.421, 448763.346000000019558 ], [ 196725.065, 448745.384000000020023 ], [ 196706.689000000013039, 448716.321 ], [ 196655.464, 448635.745999999984633 ], [ 196622.972, 448617.145000000018626 ], [ 196571.946, 448587.933000000019092 ], [ 196526.759, 448563.102000000013504 ], [ 196498.263, 448542.89000000001397 ], [ 196432.358, 448497.025000000023283 ], [ 196372.385, 448455.978 ], [ 196282.089, 448386.147999999986496 ], [ 196274.22, 448377.39000000001397 ], [ 196253.71, 448355.71999999997206 ], [ 196248.296, 448349.917000000015832 ], [ 196238.670000000012806, 448339.599999999976717 ], [ 196230.481999999989057, 448332.294999999983702 ], [ 196203.91, 448306.01 ], [ 196183.769999999989523, 448285.78000000002794 ], [ 196164.37, 448264.57 ], [ 196148.519999999989523, 448246.340000000025611 ], [ 196141.76, 448239.19 ], [ 196133.93, 448230.01 ], [ 196123.35999999998603, 448218.520000000018626 ], [ 196105.551, 448200.224999999976717 ], [ 196096.579999999987194, 448191.01 ], [ 196076.79, 448170.31 ], [ 196054.84, 448147.770000000018626 ], [ 196043.60999999998603, 448136.43 ], [ 196037.32, 448130.549999999988358 ], [ 196026.37, 448121.88 ], [ 196022.03, 448118.37 ], [ 196017.799999999988358, 448115.32 ], [ 196013.63, 448113.020000000018626 ], [ 196007.53, 448109.82 ], [ 195999.5, 448106.60999999998603 ], [ 195987.670000000012806, 448101.28000000002794 ], [ 195979.38, 448097.87 ], [ 195973.66, 448095.31 ], [ 195971.49, 448094.10999999998603 ], [ 195970.89000000001397, 448093.13 ], [ 195968.91, 448093.51 ], [ 195966.769999999989523, 448092.99 ], [ 195928.09, 448076.539999999979045 ], [ 195891.63, 448060.840000000025611 ], [ 195854.68, 448045.5 ], [ 195824.49, 448030.794999999983702 ], [ 195759.353, 447998.337999999988824 ], [ 195752.813, 447994.705000000016298 ], [ 195751.691, 447994.38 ], [ 195724.778, 447952.196 ], [ 195723.171, 447949.815 ], [ 195686.424999999988358, 447872.107000000018161 ], [ 195646.135, 447762.973999999987427 ], [ 195637.038999999989755, 447735.179 ], [ 195637.53, 447733.21999999997206 ], [ 195641.84, 447721.94 ], [ 195647.480000000010477, 447705.710000000020955 ], [ 195651.700000000011642, 447692.090000000025611 ], [ 195655.420000000012806, 447681.51 ], [ 195658.85, 447672.14000000001397 ], [ 195662.1, 447662.849999999976717 ], [ 195666.32, 447651.63 ], [ 195670.66, 447638.60999999998603 ], [ 195673.950000000011642, 447628.99 ], [ 195675.63, 447625.31 ], [ 195676.670000000012806, 447623.340000000025611 ], [ 195679.920000000012806, 447619.12 ], [ 195683.389, 447614.318000000028405 ], [ 195684.278, 447613.087 ], [ 195689.409000000014203, 447606.088999999978114 ], [ 195695.03, 447598.424 ], [ 195695.102000000013504, 447598.326 ], [ 195694.75099999998929, 447591.37599999998929 ], [ 195691.916999999986729, 447535.208999999973457 ], [ 195689.276000000012573, 447471.325000000011642 ], [ 195688.11799999998766, 447441.210000000020955 ], [ 195686.613000000012107, 447408.1103 ], [ 195686.38, 447402.987000000022817 ], [ 195685.801, 447378.663 ], [ 195684.643000000010943, 447361.868000000016764 ], [ 195682.905999999988126, 447338.702999999979511 ], [ 195680.19, 447316.659999999974389 ], [ 195677.114, 447293.53000000002794 ], [ 195670.744, 447244.304 ], [ 195656.381, 447143.99800000002142 ], [ 195644.799, 447052.495 ], [ 195630.067000000010012, 446959.898999999975786 ], [ 195625.827, 446928.170999999972992 ], [ 195623.383, 446910.516 ], [ 195609.739, 446867.777 ], [ 195595.869, 446824.495999999984633 ], [ 195595.589, 446823.662000000011176 ], [ 195592.388, 446814.136 ], [ 195577.696, 446768.495 ], [ 195574.361, 446758.368000000016764 ], [ 195567.136, 446736.427000000025146 ], [ 195559.217, 446712.773999999975786 ], [ 195559.348, 446709.37599999998929 ], [ 195560.886, 446692.87699999997858 ], [ 195556.86799999998766, 446687.228 ], [ 195554.932999999989988, 446684.353 ], [ 195543.954, 446668.038 ], [ 195528.442000000010012, 446644.693000000028405 ], [ 195519.226, 446631.574000000022352 ], [ 195511.188, 446621.583999999973457 ], [ 195506.35999999998603, 446615.392 ], [ 195504.155, 446613.189000000013039 ], [ 195501.413, 446610.57 ], [ 195498.671, 446608.129000000015367 ], [ 195485.988000000012107, 446597.767 ], [ 195485.592, 446597.447999999974854 ], [ 195450.396, 446569.066999999980908 ], [ 195443.168, 446563.191 ], [ 195442.939000000013039, 446543.89000000001397 ], [ 195442.769, 446525.482000000018161 ], [ 195442.721, 446503.858 ], [ 195442.772, 446502.488000000012107 ], [ 195442.772, 446495.922000000020489 ], [ 195442.553000000014435, 446481.042000000015832 ], [ 195442.567000000010012, 446460.028 ], [ 195442.32, 446459.382999999972526 ], [ 195438.155999999988126, 446448.517999999981839 ], [ 195437.422, 446446.684 ], [ 195435.178000000014435, 446441.074000000022352 ], [ 195433.99900000001071, 446438.098999999987427 ], [ 195427.434, 446421.539999999979045 ], [ 195426.389, 446418.798 ], [ 195425.231, 446415.762999999977183 ], [ 195421.788999999989755, 446407.072999999974854 ], [ 195416.6729, 446394.3347 ], [ 195413.5938, 446401.8125 ], [ 195405.203100000013364, 446437.593799999973271 ], [ 195362.4063, 446616.093799999973271 ], [ 195250.703, 446618.8126 ], [ 195189.79680000001099, 446621.406399999978021 ], [ 195116.4062, 446643.3126 ], [ 194960.9063, 446600.093799999973271 ], [ 194880.5, 446862.406299999973271 ], [ 194958.4063, 446900.8125 ], [ 194938.203100000013364, 446958.3125 ], [ 195017.9062, 446982.1876 ], [ 194937.296899999986636, 447130.6875 ], [ 194796.4062, 447086.0001 ], [ 194400.29680000001099, 446993.593899999978021 ], [ 194444.5938, 446835.3126 ], [ 194174.29680000001099, 446745.1876 ], [ 194229.9062, 446623.093899999978021 ], [ 194153.5937, 446611.3126 ], [ 194157.4063, 446589.593899999978021 ], [ 194069.4999, 446537.5001 ], [ 193993.9062, 446468.1876 ], [ 193935.9999, 446402.093899999978021 ], [ 193891.4062, 446337.3126 ], [ 193852.9999, 446281.5001 ], [ 193812.9062, 446216.1876 ], [ 193771.5, 446142.593799999973271 ], [ 193751.5, 446089.3125 ], [ 193713.2943, 446036.6521 ], [ 193711.579, 446045.493000000016764 ], [ 193710.915, 446048.916000000026543 ], [ 193699.288, 446073.115 ], [ 193683.555, 446108.060999999986961 ], [ 193669.143000000010943, 446139.575000000011642 ], [ 193667.682999999989988, 446144.348 ], [ 193661.018000000010943, 446173.424 ], [ 193647.121000000013737, 446235.745999999984633 ], [ 193643.661, 446253.336000000010245 ], [ 193642.123, 446264.827 ], [ 193641.108, 446272.408 ], [ 193637.597, 446303.99 ], [ 193634.708000000013271, 446328.549999999988358 ], [ 193634.074, 446333.935 ], [ 193632.778, 446340.642999999981839 ], [ 193632.0339, 446342.941500000015367 ], [ 193627.078, 446358.25 ], [ 193626.806000000011409, 446359.021 ], [ 193616.39000000001397, 446388.544999999983702 ], [ 193613.696999999985565, 446392.787000000011176 ], [ 193595.122, 446422.043 ], [ 193573.125, 446458.077 ], [ 193558.807, 446481.849999999976717 ], [ 193557.674999999988358, 446485.262999999977183 ], [ 193542.86799999998766, 446529.897 ], [ 193523.831, 446583.325000000011642 ], [ 193513.767, 446617.337 ], [ 193483.533, 446650.007999999972526 ], [ 193459.969000000011874, 446675.48499999998603 ], [ 193449.014, 446689.11099999997532 ], [ 193408.203, 446746.568000000028405 ], [ 193380.931000000011409, 446775.645000000018626 ], [ 193368.056000000011409, 446792.261 ], [ 193327.511, 446845.103 ], [ 193298.206, 446882.53000000002794 ], [ 193281.181000000011409, 446903.494 ], [ 193263.692000000010012, 446922.37699999997858 ], [ 193234.794, 446953.847 ], [ 193199.083000000013271, 446993.256 ], [ 193180.115, 447009.468 ], [ 193227.807999999989988, 447022.072999999974854 ], [ 193265.212, 447032.071 ], [ 193289.86799999998766, 447034.420999999972992 ], [ 193340.078, 447039.26500000001397 ], [ 193351.467, 447040.392 ], [ 193366.678000000014435, 447041.898999999975786 ], [ 193366.711000000010245, 447042.204000000027008 ], [ 193367.767499999987194, 447052.039899999974295 ], [ 193368.731, 447061.01 ], [ 193368.981, 447063.329000000027008 ], [ 193360.003999999986263, 447064.170999999972992 ], [ 193338.587999999988824, 447066.462 ], [ 193313.700000000011642, 447069.175999999977648 ], [ 193286.878999999986263, 447071.833999999973457 ], [ 193258.589, 447074.691 ], [ 193230.859, 447077.554 ], [ 193203.051, 447080.479999999981374 ], [ 193175.283, 447083.356000000028871 ], [ 193150.568999999988591, 447085.821 ], [ 193116.76500000001397, 447086.49800000002142 ], [ 193098.394, 447109.652 ], [ 193082.913, 447124.762999999977183 ], [ 193069.089, 447138.205000000016298 ], [ 193057.952, 447149.087999999988824 ], [ 193047.957, 447158.854999999981374 ], [ 193023.26500000001397, 447370.495999999984633 ], [ 193020.919, 447392.064000000013039 ], [ 193018.726, 447412.583999999973457 ], [ 193016.517, 447431.517999999981839 ], [ 193013.375, 447455.685 ], [ 193010.922, 447475.49800000002142 ], [ 193007.575000000011642, 447499.787000000011176 ], [ 193007.574, 447500.0 ], [ 193007.44, 447501.26 ], [ 193005.57, 447517.950000000011642 ], [ 193003.64000000001397, 447534.69 ], [ 193000.0, 447563.39000000001397 ], [ 192999.435999999986961, 447568.76 ], [ 192997.32, 447589.446 ], [ 192996.339, 447603.821999999985565 ], [ 192995.511, 447614.034999999974389 ], [ 192994.582, 447625.487000000022817 ], [ 192992.32, 447644.814000000013039 ], [ 192991.284000000014203, 447655.82 ], [ 192989.72, 447669.027 ], [ 192978.945, 447766.786000000021886 ], [ 192978.079, 447776.650000000023283 ], [ 192977.679, 447781.205000000016298 ], [ 192977.467, 447783.615999999979977 ], [ 192975.522999999986496, 447800.958999999973457 ], [ 192973.283, 447818.881999999983236 ], [ 192972.153, 447836.417000000015832 ], [ 192969.049999999988358, 447866.967 ], [ 192967.476, 447886.46999999997206 ], [ 192965.799999999988358, 447904.49800000002142 ], [ 192958.795000000012806, 447962.441999999980908 ], [ 192944.583000000013271, 448208.680999999982305 ], [ 192943.36799999998766, 448229.728 ], [ 192928.943, 448455.033 ], [ 192924.529, 448527.729999999981374 ], [ 192916.219000000011874, 448664.615 ], [ 192913.312, 448712.490999999979977 ], [ 192900.199, 448918.553000000014435 ], [ 192896.758, 448972.62 ], [ 192872.851, 449375.62699999997858 ], [ 192828.845, 449834.353 ], [ 192796.44, 450170.518999999971129 ], [ 192800.685, 450174.929 ], [ 192800.772999999986496, 450175.021 ], [ 192800.636999999987893, 450176.821999999985565 ], [ 192800.298, 450181.072999999974854 ], [ 192800.169, 450182.99900000001071 ], [ 192722.159000000014203, 451266.441 ], [ 192721.304, 451278.31 ], [ 192740.798, 451355.87 ], [ 192744.619, 451370.549 ], [ 192751.339, 451401.079000000027008 ], [ 192759.113000000012107, 451433.816999999980908 ], [ 192765.416999999986729, 451460.365999999979977 ], [ 192786.88200000001234, 451547.218999999982771 ], [ 192814.294, 451659.521 ], [ 192827.559, 451716.24800000002142 ], [ 192831.676, 451733.854999999981374 ], [ 192847.135, 451802.99800000002142 ], [ 192866.885, 451884.137999999977183 ], [ 192889.69, 451980.87400000001071 ], [ 192918.034000000014203, 452091.821999999985565 ], [ 192947.666, 452207.81 ], [ 192952.935, 452231.240999999979977 ], [ 192974.804, 452328.482000000018161 ], [ 192976.621000000013737, 452332.792000000015832 ], [ 192986.973, 452357.348999999987427 ], [ 192992.669, 452371.037000000011176 ], [ 193000.111, 452385.923 ], [ 193023.443, 452450.496999999973923 ], [ 193056.544, 452554.134000000020023 ], [ 193059.746000000013737, 452564.159999999974389 ], [ 193080.581, 452620.556999999971595 ], [ 193103.451, 452685.900000000023283 ], [ 193116.942000000010012, 452729.684 ], [ 193118.38200000001234, 452734.358 ], [ 193121.00700000001234, 452742.87699999997858 ], [ 193128.318999999988591, 452792.545999999972992 ], [ 193130.207, 452805.375 ], [ 193131.431000000011409, 452813.689000000013039 ], [ 193133.923, 452830.51500000001397 ], [ 193262.778, 453013.120999999984633 ], [ 193365.035, 453157.772 ], [ 193500.987, 453349.646 ], [ 193653.473, 453567.81 ], [ 193804.49, 453782.392 ], [ 193870.881, 453878.856000000028871 ], [ 193909.385, 453934.800999999977648 ], [ 193991.488000000012107, 454048.033 ], [ 193996.353, 454050.808000000019092 ], [ 194113.229, 454117.468999999982771 ], [ 194123.97, 454123.37599999998929 ], [ 194166.394, 454146.468 ], [ 194402.503999999986263, 454280.561999999976251 ], [ 194412.077, 454285.987000000022817 ], [ 194586.332, 454384.702999999979511 ], [ 194729.454, 454423.598999999987427 ], [ 194907.253, 454472.196999999985565 ], [ 194947.714, 454483.789999999979045 ], [ 195144.35999999998603, 454539.400000000023283 ], [ 195300.94, 454581.669999999983702 ], [ 195359.43, 454597.10999999998603 ], [ 195410.587999999988824, 454607.897999999986496 ], [ 195434.381, 454612.657 ], [ 195461.188, 454617.574000000022352 ], [ 195502.033, 454624.711000000010245 ], [ 195542.24299999998766, 454631.294 ], [ 195622.491, 454644.205000000016298 ], [ 195634.791, 454646.121999999973923 ], [ 195650.922, 454648.195 ], [ 195717.778, 454659.006999999983236 ], [ 195729.481999999989057, 454660.431999999971595 ], [ 195747.375, 454662.60999999998603 ], [ 195752.426, 454663.224999999976717 ], [ 195761.723999999987427, 454666.731000000028871 ], [ 195838.079, 454679.935999999986961 ], [ 195845.269999999989523, 454680.590000000025611 ], [ 195849.193, 454681.244 ], [ 195894.980000000010477, 454688.395000000018626 ], [ 195916.29, 454691.185 ], [ 196003.422, 454694.99900000001071 ], [ 196069.72, 454698.340000000025611 ], [ 196159.583000000013271, 454700.927000000025146 ], [ 196291.608, 454710.852000000013504 ], [ 196354.706, 454715.295999999972992 ], [ 196571.627, 454617.822999999974854 ] ] ] ] } }
]
}
