{
"type": "FeatureCollection",
"name": "Scherpenzeel",
"crs": { "type": "name", "properties": { "name": "urn:ogc:def:crs:OGC:1.3:CRS84" } },
"features": [
{ "type": "Feature", "properties": { "buurtcode": "BU02790000", "buurtnaam": "Scherpenzeel", "pc6_codes": "3925AA, 3925AB, 3925BA, 3925BB, 3925BC, 3925BD, 3925BE, 3925BG, 3925BH, 3925BJ, 3925BK, 3925BL, 3925BM, 3925BN, 3925BP, 3925BR, 3925BS, 3925BT, 3925BV, 3925BW, 3925BX, 3925BZ, 3925CA, 3925CB, 3925CC, 3925CD, 3925CE, 3925CG, 3925CJ, 3925CK, 3925EA, 3925EB, 3925EC, 3925ED, 3925EE, 3925EG, 3925EH, 3925EJ, 3925EK, 3925EL, 3925EM, 3925EN, 3925EP, 3925ER, 3925ES, 3925ET, 3925EV, 3925EW, 3925EX, 3925EZ, 3925GA, 3925GB, 3925GC, 3925GD, 3925GE, 3925GG, 3925HA, 3925HB, 3925HC, 3925HD, 3925HE, 3925HG, 3925HH, 3925HJ, 3925HK, 3925HL, 3925HM, 3925HN, 3925HP, 3925HR, 3925HS, 3925HT, 3925HV, 3925HW, 3925HX, 3925JA, 3925JB, 3925JC, 3925JD, 3925JE, 3925JG, 3925JH, 3925JJ, 3925JK, 3925JL, 3925JM, 3925JN, 3925JP, 3925JR, 3925JS, 3925JZ, 3925KA, 3925KB, 3925KC, 3925KD, 3925KE, 3925KG, 3925KH, 3925KJ, 3925KK, 3925KL, 3925KM, 3925KN, 3925KP, 3925KR, 3925KS, 3925KV, 3925KW, 3925KZ, 3925LA, 3925LB, 3925LC, 3925LD, 3925LE, 3925LG, 3925LH, 3925LJ, 3925LK, 3925LL, 3925LM, 3925LN, 3925LP, 3925LR, 3925LS, 3925LT, 3925LV, 3925LW, 3925LX, 3925LZ, 3925RA, 3925RB, 3925RC, 3925RD, 3925RE, 3925RG, 3925RH, 3925RJ, 3925RK, 3925RL, 3925RM, 3925RN, 3925RP, 3925RR, 3925RS, 3925RT, 3925RV, 3925RW, 3925RX, 3925RZ, 3925SB, 3925SC, 3925SE, 3925SG, 3925SH, 3925SJ, 3925SK, 3925SL, 3925TA, 3925TB, 3925TC, 3925TD, 3925TE, 3925TG, 3925TH, 3925TJ, 3925TK, 3925TL, 3925TM, 3925TN, 3925TP, 3925TR, 3925TS, 3925TT, 3925TV, 3925TW, 3925TX, 3925VA, 3925VB, 3925VC, 3925VD, 3925VE, 3925VG, 3925VH, 3925VJ, 3925VK, 3925VL, 3925VM, 3925VN, 3925VP, 3925VR, 3925VS, 3925VT, 3925VV, 3925WB, 3925WC, 3925WD, 3925WE, 3925WG, 3925WJ, 3925WK, 3925WL, 3925WN, 3925WP, 3925XA, 3925XB, 3925XC, 3925XD, 3925XE, 3925XG, 3925XH, 3925XJ, 3925XK", "wijkcode": "WK027900", "gemeentecode": "GM0279", "gemeentenaam": "Scherpenzeel", "oppervlakteLandInHa": 250, "AantalInwoners_5": 8995, "Mannen_6": 4445, "Vrouwen_7": 4545, "HuishoudensTotaal_29": 3700, "GemiddeldeHuishoudensgrootte_33": 2.4, "Woningvoorraad_35": 3734, "NieuwbouwWoningen_36": 10, "NietWoningvoorraad_37": 524, "NieuwbouwNietWoningen_38": 0, "GemiddeldeWOZWaardeVanWoningen_39": 402, "PercentageEengezinswoning_40": 84, "PercentageTussenwoningEengezins_41": 32, "PercentageHoekwoningEengezins_42": 22, "PercentageTweeOnderEenKapWoningEe_43": 17, "PercentageVrijstaandeWoningEengezins_44": 12, "PercentageMeergezinswoning_45": 16, "Koopwoningen_47": 73, "HuurwoningenTotaal_48": 27, "InBezitWoningcorporatie_49": 18, "InBezitOverigeVerhuurders_50": 9, "BouwjaarMeerDanTienJaarGeleden_51": 94, "BouwjaarAfgelopenTienJaar_52": 6, "GemiddeldeElektriciteitslevering_53": 2760, "GemiddeldeElektriciteitsteruglevering_54": 930, "GemiddeldAardgasverbruik_55": 940, "AardgasvrijeWoningen_57": 4, "Aardgaswoningen_58": 92, "WoningenMetZonnestroom_59": 41, "WoningenHoofdzElektrVerwarmd_60": 7, "k_20PersonenMetHoogsteInkomen_80": 18.1, "k_20HuishoudensMetHoogsteInkomen_85": 22.2, "MediaanVermogenVanParticuliereHuish_86": 267.7, "PersonenautoSTotaal_104": 4625, "PersonenautoSBrandstofBenzine_105": 3805, "PersonenautoSOverigeBrandstof_106": 825, "PersonenautoSPerHuishouden_107": 1.3, "Omgevingsadressendichtheid_121": 1014, "AantalInstallatiesBijWoningen_5": 1144, "OpgesteldVermogenVanZonnepanelen_6": 4570, "installaties_per_woning": 0.306373861810391, "vermogen_per_woning": 1.223888591322978, "installaties_per_100_woningen": 30.637386181039101, "vermogen_per_huishouden": 1.2351351351351352, "batterijdruk_score": 381.3, "koop_zon_score": 0.2993, "eengezins_zon_score": 0.3444, "betaalkracht_zon_score": 109.757, "overige_brandstof_zon_score": 338.25, "lichte_batterij_kansscore": 0.43739650968058558 }, "geometry": { "type": "MultiPolygon", "coordinates": [ [ [ [ 5.484349156174799, 52.086492176093593 ], [ 5.486026084387246, 52.085813350141464 ], [ 5.486206114788303, 52.085831565816314 ], [ 5.489146976023199, 52.084967886862984 ], [ 5.491048099319884, 52.084438738556187 ], [ 5.49540475302235, 52.084480596491716 ], [ 5.495375616971113, 52.084281510348873 ], [ 5.495367433998856, 52.084225595188983 ], [ 5.498348671070205, 52.083670051205232 ], [ 5.500768816853143, 52.083463263026928 ], [ 5.50107649889236, 52.083082659125068 ], [ 5.501950969174912, 52.081678269965991 ], [ 5.502706777026333, 52.080332413718551 ], [ 5.502966479708067, 52.079835007150166 ], [ 5.503699588325473, 52.078811050025578 ], [ 5.50366512319977, 52.078807551844093 ], [ 5.504291328953438, 52.078133402764216 ], [ 5.504697044795191, 52.077805797327684 ], [ 5.505906646155541, 52.077119506723527 ], [ 5.506836656922086, 52.076748334302316 ], [ 5.506651612664361, 52.076724398385664 ], [ 5.50663025039662, 52.076721795560985 ], [ 5.506605677952214, 52.076718800516112 ], [ 5.50651968905761, 52.076708335779983 ], [ 5.506518769913925, 52.076708273795767 ], [ 5.506481770849907, 52.0767058216218 ], [ 5.506291575266217, 52.076729095610432 ], [ 5.506141917434414, 52.076747178163863 ], [ 5.506028072557184, 52.076760550575493 ], [ 5.505784162237982, 52.076798420650171 ], [ 5.50568591519658, 52.07681352069077 ], [ 5.505474664885156, 52.076845991361886 ], [ 5.50545406183857, 52.076849157889839 ], [ 5.505070237156858, 52.076911120186956 ], [ 5.505003289736728, 52.076742310739327 ], [ 5.504984096952605, 52.076693911320838 ], [ 5.50492279875724, 52.075988969633485 ], [ 5.504273660086422, 52.076167993365928 ], [ 5.504047220123992, 52.076559197840304 ], [ 5.500392887149735, 52.077065260081341 ], [ 5.500485676150014, 52.076266076402391 ], [ 5.499733206552037, 52.076313424097798 ], [ 5.499285613575234, 52.075238936974735 ], [ 5.496678443498793, 52.075026521065304 ], [ 5.495947648806549, 52.074982257742242 ], [ 5.495199859459135, 52.075167202631633 ], [ 5.494471055388074, 52.074813964908749 ], [ 5.493392567083974, 52.07461720628779 ], [ 5.492320820457151, 52.074762820861771 ], [ 5.491857756932655, 52.075076971628633 ], [ 5.4923323540546, 52.07530574374325 ], [ 5.492460032295598, 52.075615717347929 ], [ 5.492411107191736, 52.076519060231732 ], [ 5.492659128344177, 52.07711654345659 ], [ 5.491843160975829, 52.078185726413601 ], [ 5.49073589348851, 52.077501929264827 ], [ 5.488081351565492, 52.077043037445179 ], [ 5.487922733225234, 52.076544336639159 ], [ 5.487888558409969, 52.075640224662536 ], [ 5.488346572838816, 52.074994657683831 ], [ 5.488517988741064, 52.074603529884094 ], [ 5.488314670325123, 52.07378832035463 ], [ 5.487683175264618, 52.073803184897486 ], [ 5.487614632464682, 52.074436901175488 ], [ 5.487139009402473, 52.075058605363857 ], [ 5.485253290121091, 52.075177038072532 ], [ 5.480694126559066, 52.07540095788432 ], [ 5.477949495873593, 52.075695219402199 ], [ 5.478456203671664, 52.077393567590356 ], [ 5.476302328725916, 52.07774210295743 ], [ 5.475936509205056, 52.077490566839437 ], [ 5.475653818726068, 52.076587512481254 ], [ 5.475213782523651, 52.076593319055277 ], [ 5.475134021566739, 52.076719365990805 ], [ 5.474849524288703, 52.076708622847775 ], [ 5.474842423429975, 52.077260784574605 ], [ 5.472777996727308, 52.076957423283972 ], [ 5.472508805442637, 52.078022701503556 ], [ 5.472679888604781, 52.079761763901786 ], [ 5.468701634955785, 52.080594017594159 ], [ 5.468001746773106, 52.079904387046881 ], [ 5.465886365050586, 52.080738058649338 ], [ 5.466238540485364, 52.081000160894696 ], [ 5.465505790603304, 52.081567739001557 ], [ 5.465416616851113, 52.081689335530861 ], [ 5.464121733021378, 52.081895388534093 ], [ 5.462810611234606, 52.082202761699463 ], [ 5.462652590227138, 52.082370056016977 ], [ 5.461498934963087, 52.082189664668633 ], [ 5.461299134114925, 52.082646024498374 ], [ 5.46189274551299, 52.082891812361439 ], [ 5.461924162735016, 52.082904816064932 ], [ 5.46204991944514, 52.082956893655286 ], [ 5.462325858167072, 52.083071144370301 ], [ 5.462354720778125, 52.083083089002614 ], [ 5.462531824024895, 52.083156416917966 ], [ 5.462549735118829, 52.083162535282305 ], [ 5.462788331316606, 52.083244101369118 ], [ 5.463243659070549, 52.083399759199331 ], [ 5.46336770986312, 52.083442165355656 ], [ 5.463395958217541, 52.083444376086014 ], [ 5.463424500971923, 52.083439575949704 ], [ 5.463478122797325, 52.08341790696943 ], [ 5.463682617416747, 52.083289469893657 ], [ 5.46373758826647, 52.08325494702342 ], [ 5.463755863295654, 52.083243475378062 ], [ 5.463826546459938, 52.083200457527127 ], [ 5.463976522244455, 52.083107297549688 ], [ 5.464053566429659, 52.08305617718559 ], [ 5.464938299622541, 52.083724413415801 ], [ 5.464930293607296, 52.083776666167203 ], [ 5.464928966504216, 52.0837853405001 ], [ 5.464927221071489, 52.08379674747264 ], [ 5.465474225413023, 52.084226264426079 ], [ 5.466143597712619, 52.084718927557972 ], [ 5.46616222596815, 52.08473394304594 ], [ 5.466229419301456, 52.08478811373643 ], [ 5.466237935889618, 52.084794246840595 ], [ 5.466262959774744, 52.08481226900539 ], [ 5.466316601220557, 52.084834433374255 ], [ 5.466406912429679, 52.084901099751697 ], [ 5.46710401236827, 52.085394466734876 ], [ 5.467643736368256, 52.085769169439999 ], [ 5.467903598478685, 52.085955490401474 ], [ 5.470688547724034, 52.086488733333233 ], [ 5.472384838906928, 52.086501449268461 ], [ 5.477654764776299, 52.08659504446819 ], [ 5.484349156174799, 52.086492176093593 ] ] ] ] } },
{ "type": "Feature", "properties": { "buurtcode": "BU02790008", "buurtnaam": "Verspreide huizen ten zuiden van Scherpenzeel", "pc6_codes": "3925AB, 3925BA, 3925BW, 3925CH, 3925DA, 3925EC, 3925EE, 3925EH, 3925GA, 3925GD, 3925KT, 3925KW, 3925NB, 3925PA, 3925RA, 3925SM, 3925SN, 3925SP, 3925SR, 3925ST, 3925SV, 3925SW, 3925SX, 3925SZ", "wijkcode": "WK027900", "gemeentecode": "GM0279", "gemeentenaam": "Scherpenzeel", "oppervlakteLandInHa": 149, "AantalInwoners_5": 700, "Mannen_6": 340, "Vrouwen_7": 360, "HuishoudensTotaal_29": 270, "GemiddeldeHuishoudensgrootte_33": 2.6, "Woningvoorraad_35": 253, "NieuwbouwWoningen_36": 34, "NietWoningvoorraad_37": 16, "NieuwbouwNietWoningen_38": 0, "GemiddeldeWOZWaardeVanWoningen_39": 509, "PercentageEengezinswoning_40": 99, "PercentageTussenwoningEengezins_41": 34, "PercentageHoekwoningEengezins_42": 22, "PercentageTweeOnderEenKapWoningEe_43": 14, "PercentageVrijstaandeWoningEengezins_44": 28, "PercentageMeergezinswoning_45": 1, "Koopwoningen_47": 70, "HuurwoningenTotaal_48": 30, "InBezitWoningcorporatie_49": 15, "InBezitOverigeVerhuurders_50": 15, "BouwjaarMeerDanTienJaarGeleden_51": 19, "BouwjaarAfgelopenTienJaar_52": 81, "GemiddeldeElektriciteitslevering_53": 3110, "GemiddeldeElektriciteitsteruglevering_54": 1790, "GemiddeldAardgasverbruik_55": 330, "AardgasvrijeWoningen_57": 74, "Aardgaswoningen_58": 23, "WoningenMetZonnestroom_59": 87, "WoningenHoofdzElektrVerwarmd_60": 20, "k_20PersonenMetHoogsteInkomen_80": 26.8, "k_20HuishoudensMetHoogsteInkomen_85": 29.9, "MediaanVermogenVanParticuliereHuish_86": 219.8, "PersonenautoSTotaal_104": 320, "PersonenautoSBrandstofBenzine_105": 240, "PersonenautoSOverigeBrandstof_106": 80, "PersonenautoSPerHuishouden_107": 1.2, "Omgevingsadressendichtheid_121": 709, "AantalInstallatiesBijWoningen_5": 196, "OpgesteldVermogenVanZonnepanelen_6": 626, "installaties_per_woning": 0.77470355731225293, "vermogen_per_woning": 2.4743083003952568, "installaties_per_100_woningen": 77.470355731225297, "vermogen_per_huishouden": 2.3185185185185184, "batterijdruk_score": 1557.3, "koop_zon_score": 0.609, "eengezins_zon_score": 0.8613, "betaalkracht_zon_score": 191.226, "overige_brandstof_zon_score": 69.6, "lichte_batterij_kansscore": 0.56507100878340399 }, "geometry": { "type": "MultiPolygon", "coordinates": [ [ [ [ 5.461498934963087, 52.082189664668633 ], [ 5.462652590227138, 52.082370056016977 ], [ 5.462810611234606, 52.082202761699463 ], [ 5.464121733021378, 52.081895388534093 ], [ 5.465416616851113, 52.081689335530861 ], [ 5.465505790603304, 52.081567739001557 ], [ 5.466238540485364, 52.081000160894696 ], [ 5.465886365050586, 52.080738058649338 ], [ 5.468001746773106, 52.079904387046881 ], [ 5.468701634955785, 52.080594017594159 ], [ 5.472679888604781, 52.079761763901786 ], [ 5.472508805442637, 52.078022701503556 ], [ 5.472777996727308, 52.076957423283972 ], [ 5.474842423429975, 52.077260784574605 ], [ 5.474849524288703, 52.076708622847775 ], [ 5.475134021566739, 52.076719365990805 ], [ 5.475213782523651, 52.076593319055277 ], [ 5.475653818726068, 52.076587512481254 ], [ 5.475936509205056, 52.077490566839437 ], [ 5.476302328725916, 52.07774210295743 ], [ 5.478456203671664, 52.077393567590356 ], [ 5.477949495873593, 52.075695219402199 ], [ 5.480694126559066, 52.07540095788432 ], [ 5.485253290121091, 52.075177038072532 ], [ 5.487139009402473, 52.075058605363857 ], [ 5.487614632464682, 52.074436901175488 ], [ 5.487683175264618, 52.073803184897486 ], [ 5.488314670325123, 52.07378832035463 ], [ 5.488517988741064, 52.074603529884094 ], [ 5.488346572838816, 52.074994657683831 ], [ 5.487888558409969, 52.075640224662536 ], [ 5.487922733225234, 52.076544336639159 ], [ 5.488081351565492, 52.077043037445179 ], [ 5.49073589348851, 52.077501929264827 ], [ 5.491843160975829, 52.078185726413601 ], [ 5.492659128344177, 52.07711654345659 ], [ 5.492411107191736, 52.076519060231732 ], [ 5.492460032295598, 52.075615717347929 ], [ 5.4923323540546, 52.07530574374325 ], [ 5.491857756932655, 52.075076971628633 ], [ 5.492320820457151, 52.074762820861771 ], [ 5.493392567083974, 52.07461720628779 ], [ 5.494471055388074, 52.074813964908749 ], [ 5.495199859459135, 52.075167202631633 ], [ 5.495947648806549, 52.074982257742242 ], [ 5.496678443498793, 52.075026521065304 ], [ 5.499285613575234, 52.075238936974735 ], [ 5.499733206552037, 52.076313424097798 ], [ 5.500485676150014, 52.076266076402391 ], [ 5.500392887149735, 52.077065260081341 ], [ 5.504047220123992, 52.076559197840304 ], [ 5.504273660086422, 52.076167993365928 ], [ 5.50492279875724, 52.075988969633485 ], [ 5.504917020875054, 52.075922515955384 ], [ 5.504894186153754, 52.075693046845416 ], [ 5.504847090580411, 52.075174186659396 ], [ 5.504843953173144, 52.075151530912954 ], [ 5.504843105580984, 52.075145392919737 ], [ 5.504782616019761, 52.074707771105061 ], [ 5.50470750141902, 52.074221646316829 ], [ 5.504701194993089, 52.07418084684506 ], [ 5.504691491913649, 52.074140769809297 ], [ 5.504620910553166, 52.073702708519292 ], [ 5.50459725441646, 52.07352042738777 ], [ 5.504598116791481, 52.073504463739503 ], [ 5.504586819486488, 52.073396025126016 ], [ 5.504582440231466, 52.073361389526433 ], [ 5.504584378402782, 52.073349622226807 ], [ 5.504278087272205, 52.073348597205339 ], [ 5.503889999252179, 52.073347796357432 ], [ 5.502877954071097, 52.07334569495719 ], [ 5.502092373150243, 52.073345206462598 ], [ 5.50205911578605, 52.073282178736342 ], [ 5.50204858536177, 52.073265372364098 ], [ 5.501990306106259, 52.073176780046552 ], [ 5.501898070889434, 52.073076626217492 ], [ 5.501803807207918, 52.072981588495132 ], [ 5.501665858782189, 52.07285202514403 ], [ 5.501504855094455, 52.07271826863424 ], [ 5.501359880603623, 52.072595398861644 ], [ 5.501261364202874, 52.072524821329694 ], [ 5.501195419714417, 52.072466471866413 ], [ 5.501094697812361, 52.072377309028809 ], [ 5.501011512499002, 52.072307049000138 ], [ 5.500954486479952, 52.072256815975685 ], [ 5.500894037766423, 52.072208455747315 ], [ 5.500807315708289, 52.072129435635013 ], [ 5.50076337287427, 52.072090514834031 ], [ 5.500738895845898, 52.072072256751362 ], [ 5.500704968420131, 52.072042889554893 ], [ 5.500658770458754, 52.072006110048136 ], [ 5.500583489998598, 52.07194088439023 ], [ 5.500478203193662, 52.071850898518086 ], [ 5.50036710168363, 52.071756900482818 ], [ 5.500265213933831, 52.071666839243953 ], [ 5.50015888172574, 52.071572449939623 ], [ 5.500075603374253, 52.07149882779872 ], [ 5.500003918145397, 52.071441579712499 ], [ 5.499942274192332, 52.071386892543856 ], [ 5.499915274583927, 52.071362830420277 ], [ 5.499905058435798, 52.071354472326178 ], [ 5.499891524588178, 52.071343394027679 ], [ 5.499882446522588, 52.071335205614368 ], [ 5.499721265206693, 52.071329310934928 ], [ 5.49965065365533, 52.071327481975018 ], [ 5.499578032341798, 52.071326841316477 ], [ 5.499552974421501, 52.071326622574233 ], [ 5.49954328962471, 52.071326532955091 ], [ 5.499278004826618, 52.071322858225152 ], [ 5.499034511899261, 52.071319800334649 ], [ 5.498812882833288, 52.071316990839932 ], [ 5.498581000091761, 52.071314055816508 ], [ 5.49830963730161, 52.071311939594842 ], [ 5.49806816639588, 52.071312562901099 ], [ 5.497880292381006, 52.071317584384289 ], [ 5.497675909668616, 52.07133512346244 ], [ 5.497507790087231, 52.071348565583932 ], [ 5.497504669992535, 52.071349026900656 ], [ 5.497344699004232, 52.071372500809069 ], [ 5.497127073992368, 52.07141437301847 ], [ 5.496639152458795, 52.071526684352492 ], [ 5.496331151282681, 52.071614523171874 ], [ 5.496128045290453, 52.071677933424162 ], [ 5.495971124519457, 52.07172691973561 ], [ 5.495775045012718, 52.071777245256527 ], [ 5.495431153263381, 52.071856117794027 ], [ 5.495165223527884, 52.071900556452633 ], [ 5.494951630574277, 52.071910747022805 ], [ 5.494804342108308, 52.07192068782124 ], [ 5.494684108133796, 52.071924006483556 ], [ 5.494654588922715, 52.071924680593298 ], [ 5.494540945738323, 52.071927256067866 ], [ 5.494511119107527, 52.071927463043231 ], [ 5.494424373493663, 52.071930921657703 ], [ 5.494249118522408, 52.0719261378499 ], [ 5.49406715222837, 52.071908291244036 ], [ 5.49388729732698, 52.071888923460584 ], [ 5.493683069440065, 52.071863025175318 ], [ 5.493484262464309, 52.071828861613653 ], [ 5.493423358293517, 52.07181840060251 ], [ 5.493260678279155, 52.071783673737897 ], [ 5.493251995599853, 52.071781821038719 ], [ 5.493178850356257, 52.071769636242067 ], [ 5.493053412204016, 52.071749391243372 ], [ 5.492651667163319, 52.071629213260969 ], [ 5.492326937146235, 52.071559765600355 ], [ 5.492038616135504, 52.071522758449646 ], [ 5.49165313159376, 52.07149947180082 ], [ 5.491019784443185, 52.071450499348323 ], [ 5.490833371464529, 52.071432040485071 ], [ 5.490696483004884, 52.071410535748811 ], [ 5.490456087737141, 52.071346743074656 ], [ 5.49033540853717, 52.071308308164035 ], [ 5.490174710315769, 52.071251976997971 ], [ 5.489888622232264, 52.071125118007792 ], [ 5.489870649461977, 52.071117080398125 ], [ 5.489458326127632, 52.070931548587758 ], [ 5.489329960173255, 52.070872923162497 ], [ 5.489228845834811, 52.070823504695902 ], [ 5.489054718621926, 52.070741882264777 ], [ 5.48883676063574, 52.070645880614336 ], [ 5.488661435007348, 52.070562559893027 ], [ 5.488519369256052, 52.070494570854869 ], [ 5.488379382392074, 52.070436286959684 ], [ 5.488282002186384, 52.070392589859033 ], [ 5.488244880816003, 52.070378447588318 ], [ 5.488243815369064, 52.070378115945495 ], [ 5.488160404965301, 52.070352553631793 ], [ 5.487979106271306, 52.070297001132587 ], [ 5.487820842644894, 52.070250209982717 ], [ 5.487644436653011, 52.070210274028057 ], [ 5.487494245367171, 52.070185765930383 ], [ 5.487354667489725, 52.070172258975546 ], [ 5.487247842186257, 52.070163029278795 ], [ 5.487101491726141, 52.070160160658354 ], [ 5.486984901959557, 52.070160718024631 ], [ 5.486845784039028, 52.070170228494753 ], [ 5.486727355928871, 52.070183595147107 ], [ 5.486580286514957, 52.070205030197734 ], [ 5.486391437255991, 52.070235668128149 ], [ 5.486270646244045, 52.070255678489012 ], [ 5.486213448170762, 52.070263923765751 ], [ 5.486141130761202, 52.070267921395278 ], [ 5.486068114122619, 52.070272306054754 ], [ 5.485977553748094, 52.070270935071257 ], [ 5.485890392385723, 52.070263296489308 ], [ 5.485828483822252, 52.070251951564543 ], [ 5.485768490191278, 52.070235940200057 ], [ 5.485694915568112, 52.070212156520959 ], [ 5.485650724254483, 52.070192635506622 ], [ 5.485628066542923, 52.070182623798026 ], [ 5.485543716376973, 52.070133466764872 ], [ 5.485512545135988, 52.070111993389972 ], [ 5.485472478296284, 52.070084388596129 ], [ 5.485458105060378, 52.070074477788658 ], [ 5.485301674815149, 52.069990965503528 ], [ 5.485116217601526, 52.069885699113911 ], [ 5.484970506833714, 52.069801467405462 ], [ 5.484867256633193, 52.069745764313495 ], [ 5.484856422027513, 52.069739922084239 ], [ 5.484799296549152, 52.069714461393851 ], [ 5.48472069437035, 52.069685270465754 ], [ 5.484671899398616, 52.069667649380925 ], [ 5.484631129891736, 52.069658488379105 ], [ 5.484611679021093, 52.069654118318773 ], [ 5.484595323033925, 52.069651093901079 ], [ 5.484522355804501, 52.069637600312987 ], [ 5.484520984556656, 52.069637466626858 ], [ 5.484489635478029, 52.069634400672193 ], [ 5.484440650746126, 52.069630037035672 ], [ 5.484430410350323, 52.069629128720301 ], [ 5.484311204375061, 52.069619798739197 ], [ 5.484227283696151, 52.06961949050708 ], [ 5.48414974183941, 52.069621639685032 ], [ 5.484075047074446, 52.069625215568145 ], [ 5.484016461427872, 52.069632337414788 ], [ 5.483958815895744, 52.06964255933913 ], [ 5.48389745908077, 52.069656397486561 ], [ 5.483728101756929, 52.069723713366351 ], [ 5.483659413972038, 52.069746761178649 ], [ 5.483616507756053, 52.069761159280453 ], [ 5.483492077029892, 52.069804439861713 ], [ 5.48330286154402, 52.069888749828365 ], [ 5.483180943054936, 52.06994082733604 ], [ 5.482926006792171, 52.070031643739469 ], [ 5.482601938420252, 52.070143358997719 ], [ 5.482383875537743, 52.070222945185364 ], [ 5.482172915095506, 52.070302713981633 ], [ 5.482055441990661, 52.070340792323663 ], [ 5.481924895538381, 52.070390224007923 ], [ 5.48174404566574, 52.070460422459078 ], [ 5.481674602329768, 52.070492736404915 ], [ 5.481608102290041, 52.070523744678447 ], [ 5.481458434287308, 52.070600982265923 ], [ 5.48121935637932, 52.070718153210642 ], [ 5.480951497125072, 52.070868242903671 ], [ 5.480741204260518, 52.070983906891257 ], [ 5.480484813961117, 52.071123973697077 ], [ 5.480451043975265, 52.071142336114995 ], [ 5.48028685568554, 52.071231654676808 ], [ 5.480165891315464, 52.071297102521484 ], [ 5.480048361864934, 52.071352247216872 ], [ 5.479976120961953, 52.071380140240549 ], [ 5.479889721473779, 52.071409841991361 ], [ 5.479686666401427, 52.071466365959182 ], [ 5.479567766552901, 52.07150115330429 ], [ 5.47938544501788, 52.07154775562725 ], [ 5.47928893512008, 52.071569366623123 ], [ 5.479147924860585, 52.071597780348135 ], [ 5.478947610703138, 52.071626231198614 ], [ 5.478814595361432, 52.071641677510279 ], [ 5.478684012649624, 52.071655647738091 ], [ 5.47865689702817, 52.071662014396566 ], [ 5.478630895228018, 52.071663868178923 ], [ 5.478420351711491, 52.071675868955467 ], [ 5.47841260808196, 52.071676441209448 ], [ 5.478415957293938, 52.071709496679617 ], [ 5.478212048208535, 52.071713546496383 ], [ 5.477917241168527, 52.071795493687887 ], [ 5.477721426540037, 52.071849923447992 ], [ 5.47755693780422, 52.071895646354974 ], [ 5.477222221017084, 52.072012936529966 ], [ 5.477176763721293, 52.072051835669249 ], [ 5.477162170816928, 52.072062605535592 ], [ 5.476980188050764, 52.072200288816099 ], [ 5.476925809772227, 52.072242043881026 ], [ 5.47684881055902, 52.072298970027731 ], [ 5.476734762118126, 52.07236227889247 ], [ 5.476717788864915, 52.072371702307329 ], [ 5.476601852355365, 52.072439218889151 ], [ 5.476491954644832, 52.072499800981007 ], [ 5.476376106070573, 52.072640902469914 ], [ 5.476359272246961, 52.072647197884109 ], [ 5.476350075371475, 52.072650530436718 ], [ 5.476174041531969, 52.072716447325497 ], [ 5.475925846990015, 52.072713839568969 ], [ 5.475658658358789, 52.072760949516272 ], [ 5.475612166423777, 52.072764561725869 ], [ 5.475511439634634, 52.072772843507465 ], [ 5.475424450302273, 52.072780009366497 ], [ 5.475331145391968, 52.072787197870845 ], [ 5.475247466803554, 52.07279428921337 ], [ 5.475154336349365, 52.072801216793486 ], [ 5.475060696694753, 52.072808818784395 ], [ 5.474936725586859, 52.072819876772058 ], [ 5.474857944692465, 52.072825454190443 ], [ 5.474580592626773, 52.072845092787553 ], [ 5.474579032347353, 52.072845291684168 ], [ 5.474513284415167, 52.072854975715153 ], [ 5.474430990512052, 52.072869174999582 ], [ 5.474356225153222, 52.072884591021861 ], [ 5.474285252757156, 52.072900381685905 ], [ 5.474208717772113, 52.072920895151228 ], [ 5.474113397251884, 52.07294938586827 ], [ 5.473997166138044, 52.07298819225381 ], [ 5.473902934561274, 52.073021769234366 ], [ 5.473824970986123, 52.073050417691128 ], [ 5.473774489639657, 52.073072960953645 ], [ 5.473719641103624, 52.073099938517949 ], [ 5.473661482211754, 52.073134801013097 ], [ 5.473586886388253, 52.073177899624284 ], [ 5.473526586378228, 52.073214417426954 ], [ 5.473462296810507, 52.073254587274739 ], [ 5.473401843421969, 52.073294871119636 ], [ 5.473340063880081, 52.073335812032511 ], [ 5.473260530382623, 52.073390409771569 ], [ 5.473194005421862, 52.073436459293895 ], [ 5.473082542317741, 52.073513433544264 ], [ 5.472999030504641, 52.073570254059419 ], [ 5.472915870353267, 52.07362801800388 ], [ 5.472849050707045, 52.073672890109307 ], [ 5.472783082694477, 52.073713168662046 ], [ 5.472704348842654, 52.073759505419964 ], [ 5.472631234887017, 52.073800544079354 ], [ 5.472524050367645, 52.073858154423796 ], [ 5.472413465778065, 52.073915111006336 ], [ 5.472314217773726, 52.073966252997742 ], [ 5.472210871940538, 52.074017964114894 ], [ 5.472114482037768, 52.074068942085681 ], [ 5.472025855881413, 52.074114431665279 ], [ 5.471920134567211, 52.074167582327703 ], [ 5.471823786286953, 52.074217778068629 ], [ 5.471760601729804, 52.074249946819137 ], [ 5.471649533091716, 52.074306498565917 ], [ 5.47136522699908, 52.074449711289276 ], [ 5.471103600931749, 52.074585276286037 ], [ 5.470904425365751, 52.074686282144462 ], [ 5.470677618665679, 52.074800888227834 ], [ 5.470514880204017, 52.074864045834524 ], [ 5.470405354146054, 52.074912515051281 ], [ 5.470305343939456, 52.074948412146547 ], [ 5.470205456577841, 52.074979859985191 ], [ 5.470093437517567, 52.075013635209068 ], [ 5.469946231399307, 52.075052863875797 ], [ 5.469741264443815, 52.075108760812014 ], [ 5.469562780777729, 52.075153943063889 ], [ 5.46939125743478, 52.075192801580812 ], [ 5.469269580831163, 52.075218556441854 ], [ 5.469122167304065, 52.075240904664838 ], [ 5.46887061232497, 52.075274578123754 ], [ 5.468631085473409, 52.075297322235542 ], [ 5.468371571939005, 52.075326470163006 ], [ 5.468179499930267, 52.07534419221826 ], [ 5.468138896439175, 52.075347132304216 ], [ 5.468102685885604, 52.075351399584761 ], [ 5.468062921969108, 52.075358842079439 ], [ 5.467951562790899, 52.075371771523685 ], [ 5.467644915863894, 52.075423276525271 ], [ 5.467490390480059, 52.075458102982715 ], [ 5.467373875825758, 52.075492049459442 ], [ 5.46732054611718, 52.075507590196949 ], [ 5.46714369311313, 52.075569620259493 ], [ 5.467008826518568, 52.075627226407221 ], [ 5.466891056766976, 52.07568577354624 ], [ 5.466836906392061, 52.075723928550595 ], [ 5.466729439637411, 52.075801828804273 ], [ 5.466640249576025, 52.075879707623287 ], [ 5.466594804317795, 52.075924552728921 ], [ 5.4665094690657, 52.076013115633316 ], [ 5.4664745948086, 52.076055643631953 ], [ 5.466439739172241, 52.076100481535789 ], [ 5.466382295203073, 52.07619017601462 ], [ 5.466332238267977, 52.076308132902476 ], [ 5.466308019211249, 52.076379424418199 ], [ 5.466291014388521, 52.076496622021672 ], [ 5.466265865595135, 52.076668993731133 ], [ 5.466249233029828, 52.07685649557596 ], [ 5.466213575509969, 52.077206954494841 ], [ 5.466206077343017, 52.077363324574726 ], [ 5.46620493542657, 52.077377481514738 ], [ 5.466201096348607, 52.077425435320379 ], [ 5.466199769154326, 52.077442055109323 ], [ 5.466108381525364, 52.077731486613672 ], [ 5.465987825391839, 52.077959009950987 ], [ 5.465934721162578, 52.078013351293691 ], [ 5.465653332424234, 52.07828818708078 ], [ 5.465638347657199, 52.07830282961546 ], [ 5.465561477473028, 52.078347659311831 ], [ 5.465511414017437, 52.078381361882805 ], [ 5.465434767519109, 52.078429121449417 ], [ 5.46533353695737, 52.078482973223508 ], [ 5.465304738825185, 52.078498298997303 ], [ 5.465089927328534, 52.078592815966445 ], [ 5.464901247554916, 52.078674165766657 ], [ 5.464777589061671, 52.078716410339219 ], [ 5.464713596744631, 52.078735219581446 ], [ 5.464657734317051, 52.078748298049042 ], [ 5.464655080357395, 52.078748866044236 ], [ 5.464615460546471, 52.078757358875905 ], [ 5.464584531595734, 52.078763922532914 ], [ 5.464503755770243, 52.07877834755282 ], [ 5.464431689130946, 52.078793018461944 ], [ 5.464364039073, 52.078805709058713 ], [ 5.464247596668527, 52.078820328078663 ], [ 5.464110033771837, 52.078836389900388 ], [ 5.463984244987575, 52.078853603330145 ], [ 5.463899931092379, 52.078863662057088 ], [ 5.463838851142808, 52.078871305773113 ], [ 5.463835117479801, 52.078871757609051 ], [ 5.463588753705058, 52.078901461636399 ], [ 5.46350893672925, 52.078913916969185 ], [ 5.463361942244438, 52.078934190442595 ], [ 5.463136126357455, 52.078960662490474 ], [ 5.462897171008119, 52.078989677194294 ], [ 5.46268758781371, 52.079014457165187 ], [ 5.462506131167666, 52.079040234399194 ], [ 5.4623734603864, 52.079060173893232 ], [ 5.462229710084628, 52.079084434569999 ], [ 5.462104986243625, 52.079111208590504 ], [ 5.461966166721178, 52.079144435870823 ], [ 5.461835261504382, 52.079173694236296 ], [ 5.461677653162773, 52.079216029002303 ], [ 5.461550139139543, 52.079249626126796 ], [ 5.461426958553814, 52.079283858528129 ], [ 5.461328347129295, 52.079311415171325 ], [ 5.461323215022419, 52.079313099171245 ], [ 5.461210964666269, 52.079349930986709 ], [ 5.461110325749784, 52.079377785328795 ], [ 5.461014459211222, 52.079407020746977 ], [ 5.460918756131115, 52.079438143473439 ], [ 5.460806878629293, 52.079480313566471 ], [ 5.460716929151321, 52.079515252444054 ], [ 5.460666496749719, 52.079531660184664 ], [ 5.460577497663929, 52.079568054424378 ], [ 5.460485315368831, 52.079602679936656 ], [ 5.460422076391338, 52.079629063294064 ], [ 5.46036377909816, 52.079653286411883 ], [ 5.459649828649516, 52.079983454899285 ], [ 5.459340067998822, 52.080164700505222 ], [ 5.459302364183908, 52.080186690409867 ], [ 5.459243347988367, 52.080225473139905 ], [ 5.459242922467752, 52.080225752928747 ], [ 5.459688177881301, 52.080601502913886 ], [ 5.460147783769272, 52.080952102744213 ], [ 5.459749643652114, 52.081843270590703 ], [ 5.459678098559785, 52.082003409672502 ], [ 5.45980713212259, 52.082019346737134 ], [ 5.46011704219648, 52.082146048061233 ], [ 5.460146839487247, 52.082159331873648 ], [ 5.460319477269102, 52.08223630604833 ], [ 5.460582405722191, 52.082348861219266 ], [ 5.460690057472684, 52.082393824049085 ], [ 5.460695488216285, 52.082396076651911 ], [ 5.461299134114925, 52.082646024498374 ], [ 5.461498934963087, 52.082189664668633 ] ] ] ] } },
{ "type": "Feature", "properties": { "buurtcode": "BU02790009", "buurtnaam": "Verspreide huizen ten noorden van Scherpenzeel", "pc6_codes": "3925HX, 3925JT, 3925JV, 3925JW, 3925JX, 3925MA, 3925MB, 3925MC, 3925MD, 3925ME, 3925MG, 3925MH, 3925MJ, 3925ML, 3925MN, 3925MP, 3925MR, 3925MS, 3925MT, 3925MV, 3925MX, 3925MZ, 3925NA, 3925NC, 3925ND, 3925NE, 3925NZ", "wijkcode": "WK027900", "gemeentecode": "GM0279", "gemeentenaam": "Scherpenzeel", "oppervlakteLandInHa": 980, "AantalInwoners_5": 650, "Mannen_6": 325, "Vrouwen_7": 325, "HuishoudensTotaal_29": 230, "GemiddeldeHuishoudensgrootte_33": 2.6, "Woningvoorraad_35": 239, "NieuwbouwWoningen_36": 0, "NietWoningvoorraad_37": 154, "NieuwbouwNietWoningen_38": 0, "GemiddeldeWOZWaardeVanWoningen_39": 542, "PercentageEengezinswoning_40": 75, "PercentageTussenwoningEengezins_41": 12, "PercentageHoekwoningEengezins_42": 5, "PercentageTweeOnderEenKapWoningEe_43": 11, "PercentageVrijstaandeWoningEengezins_44": 48, "PercentageMeergezinswoning_45": 25, "Koopwoningen_47": 81, "HuurwoningenTotaal_48": 19, "InBezitWoningcorporatie_49": 0, "InBezitOverigeVerhuurders_50": 19, "BouwjaarMeerDanTienJaarGeleden_51": 72, "BouwjaarAfgelopenTienJaar_52": 28, "GemiddeldeElektriciteitslevering_53": 3290, "GemiddeldeElektriciteitsteruglevering_54": 1420, "GemiddeldAardgasverbruik_55": 840, "AardgasvrijeWoningen_57": 14, "Aardgaswoningen_58": 57, "WoningenMetZonnestroom_59": 38, "WoningenHoofdzElektrVerwarmd_60": 15, "k_20PersonenMetHoogsteInkomen_80": 26.0, "k_20HuishoudensMetHoogsteInkomen_85": 36.4, "MediaanVermogenVanParticuliereHuish_86": 467.6, "PersonenautoSTotaal_104": 330, "PersonenautoSBrandstofBenzine_105": 250, "PersonenautoSOverigeBrandstof_106": 85, "PersonenautoSPerHuishouden_107": 1.4, "Omgevingsadressendichtheid_121": 297, "AantalInstallatiesBijWoningen_5": 52, "OpgesteldVermogenVanZonnepanelen_6": 300, "installaties_per_woning": 0.21757322175732219, "vermogen_per_woning": 1.2552301255230125, "installaties_per_100_woningen": 21.75732217573222, "vermogen_per_huishouden": 1.3043478260869565, "batterijdruk_score": 539.6, "koop_zon_score": 0.3078, "eengezins_zon_score": 0.285, "betaalkracht_zon_score": 177.688, "overige_brandstof_zon_score": 32.3, "lichte_batterij_kansscore": 0.43048102042544034 }, "geometry": { "type": "MultiPolygon", "coordinates": [ [ [ [ 5.494187010091373, 52.111039247054634 ], [ 5.494448710788435, 52.110996540581723 ], [ 5.494539536195987, 52.110988710130364 ], [ 5.494586999489251, 52.110984613247552 ], [ 5.494645701021129, 52.110979553359051 ], [ 5.494772541569988, 52.110972390909595 ], [ 5.4947859846243, 52.110971632618558 ], [ 5.495132237197701, 52.110959316633995 ], [ 5.495144789823163, 52.110958586082525 ], [ 5.495171063355694, 52.110957303663987 ], [ 5.495220398834808, 52.110954741756785 ], [ 5.495269738226773, 52.110953797665452 ], [ 5.495328711053552, 52.11095230542395 ], [ 5.495387101260127, 52.110951352968513 ], [ 5.495548843799805, 52.110949406590386 ], [ 5.49587057706511, 52.110945514785783 ], [ 5.496430842666427, 52.110941221223307 ], [ 5.496923077076392, 52.110935370595236 ], [ 5.497311951567744, 52.110927457528483 ], [ 5.497332373427085, 52.110927087890303 ], [ 5.497498799089648, 52.110924046906497 ], [ 5.497605941926954, 52.110921070296811 ], [ 5.498030443083297, 52.110916177357488 ], [ 5.498890549103518, 52.11091015131759 ], [ 5.499830938876286, 52.11090188508858 ], [ 5.499846119516234, 52.110901331281809 ], [ 5.499904544021091, 52.110902461772064 ], [ 5.500030898396297, 52.110899734201894 ], [ 5.500035014099557, 52.11089935276064 ], [ 5.500071802618482, 52.110899856769912 ], [ 5.500142164896745, 52.110899609518448 ], [ 5.500509729874149, 52.110893503946592 ], [ 5.500735789079316, 52.110890697577148 ], [ 5.500751175175052, 52.110890574879726 ], [ 5.500790875530299, 52.110888019935061 ], [ 5.500827655351008, 52.110885108276264 ], [ 5.500848964873931, 52.110883649623723 ], [ 5.500863559282632, 52.110882197451701 ], [ 5.500897710525061, 52.110878928789134 ], [ 5.500930107703375, 52.110874763011225 ], [ 5.500958926332681, 52.110869809738773 ], [ 5.501079330399386, 52.110835062544957 ], [ 5.501201968354196, 52.110737684667583 ], [ 5.501240749689297, 52.110706890159236 ], [ 5.50129360878839, 52.110666752447614 ], [ 5.501520575460308, 52.11049440300792 ], [ 5.501558497493779, 52.110453156181357 ], [ 5.501641787895329, 52.110371284411585 ], [ 5.5016690784035, 52.110345543200673 ], [ 5.501713145097844, 52.110303984755568 ], [ 5.501735867963349, 52.110284548562127 ], [ 5.501809838186986, 52.110211673742093 ], [ 5.501847118628957, 52.110176584227091 ], [ 5.501892846348196, 52.110133936547228 ], [ 5.501895845576543, 52.110130850739878 ], [ 5.501994179010331, 52.110029576934743 ], [ 5.502035229598623, 52.109984776638854 ], [ 5.50205327578561, 52.109963367584669 ], [ 5.502064328447346, 52.109947178394123 ], [ 5.50207392225056, 52.109931350146354 ], [ 5.502079146901404, 52.109919480883271 ], [ 5.502082337119784, 52.109911208806778 ], [ 5.502085512064729, 52.109897004662983 ], [ 5.502085495866889, 52.109890713076503 ], [ 5.502087218902781, 52.109879566270777 ], [ 5.50208744097439, 52.109852422284121 ], [ 5.502072250040571, 52.109735413305579 ], [ 5.502067781889072, 52.109700903732481 ], [ 5.502068040526745, 52.109687960755004 ], [ 5.502069757081006, 52.109674297314484 ], [ 5.502079059795899, 52.109658828869698 ], [ 5.502085174620129, 52.109652531299282 ], [ 5.502096830539243, 52.109643891439056 ], [ 5.502106153142067, 52.109636152655803 ], [ 5.502115758605898, 52.109630552740491 ], [ 5.502161291558658, 52.109620279931541 ], [ 5.502313286943335, 52.109576629449833 ], [ 5.503013649996874, 52.109338659152549 ], [ 5.503317038953214, 52.109245963579006 ], [ 5.503983254593342, 52.109016110385149 ], [ 5.504100511283419, 52.108975188452995 ], [ 5.504561670321853, 52.108817978761991 ], [ 5.505327094508128, 52.108572739383057 ], [ 5.505836967441007, 52.108403252102825 ], [ 5.506000023159199, 52.108349878658927 ], [ 5.506018691835285, 52.10834392773242 ], [ 5.506025690852521, 52.108341044505536 ], [ 5.506083725612609, 52.10831761709214 ], [ 5.506092768712688, 52.108314911556953 ], [ 5.506227825919951, 52.108272351679972 ], [ 5.506393795812293, 52.108217356901676 ], [ 5.506578137548005, 52.108154793333306 ], [ 5.506644636691934, 52.108130817777926 ], [ 5.506811122781856, 52.108083632463945 ], [ 5.5068438831969, 52.108074350512183 ], [ 5.506930200128894, 52.108048539073422 ], [ 5.506992935808118, 52.108025663685588 ], [ 5.507032598507501, 52.108010163944172 ], [ 5.507121263565653, 52.107978256106094 ], [ 5.507142965746251, 52.107971412097875 ], [ 5.507180769556115, 52.107959500415191 ], [ 5.507197685291668, 52.107953191567738 ], [ 5.507215191191081, 52.107949218997945 ], [ 5.507235936485274, 52.107944811697948 ], [ 5.507244952373386, 52.107942897046421 ], [ 5.507258374943149, 52.107940366715376 ], [ 5.507270047309438, 52.107938377448512 ], [ 5.507298646996959, 52.107934393549954 ], [ 5.507319078590572, 52.107932754861466 ], [ 5.507348266509712, 52.107930388191839 ], [ 5.507380668692953, 52.107929096794244 ], [ 5.507396140654881, 52.107928721476839 ], [ 5.507547351138285, 52.107922814656852 ], [ 5.508230139201641, 52.107898386280958 ], [ 5.508728157273505, 52.107885110216628 ], [ 5.509203985022343, 52.107870956247829 ], [ 5.509680691746164, 52.107858057764396 ], [ 5.510127048654354, 52.10784968305336 ], [ 5.510194484672171, 52.107848713813041 ], [ 5.510215213016208, 52.107848871913845 ], [ 5.510352880400339, 52.107849581831552 ], [ 5.510400680798167, 52.107842422300671 ], [ 5.5105138089016, 52.107615410585005 ], [ 5.510514578941752, 52.107614106517225 ], [ 5.510521945472509, 52.107601740289496 ], [ 5.510547564645312, 52.107575827985315 ], [ 5.510579312531746, 52.107549190211479 ], [ 5.510643382125816, 52.107492318832819 ], [ 5.510659120985484, 52.107482954799075 ], [ 5.510674862325116, 52.107474489561376 ], [ 5.51069322862308, 52.107465122767081 ], [ 5.510711885857377, 52.107455396144275 ], [ 5.510729080403917, 52.107444592492492 ], [ 5.510772815991179, 52.107424593211668 ], [ 5.510801973525427, 52.107411440108436 ], [ 5.510824723331148, 52.107403686532237 ], [ 5.510862932923182, 52.107391242947848 ], [ 5.510877220477001, 52.107384936332146 ], [ 5.510909298833471, 52.107372319413962 ], [ 5.510983926752109, 52.107343713025898 ], [ 5.511061230128508, 52.107311400715886 ], [ 5.51109593477367, 52.107298403486965 ], [ 5.511121890347171, 52.10728868709333 ], [ 5.511151632563979, 52.107275892807976 ], [ 5.511157609400271, 52.107273046303838 ], [ 5.511182245583334, 52.107261299996289 ], [ 5.511207033815539, 52.107251746597385 ], [ 5.511233859605353, 52.107240033924377 ], [ 5.511347408537876, 52.107203117321752 ], [ 5.511495627985964, 52.107072958356881 ], [ 5.511663913894332, 52.106936378525219 ], [ 5.51181139241317, 52.10681857845227 ], [ 5.511949038462071, 52.106692663451746 ], [ 5.511993896294511, 52.106651630583237 ], [ 5.512184185302404, 52.106450501747588 ], [ 5.512406237314531, 52.106234661397146 ], [ 5.512517452071606, 52.106100675630827 ], [ 5.512233631732612, 52.105973815063159 ], [ 5.512145066108411, 52.105934236022264 ], [ 5.512173904945526, 52.105901587918879 ], [ 5.512664624145041, 52.105345975352108 ], [ 5.513140396228134, 52.104794439256978 ], [ 5.513462735091612, 52.104422250885321 ], [ 5.513628731710539, 52.104245736890597 ], [ 5.513901130991054, 52.103956083908528 ], [ 5.513998230560629, 52.103773918149209 ], [ 5.514154327099179, 52.103689900721413 ], [ 5.514572376865265, 52.10344366287773 ], [ 5.514695906888259, 52.103374492208509 ], [ 5.51473597050847, 52.103348437494752 ], [ 5.514759490472384, 52.103314913679419 ], [ 5.514780639884567, 52.103274175052533 ], [ 5.514854986498587, 52.103124938344195 ], [ 5.514916133985735, 52.102928295137779 ], [ 5.515058504780353, 52.102583935539769 ], [ 5.515066901112358, 52.102554751320099 ], [ 5.51508525804413, 52.102527857210909 ], [ 5.51511217344869, 52.102497825969508 ], [ 5.515151195791859, 52.102475475304225 ], [ 5.515263739797208, 52.102414126553235 ], [ 5.51528838336107, 52.10239608775597 ], [ 5.515312052257817, 52.102363920852866 ], [ 5.515332378396182, 52.102316361111619 ], [ 5.515463911423864, 52.101894769765742 ], [ 5.515470629686113, 52.101845535076386 ], [ 5.515476944748999, 52.101793128055668 ], [ 5.515487007763786, 52.10173460509791 ], [ 5.515489114312259, 52.101731214319656 ], [ 5.515510702850879, 52.101696488055147 ], [ 5.51556968018706, 52.1016604357322 ], [ 5.515894827053554, 52.101502538730763 ], [ 5.5161696333236, 52.101359741933734 ], [ 5.516282890753819, 52.101304296541329 ], [ 5.516507455927547, 52.101195780406435 ], [ 5.517059534534759, 52.100918287762241 ], [ 5.517202271791962, 52.100767778633163 ], [ 5.517271773008459, 52.100707922542028 ], [ 5.517350265880959, 52.100648568784898 ], [ 5.517382945622527, 52.100629253346916 ], [ 5.517474153028664, 52.100600867146021 ], [ 5.517547095926688, 52.100600292055653 ], [ 5.517662258312166, 52.100598645501364 ], [ 5.517708463362614, 52.100597983097636 ], [ 5.517750918420962, 52.100592624100784 ], [ 5.5177663685602, 52.100590674540541 ], [ 5.517821749776092, 52.100583683336389 ], [ 5.518077807426224, 52.100551356632565 ], [ 5.518265586701341, 52.100527653021146 ], [ 5.518302039624105, 52.100526048512464 ], [ 5.519293884738412, 52.100482300519886 ], [ 5.519368177897823, 52.100494207146248 ], [ 5.519501730286494, 52.100813014961993 ], [ 5.519538103517103, 52.100897704131555 ], [ 5.519557370297655, 52.100942541672481 ], [ 5.519691646635396, 52.101297830804818 ], [ 5.519788872428036, 52.101482559932059 ], [ 5.519837126353403, 52.101547336146787 ], [ 5.520377754418919, 52.102045614673621 ], [ 5.52155259686749, 52.103127021141368 ], [ 5.52168196666924, 52.103246351120852 ], [ 5.521832574560849, 52.103385277508075 ], [ 5.521893468746157, 52.103443683881231 ], [ 5.522259632028631, 52.103714306959695 ], [ 5.522701416863977, 52.104046113173752 ], [ 5.522737214614177, 52.104073000057639 ], [ 5.522887261727284, 52.104183901099134 ], [ 5.522968212560579, 52.104237295444889 ], [ 5.523025417436793, 52.104271986111435 ], [ 5.523130901077399, 52.104309901640733 ], [ 5.523186564083213, 52.104322303733106 ], [ 5.523477831450084, 52.103821837821506 ], [ 5.523848843554434, 52.10313562214349 ], [ 5.523947577950189, 52.102953014807859 ], [ 5.523954166959716, 52.102940819403273 ], [ 5.524217196759714, 52.102495085411164 ], [ 5.524224529272206, 52.102482655436653 ], [ 5.524903997995166, 52.101222641224616 ], [ 5.524945405682256, 52.101147533830876 ], [ 5.524954041326788, 52.101131866596091 ], [ 5.525051834248783, 52.100954481409921 ], [ 5.525163762507212, 52.100751454726542 ], [ 5.525252372449221, 52.100776634147117 ], [ 5.525618624136212, 52.100878541669488 ], [ 5.526228523211115, 52.101050365985252 ], [ 5.526953588040511, 52.101252349097841 ], [ 5.527926051892826, 52.101507367180922 ], [ 5.528403745425454, 52.101635782256466 ], [ 5.528435690336265, 52.10164382416594 ], [ 5.529022605428181, 52.101791627627485 ], [ 5.529166913332474, 52.101834731007607 ], [ 5.529437151718884, 52.101915440798749 ], [ 5.529709802695505, 52.101997216623843 ], [ 5.530431212604149, 52.102101150439083 ], [ 5.531150407331781, 52.102205064572367 ], [ 5.531543293471564, 52.102266960379687 ], [ 5.531586495162783, 52.102190113769701 ], [ 5.531811585780999, 52.101789771767159 ], [ 5.531907654098156, 52.101619600388247 ], [ 5.532029533390148, 52.101397805939726 ], [ 5.532078605365577, 52.101317931940507 ], [ 5.532138936314991, 52.101199575330838 ], [ 5.532161560192812, 52.101155146653774 ], [ 5.53219025896535, 52.101102792044252 ], [ 5.532236716683038, 52.101018067663134 ], [ 5.532239850656357, 52.10101236539694 ], [ 5.53270254259797, 52.100185264981079 ], [ 5.532816949823151, 52.099983881705761 ], [ 5.532930245408028, 52.099974340044092 ], [ 5.533105364876008, 52.099956299891019 ], [ 5.533276383211766, 52.099938282542361 ], [ 5.53360747933388, 52.099904004382836 ], [ 5.533733307323918, 52.099888819860332 ], [ 5.533854982165175, 52.099871132718718 ], [ 5.533961563733587, 52.099852700285872 ], [ 5.534033823174989, 52.099831119821026 ], [ 5.534121083278628, 52.099804370455146 ], [ 5.534241134298175, 52.099772340055914 ], [ 5.535936749538963, 52.099162880293278 ], [ 5.537633758989635, 52.098465464399702 ], [ 5.53847597019999, 52.098125878176141 ], [ 5.538572825165948, 52.098085631132697 ], [ 5.538665380450952, 52.098038459772852 ], [ 5.538721419409581, 52.098003550071383 ], [ 5.539075180613145, 52.097850486531243 ], [ 5.539160181441271, 52.097813705696382 ], [ 5.539053259874353, 52.097300941890303 ], [ 5.538966656619937, 52.096908905913658 ], [ 5.538920990244271, 52.096680327313507 ], [ 5.538895406511466, 52.096619780970499 ], [ 5.538858431888293, 52.096475211228572 ], [ 5.538830674046432, 52.096436185011228 ], [ 5.538764325660579, 52.09636968713226 ], [ 5.538301138137936, 52.09593593604442 ], [ 5.537723184743347, 52.095385233857513 ], [ 5.537611779935533, 52.095280827483599 ], [ 5.537005604790512, 52.094699203011444 ], [ 5.536757869670748, 52.09446174863303 ], [ 5.536102291531027, 52.093831916480028 ], [ 5.535774654072999, 52.093514432743504 ], [ 5.535729547330311, 52.093470106761167 ], [ 5.535630491333727, 52.093372738514269 ], [ 5.53551382174378, 52.0932662695228 ], [ 5.535385680111847, 52.093145694656791 ], [ 5.535218497616355, 52.092996532873563 ], [ 5.535079190075907, 52.092874623505168 ], [ 5.536602867625518, 52.092787394125871 ], [ 5.537520840946001, 52.092733025314146 ], [ 5.538173353370581, 52.092696552719985 ], [ 5.538177452995399, 52.092696322761327 ], [ 5.538200737726577, 52.092695025582771 ], [ 5.538293934641298, 52.09268972889172 ], [ 5.538077337659418, 52.091880418471355 ], [ 5.538076288399971, 52.091876501032857 ], [ 5.537804427022375, 52.090954937341237 ], [ 5.537474965954751, 52.089858584166727 ], [ 5.53741101668709, 52.089638557722921 ], [ 5.537296530105969, 52.089263902555196 ], [ 5.5372352614989, 52.089059520754418 ], [ 5.537127446202076, 52.088658872464165 ], [ 5.537118480633645, 52.088643810940809 ], [ 5.536753869867319, 52.088713572540406 ], [ 5.536159073354559, 52.088818767764792 ], [ 5.535728660667876, 52.088899143422211 ], [ 5.535235411011352, 52.088986292637202 ], [ 5.53448190278848, 52.089118580079493 ], [ 5.534184051460367, 52.089174687214147 ], [ 5.53336970433716, 52.089319599778854 ], [ 5.533324119198021, 52.089327718647858 ], [ 5.532454992879679, 52.089482049420852 ], [ 5.532407751769926, 52.08949255180837 ], [ 5.531679085447865, 52.089623415484688 ], [ 5.531432029279626, 52.089669090086552 ], [ 5.53085607438144, 52.089774388213087 ], [ 5.530374968003565, 52.089213105228595 ], [ 5.530304349844426, 52.089150122046014 ], [ 5.52991870376164, 52.088714625496692 ], [ 5.529588728880292, 52.088329483224939 ], [ 5.529292991984777, 52.088000222262409 ], [ 5.528920448344117, 52.087563142645081 ], [ 5.528939401090993, 52.087558446042244 ], [ 5.52842924884954, 52.086964635246851 ], [ 5.528010780988818, 52.086482263124516 ], [ 5.527659438286465, 52.086074814606654 ], [ 5.527639801454482, 52.086052035377804 ], [ 5.527594421613133, 52.085999410605005 ], [ 5.527524719332686, 52.085918583376007 ], [ 5.527259738744415, 52.08561223599586 ], [ 5.527238755436203, 52.085587984262162 ], [ 5.527234611785235, 52.08558328844623 ], [ 5.526723633173725, 52.085004705832858 ], [ 5.526706209835114, 52.084984970767827 ], [ 5.526634174081165, 52.08490339975986 ], [ 5.526813848717645, 52.08486711774011 ], [ 5.526967500556169, 52.084832547116434 ], [ 5.527425874327841, 52.084738777893122 ], [ 5.527900371378203, 52.084636934322461 ], [ 5.527906553160392, 52.084635605689691 ], [ 5.528614739259034, 52.084495765791523 ], [ 5.529647103006948, 52.084297826475897 ], [ 5.530291808250145, 52.08416970180199 ], [ 5.530728659588703, 52.084079235497981 ], [ 5.531032397638144, 52.084016442726956 ], [ 5.531192658578028, 52.083974775926919 ], [ 5.531279762873509, 52.08394949381362 ], [ 5.531306078118369, 52.08393924218872 ], [ 5.531333153794638, 52.083920504911802 ], [ 5.531472511774213, 52.083830426748811 ], [ 5.53157961212872, 52.083762849120973 ], [ 5.531612152721435, 52.083742307466011 ], [ 5.531780052310115, 52.083636114297725 ], [ 5.531807147401537, 52.083618985746988 ], [ 5.531667841248948, 52.08349009747041 ], [ 5.531646551920992, 52.083470898169871 ], [ 5.531584254474204, 52.08340717745871 ], [ 5.531506135986608, 52.083309797903802 ], [ 5.531477137998035, 52.08327074444108 ], [ 5.531460433907439, 52.083216665865166 ], [ 5.531443716411001, 52.083153904849915 ], [ 5.531413730987813, 52.08308911980339 ], [ 5.531399597902023, 52.083017951790218 ], [ 5.531374418014744, 52.082873535737015 ], [ 5.531343525372202, 52.08272643924591 ], [ 5.531290978634073, 52.082577976108979 ], [ 5.531281751269681, 52.082530512539243 ], [ 5.531274193908481, 52.082489698079229 ], [ 5.531245020971459, 52.082418782140437 ], [ 5.531213683793852, 52.082377933861416 ], [ 5.531142187919429, 52.082279530298145 ], [ 5.530999395205367, 52.082166922827867 ], [ 5.530829514010738, 52.082036794586742 ], [ 5.530703358150308, 52.081952748443335 ], [ 5.530539884772736, 52.081854986918266 ], [ 5.530473932379891, 52.08181948354207 ], [ 5.530271643278486, 52.081786599683305 ], [ 5.530074348616072, 52.081755228394485 ], [ 5.529953685107252, 52.081741173699584 ], [ 5.529547796121052, 52.081693848909509 ], [ 5.529461585953848, 52.081682736066 ], [ 5.529169991054881, 52.081577685336633 ], [ 5.528902114469458, 52.081480577728755 ], [ 5.528786385066583, 52.081439560740179 ], [ 5.528613816133478, 52.0813515145746 ], [ 5.52851510503489, 52.081303663927983 ], [ 5.52829103803696, 52.081154946867983 ], [ 5.528260331482913, 52.081137115435553 ], [ 5.528230229991151, 52.081130716068245 ], [ 5.528122485537409, 52.081123205292059 ], [ 5.527963341748922, 52.081109653020889 ], [ 5.527897169369091, 52.081100573327717 ], [ 5.527838177589095, 52.081092473702085 ], [ 5.527453891172069, 52.080925493939169 ], [ 5.527419970212853, 52.080910569258045 ], [ 5.527151948846968, 52.080792695446107 ], [ 5.526896257269552, 52.080679902612211 ], [ 5.525876618823403, 52.080085524421094 ], [ 5.524538826479001, 52.078806188177055 ], [ 5.524345735445421, 52.078651198701557 ], [ 5.524111319699267, 52.078463037152268 ], [ 5.523890446250428, 52.078314047310982 ], [ 5.523819011171135, 52.078266286863325 ], [ 5.523769706902018, 52.078233330976936 ], [ 5.523667508639152, 52.07816217428222 ], [ 5.523622644454106, 52.078130947878904 ], [ 5.523560430191482, 52.078093072429397 ], [ 5.523399699610454, 52.077995243855518 ], [ 5.522654413224602, 52.077542117545839 ], [ 5.522591070511638, 52.077631936151199 ], [ 5.522583471852496, 52.077641993536751 ], [ 5.522553643796148, 52.077681467425826 ], [ 5.522407802271858, 52.077812285421452 ], [ 5.522345080241785, 52.077847177187437 ], [ 5.522255746027759, 52.077909441121221 ], [ 5.522141743566011, 52.077971454647077 ], [ 5.521978456051936, 52.078040310499524 ], [ 5.521728321309576, 52.07812109371794 ], [ 5.521411374869957, 52.078230912125932 ], [ 5.521283388759061, 52.078271198666847 ], [ 5.521244718434193, 52.078276410852524 ], [ 5.521215071675771, 52.078269874353651 ], [ 5.521200922507794, 52.078255509583634 ], [ 5.521108827085012, 52.078166318123849 ], [ 5.521076902464852, 52.078144405625274 ], [ 5.521049453511345, 52.078141066330765 ], [ 5.52103024939629, 52.078143577863294 ], [ 5.520802139106475, 52.078229133681766 ], [ 5.520604776868403, 52.078299536299568 ], [ 5.520357237133694, 52.078307699189679 ], [ 5.520223308050598, 52.078444388154857 ], [ 5.520145224776209, 52.078524074579818 ], [ 5.520125344908279, 52.078554485639195 ], [ 5.520109995649196, 52.078577943814381 ], [ 5.519992277314715, 52.078691937346484 ], [ 5.519846939306035, 52.07879944555846 ], [ 5.5197696170961, 52.078846000915938 ], [ 5.519765671856415, 52.078848701775733 ], [ 5.519685878450399, 52.078903169346184 ], [ 5.519588614581278, 52.078959588949097 ], [ 5.519587400326461, 52.078963338332279 ], [ 5.51957427427589, 52.079003691469644 ], [ 5.519574380517666, 52.079005084497979 ], [ 5.519576689781707, 52.079036108650662 ], [ 5.519502024771509, 52.079049171365043 ], [ 5.519419617481184, 52.079137463725154 ], [ 5.519413929384974, 52.079206848876311 ], [ 5.519436950378659, 52.079227064097978 ], [ 5.518493122833669, 52.079222692155284 ], [ 5.518103886476862, 52.079220887771577 ], [ 5.517755002828217, 52.079220070964631 ], [ 5.517122863223973, 52.079207459305501 ], [ 5.516891730480701, 52.079201027163997 ], [ 5.516643884913863, 52.079191179519995 ], [ 5.516396031371319, 52.079178536079951 ], [ 5.516172486735369, 52.079157713316484 ], [ 5.515994027039162, 52.079134809491812 ], [ 5.515784336819915, 52.079107409550872 ], [ 5.515422994560178, 52.079055205783774 ], [ 5.515249701540045, 52.079012584408503 ], [ 5.515161820419922, 52.079000734890293 ], [ 5.515139724767482, 52.078900515195492 ], [ 5.514896883112659, 52.078915582299338 ], [ 5.514872882416958, 52.078975441790995 ], [ 5.514826707629751, 52.078958468515609 ], [ 5.514762222088378, 52.078935250402893 ], [ 5.51474909232721, 52.078929844841653 ], [ 5.514674885165352, 52.078899302969788 ], [ 5.514583282805877, 52.078856142685403 ], [ 5.514506130413417, 52.078815797932826 ], [ 5.51445877036628, 52.07879743264759 ], [ 5.514453323177293, 52.078795326346807 ], [ 5.514250522968691, 52.078763539044694 ], [ 5.514156706300855, 52.078751991791215 ], [ 5.514085094093961, 52.078751439870864 ], [ 5.513974538591905, 52.078752880277307 ], [ 5.513876238552026, 52.078760122655375 ], [ 5.513748922124972, 52.078771962090727 ], [ 5.513588998793946, 52.078787728242133 ], [ 5.513520384593569, 52.078795019325824 ], [ 5.513253386239661, 52.078799889560329 ], [ 5.513145946972291, 52.078804597500948 ], [ 5.513043004153526, 52.078815718002367 ], [ 5.512803750177445, 52.078846119555905 ], [ 5.512470481613224, 52.078893275606553 ], [ 5.512235615852852, 52.078928219286624 ], [ 5.512170906578966, 52.078934031394269 ], [ 5.512044524514049, 52.07894125712501 ], [ 5.511698333656755, 52.078942711480309 ], [ 5.511578470896067, 52.078912800180817 ], [ 5.511551966244226, 52.07893941484479 ], [ 5.511505431021765, 52.07893923032583 ], [ 5.511435073833444, 52.078938945110202 ], [ 5.510969681999699, 52.078975441691867 ], [ 5.510658746367725, 52.078996944192724 ], [ 5.510186005178419, 52.079029625467733 ], [ 5.509926049513266, 52.079049904291097 ], [ 5.509922651325363, 52.07905017747688 ], [ 5.509731157687338, 52.078991442410228 ], [ 5.50969410295791, 52.078980084145776 ], [ 5.509866632114606, 52.078815584891373 ], [ 5.509926311938212, 52.078757828369703 ], [ 5.509971402932893, 52.078710297464511 ], [ 5.509994122913783, 52.078686338580134 ], [ 5.510081442395282, 52.078574292274411 ], [ 5.510141898610549, 52.078496734156303 ], [ 5.510280951451892, 52.078318337775777 ], [ 5.510321502328972, 52.078259279813366 ], [ 5.510342186022072, 52.078216466061143 ], [ 5.510360647591854, 52.078161332013927 ], [ 5.510365609294825, 52.078125015096767 ], [ 5.510366449376986, 52.078101681238536 ], [ 5.51035996629016, 52.078083532162765 ], [ 5.510348186504498, 52.078059555385579 ], [ 5.510360777463612, 52.078055003241452 ], [ 5.510299489293916, 52.077999700986268 ], [ 5.510294979993679, 52.077967285805393 ], [ 5.510288023202286, 52.077962493464128 ], [ 5.510191123855847, 52.077916450139838 ], [ 5.510151635261463, 52.077879119095485 ], [ 5.510129301921404, 52.07786317066455 ], [ 5.509838353961427, 52.077681196607131 ], [ 5.509772917537466, 52.077639425416017 ], [ 5.509751610527363, 52.07761997050401 ], [ 5.509735494805351, 52.077599863042174 ], [ 5.509575915244509, 52.077362043504948 ], [ 5.509528746699905, 52.077316424265256 ], [ 5.509519617663148, 52.077306690708404 ], [ 5.509203849247507, 52.076970074478425 ], [ 5.509125579443994, 52.076976977543758 ], [ 5.509117323274892, 52.076977013063171 ], [ 5.509112976397582, 52.076977035543401 ], [ 5.508758092591638, 52.076978634086373 ], [ 5.508366364622361, 52.076932839559632 ], [ 5.50812624449187, 52.076904765243768 ], [ 5.50803161781556, 52.076893726264977 ], [ 5.507880494408019, 52.076876813057964 ], [ 5.507609447837874, 52.076847771732211 ], [ 5.50734210765756, 52.07681365673718 ], [ 5.507309815574697, 52.076809537227064 ], [ 5.506836656922086, 52.076748334302316 ], [ 5.505906646155541, 52.077119506723527 ], [ 5.504697044795191, 52.077805797327684 ], [ 5.504291328953438, 52.078133402764216 ], [ 5.50366512319977, 52.078807551844093 ], [ 5.503699588325473, 52.078811050025578 ], [ 5.502966479708067, 52.079835007150166 ], [ 5.502706777026333, 52.080332413718551 ], [ 5.501950969174912, 52.081678269965991 ], [ 5.50107649889236, 52.083082659125068 ], [ 5.500768816853143, 52.083463263026928 ], [ 5.498348671070205, 52.083670051205232 ], [ 5.495367433998856, 52.084225595188983 ], [ 5.495375616971113, 52.084281510348873 ], [ 5.49540475302235, 52.084480596491716 ], [ 5.491048099319884, 52.084438738556187 ], [ 5.489146976023199, 52.084967886862984 ], [ 5.486206114788303, 52.085831565816314 ], [ 5.486026084387246, 52.085813350141464 ], [ 5.484349156174799, 52.086492176093593 ], [ 5.477654764776299, 52.08659504446819 ], [ 5.472384838906928, 52.086501449268461 ], [ 5.470688547724034, 52.086488733333233 ], [ 5.467903598478685, 52.085955490401474 ], [ 5.467958557224658, 52.085994894861443 ], [ 5.468082252796068, 52.086076367269513 ], [ 5.468258652635897, 52.086184488702507 ], [ 5.468370931418981, 52.086253304535056 ], [ 5.46864458024264, 52.086427905622735 ], [ 5.468943086416169, 52.086614919245463 ], [ 5.469026922894224, 52.086679296151367 ], [ 5.469341740780933, 52.086911983578339 ], [ 5.469861943385904, 52.087298472993822 ], [ 5.470001137996507, 52.08740188125357 ], [ 5.469994621664715, 52.087436354944522 ], [ 5.469999266356553, 52.087439012132059 ], [ 5.47005487112073, 52.087470754652166 ], [ 5.470103976335109, 52.087498798658629 ], [ 5.470357653484696, 52.087643659431812 ], [ 5.470438112264509, 52.087709826331547 ], [ 5.470510643697688, 52.08776554571083 ], [ 5.470766052317991, 52.087921909053776 ], [ 5.471051530277435, 52.088091786380552 ], [ 5.471497545618613, 52.08835095200066 ], [ 5.471499443518887, 52.088366985287529 ], [ 5.471506827535266, 52.088429356928998 ], [ 5.471835257730508, 52.089302218300773 ], [ 5.471843528805488, 52.089324215044982 ], [ 5.471850186706982, 52.089341907683519 ], [ 5.471871110578362, 52.089365126678452 ], [ 5.471885805545569, 52.089381429372054 ], [ 5.471903714908026, 52.089376958412714 ], [ 5.471949335023547, 52.089366014081122 ], [ 5.472245950977643, 52.08929393168976 ], [ 5.472664461537859, 52.089192468050456 ], [ 5.472665380357755, 52.089192251670077 ], [ 5.472786019951521, 52.089162359638344 ], [ 5.472981220555026, 52.089269714271069 ], [ 5.473189538773504, 52.089384276377324 ], [ 5.473445065540401, 52.089539285591577 ], [ 5.473869136698484, 52.089776869032228 ], [ 5.474071007677827, 52.089890122071566 ], [ 5.474346408130219, 52.090042256448825 ], [ 5.474377701093669, 52.090061917042561 ], [ 5.47442762086801, 52.090093275217299 ], [ 5.474720981665583, 52.09022100188534 ], [ 5.474832833491427, 52.090255351742591 ], [ 5.474955644510761, 52.090282736583681 ], [ 5.475207237256659, 52.090323911515554 ], [ 5.475313647037357, 52.090336046581534 ], [ 5.475540084802279, 52.090355093141767 ], [ 5.475834471586897, 52.090357756837122 ], [ 5.476630188964172, 52.090345443151698 ], [ 5.476667337505264, 52.090344866632698 ], [ 5.476704972986163, 52.090346995128044 ], [ 5.476760859468325, 52.090347707584151 ], [ 5.476784635093117, 52.090379893585649 ], [ 5.477183613441838, 52.09054906731599 ], [ 5.477929686988516, 52.090856451035847 ], [ 5.478630284024868, 52.091147363359042 ], [ 5.47931795669069, 52.091435755994155 ], [ 5.479926103129571, 52.091691463937693 ], [ 5.479968528961736, 52.091709047021432 ], [ 5.479983562534177, 52.091717978251914 ], [ 5.480080674545111, 52.091775649690547 ], [ 5.480089162916979, 52.091780694259413 ], [ 5.480291557746002, 52.091874351295203 ], [ 5.480556949400019, 52.091997169092515 ], [ 5.480622150927808, 52.092027326088996 ], [ 5.480929289498614, 52.092121123500206 ], [ 5.481094846446021, 52.09216795391584 ], [ 5.481200733707873, 52.092199354411207 ], [ 5.481237796242685, 52.092205733253529 ], [ 5.481240934654709, 52.09220627002636 ], [ 5.481290930282862, 52.092214813615094 ], [ 5.481306216465542, 52.092218774095706 ], [ 5.481581251366594, 52.092290008572824 ], [ 5.48192734245972, 52.092391852359512 ], [ 5.482383911079219, 52.092527517617796 ], [ 5.482673407952345, 52.092611249174816 ], [ 5.483115024558678, 52.092747130456047 ], [ 5.483649377698635, 52.092916890851512 ], [ 5.483892358096853, 52.092986582289249 ], [ 5.483941725201221, 52.093000733797624 ], [ 5.484009212637272, 52.093020092418904 ], [ 5.484385318963482, 52.093143080066838 ], [ 5.484725792921441, 52.093252748838296 ], [ 5.485168141207608, 52.093390482333469 ], [ 5.485515882046482, 52.093491729977288 ], [ 5.486082696439769, 52.09365676943775 ], [ 5.485975374701351, 52.094002350266159 ], [ 5.485963000813358, 52.09404220456576 ], [ 5.485943562940387, 52.094094737906758 ], [ 5.485938528378671, 52.094107882623391 ], [ 5.485920740687552, 52.094154392599002 ], [ 5.485897178521946, 52.09421602527221 ], [ 5.485833294003678, 52.09434246843864 ], [ 5.485734178933567, 52.09454012622507 ], [ 5.485607477236305, 52.094768474133531 ], [ 5.485494043264535, 52.094992038172762 ], [ 5.485430695264017, 52.095111317201528 ], [ 5.485410646971952, 52.09515221146529 ], [ 5.485180137769619, 52.095624778151517 ], [ 5.485111841739979, 52.095784327453408 ], [ 5.485089107401307, 52.095845042480605 ], [ 5.484739537947629, 52.096624423449256 ], [ 5.484736131050812, 52.096681491215008 ], [ 5.484733104497829, 52.096732303002696 ], [ 5.484768666497072, 52.096891451354722 ], [ 5.484946586670438, 52.097762413532777 ], [ 5.484988954485848, 52.097969776858015 ], [ 5.485004870958842, 52.098060515650609 ], [ 5.485005949667877, 52.098066608630333 ], [ 5.48501911477437, 52.098127167941421 ], [ 5.485068878468879, 52.098372652249253 ], [ 5.485121153699054, 52.098631805211276 ], [ 5.485154726204438, 52.098767550258138 ], [ 5.485172042638687, 52.098837570471588 ], [ 5.485180726177028, 52.098870809916576 ], [ 5.485190356237676, 52.098929673409337 ], [ 5.485236184918784, 52.099210016421779 ], [ 5.48523723524896, 52.099216450966608 ], [ 5.485229779979911, 52.099330497133181 ], [ 5.485161513574474, 52.1002373728872 ], [ 5.485104308486997, 52.101044975637585 ], [ 5.485098731038032, 52.10112380516081 ], [ 5.485080159391241, 52.101486621782257 ], [ 5.485076038420136, 52.101497572610512 ], [ 5.4850714967148, 52.101509674254238 ], [ 5.485068658532009, 52.101546527469573 ], [ 5.485038380384632, 52.101849089169626 ], [ 5.485021036517685, 52.102439445233628 ], [ 5.485016976250106, 52.102578007800332 ], [ 5.485011624926384, 52.102760154304981 ], [ 5.4849960484684, 52.103291502518147 ], [ 5.484994879187544, 52.103304077716984 ], [ 5.48496600532807, 52.103335694568024 ], [ 5.484951721272742, 52.103351336585654 ], [ 5.48494947892282, 52.103353792175341 ], [ 5.484933957684624, 52.103377677224231 ], [ 5.484922304272884, 52.103401559058867 ], [ 5.484891985131624, 52.103479752961888 ], [ 5.48487693440838, 52.103518584673424 ], [ 5.484820520028208, 52.103644427681374 ], [ 5.484774630673226, 52.103784436024256 ], [ 5.484761409899013, 52.103852567113897 ], [ 5.484725208120453, 52.103970861356636 ], [ 5.484715379527498, 52.104008376466638 ], [ 5.484707881345328, 52.104036964550936 ], [ 5.484680101819009, 52.104142219183018 ], [ 5.484583183476174, 52.104509333775113 ], [ 5.484577219346994, 52.104558736807647 ], [ 5.484531334293705, 52.104714878505924 ], [ 5.484378504916749, 52.105294111173642 ], [ 5.484330218908799, 52.105454335312338 ], [ 5.484312674990088, 52.105508385693149 ], [ 5.484301742753534, 52.105542117718599 ], [ 5.485188906342297, 52.106045807238836 ], [ 5.485390224929426, 52.106160074728507 ], [ 5.48574446041814, 52.106361118950659 ], [ 5.485945204381846, 52.106471682910872 ], [ 5.486341739864307, 52.106715877196983 ], [ 5.487139609051178, 52.107183567282732 ], [ 5.487423856816183, 52.107353594315697 ], [ 5.487573693615881, 52.107450519090129 ], [ 5.48784676942118, 52.107623215075485 ], [ 5.48787366635348, 52.107640224338184 ], [ 5.487893685058387, 52.107649419916036 ], [ 5.487895555424295, 52.107650281164091 ], [ 5.488144234372025, 52.107774471092299 ], [ 5.488403854189605, 52.107901410403279 ], [ 5.48861798968852, 52.108008641701247 ], [ 5.488676915443118, 52.108032993337453 ], [ 5.488687331875967, 52.108036795269008 ], [ 5.488746601839065, 52.108058423208206 ], [ 5.488913615765463, 52.10811937044415 ], [ 5.488965553077659, 52.108145175044243 ], [ 5.489138234295054, 52.108245745170386 ], [ 5.489422979035594, 52.108416162403316 ], [ 5.490060307913774, 52.108788096930766 ], [ 5.490050140523057, 52.108797471316059 ], [ 5.491718988045724, 52.109799484620559 ], [ 5.491761498144022, 52.109825017727275 ], [ 5.491767643935585, 52.109831303868454 ], [ 5.492355892523342, 52.11018544631137 ], [ 5.492412386243275, 52.110222561209575 ], [ 5.492425280462818, 52.110230566979624 ], [ 5.492748529266042, 52.110431276213177 ], [ 5.49289189900218, 52.110518897410266 ], [ 5.492913265958784, 52.110529322278133 ], [ 5.492923450618357, 52.110533483562598 ], [ 5.492932130241404, 52.110537035014104 ], [ 5.49334476154899, 52.110778216135806 ], [ 5.493577068071404, 52.110916026143983 ], [ 5.49366986358811, 52.110975227090421 ], [ 5.493861741262775, 52.111097263206211 ], [ 5.494187010091373, 52.111039247054634 ] ] ] ] } }
]
}
