{
"type": "FeatureCollection",
"name": "Simpelveld",
"crs": { "type": "name", "properties": { "name": "urn:ogc:def:crs:EPSG::28992" } },
"features": [
{ "type": "Feature", "properties": { "buurtcode": "BU09650000", "buurtnaam": "Simpelveld", "pc6_codes": "6369AA, 6369AB, 6369AD, 6369AE, 6369AG, 6369AH, 6369AJ, 6369AK, 6369AL, 6369AM, 6369AN, 6369AP, 6369AR, 6369AS, 6369AT, 6369AV, 6369AW, 6369AX, 6369BD, 6369BE, 6369BL, 6369GR, 6369GS, 6369GT, 6369GV, 6369SH, 6369SN, 6369SW, 6369SX, 6369SZ, 6369TA, 6369TC, 6369TD, 6369TG, 6369TH, 6369TJ, 6369TK, 6369TL, 6369TM, 6369TN, 6369TP, 6369TR, 6369TS, 6369TT, 6369VA, 6369VB, 6369VD, 6369VE, 6369VG, 6369VH, 6369VJ, 6369VK, 6369VL, 6369VM, 6369VN, 6369VP, 6369VR, 6369VS, 6369VT, 6369VV, 6369VW, 6369VX, 6369VZ, 6369WB, 6369WC, 6369XA, 6369XB, 6369XC, 6369XD, 6369XE, 6369XL, 6369XM, 6369XN, 6369XP, 6369XR, 6369XS, 6369XT, 6369XV, 6369XW, 6369XX", "wijkcode": "WK096500", "gemeentecode": "GM0965", "gemeentenaam": "Simpelveld", "oppervlakteLandInHa": 144, "AantalInwoners_5": 2255, "Mannen_6": 1085, "Vrouwen_7": 1170, "HuishoudensTotaal_29": 1220, "GemiddeldeHuishoudensgrootte_33": 1.8, "Woningvoorraad_35": 1288, "NieuwbouwWoningen_36": 0, "NietWoningvoorraad_37": 356, "NieuwbouwNietWoningen_38": 0, "GemiddeldeWOZWaardeVanWoningen_39": 203, "PercentageEengezinswoning_40": 46, "PercentageTussenwoningEengezins_41": 17, "PercentageHoekwoningEengezins_42": 8, "PercentageTweeOnderEenKapWoningEe_43": 13, "PercentageVrijstaandeWoningEengezins_44": 8, "PercentageMeergezinswoning_45": 54, "Koopwoningen_47": 41, "HuurwoningenTotaal_48": 59, "InBezitWoningcorporatie_49": 46, "InBezitOverigeVerhuurders_50": 13, "BouwjaarMeerDanTienJaarGeleden_51": 98, "BouwjaarAfgelopenTienJaar_52": 2, "GemiddeldeElektriciteitslevering_53": 2540, "GemiddeldeElektriciteitsteruglevering_54": 650, "GemiddeldAardgasverbruik_55": 930, "AardgasvrijeWoningen_57": 2, "Aardgaswoningen_58": 92, "WoningenMetZonnestroom_59": 25, "WoningenHoofdzElektrVerwarmd_60": 4, "k_20PersonenMetHoogsteInkomen_80": 12.4, "k_20HuishoudensMetHoogsteInkomen_85": 10.0, "MediaanVermogenVanParticuliereHuish_86": 52.5, "PersonenautoSTotaal_104": 1295, "PersonenautoSBrandstofBenzine_105": 1135, "PersonenautoSOverigeBrandstof_106": 160, "PersonenautoSPerHuishouden_107": 1.1, "Omgevingsadressendichtheid_121": 760, "AantalInstallatiesBijWoningen_5": 214, "OpgesteldVermogenVanZonnepanelen_6": 879, "installaties_per_woning": 0.16614906832298137, "vermogen_per_woning": 0.68245341614906829, "installaties_per_100_woningen": 16.614906832298139, "vermogen_per_huishouden": 0.72049180327868856, "batterijdruk_score": 162.5, "koop_zon_score": 0.1025, "eengezins_zon_score": 0.115, "betaalkracht_zon_score": 13.125, "overige_brandstof_zon_score": 40.0, "lichte_batterij_kansscore": 0.24558213300692344 }, "geometry": { "type": "MultiPolygon", "coordinates": [ [ [ [ 197447.4999, 316660.906399999978021 ], [ 197472.5937, 316613.0001 ], [ 197501.4062, 316558.8126 ], [ 197537.9062, 316521.093899999978021 ], [ 197585.9999, 316491.5 ], [ 197583.5, 316411.406399999978021 ], [ 197551.9063, 316353.8125 ], [ 197531.796899999986636, 316293.593899999978021 ], [ 197535.203100000013364, 316240.1876 ], [ 197557.4063, 316145.3126 ], [ 197752.29680000001099, 315909.593899999978021 ], [ 197704.4999, 315866.593899999978021 ], [ 197463.29680000001099, 315699.906399999978021 ], [ 197358.703, 315650.5001 ], [ 197230.203, 315615.1876 ], [ 197104.29680000001099, 315600.8126 ], [ 196860.4062, 315585.406399999978021 ], [ 196683.0937, 315570.1876 ], [ 196586.5937, 315579.8126 ], [ 196422.203, 315585.406399999978021 ], [ 196234.9062, 315593.093899999978021 ], [ 196000.796899999986636, 315614.5 ], [ 195966.0, 315634.5 ], [ 195818.9063, 316008.593799999973271 ], [ 196137.0938, 316409.593899999978021 ], [ 196146.4062, 316412.906399999978021 ], [ 196149.7891, 316412.450399999972433 ], [ 196161.961000000010245, 316401.090000000025611 ], [ 196308.1753, 316353.2891 ], [ 196357.382099999987986, 316329.388700000010431 ], [ 196405.182900000014342, 316306.894199999980628 ], [ 196440.330599999986589, 316297.0528 ], [ 196464.231, 316290.0233 ], [ 196505.0023, 316291.429300000017975 ], [ 196582.3271, 316305.488300000026356 ], [ 196635.751599999988684, 316315.3297 ], [ 196654.028400000010151, 316311.112000000022817 ], [ 196663.869700000010198, 316319.54739999998128 ], [ 196706.046899999986636, 316329.388800000015181 ], [ 196744.006400000012945, 316336.418300000019372 ], [ 196805.8663, 316340.636 ], [ 196855.0731, 316343.447800000023562 ], [ 196890.220800000010058, 316339.229999999981374 ], [ 196887.409000000014203, 316360.3186 ], [ 196883.1913, 316389.842699999979232 ], [ 196877.5676, 316415.148999999975786 ], [ 196872.9906, 316419.726000000024214 ], [ 196805.5937, 316672.906299999973271 ], [ 196824.5, 316655.1875 ], [ 197105.114299999986542, 316697.264199999975972 ], [ 197110.4134, 316601.8799 ], [ 197131.836000000010245, 316519.402799999981653 ], [ 197253.9448, 316600.8087 ], [ 197322.4971, 316636.156100000021979 ], [ 197369.6268, 316670.432199999981094 ], [ 197404.9741, 316703.6373 ], [ 197415.3567, 316718.9854 ], [ 197447.4999, 316660.906399999978021 ] ] ] ] } },
{ "type": "Feature", "properties": { "buurtcode": "BU09650001", "buurtnaam": "Hulsveld", "pc6_codes": "6369AL, 6369AT, 6369BA, 6369BB, 6369BC, 6369BG, 6369BH, 6369BJ, 6369BM, 6369BT, 6369BV, 6369BW, 6369BX, 6369BZ, 6369CA, 6369CB, 6369CC, 6369CD, 6369CE, 6369CG, 6369CH, 6369CJ, 6369CK, 6369CL, 6369CM, 6369CN, 6369CP, 6369CR, 6369CS, 6369CT, 6369CV, 6369CW, 6369CX, 6369ED, 6369EE, 6369EG, 6369EH, 6369EJ, 6369EK, 6369EL, 6369EM, 6369EN, 6369EP, 6369ER, 6369ES", "wijkcode": "WK096500", "gemeentecode": "GM0965", "gemeentenaam": "Simpelveld", "oppervlakteLandInHa": 52, "AantalInwoners_5": 1510, "Mannen_6": 730, "Vrouwen_7": 785, "HuishoudensTotaal_29": 700, "GemiddeldeHuishoudensgrootte_33": 2.2, "Woningvoorraad_35": 726, "NieuwbouwWoningen_36": 0, "NietWoningvoorraad_37": 75, "NieuwbouwNietWoningen_38": 0, "GemiddeldeWOZWaardeVanWoningen_39": 300, "PercentageEengezinswoning_40": 95, "PercentageTussenwoningEengezins_41": 35, "PercentageHoekwoningEengezins_42": 10, "PercentageTweeOnderEenKapWoningEe_43": 25, "PercentageVrijstaandeWoningEengezins_44": 25, "PercentageMeergezinswoning_45": 5, "Koopwoningen_47": 73, "HuurwoningenTotaal_48": 27, "InBezitWoningcorporatie_49": 23, "InBezitOverigeVerhuurders_50": 5, "BouwjaarMeerDanTienJaarGeleden_51": 100, "BouwjaarAfgelopenTienJaar_52": 0, "GemiddeldeElektriciteitslevering_53": 2880, "GemiddeldeElektriciteitsteruglevering_54": 1530, "GemiddeldAardgasverbruik_55": 1060, "AardgasvrijeWoningen_57": 1, "Aardgaswoningen_58": 94, "WoningenMetZonnestroom_59": 60, "WoningenHoofdzElektrVerwarmd_60": 6, "k_20PersonenMetHoogsteInkomen_80": 18.4, "k_20HuishoudensMetHoogsteInkomen_85": 18.1, "MediaanVermogenVanParticuliereHuish_86": 180.8, "PersonenautoSTotaal_104": 915, "PersonenautoSBrandstofBenzine_105": 795, "PersonenautoSOverigeBrandstof_106": 120, "PersonenautoSPerHuishouden_107": 1.3, "Omgevingsadressendichtheid_121": 750, "AantalInstallatiesBijWoningen_5": 310, "OpgesteldVermogenVanZonnepanelen_6": 1212, "installaties_per_woning": 0.42699724517906334, "vermogen_per_woning": 1.6694214876033058, "installaties_per_100_woningen": 42.699724517906333, "vermogen_per_huishouden": 1.7314285714285715, "batterijdruk_score": 918.0, "koop_zon_score": 0.438, "eengezins_zon_score": 0.57, "betaalkracht_zon_score": 108.48, "overige_brandstof_zon_score": 72.0, "lichte_batterij_kansscore": 0.50227317984177278 }, "geometry": { "type": "MultiPolygon", "coordinates": [ [ [ [ 196488.4999, 317069.406299999973271 ], [ 196556.0937, 317007.6876 ], [ 196547.5937, 316996.5001 ], [ 196701.0937, 316797.1876 ], [ 196790.4062, 316687.1876 ], [ 196805.5937, 316672.906299999973271 ], [ 196872.9906, 316419.726000000024214 ], [ 196877.5676, 316415.148999999975786 ], [ 196883.1913, 316389.842699999979232 ], [ 196887.409000000014203, 316360.3186 ], [ 196890.220800000010058, 316339.229999999981374 ], [ 196855.0731, 316343.447800000023562 ], [ 196805.8663, 316340.636 ], [ 196744.006400000012945, 316336.418300000019372 ], [ 196706.046899999986636, 316329.388800000015181 ], [ 196663.869700000010198, 316319.54739999998128 ], [ 196654.028400000010151, 316311.112000000022817 ], [ 196635.751599999988684, 316315.3297 ], [ 196582.3271, 316305.488300000026356 ], [ 196505.0023, 316291.429300000017975 ], [ 196464.231, 316290.0233 ], [ 196440.330599999986589, 316297.0528 ], [ 196405.182900000014342, 316306.894199999980628 ], [ 196357.382099999987986, 316329.388700000010431 ], [ 196308.1753, 316353.2891 ], [ 196161.961000000010245, 316401.090000000025611 ], [ 196149.7891, 316412.450399999972433 ], [ 196146.4062, 316412.906399999978021 ], [ 196137.0938, 316409.593899999978021 ], [ 196079.796899999986636, 316432.406399999978021 ], [ 196031.296899999986636, 316487.406299999973271 ], [ 195987.5, 316564.593799999973271 ], [ 195929.796899999986636, 316754.406299999973271 ], [ 195915.5938, 316787.906299999973271 ], [ 195920.5937, 316792.593899999978021 ], [ 196060.29680000001099, 316960.6876 ], [ 196115.29680000001099, 317011.093899999978021 ], [ 196181.4999, 317034.8126 ], [ 196272.4999, 317058.3126 ], [ 196359.4999, 317067.8126 ], [ 196445.9062, 317074.1876 ], [ 196488.4999, 317069.406299999973271 ] ] ] ] } },
{ "type": "Feature", "properties": { "buurtcode": "BU09650002", "buurtnaam": "Huls", "pc6_codes": "6369EC, 6369ER, 6369ES, 6369ET, 6369EV, 6369EW, 6369EX, 6369GA, 6369GB, 6369GD, 6369GE, 6369GG, 6369GH, 6369GJ", "wijkcode": "WK096500", "gemeentecode": "GM0965", "gemeentenaam": "Simpelveld", "oppervlakteLandInHa": 44, "AantalInwoners_5": 320, "Mannen_6": 160, "Vrouwen_7": 160, "HuishoudensTotaal_29": 150, "GemiddeldeHuishoudensgrootte_33": 2.1, "Woningvoorraad_35": 157, "NieuwbouwWoningen_36": 0, "NietWoningvoorraad_37": 8, "NieuwbouwNietWoningen_38": 1, "GemiddeldeWOZWaardeVanWoningen_39": 292, "PercentageEengezinswoning_40": 96, "PercentageTussenwoningEengezins_41": 20, "PercentageHoekwoningEengezins_42": 21, "PercentageTweeOnderEenKapWoningEe_43": 29, "PercentageVrijstaandeWoningEengezins_44": 25, "PercentageMeergezinswoning_45": 4, "Koopwoningen_47": 83, "HuurwoningenTotaal_48": 17, "InBezitWoningcorporatie_49": 10, "InBezitOverigeVerhuurders_50": 7, "BouwjaarMeerDanTienJaarGeleden_51": 100, "BouwjaarAfgelopenTienJaar_52": 0, "GemiddeldeElektriciteitslevering_53": 2900, "GemiddeldeElektriciteitsteruglevering_54": 1250, "GemiddeldAardgasverbruik_55": 1200, "AardgasvrijeWoningen_57": 1, "Aardgaswoningen_58": 95, "WoningenMetZonnestroom_59": 53, "WoningenHoofdzElektrVerwarmd_60": 3, "k_20PersonenMetHoogsteInkomen_80": 17.0, "k_20HuishoudensMetHoogsteInkomen_85": 15.8, "MediaanVermogenVanParticuliereHuish_86": 202.1, "PersonenautoSTotaal_104": 190, "PersonenautoSBrandstofBenzine_105": 155, "PersonenautoSOverigeBrandstof_106": 35, "PersonenautoSPerHuishouden_107": 1.3, "Omgevingsadressendichtheid_121": 285, "AantalInstallatiesBijWoningen_5": 57, "OpgesteldVermogenVanZonnepanelen_6": 240, "installaties_per_woning": 0.36305732484076431, "vermogen_per_woning": 1.5286624203821657, "installaties_per_100_woningen": 36.30573248407643, "vermogen_per_huishouden": 1.6, "batterijdruk_score": 662.5, "koop_zon_score": 0.4399, "eengezins_zon_score": 0.5088, "betaalkracht_zon_score": 107.113, "overige_brandstof_zon_score": 18.55, "lichte_batterij_kansscore": 0.50069259231676511 }, "geometry": { "type": "MultiPolygon", "coordinates": [ [ [ [ 196303.29680000001099, 317625.5001 ], [ 196365.9062, 317502.406399999978021 ], [ 196508.203100000013364, 317246.593899999978021 ], [ 196615.9062, 317217.1875 ], [ 196638.703, 317117.3126 ], [ 196556.0937, 317007.6876 ], [ 196488.4999, 317069.406299999973271 ], [ 196445.9062, 317074.1876 ], [ 196359.4999, 317067.8126 ], [ 196272.4999, 317058.3126 ], [ 196181.4999, 317034.8126 ], [ 196115.29680000001099, 317011.093899999978021 ], [ 196060.29680000001099, 316960.6876 ], [ 195920.5937, 316792.593899999978021 ], [ 195915.5938, 316787.906299999973271 ], [ 195901.703100000013364, 316820.6875 ], [ 195841.296899999986636, 316891.6875 ], [ 195750.0938, 317011.8125 ], [ 195710.5938, 317076.3125 ], [ 195677.0938, 317360.593799999973271 ], [ 195883.5, 317449.3126 ], [ 195894.0937, 317510.3126 ], [ 196121.4062, 317588.6876 ], [ 196257.703, 317637.3126 ], [ 196303.29680000001099, 317625.5001 ] ] ] ] } },
{ "type": "Feature", "properties": { "buurtcode": "BU09650003", "buurtnaam": "Molsberg-Rodeput", "pc6_codes": "6369GL, 6369GM, 6369GN, 6369GP, 6369GR, 6369GS, 6369GV, 6369GW, 6369GX, 6369HA, 6369HB, 6369HC, 6369HD, 6369HE, 6369HG, 6369HH, 6369HJ, 6369SG, 6369SJ, 6369SK, 6369SL, 6369SM, 6369SN, 6369SP, 6369SR, 6369ST, 6369SV", "wijkcode": "WK096500", "gemeentecode": "GM0965", "gemeentenaam": "Simpelveld", "oppervlakteLandInHa": 75, "AantalInwoners_5": 950, "Mannen_6": 490, "Vrouwen_7": 460, "HuishoudensTotaal_29": 410, "GemiddeldeHuishoudensgrootte_33": 2.3, "Woningvoorraad_35": 410, "NieuwbouwWoningen_36": 0, "NietWoningvoorraad_37": 18, "NieuwbouwNietWoningen_38": 0, "GemiddeldeWOZWaardeVanWoningen_39": 336, "PercentageEengezinswoning_40": 97, "PercentageTussenwoningEengezins_41": 24, "PercentageHoekwoningEengezins_42": 16, "PercentageTweeOnderEenKapWoningEe_43": 24, "PercentageVrijstaandeWoningEengezins_44": 32, "PercentageMeergezinswoning_45": 3, "Koopwoningen_47": 81, "HuurwoningenTotaal_48": 19, "InBezitWoningcorporatie_49": 14, "InBezitOverigeVerhuurders_50": 4, "BouwjaarMeerDanTienJaarGeleden_51": 98, "BouwjaarAfgelopenTienJaar_52": 2, "GemiddeldeElektriciteitslevering_53": 3070, "GemiddeldeElektriciteitsteruglevering_54": 1590, "GemiddeldAardgasverbruik_55": 1030, "AardgasvrijeWoningen_57": 1, "Aardgaswoningen_58": 94, "WoningenMetZonnestroom_59": 64, "WoningenHoofdzElektrVerwarmd_60": 6, "k_20PersonenMetHoogsteInkomen_80": 21.2, "k_20HuishoudensMetHoogsteInkomen_85": 26.5, "MediaanVermogenVanParticuliereHuish_86": 248.1, "PersonenautoSTotaal_104": 545, "PersonenautoSBrandstofBenzine_105": 460, "PersonenautoSOverigeBrandstof_106": 85, "PersonenautoSPerHuishouden_107": 1.3, "Omgevingsadressendichtheid_121": 545, "AantalInstallatiesBijWoningen_5": 162, "OpgesteldVermogenVanZonnepanelen_6": 676, "installaties_per_woning": 0.39512195121951221, "vermogen_per_woning": 1.648780487804878, "installaties_per_100_woningen": 39.512195121951223, "vermogen_per_huishouden": 1.648780487804878, "batterijdruk_score": 1017.6, "koop_zon_score": 0.5184, "eengezins_zon_score": 0.6208, "betaalkracht_zon_score": 158.784, "overige_brandstof_zon_score": 54.4, "lichte_batterij_kansscore": 0.53138722533164529 }, "geometry": { "type": "MultiPolygon", "coordinates": [ [ [ [ 197271.9063, 317305.1875 ], [ 197298.9063, 317262.5 ], [ 197327.4063, 317166.906399999978021 ], [ 197360.79680000001099, 317049.093899999978021 ], [ 197579.0759, 317265.9607 ], [ 197582.60999999998603, 317264.909999999974389 ], [ 197626.35999999998603, 317240.49 ], [ 197642.546, 317225.843999999982771 ], [ 197642.700000000011642, 317225.705000000016298 ], [ 197642.854, 317225.566 ], [ 197663.97, 317203.349999999976717 ], [ 197670.06, 317207.89000000001397 ], [ 197704.480000000010477, 317177.099999999976717 ], [ 197743.579999999987194, 317145.450000000011642 ], [ 197746.200000000011642, 317141.89000000001397 ], [ 197758.0, 317124.799999999988358 ], [ 197766.6, 317114.0 ], [ 197765.35, 317105.32 ], [ 197768.75, 317102.10999999998603 ], [ 197770.84, 317099.87 ], [ 197753.041, 317070.71999999997206 ], [ 197755.163999999989755, 317062.23599999997532 ], [ 197755.791, 317059.729999999981374 ], [ 197761.437, 317037.082 ], [ 197761.821999999985565, 317037.37699999997858 ], [ 197804.111, 317069.822999999974854 ], [ 197804.537000000011176, 317070.150000000023283 ], [ 197805.968, 317069.170999999972992 ], [ 197860.803000000014435, 317049.917000000015832 ], [ 197927.954999999987194, 317023.76 ], [ 197930.529, 317029.00199999997858 ], [ 197934.044, 317036.158999999985099 ], [ 197936.85, 317041.590000000025611 ], [ 197964.797, 317027.267999999981839 ], [ 198008.26500000001397, 317002.424999999988358 ], [ 198012.8932, 316999.3517 ], [ 197708.29680000001099, 316803.3126 ], [ 198152.29680000001099, 316296.8126 ], [ 197943.703, 316094.906399999978021 ], [ 197820.203, 315970.593899999978021 ], [ 197752.29680000001099, 315909.593899999978021 ], [ 197557.4063, 316145.3126 ], [ 197535.203100000013364, 316240.1876 ], [ 197531.796899999986636, 316293.593899999978021 ], [ 197551.9063, 316353.8125 ], [ 197583.5, 316411.406399999978021 ], [ 197585.9999, 316491.5 ], [ 197537.9062, 316521.093899999978021 ], [ 197501.4062, 316558.8126 ], [ 197472.5937, 316613.0001 ], [ 197447.4999, 316660.906399999978021 ], [ 197415.3567, 316718.9854 ], [ 197404.9741, 316703.6373 ], [ 197369.6268, 316670.432199999981094 ], [ 197322.4971, 316636.156100000021979 ], [ 197253.9448, 316600.8087 ], [ 197131.836000000010245, 316519.402799999981653 ], [ 197110.4134, 316601.8799 ], [ 197105.114299999986542, 316697.264199999975972 ], [ 197105.0577, 316698.281499999982771 ], [ 197110.4134, 316800.038899999985006 ], [ 197111.4845, 316881.4448 ], [ 197119.5908, 316919.274099999980535 ], [ 197059.296899999986636, 316981.406299999973271 ], [ 196994.796899999986636, 317016.8125 ], [ 196962.796899999986636, 317060.3125 ], [ 196947.297, 317110.593799999973271 ], [ 196966.203100000013364, 317182.906399999978021 ], [ 197016.79680000001099, 317244.1876 ], [ 197077.4999, 317285.0001 ], [ 197133.4999, 317307.5001 ], [ 197174.9062, 317325.593899999978021 ], [ 197230.203, 317327.8126 ], [ 197271.9063, 317305.1875 ] ] ] ] } },
{ "type": "Feature", "properties": { "buurtcode": "BU09650009", "buurtnaam": "Verspreide huizen", "pc6_codes": "6369BK, 6369EC, 6369GC, 6369GJ, 6369GM, 6369GR, 6369TE, 6369TH, 6369TZ, 6369VC, 6369WD, 6369WE, 6369WG, 6369XT, 6369XX, 6369XZ", "wijkcode": "WK096500", "gemeentecode": "GM0965", "gemeentenaam": "Simpelveld", "oppervlakteLandInHa": 545, "AantalInwoners_5": 180, "Mannen_6": 95, "Vrouwen_7": 85, "HuishoudensTotaal_29": 70, "GemiddeldeHuishoudensgrootte_33": 2.5, "Woningvoorraad_35": 71, "NieuwbouwWoningen_36": 0, "NietWoningvoorraad_37": 113, "NieuwbouwNietWoningen_38": 1, "GemiddeldeWOZWaardeVanWoningen_39": 370, "PercentageEengezinswoning_40": 89, "PercentageTussenwoningEengezins_41": 6, "PercentageHoekwoningEengezins_42": 1, "PercentageTweeOnderEenKapWoningEe_43": 32, "PercentageVrijstaandeWoningEengezins_44": 49, "PercentageMeergezinswoning_45": 11, "Koopwoningen_47": 94, "HuurwoningenTotaal_48": 6, "InBezitWoningcorporatie_49": 0, "InBezitOverigeVerhuurders_50": 6, "BouwjaarMeerDanTienJaarGeleden_51": 97, "BouwjaarAfgelopenTienJaar_52": 3, "GemiddeldeElektriciteitslevering_53": 3710, "GemiddeldeElektriciteitsteruglevering_54": 1730, "GemiddeldAardgasverbruik_55": 1430, "AardgasvrijeWoningen_57": null, "Aardgaswoningen_58": null, "WoningenMetZonnestroom_59": null, "WoningenHoofdzElektrVerwarmd_60": null, "k_20PersonenMetHoogsteInkomen_80": 19.4, "k_20HuishoudensMetHoogsteInkomen_85": null, "MediaanVermogenVanParticuliereHuish_86": null, "PersonenautoSTotaal_104": 130, "PersonenautoSBrandstofBenzine_105": 95, "PersonenautoSOverigeBrandstof_106": 40, "PersonenautoSPerHuishouden_107": 1.8, "Omgevingsadressendichtheid_121": 348, "AantalInstallatiesBijWoningen_5": 21, "OpgesteldVermogenVanZonnepanelen_6": 121, "installaties_per_woning": 0.29577464788732394, "vermogen_per_woning": 1.704225352112676, "installaties_per_100_woningen": 29.577464788732392, "vermogen_per_huishouden": 1.7285714285714286, "batterijdruk_score": null, "koop_zon_score": null, "eengezins_zon_score": null, "betaalkracht_zon_score": null, "overige_brandstof_zon_score": null, "lichte_batterij_kansscore": null }, "geometry": { "type": "MultiPolygon", "coordinates": [ [ [ [ 196014.162000000011176, 319093.435999999986961 ], [ 196017.125, 319088.574000000022352 ], [ 196035.299999999988358, 319058.74900000001071 ], [ 196038.215999999985797, 319053.963999999978114 ], [ 196040.15, 319050.789999999979045 ], [ 196048.606, 319033.653999999980442 ], [ 196051.10999999998603, 319028.580000000016298 ], [ 196051.871000000013737, 319025.217 ], [ 196052.327, 319023.202 ], [ 196056.66, 319004.06 ], [ 196066.730000000010477, 318980.849999999976717 ], [ 196078.76, 318969.049999999988358 ], [ 196089.200000000011642, 318948.799999999988358 ], [ 196089.551, 318948.055999999982305 ], [ 196095.537000000011176, 318935.382999999972526 ], [ 196095.69, 318935.06 ], [ 196098.32, 318925.68 ], [ 196104.39000000001397, 318927.400000000023283 ], [ 196107.980000000010477, 318917.39000000001397 ], [ 196124.19, 318869.900000000023283 ], [ 196125.6, 318865.836000000010245 ], [ 196138.079300000012154, 318829.881600000022445 ], [ 196140.69, 318822.35999999998603 ], [ 196145.619, 318806.077 ], [ 196155.25, 318774.26 ], [ 196156.078, 318771.60999999998603 ], [ 196162.6, 318750.729999999981374 ], [ 196163.606, 318747.601000000024214 ], [ 196174.35, 318714.18 ], [ 196175.215999999985797, 318711.507999999972526 ], [ 196180.64000000001397, 318694.767999999981839 ], [ 196181.973, 318690.653999999980442 ], [ 196186.079999999987194, 318677.979999999981374 ], [ 196194.029, 318654.471000000019558 ], [ 196198.046, 318642.592 ], [ 196219.81, 318586.270000000018626 ], [ 196243.01, 318539.85999999998603 ], [ 196270.730000000010477, 318491.60999999998603 ], [ 196275.6, 318484.81 ], [ 196281.200000000011642, 318471.39000000001397 ], [ 196291.04, 318447.82 ], [ 196300.847, 318431.554 ], [ 196304.25, 318425.909999999974389 ], [ 196304.287000000011176, 318425.835000000020955 ], [ 196315.57, 318403.020000000018626 ], [ 196327.383, 318381.424 ], [ 196327.85, 318380.57 ], [ 196340.84, 318358.479999999981374 ], [ 196354.19, 318336.57 ], [ 196369.04, 318315.479999999981374 ], [ 196384.548, 318291.919 ], [ 196397.31, 318272.53000000002794 ], [ 196418.707, 318227.857000000018161 ], [ 196419.63, 318225.93 ], [ 196419.905999999988126, 318225.490999999979977 ], [ 196419.946, 318225.428000000014435 ], [ 196421.598999999987427, 318222.811999999976251 ], [ 196423.905999999988126, 318219.157 ], [ 196430.829, 318208.200000000011642 ], [ 196447.19, 318182.299999999988358 ], [ 196476.53, 318139.57 ], [ 196509.07, 318099.26 ], [ 196536.299999999988358, 318058.349999999976717 ], [ 196565.71, 318015.53000000002794 ], [ 196599.78, 317976.299999999988358 ], [ 196635.28, 317938.5 ], [ 196673.796, 317904.098999999987427 ], [ 196690.2323, 317889.4191 ], [ 196703.722, 317877.370999999984633 ], [ 196767.344000000011874, 317820.547000000020489 ], [ 196799.799999999988358, 317791.56 ], [ 196807.502, 317786.00099999998929 ], [ 196839.583000000013271, 317762.843999999982771 ], [ 196846.28, 317758.01 ], [ 197004.549999999988358, 317636.200000000011642 ], [ 197020.91, 317624.080000000016298 ], [ 197034.519999999989523, 317614.799999999988358 ], [ 197046.15, 317607.210000000020955 ], [ 197066.01, 317594.549999999988358 ], [ 197086.670000000012806, 317582.299999999988358 ], [ 197095.769999999989523, 317576.85999999998603 ], [ 197104.97, 317571.960000000020955 ], [ 197114.170000000012806, 317567.43 ], [ 197136.22, 317556.71999999997206 ], [ 197142.700000000011642, 317553.0 ], [ 197146.99, 317549.245 ], [ 197169.288999999989755, 317534.316 ], [ 197182.378999999986263, 317525.962999999988824 ], [ 197185.549999999988358, 317523.94 ], [ 197195.184, 317519.40500000002794 ], [ 197208.35999999998603, 317513.200000000011642 ], [ 197214.682999999989988, 317509.842 ], [ 197219.378, 317507.348 ], [ 197227.81, 317502.87 ], [ 197230.74, 317501.31 ], [ 197247.46, 317482.479999999981374 ], [ 197264.85999999998603, 317467.090000000025611 ], [ 197266.39000000001397, 317465.69 ], [ 197273.702, 317455.358 ], [ 197281.06, 317444.960000000020955 ], [ 197282.10999999998603, 317443.460000000020955 ], [ 197289.644999999989523, 317436.069000000017695 ], [ 197296.797, 317429.054 ], [ 197300.35, 317425.57 ], [ 197300.375, 317425.548 ], [ 197318.159000000014203, 317409.423 ], [ 197319.31, 317408.38 ], [ 197339.09, 317392.93 ], [ 197359.420000000012806, 317378.32 ], [ 197365.024, 317373.227000000013504 ], [ 197378.18, 317361.270000000018626 ], [ 197397.10999999998603, 317344.950000000011642 ], [ 197416.519999999989523, 317328.909999999974389 ], [ 197424.81, 317322.06 ], [ 197409.995, 317310.37400000001071 ], [ 197384.950000000011642, 317290.62 ], [ 197453.31, 317246.700000000011642 ], [ 197463.829999999987194, 317256.289999999979045 ], [ 197486.44, 317271.539999999979045 ], [ 197487.151000000012573, 317272.11099999997532 ], [ 197505.450000000011642, 317286.81 ], [ 197524.64000000001397, 317281.830000000016298 ], [ 197554.96, 317273.13 ], [ 197579.0759, 317265.9607 ], [ 197360.79680000001099, 317049.093899999978021 ], [ 197327.4063, 317166.906399999978021 ], [ 197298.9063, 317262.5 ], [ 197271.9063, 317305.1875 ], [ 197230.203, 317327.8126 ], [ 197174.9062, 317325.593899999978021 ], [ 197133.4999, 317307.5001 ], [ 197077.4999, 317285.0001 ], [ 197016.79680000001099, 317244.1876 ], [ 196966.203100000013364, 317182.906399999978021 ], [ 196947.297, 317110.593799999973271 ], [ 196962.796899999986636, 317060.3125 ], [ 196994.796899999986636, 317016.8125 ], [ 197059.296899999986636, 316981.406299999973271 ], [ 197119.5908, 316919.274099999980535 ], [ 197111.4845, 316881.4448 ], [ 197110.4134, 316800.038899999985006 ], [ 197105.0577, 316698.281499999982771 ], [ 197105.114299999986542, 316697.264199999975972 ], [ 196824.5, 316655.1875 ], [ 196805.5937, 316672.906299999973271 ], [ 196790.4062, 316687.1876 ], [ 196701.0937, 316797.1876 ], [ 196547.5937, 316996.5001 ], [ 196556.0937, 317007.6876 ], [ 196638.703, 317117.3126 ], [ 196615.9062, 317217.1875 ], [ 196508.203100000013364, 317246.593899999978021 ], [ 196365.9062, 317502.406399999978021 ], [ 196303.29680000001099, 317625.5001 ], [ 196257.703, 317637.3126 ], [ 196121.4062, 317588.6876 ], [ 195894.0937, 317510.3126 ], [ 195883.5, 317449.3126 ], [ 195677.0938, 317360.593799999973271 ], [ 195710.5938, 317076.3125 ], [ 195750.0938, 317011.8125 ], [ 195841.296899999986636, 316891.6875 ], [ 195901.703100000013364, 316820.6875 ], [ 195915.5938, 316787.906299999973271 ], [ 195929.796899999986636, 316754.406299999973271 ], [ 195987.5, 316564.593799999973271 ], [ 196031.296899999986636, 316487.406299999973271 ], [ 196079.796899999986636, 316432.406399999978021 ], [ 196137.0938, 316409.593899999978021 ], [ 195818.9063, 316008.593799999973271 ], [ 195966.0, 315634.5 ], [ 196000.796899999986636, 315614.5 ], [ 196234.9062, 315593.093899999978021 ], [ 196422.203, 315585.406399999978021 ], [ 196586.5937, 315579.8126 ], [ 196683.0937, 315570.1876 ], [ 196860.4062, 315585.406399999978021 ], [ 197104.29680000001099, 315600.8126 ], [ 197230.203, 315615.1876 ], [ 197358.703, 315650.5001 ], [ 197463.29680000001099, 315699.906399999978021 ], [ 197704.4999, 315866.593899999978021 ], [ 197752.29680000001099, 315909.593899999978021 ], [ 197820.203, 315970.593899999978021 ], [ 197943.703, 316094.906399999978021 ], [ 198152.29680000001099, 316296.8126 ], [ 197708.29680000001099, 316803.3126 ], [ 198012.8932, 316999.3517 ], [ 198049.922, 316974.762999999977183 ], [ 198090.748, 316946.093999999982771 ], [ 198130.307999999989988, 316916.75 ], [ 198150.634, 316899.704000000027008 ], [ 198130.454, 316875.887999999977183 ], [ 198167.39000000001397, 316845.044 ], [ 198275.458000000013271, 316754.799999999988358 ], [ 198280.439000000013039, 316752.034999999974389 ], [ 198281.15, 316751.64000000001397 ], [ 198281.299999999988358, 316751.556999999971595 ], [ 198281.909000000014203, 316751.222 ], [ 198307.75, 316736.979999999981374 ], [ 198308.096, 316736.601000000024214 ], [ 198377.06, 316660.955000000016298 ], [ 198377.159000000014203, 316660.847 ], [ 198382.38, 316655.12 ], [ 198395.771, 316666.990999999979977 ], [ 198400.619, 316671.288999999989755 ], [ 198459.557, 316608.402 ], [ 198466.071, 316600.223999999987427 ], [ 198482.021, 316577.44 ], [ 198497.424, 316551.303000000014435 ], [ 198506.094000000011874, 316536.591000000014901 ], [ 198515.666, 316515.336000000010245 ], [ 198519.82, 316503.683000000019092 ], [ 198524.883, 316486.273999999975786 ], [ 198540.432, 316421.561999999976251 ], [ 198544.568, 316400.696999999985565 ], [ 198546.649, 316385.162000000011176 ], [ 198547.115, 316381.685999999986961 ], [ 198547.60930000001099, 316372.788600000028964 ], [ 198417.5937, 316287.8126 ], [ 198289.703, 316161.0001 ], [ 198196.203, 316054.906399999978021 ], [ 198095.79680000001099, 315961.0001 ], [ 197966.703, 315852.593899999978021 ], [ 197910.29680000001099, 315789.5001 ], [ 197874.203, 315707.093899999978021 ], [ 197800.703, 315644.8126 ], [ 197759.79680000001099, 315607.593899999978021 ], [ 197675.203, 315598.0001 ], [ 197605.203, 315571.8126 ], [ 197547.79680000001099, 315535.406399999978021 ], [ 197533.4062, 315525.406399999978021 ], [ 197502.4062, 315503.906399999978021 ], [ 197431.79680000001099, 315483.5001 ], [ 197352.203, 315457.3126 ], [ 197265.0937, 315440.1876 ], [ 197208.9062, 315404.3126 ], [ 197165.5937, 315382.406399999978021 ], [ 197136.0937, 315342.0001 ], [ 197129.203100000013364, 315267.6876 ], [ 197119.203100000013364, 315201.6876 ], [ 197091.4999, 315158.0001 ], [ 197026.4062, 315107.6876 ], [ 196929.29680000001099, 315027.0001 ], [ 196808.5937, 314942.093899999978021 ], [ 196699.4999, 314868.5001 ], [ 196617.0937, 314809.406399999978021 ], [ 196528.0937, 314712.8126 ], [ 196460.203, 314628.593899999978021 ], [ 196418.5, 314577.0001 ], [ 196377.5938, 314708.1875 ], [ 196198.8929, 314754.022 ], [ 196199.983, 314758.811999999976251 ], [ 196131.678000000014435, 314789.461000000010245 ], [ 196102.420000000012806, 314802.590000000025611 ], [ 196088.12, 314808.19 ], [ 196073.581, 314813.347 ], [ 196070.87, 314814.434 ], [ 196061.608, 314818.146 ], [ 196041.359, 314826.26400000002468 ], [ 196020.181000000011409, 314834.468999999982771 ], [ 195999.833000000013271, 314841.707999999984168 ], [ 195989.644999999989523, 314845.332 ], [ 195976.856999999989057, 314850.086000000010245 ], [ 195963.672, 314855.309 ], [ 195951.943999999988591, 314860.768999999971129 ], [ 195941.707, 314867.047000000020489 ], [ 195940.00700000001234, 314871.329000000027008 ], [ 195933.884, 314871.343 ], [ 195926.25099999998929, 314878.26 ], [ 195921.234, 314882.563000000023749 ], [ 195907.021, 314896.507999999972526 ], [ 195899.897, 314903.699000000022352 ], [ 195890.590999999985797, 314914.756 ], [ 195882.011999999987893, 314926.386 ], [ 195875.323, 314935.565 ], [ 195860.310999999986961, 314954.412000000011176 ], [ 195837.846, 314976.935999999986961 ], [ 195806.912000000011176, 315003.163999999989755 ], [ 195789.136999999987893, 315018.772 ], [ 195781.829999999987194, 315026.53000000002794 ], [ 195770.962, 315039.851000000024214 ], [ 195758.011, 315060.184 ], [ 195755.853, 315058.579000000027008 ], [ 195744.589, 315080.353 ], [ 195737.291, 315098.202 ], [ 195727.427, 315109.867000000027474 ], [ 195719.00099999998929, 315120.467 ], [ 195715.671, 315124.656000000017229 ], [ 195702.227000000013504, 315141.568000000028405 ], [ 195701.541, 315142.431999999971595 ], [ 195695.908, 315149.50199999997858 ], [ 195661.848, 315192.255 ], [ 195634.105000000010477, 315226.712 ], [ 195604.36799999998766, 315263.875 ], [ 195577.198, 315297.744 ], [ 195561.665, 315316.950000000011642 ], [ 195553.964, 315326.473 ], [ 195550.192000000010012, 315331.136 ], [ 195531.962999999988824, 315353.951 ], [ 195529.843, 315356.604999999981374 ], [ 195515.612, 315374.267999999981839 ], [ 195515.557999999989988, 315374.335000000020955 ], [ 195513.119, 315377.362000000022817 ], [ 195492.435, 315403.511 ], [ 195483.858, 315410.74900000001071 ], [ 195483.489, 315411.061999999976251 ], [ 195466.057999999989988, 315425.775000000023283 ], [ 195465.282, 315426.43 ], [ 195464.881, 315426.768999999971129 ], [ 195464.483, 315427.104999999981374 ], [ 195462.293, 315428.952999999979511 ], [ 195456.494, 315433.822999999974854 ], [ 195454.525, 315435.477000000013504 ], [ 195453.839, 315436.053000000014435 ], [ 195434.149, 315452.601000000024214 ], [ 195418.071999999985565, 315465.813000000023749 ], [ 195416.516, 315467.091000000014901 ], [ 195415.119, 315468.239 ], [ 195402.641, 315478.493000000016764 ], [ 195402.633, 315478.48499999998603 ], [ 195400.989, 315479.815 ], [ 195392.759, 315486.476000000024214 ], [ 195387.209, 315490.968999999982771 ], [ 195383.086000000010245, 315494.305999999982305 ], [ 195374.524, 315501.313000000023749 ], [ 195372.772, 315505.297000000020489 ], [ 195367.99900000001071, 315515.39000000001397 ], [ 195367.557999999989988, 315516.321 ], [ 195365.734, 315520.173 ], [ 195361.699, 315518.503000000026077 ], [ 195350.544, 315514.080000000016298 ], [ 195344.752, 315511.993000000016764 ], [ 195335.97, 315509.716000000014901 ], [ 195332.777, 315509.99900000001071 ], [ 195322.074, 315514.424 ], [ 195320.736, 315515.167000000015832 ], [ 195319.511, 315518.131 ], [ 195319.844000000011874, 315520.84499999997206 ], [ 195320.50099999998929, 315524.922000000020489 ], [ 195320.896, 315526.022 ], [ 195322.218, 315529.699000000022352 ], [ 195323.038, 315531.979999999981374 ], [ 195323.461000000010245, 315533.156000000017229 ], [ 195326.907, 315541.559 ], [ 195327.078, 315545.518999999971129 ], [ 195324.717, 315553.507999999972526 ], [ 195322.707, 315559.854999999981374 ], [ 195317.967, 315569.25099999998929 ], [ 195304.593, 315592.208999999973457 ], [ 195299.733, 315600.881 ], [ 195299.38, 315601.511999999987893 ], [ 195293.723, 315613.778 ], [ 195291.532, 315618.528999999980442 ], [ 195280.941, 315642.403999999980442 ], [ 195274.837, 315659.074000000022352 ], [ 195273.139, 315663.711000000010245 ], [ 195272.49299999998766, 315665.458999999973457 ], [ 195268.981999999989057, 315673.757999999972526 ], [ 195264.812, 315685.408999999985099 ], [ 195263.796, 315688.398999999975786 ], [ 195261.873, 315694.077999999979511 ], [ 195259.881, 315698.191999999980908 ], [ 195254.519999999989523, 315710.10999999998603 ], [ 195251.979, 315715.539999999979045 ], [ 195248.996000000013737, 315721.924 ], [ 195248.21, 315723.607000000018161 ], [ 195244.295000000012806, 315733.46999999997206 ], [ 195243.317000000010012, 315736.052000000025146 ], [ 195240.418, 315743.705000000016298 ], [ 195240.078, 315744.601000000024214 ], [ 195236.568, 315753.846000000019558 ], [ 195232.844000000011874, 315765.782 ], [ 195232.491, 315767.043 ], [ 195230.571999999985565, 315773.907 ], [ 195230.543, 315774.01400000002468 ], [ 195228.152, 315782.783 ], [ 195227.388, 315785.585000000020955 ], [ 195226.355000000010477, 315790.711000000010245 ], [ 195224.565, 315797.995999999984633 ], [ 195224.003, 315800.283 ], [ 195223.916, 315800.466000000014901 ], [ 195221.305, 315805.930999999982305 ], [ 195214.16, 315820.885 ], [ 195210.299, 315834.359 ], [ 195205.682999999989988, 315847.587 ], [ 195193.74, 315875.482000000018161 ], [ 195189.253, 315882.669999999983702 ], [ 195180.108, 315908.028 ], [ 195173.644999999989523, 315928.913999999989755 ], [ 195171.304, 315939.773999999975786 ], [ 195165.612, 315965.713999999978114 ], [ 195155.701, 316007.134000000020023 ], [ 195148.017, 316045.128000000026077 ], [ 195144.329999999987194, 316059.311999999976251 ], [ 195131.994, 316095.778999999980442 ], [ 195127.296, 316108.669999999983702 ], [ 195125.896, 316112.511 ], [ 195114.99, 316140.153999999980442 ], [ 195092.25099999998929, 316191.13 ], [ 195083.799, 316210.554 ], [ 195082.416, 316213.731000000028871 ], [ 195075.557, 316229.494 ], [ 195075.218, 316230.272999999986496 ], [ 195072.50700000001234, 316236.503000000026077 ], [ 195068.31, 316246.147999999986496 ], [ 195049.905, 316288.445 ], [ 195038.397999999986496, 316318.12599999998929 ], [ 195037.604, 316322.091000000014901 ], [ 195038.986, 316326.652 ], [ 195049.378, 316352.852000000013504 ], [ 195057.869, 316362.757999999972526 ], [ 195068.536, 316373.011 ], [ 195079.692000000010012, 316376.798 ], [ 195081.432, 316375.451 ], [ 195085.758, 316372.577 ], [ 195089.571999999985565, 316370.587 ], [ 195092.922, 316369.196999999985565 ], [ 195098.613000000012107, 316367.511999999987893 ], [ 195102.625, 316367.244 ], [ 195108.217, 316367.598999999987427 ], [ 195113.689000000013039, 316368.803000000014435 ], [ 195130.25700000001234, 316373.458999999973457 ], [ 195137.421, 316377.261999999987893 ], [ 195136.275, 316383.680999999982305 ], [ 195136.078, 316384.278 ], [ 195129.239, 316404.963999999978114 ], [ 195125.173, 316417.314000000013039 ], [ 195119.340999999985797, 316435.028999999980442 ], [ 195115.590999999985797, 316445.833999999973457 ], [ 195118.50099999998929, 316462.587999999988824 ], [ 195117.422, 316467.125 ], [ 195116.891, 316469.35999999998603 ], [ 195112.266, 316482.783999999985099 ], [ 195109.348, 316488.710000000020955 ], [ 195108.806000000011409, 316489.809 ], [ 195108.527, 316490.37599999998929 ], [ 195107.903, 316498.621999999973923 ], [ 195107.76500000001397, 316500.456 ], [ 195100.934, 316528.662000000011176 ], [ 195099.388, 316536.375 ], [ 195099.354, 316536.544 ], [ 195096.06, 316552.983 ], [ 195091.261, 316572.451 ], [ 195090.987, 316575.270000000018626 ], [ 195090.964, 316575.507999999972526 ], [ 195090.793, 316577.266 ], [ 195090.517, 316580.115 ], [ 195090.865, 316581.207 ], [ 195089.543, 316586.661000000021886 ], [ 195080.836000000010245, 316620.245999999984633 ], [ 195077.104, 316635.172000000020489 ], [ 195064.767, 316682.275000000023283 ], [ 195060.809, 316697.993000000016764 ], [ 195058.401000000012573, 316707.419 ], [ 195056.366, 316718.048 ], [ 195054.783, 316726.869 ], [ 195052.85999999998603, 316744.056999999971595 ], [ 195051.568, 316758.337999999988824 ], [ 195051.003, 316777.901000000012573 ], [ 195051.094000000011874, 316789.071 ], [ 195051.99900000001071, 316803.093 ], [ 195052.176, 316804.507999999972526 ], [ 195053.12, 316810.446 ], [ 195054.545000000012806, 316811.686999999976251 ], [ 195057.43, 316814.199000000022352 ], [ 195057.634, 316820.321 ], [ 195058.759, 316828.305999999982305 ], [ 195071.581, 316910.862000000022817 ], [ 195074.393000000010943, 316935.268999999971129 ], [ 195076.643000000010943, 316967.436999999976251 ], [ 195078.217, 316992.856000000028871 ], [ 195079.005, 317009.614 ], [ 195078.78, 317037.283 ], [ 195078.555, 317049.43 ], [ 195077.88, 317063.602000000013504 ], [ 195076.755, 317074.848999999987427 ], [ 195075.18, 317088.458999999973457 ], [ 195068.657, 317129.174 ], [ 195067.307, 317140.196999999985565 ], [ 195064.495, 317158.193000000028405 ], [ 195059.996000000013737, 317181.136999999987893 ], [ 195056.847, 317193.734 ], [ 195048.973999999987427, 317222.077999999979511 ], [ 195039.75099999998929, 317257.957 ], [ 195026.253999999986263, 317309.919999999983702 ], [ 195020.855000000010477, 317328.365999999979977 ], [ 195016.13200000001234, 317341.863000000012107 ], [ 195011.858, 317353.335000000020955 ], [ 195008.258, 317364.132999999972526 ], [ 195005.784000000014203, 317374.03000000002794 ], [ 195001.173, 317394.724999999976717 ], [ 194995.324, 317426.218 ], [ 194990.825000000011642, 317448.038 ], [ 194987.00099999998929, 317463.783999999985099 ], [ 194984.076, 317474.357000000018161 ], [ 194981.602000000013504, 317484.705000000016298 ], [ 194978.617, 317497.637999999977183 ], [ 194976.098999999987427, 317500.487000000022817 ], [ 194979.635, 317501.211000000010245 ], [ 194988.009, 317505.612000000022817 ], [ 194988.696, 317506.348 ], [ 194989.802, 317507.533999999985099 ], [ 194991.12599999998929, 317508.952999999979511 ], [ 194993.918, 317512.565 ], [ 194996.309, 317516.042000000015832 ], [ 194998.642, 317519.955000000016298 ], [ 194999.932999999989988, 317522.993000000016764 ], [ 195005.85, 317536.99900000001071 ], [ 195015.453, 317562.226000000024214 ], [ 195017.494, 317571.022999999986496 ], [ 195017.972, 317579.892999999981839 ], [ 195017.356999999989057, 317588.875 ], [ 195016.443999999988591, 317594.788 ], [ 195014.797, 317600.348 ], [ 195014.231, 317601.802000000025146 ], [ 195011.518000000010943, 317608.767 ], [ 195007.073, 317616.494 ], [ 195002.055, 317622.973 ], [ 194995.037000000011176, 317630.723 ], [ 194985.989, 317638.492000000027474 ], [ 194970.202, 317649.90500000002794 ], [ 194936.928000000014435, 317673.961000000010245 ], [ 194894.76500000001397, 317704.44 ], [ 194893.451, 317705.696 ], [ 194887.4, 317711.474999999976717 ], [ 194881.878999999986263, 317718.564000000013039 ], [ 194877.094000000011874, 317726.136999999987893 ], [ 194873.030999999988126, 317734.13900000002468 ], [ 194869.862, 317742.239 ], [ 194867.307, 317751.919999999983702 ], [ 194866.452, 317761.819000000017695 ], [ 194867.255, 317770.266 ], [ 194870.207, 317787.971000000019558 ], [ 194871.908, 317797.267999999981839 ], [ 194872.689000000013039, 317801.536000000021886 ], [ 194873.344000000011874, 317805.119 ], [ 194877.908, 317830.076 ], [ 194892.62, 317911.080000000016298 ], [ 194905.438, 317983.337999999988824 ], [ 194906.074, 317986.604 ], [ 194907.178000000014435, 317988.575000000011642 ], [ 194907.201, 317988.602000000013504 ], [ 194908.122, 317989.673 ], [ 194909.730000000010477, 317991.011999999987893 ], [ 194910.829999999987194, 317991.772999999986496 ], [ 194912.027, 317992.840000000025611 ], [ 194913.636, 317993.604 ], [ 194915.457, 317993.958999999973457 ], [ 194908.997, 317996.564000000013039 ], [ 194909.346, 318002.183000000019092 ], [ 194903.35, 318005.419999999983702 ], [ 194927.729, 318122.039999999979045 ], [ 194927.855000000010477, 318122.642 ], [ 194934.559, 318127.134000000020023 ], [ 194945.452, 318133.571999999985565 ], [ 194951.829999999987194, 318137.31 ], [ 194976.53, 318151.63 ], [ 194987.96, 318158.652 ], [ 194981.011999999987893, 318174.112000000022817 ], [ 194973.441, 318192.054 ], [ 194966.541999999986729, 318207.103 ], [ 194956.984, 318227.57 ], [ 194955.446, 318230.88900000002468 ], [ 194951.87400000001071, 318236.045999999972992 ], [ 194952.026000000012573, 318236.063000000023749 ], [ 194951.853, 318237.159999999974389 ], [ 194957.902, 318237.456 ], [ 194970.0529, 318238.7758 ], [ 194988.283, 318240.756 ], [ 194989.484, 318240.886 ], [ 195018.217, 318245.349999999976717 ], [ 195047.688, 318252.580000000016298 ], [ 195073.886, 318262.375 ], [ 195116.625, 318279.738000000012107 ], [ 195139.181000000011409, 318288.041000000026543 ], [ 195143.767, 318289.729 ], [ 195153.355000000010477, 318293.033 ], [ 195161.464, 318297.087 ], [ 195164.478, 318298.685999999986961 ], [ 195170.927, 318303.331 ], [ 195200.047, 318329.463999999978114 ], [ 195213.471, 318342.778999999980442 ], [ 195227.471, 318359.917000000015832 ], [ 195227.577, 318360.049 ], [ 195237.85, 318372.778 ], [ 195239.885, 318374.76 ], [ 195246.918, 318380.892999999981839 ], [ 195278.927, 318412.685 ], [ 195282.669, 318416.609 ], [ 195284.897, 318418.522999999986496 ], [ 195301.886, 318433.12 ], [ 195328.491, 318454.552000000025146 ], [ 195337.653, 318461.933000000019092 ], [ 195357.459, 318476.087999999988824 ], [ 195386.636999999987893, 318496.143999999971129 ], [ 195389.10999999998603, 318491.599999999976717 ], [ 195393.14000000001397, 318485.289999999979045 ], [ 195396.9, 318476.900000000023283 ], [ 195398.79, 318472.51 ], [ 195401.16, 318466.5 ], [ 195405.51, 318458.450000000011642 ], [ 195409.019999999989523, 318452.710000000020955 ], [ 195412.66, 318444.770000000018626 ], [ 195421.420000000012806, 318424.340000000025611 ], [ 195430.65, 318405.32 ], [ 195433.25, 318399.24 ], [ 195433.59, 318398.5 ], [ 195437.048, 318390.913 ], [ 195512.391, 318434.805999999982305 ], [ 195607.937, 318490.473999999987427 ], [ 195665.019, 318523.721000000019558 ], [ 195666.573, 318524.62599999998929 ], [ 195674.127, 318529.027 ], [ 195677.772, 318541.243000000016764 ], [ 195679.924999999988358, 318548.457 ], [ 195682.611, 318558.456 ], [ 195682.94, 318559.68 ], [ 195683.538, 318561.387999999977183 ], [ 195685.62599999998929, 318567.351000000024214 ], [ 195686.195, 318568.974999999976717 ], [ 195686.869, 318570.879000000015367 ], [ 195692.88, 318587.843999999982771 ], [ 195704.331, 318582.756 ], [ 195705.462999999988824, 318582.261 ], [ 195783.682999999989988, 318547.74 ], [ 195785.702, 318546.848 ], [ 195774.337999999988824, 318580.729999999981374 ], [ 195770.775, 318590.924 ], [ 195770.381, 318591.75099999998929 ], [ 195769.537000000011176, 318593.527 ], [ 195751.442000000010012, 318631.581 ], [ 195743.952, 318648.566 ], [ 195739.36799999998766, 318668.869 ], [ 195739.170000000012806, 318679.971000000019558 ], [ 195740.977000000013504, 318697.145000000018626 ], [ 195755.24, 318742.150000000023283 ], [ 195763.64000000001397, 318738.99 ], [ 195801.161, 318784.537000000011176 ], [ 195854.673, 318847.793 ], [ 195902.854, 318903.180999999982305 ], [ 195901.730000000010477, 318909.343999999982771 ], [ 195882.151000000012573, 318927.968999999982771 ], [ 195883.905999999988126, 318963.745999999984633 ], [ 195893.189000000013039, 318979.678000000014435 ], [ 195901.668, 318980.01 ], [ 195904.739, 318984.636999999987893 ], [ 195910.644999999989523, 318993.532 ], [ 195917.093, 319002.599999999976717 ], [ 195927.548, 319016.753000000026077 ], [ 195935.076, 319025.536000000021886 ], [ 195945.389, 319036.982000000018161 ], [ 195971.312, 319063.733 ], [ 195990.590999999985797, 319080.537000000011176 ], [ 196008.695, 319095.686999999976251 ], [ 196010.366, 319097.083999999973457 ], [ 196014.162000000011176, 319093.435999999986961 ] ] ] ] } },
{ "type": "Feature", "properties": { "buurtcode": "BU09650100", "buurtnaam": "Bocholtz", "pc6_codes": "6351AH, 6351AK, 6351AP, 6351AR, 6351AS, 6351AT, 6351AV, 6351AW, 6351AX, 6351AZ, 6351BA, 6351BB, 6351BC, 6351BD, 6351BE, 6351BG, 6351BH, 6351BJ, 6351BK, 6351BL, 6351BM, 6351BN, 6351BP, 6351BR, 6351BS, 6351BT, 6351BV, 6351BW, 6351BX, 6351BZ, 6351CA, 6351CB, 6351CC, 6351CD, 6351CE, 6351CG, 6351CH, 6351CJ, 6351CK, 6351CL, 6351CM, 6351CN, 6351CP, 6351CR, 6351CS, 6351CT, 6351CV, 6351CW, 6351CX, 6351CZ, 6351EA, 6351EB, 6351EC, 6351ED, 6351EE, 6351EG, 6351EH, 6351EJ, 6351EK, 6351EL, 6351EM, 6351EN, 6351EP, 6351ER, 6351ES, 6351ET, 6351EW, 6351EX, 6351GA, 6351GB, 6351GC, 6351GD, 6351GE, 6351GG, 6351GH, 6351GJ, 6351GK, 6351GL, 6351GM, 6351GN, 6351GR, 6351GS, 6351GV, 6351GW, 6351GX, 6351GZ, 6351HA, 6351HB, 6351HC, 6351HD, 6351HE, 6351HG, 6351HH, 6351HJ, 6351HK, 6351HM, 6351HN, 6351HP, 6351HV, 6351HW, 6351JA, 6351LA, 6351LB, 6351LC, 6351LD, 6351LE, 6351LG, 6351LH, 6351LP, 6351LR, 6351LS, 6351LT, 6351LV, 6351LW, 6351LX, 6351MA, 6351MB, 6351MC, 6351MD, 6351ME, 6351PA", "wijkcode": "WK096501", "gemeentecode": "GM0965", "gemeentenaam": "Simpelveld", "oppervlakteLandInHa": 394, "AantalInwoners_5": 4135, "Mannen_6": 2055, "Vrouwen_7": 2080, "HuishoudensTotaal_29": 1935, "GemiddeldeHuishoudensgrootte_33": 2.1, "Woningvoorraad_35": 2133, "NieuwbouwWoningen_36": 0, "NietWoningvoorraad_37": 282, "NieuwbouwNietWoningen_38": 0, "GemiddeldeWOZWaardeVanWoningen_39": 232, "PercentageEengezinswoning_40": 79, "PercentageTussenwoningEengezins_41": 31, "PercentageHoekwoningEengezins_42": 19, "PercentageTweeOnderEenKapWoningEe_43": 17, "PercentageVrijstaandeWoningEengezins_44": 11, "PercentageMeergezinswoning_45": 21, "Koopwoningen_47": 65, "HuurwoningenTotaal_48": 35, "InBezitWoningcorporatie_49": 19, "InBezitOverigeVerhuurders_50": 15, "BouwjaarMeerDanTienJaarGeleden_51": 98, "BouwjaarAfgelopenTienJaar_52": 2, "GemiddeldeElektriciteitslevering_53": 2570, "GemiddeldeElektriciteitsteruglevering_54": 1100, "GemiddeldAardgasverbruik_55": 960, "AardgasvrijeWoningen_57": 1, "Aardgaswoningen_58": 95, "WoningenMetZonnestroom_59": 46, "WoningenHoofdzElektrVerwarmd_60": 4, "k_20PersonenMetHoogsteInkomen_80": 16.1, "k_20HuishoudensMetHoogsteInkomen_85": 15.4, "MediaanVermogenVanParticuliereHuish_86": 139.9, "PersonenautoSTotaal_104": 2490, "PersonenautoSBrandstofBenzine_105": 2180, "PersonenautoSOverigeBrandstof_106": 310, "PersonenautoSPerHuishouden_107": 1.3, "Omgevingsadressendichtheid_121": 741, "AantalInstallatiesBijWoningen_5": 613, "OpgesteldVermogenVanZonnepanelen_6": 2498, "installaties_per_woning": 0.28738865447726208, "vermogen_per_woning": 1.1711204875761838, "installaties_per_100_woningen": 28.738865447726209, "vermogen_per_huishouden": 1.2909560723514213, "batterijdruk_score": 506.0, "koop_zon_score": 0.299, "eengezins_zon_score": 0.3634, "betaalkracht_zon_score": 64.354, "overige_brandstof_zon_score": 142.6, "lichte_batterij_kansscore": 0.41721581560134718 }, "geometry": { "type": "MultiPolygon", "coordinates": [ [ [ [ 199278.112, 315416.091000000014901 ], [ 199278.462999999988824, 315415.628000000026077 ], [ 199279.233, 315414.61099999997532 ], [ 199297.309, 315390.728 ], [ 199319.842, 315357.944000000017695 ], [ 199326.304, 315349.949000000022352 ], [ 199346.780999999988126, 315324.617000000027474 ], [ 199379.79, 315283.78000000002794 ], [ 199313.459, 315225.75099999998929 ], [ 199312.76, 315225.14000000001397 ], [ 199314.51, 315217.549999999988358 ], [ 199318.51, 315201.25 ], [ 199323.03, 315188.10999999998603 ], [ 199327.31, 315177.580000000016298 ], [ 199333.87, 315164.51 ], [ 199342.22, 315148.950000000011642 ], [ 199347.15, 315140.07 ], [ 199351.03, 315132.31 ], [ 199351.46, 315131.49 ], [ 199355.84, 315121.599999999976717 ], [ 199342.403, 315111.096000000019558 ], [ 199316.098, 315091.409999999974389 ], [ 199314.12599999998929, 315089.934 ], [ 199292.478, 315073.734 ], [ 199291.127, 315072.757999999972526 ], [ 199304.646, 315052.333999999973457 ], [ 199313.916, 315038.327999999979511 ], [ 199335.246000000013737, 314993.106000000028871 ], [ 199354.488000000012107, 314952.840000000025611 ], [ 199356.803000000014435, 314947.994 ], [ 199379.608, 314903.51 ], [ 199390.343, 314883.218999999982771 ], [ 199390.69, 314882.564000000013039 ], [ 199391.036, 314881.909999999974389 ], [ 199393.465, 314877.318000000028405 ], [ 199393.810999999986961, 314876.663 ], [ 199394.157, 314876.009000000020023 ], [ 199401.821999999985565, 314861.522 ], [ 199402.989, 314859.316999999980908 ], [ 199414.74299999998766, 314837.256 ], [ 199427.981, 314816.055999999982305 ], [ 199439.509, 314800.408 ], [ 199442.805, 314795.933000000019092 ], [ 199456.055, 314780.055999999982305 ], [ 199456.582, 314779.424999999988358 ], [ 199476.226, 314758.792000000015832 ], [ 199494.283, 314742.458999999973457 ], [ 199494.761999999987893, 314742.025000000023283 ], [ 199513.856, 314725.901000000012573 ], [ 199532.984, 314709.805 ], [ 199571.549999999988358, 314677.983 ], [ 199610.230000000010477, 314646.299 ], [ 199638.278, 314623.456 ], [ 199639.274, 314622.645000000018626 ], [ 199639.652, 314622.788 ], [ 199666.309, 314635.120999999984633 ], [ 199687.38200000001234, 314646.771 ], [ 199725.321999999985565, 314668.898999999975786 ], [ 199727.103, 314663.527 ], [ 199738.426, 314670.216000000014901 ], [ 199788.553000000014435, 314598.242000000027474 ], [ 199801.983, 314578.425999999977648 ], [ 199829.026000000012573, 314537.333999999973457 ], [ 199853.786, 314499.825000000011642 ], [ 199858.420000000012806, 314475.94 ], [ 199861.71, 314460.5 ], [ 199849.62, 314449.229999999981374 ], [ 199828.359, 314427.870999999984633 ], [ 199827.519, 314427.027 ], [ 199817.39000000001397, 314416.849999999976717 ], [ 199755.68, 314322.460000000020955 ], [ 199747.51, 314305.89000000001397 ], [ 199745.68, 314297.71999999997206 ], [ 199771.69, 314286.289999999979045 ], [ 199837.21, 314252.419999999983702 ], [ 199887.97, 314221.169999999983702 ], [ 199914.84, 314200.580000000016298 ], [ 199903.79, 314180.46999999997206 ], [ 199887.170000000012806, 314143.25 ], [ 199865.01, 314103.799999999988358 ], [ 199850.391, 314063.808000000019092 ], [ 199850.044, 314062.85999999998603 ], [ 199848.37, 314058.28000000002794 ], [ 199954.6, 314001.590000000025611 ], [ 199949.108, 313993.642999999981839 ], [ 199945.56, 313988.51 ], [ 199935.76, 313974.330000000016298 ], [ 199912.14000000001397, 313952.44 ], [ 199907.777, 313949.443000000028405 ], [ 199905.269999999989523, 313947.71999999997206 ], [ 199905.005, 313947.526000000012573 ], [ 199870.420000000012806, 313922.270000000018626 ], [ 199867.230000000010477, 313920.055 ], [ 199862.405999999988126, 313916.34499999997206 ], [ 199845.200000000011642, 313902.895000000018626 ], [ 199835.79, 313891.898999999975786 ], [ 199835.651000000012573, 313891.800999999977648 ], [ 199762.935, 313840.207999999984168 ], [ 199717.361, 313799.255 ], [ 199675.56, 313768.479999999981374 ], [ 199586.549999999988358, 313697.678000000014435 ], [ 199538.065, 313657.398999999975786 ], [ 199468.449, 313606.458999999973457 ], [ 199462.578, 313602.24 ], [ 199404.274, 313554.093999999982771 ], [ 199370.187, 313523.492000000027474 ], [ 199357.681000000011409, 313512.26500000001397 ], [ 199337.498, 313489.955000000016298 ], [ 199336.793, 313489.175999999977648 ], [ 199334.347, 313486.473 ], [ 199280.32, 313426.756999999983236 ], [ 199251.134, 313391.663 ], [ 199241.353, 313378.472 ], [ 199239.242, 313375.625 ], [ 199237.174999999988358, 313372.838999999978114 ], [ 199237.135, 313372.784999999974389 ], [ 199218.708000000013271, 313347.945 ], [ 199185.638, 313296.080000000016298 ], [ 199173.560999999986961, 313276.509000000020023 ], [ 199154.541999999986729, 313235.028 ], [ 199123.185999999986961, 313165.424 ], [ 199093.634, 313135.818000000028405 ], [ 199041.429, 313061.564000000013039 ], [ 199005.772, 313007.313000000023749 ], [ 199005.658, 313007.14000000001397 ], [ 199003.814000000013039, 313004.333999999973457 ], [ 199001.991, 313001.577999999979511 ], [ 199001.668, 313001.090000000025611 ], [ 198993.842, 312989.26 ], [ 198944.321999999985565, 312911.788999999989755 ], [ 198925.577, 312888.661000000021886 ], [ 198914.236, 312874.668 ], [ 198910.487, 312870.532 ], [ 198904.590999999985797, 312864.028999999980442 ], [ 198882.98499999998603, 312846.101000000024214 ], [ 198817.348999999987427, 312793.278999999980442 ], [ 198795.21, 312774.678000000014435 ], [ 198783.799, 312765.156000000017229 ], [ 198769.170000000012806, 312752.950000000011642 ], [ 198757.26, 312743.007999999972526 ], [ 198739.579999999987194, 312725.145000000018626 ], [ 198695.26500000001397, 312705.772999999986496 ], [ 198637.727000000013504, 312677.669999999983702 ], [ 198616.54, 312666.75 ], [ 198573.077, 312644.517 ], [ 198537.415, 312625.338999999978114 ], [ 198462.696, 312580.26 ], [ 198458.19, 312579.210000000020955 ], [ 198453.563, 312579.321999999985565 ], [ 198368.769, 312658.305999999982305 ], [ 198354.467, 312671.647999999986496 ], [ 198346.458000000013271, 312679.12599999998929 ], [ 198231.10999999998603, 312786.82 ], [ 198196.0, 312815.289999999979045 ], [ 198123.46, 312872.150000000023283 ], [ 198125.39000000001397, 312878.960000000020955 ], [ 198118.737, 312882.545999999972992 ], [ 197999.31, 312960.43 ], [ 197874.93, 313045.14000000001397 ], [ 197846.329999999987194, 313065.25 ], [ 197761.57, 313131.88 ], [ 197707.85, 313179.53000000002794 ], [ 197688.6, 313202.49 ], [ 197635.6, 313249.460000000020955 ], [ 197618.99, 313267.330000000016298 ], [ 197602.89000000001397, 313286.56 ], [ 197588.980000000010477, 313304.28000000002794 ], [ 197539.200000000011642, 313341.169999999983702 ], [ 197501.96, 313367.479999999981374 ], [ 197451.87, 313401.69 ], [ 197314.56, 313479.349999999976717 ], [ 197271.72, 313505.71999999997206 ], [ 197265.56, 313508.03000000002794 ], [ 197233.60999999998603, 313534.71999999997206 ], [ 197182.269999999989523, 313576.409999999974389 ], [ 197172.88, 313582.28000000002794 ], [ 197168.283, 313580.585000000020955 ], [ 197135.9921, 313568.139199999975972 ], [ 197151.703, 313600.0001 ], [ 197232.4062, 313685.3126 ], [ 197381.79680000001099, 313791.593899999978021 ], [ 197522.79680000001099, 313885.1876 ], [ 197679.203, 313992.8126 ], [ 197824.29680000001099, 314121.3126 ], [ 197904.4062, 314213.593899999978021 ], [ 197994.4999, 314374.906399999978021 ], [ 198056.5937, 314528.906399999978021 ], [ 198128.9999, 314706.3126 ], [ 198162.79680000001099, 314741.5001 ], [ 198216.29680000001099, 314739.406399999978021 ], [ 198295.29680000001099, 314772.5001 ], [ 198429.79680000001099, 314845.906399999978021 ], [ 198558.0937, 314937.6876 ], [ 198767.5937, 315098.3126 ], [ 198969.5937, 315275.406399999978021 ], [ 199025.79680000001099, 315322.0001 ], [ 199099.703, 315353.1876 ], [ 199180.0937, 315403.5001 ], [ 199250.1209, 315456.784800000023097 ], [ 199278.112, 315416.091000000014901 ] ] ] ] } },
{ "type": "Feature", "properties": { "buurtcode": "BU09650101", "buurtnaam": "Bocholtzerheide", "pc6_codes": "6351AA, 6351HT, 6351HX, 6351HZ, 6351JC, 6351JD, 6351JE, 6351JG, 6351JH, 6351JJ, 6351JK, 6351JL, 6351JN, 6351JP, 6351JR, 6351JX", "wijkcode": "WK096501", "gemeentecode": "GM0965", "gemeentenaam": "Simpelveld", "oppervlakteLandInHa": 177, "AantalInwoners_5": 485, "Mannen_6": 240, "Vrouwen_7": 245, "HuishoudensTotaal_29": 210, "GemiddeldeHuishoudensgrootte_33": 2.3, "Woningvoorraad_35": 219, "NieuwbouwWoningen_36": 0, "NietWoningvoorraad_37": 28, "NieuwbouwNietWoningen_38": 0, "GemiddeldeWOZWaardeVanWoningen_39": 270, "PercentageEengezinswoning_40": 89, "PercentageTussenwoningEengezins_41": 28, "PercentageHoekwoningEengezins_42": 16, "PercentageTweeOnderEenKapWoningEe_43": 21, "PercentageVrijstaandeWoningEengezins_44": 24, "PercentageMeergezinswoning_45": 11, "Koopwoningen_47": 86, "HuurwoningenTotaal_48": 14, "InBezitWoningcorporatie_49": 1, "InBezitOverigeVerhuurders_50": 13, "BouwjaarMeerDanTienJaarGeleden_51": 100, "BouwjaarAfgelopenTienJaar_52": 0, "GemiddeldeElektriciteitslevering_53": 3120, "GemiddeldeElektriciteitsteruglevering_54": 1490, "GemiddeldAardgasverbruik_55": 1060, "AardgasvrijeWoningen_57": 2, "Aardgaswoningen_58": 91, "WoningenMetZonnestroom_59": 50, "WoningenHoofdzElektrVerwarmd_60": 7, "k_20PersonenMetHoogsteInkomen_80": 15.4, "k_20HuishoudensMetHoogsteInkomen_85": 20.3, "MediaanVermogenVanParticuliereHuish_86": 195.8, "PersonenautoSTotaal_104": 320, "PersonenautoSBrandstofBenzine_105": 285, "PersonenautoSOverigeBrandstof_106": 35, "PersonenautoSPerHuishouden_107": 1.5, "Omgevingsadressendichtheid_121": 398, "AantalInstallatiesBijWoningen_5": 78, "OpgesteldVermogenVanZonnepanelen_6": 322, "installaties_per_woning": 0.35616438356164382, "vermogen_per_woning": 1.4703196347031964, "installaties_per_100_woningen": 35.61643835616438, "vermogen_per_huishouden": 1.5333333333333334, "batterijdruk_score": 745.0, "koop_zon_score": 0.43, "eengezins_zon_score": 0.445, "betaalkracht_zon_score": 97.9, "overige_brandstof_zon_score": 17.5, "lichte_batterij_kansscore": 0.49361899924317215 }, "geometry": { "type": "MultiPolygon", "coordinates": [ [ [ [ 197536.79680000001099, 315520.1876 ], [ 197828.9062, 315170.5001 ], [ 198162.79680000001099, 314741.5001 ], [ 198128.9999, 314706.3126 ], [ 198056.5937, 314528.906399999978021 ], [ 197994.4999, 314374.906399999978021 ], [ 197904.4062, 314213.593899999978021 ], [ 197824.29680000001099, 314121.3126 ], [ 197679.203, 313992.8126 ], [ 197522.79680000001099, 313885.1876 ], [ 197381.79680000001099, 313791.593899999978021 ], [ 197232.4062, 313685.3126 ], [ 197151.703, 313600.0001 ], [ 197135.9921, 313568.139199999975972 ], [ 197129.028, 313565.455000000016298 ], [ 197091.86799999998766, 313542.979 ], [ 197032.954, 313487.191999999980908 ], [ 197032.938, 313487.177000000025146 ], [ 197031.073, 313489.218 ], [ 197030.345, 313490.01500000001397 ], [ 196919.098, 313611.74900000001071 ], [ 196930.61799999998766, 313620.309 ], [ 196942.973999999987427, 313626.976000000024214 ], [ 196951.315, 313631.136999999987893 ], [ 196958.432, 313635.01500000001397 ], [ 196967.682, 313640.419999999983702 ], [ 196975.533, 313646.210000000020955 ], [ 196983.63, 313652.707999999984168 ], [ 196986.101, 313655.829000000027008 ], [ 196989.046, 313660.935 ], [ 196989.329999999987194, 313661.427000000025146 ], [ 196992.769, 313670.78000000002794 ], [ 196989.665, 313676.824000000022352 ], [ 196971.596, 313669.045999999972992 ], [ 196965.365, 313684.668 ], [ 196944.49299999998766, 313737.003000000026077 ], [ 196927.434, 313753.229999999981374 ], [ 196894.144999999989523, 313782.809 ], [ 196862.139, 313811.245999999984633 ], [ 196821.182, 313847.38900000002468 ], [ 196815.449, 313859.239 ], [ 196813.187, 313869.159999999974389 ], [ 196807.954999999987194, 313892.102000000013504 ], [ 196801.144, 313910.01500000001397 ], [ 196801.11799999998766, 313910.083999999973457 ], [ 196775.802, 313968.194000000017695 ], [ 196749.631, 314018.935 ], [ 196746.981999999989057, 314024.071 ], [ 196742.929, 314026.761 ], [ 196704.187, 314038.629000000015367 ], [ 196684.517, 314044.65500000002794 ], [ 196674.378999999986263, 314047.761 ], [ 196665.846, 314050.375 ], [ 196661.419, 314051.869 ], [ 196657.268000000010943, 314053.268999999971129 ], [ 196645.399, 314057.270000000018626 ], [ 196636.4143, 314059.856000000028871 ], [ 196703.4062, 314202.5001 ], [ 196929.9063, 314176.8126 ], [ 196964.796899999986636, 314339.8125 ], [ 196977.5, 314427.406299999973271 ], [ 196974.9062, 314498.0 ], [ 196632.5937, 314582.406399999978021 ], [ 196460.203, 314628.593899999978021 ], [ 196528.0937, 314712.8126 ], [ 196617.0937, 314809.406399999978021 ], [ 196699.4999, 314868.5001 ], [ 196808.5937, 314942.093899999978021 ], [ 196929.29680000001099, 315027.0001 ], [ 197026.4062, 315107.6876 ], [ 197091.4999, 315158.0001 ], [ 197119.203100000013364, 315201.6876 ], [ 197129.203100000013364, 315267.6876 ], [ 197136.0937, 315342.0001 ], [ 197165.5937, 315382.406399999978021 ], [ 197208.9062, 315404.3126 ], [ 197265.0937, 315440.1876 ], [ 197352.203, 315457.3126 ], [ 197431.79680000001099, 315483.5001 ], [ 197502.4062, 315503.906399999978021 ], [ 197533.4062, 315525.406399999978021 ], [ 197536.79680000001099, 315520.1876 ] ] ] ] } },
{ "type": "Feature", "properties": { "buurtcode": "BU09650102", "buurtnaam": "Prickart-Broek", "pc6_codes": "6351AB, 6351AC, 6351AE, 6351AG, 6351AJ, 6351AK, 6351AL, 6351AM, 6351EJ, 6351EK, 6369TE", "wijkcode": "WK096501", "gemeentecode": "GM0965", "gemeentenaam": "Simpelveld", "oppervlakteLandInHa": 133, "AantalInwoners_5": 285, "Mannen_6": 145, "Vrouwen_7": 135, "HuishoudensTotaal_29": 115, "GemiddeldeHuishoudensgrootte_33": 2.4, "Woningvoorraad_35": 118, "NieuwbouwWoningen_36": 0, "NietWoningvoorraad_37": 24, "NieuwbouwNietWoningen_38": 0, "GemiddeldeWOZWaardeVanWoningen_39": 362, "PercentageEengezinswoning_40": 91, "PercentageTussenwoningEengezins_41": 14, "PercentageHoekwoningEengezins_42": 13, "PercentageTweeOnderEenKapWoningEe_43": 24, "PercentageVrijstaandeWoningEengezins_44": 41, "PercentageMeergezinswoning_45": 9, "Koopwoningen_47": 86, "HuurwoningenTotaal_48": 12, "InBezitWoningcorporatie_49": 5, "InBezitOverigeVerhuurders_50": 7, "BouwjaarMeerDanTienJaarGeleden_51": 97, "BouwjaarAfgelopenTienJaar_52": 3, "GemiddeldeElektriciteitslevering_53": 3650, "GemiddeldeElektriciteitsteruglevering_54": 1520, "GemiddeldAardgasverbruik_55": 1250, "AardgasvrijeWoningen_57": 2, "Aardgaswoningen_58": 95, "WoningenMetZonnestroom_59": 48, "WoningenHoofdzElektrVerwarmd_60": 5, "k_20PersonenMetHoogsteInkomen_80": 21.0, "k_20HuishoudensMetHoogsteInkomen_85": 30.8, "MediaanVermogenVanParticuliereHuish_86": 319.9, "PersonenautoSTotaal_104": 170, "PersonenautoSBrandstofBenzine_105": 150, "PersonenautoSOverigeBrandstof_106": 20, "PersonenautoSPerHuishouden_107": 1.4, "Omgevingsadressendichtheid_121": 472, "AantalInstallatiesBijWoningen_5": 39, "OpgesteldVermogenVanZonnepanelen_6": 173, "installaties_per_woning": 0.33050847457627119, "vermogen_per_woning": 1.4661016949152543, "installaties_per_100_woningen": 33.050847457627121, "vermogen_per_huishouden": 1.5043478260869565, "batterijdruk_score": 729.6, "koop_zon_score": 0.4128, "eengezins_zon_score": 0.4368, "betaalkracht_zon_score": 153.552, "overige_brandstof_zon_score": 9.6, "lichte_batterij_kansscore": 0.49422013314823199 }, "geometry": { "type": "MultiPolygon", "coordinates": [ [ [ [ 198551.318, 316306.033 ], [ 198551.391, 316304.715000000025611 ], [ 198551.170000000012806, 316304.115 ], [ 198540.734, 316248.26 ], [ 198532.471, 316211.212999999988824 ], [ 198531.931000000011409, 316208.792000000015832 ], [ 198531.121000000013737, 316205.159999999974389 ], [ 198528.693, 316194.272 ], [ 198527.791, 316190.229999999981374 ], [ 198526.866, 316187.242000000027474 ], [ 198519.74900000001071, 316164.240999999979977 ], [ 198512.354, 316140.343999999982771 ], [ 198498.65, 316105.098 ], [ 198494.598999999987427, 316097.303000000014435 ], [ 198478.594000000011874, 316066.506999999983236 ], [ 198475.033, 316059.694000000017695 ], [ 198471.163999999989755, 316054.598 ], [ 198460.306000000011409, 316040.295999999972992 ], [ 198452.856, 316030.483 ], [ 198434.827, 316014.961000000010245 ], [ 198434.631, 316014.792000000015832 ], [ 198434.22, 316014.484 ], [ 198433.418, 316013.884000000020023 ], [ 198386.747, 315978.951 ], [ 198411.062, 315957.481000000028871 ], [ 198411.518000000010943, 315957.077999999979511 ], [ 198438.045000000012806, 315933.653 ], [ 198462.317000000010012, 315912.218999999982771 ], [ 198505.903, 315938.863000000012107 ], [ 198521.718, 315947.918 ], [ 198532.508, 315952.680999999982305 ], [ 198550.284000000014203, 315957.221000000019558 ], [ 198561.939000000013039, 315959.412000000011176 ], [ 198579.465, 315961.677000000025146 ], [ 198597.51, 315963.362000000022817 ], [ 198638.937, 315963.452999999979511 ], [ 198638.521, 315955.09499999997206 ], [ 198665.784000000014203, 315955.729 ], [ 198702.263, 315954.163 ], [ 198739.223, 315947.707999999984168 ], [ 198783.51500000001397, 315938.658999999985099 ], [ 198835.049, 315925.028999999980442 ], [ 198881.957, 315908.102000000013504 ], [ 198908.701, 315895.73599999997532 ], [ 198948.913, 315869.62 ], [ 198982.76500000001397, 315843.663 ], [ 199007.824, 315819.387999999977183 ], [ 199036.946, 315782.987000000022817 ], [ 199038.39000000001397, 315781.181999999971595 ], [ 199039.182, 315780.193000000028405 ], [ 199044.464, 315773.591000000014901 ], [ 199103.098, 315682.071999999985565 ], [ 199157.00099999998929, 315598.0 ], [ 199201.899, 315527.981000000028871 ], [ 199211.302, 315514.033 ], [ 199239.294, 315472.525000000023283 ], [ 199250.1209, 315456.784800000023097 ], [ 199180.0937, 315403.5001 ], [ 199099.703, 315353.1876 ], [ 199025.79680000001099, 315322.0001 ], [ 198969.5937, 315275.406399999978021 ], [ 198767.5937, 315098.3126 ], [ 198558.0937, 314937.6876 ], [ 198429.79680000001099, 314845.906399999978021 ], [ 198295.29680000001099, 314772.5001 ], [ 198216.29680000001099, 314739.406399999978021 ], [ 198162.79680000001099, 314741.5001 ], [ 197828.9062, 315170.5001 ], [ 197536.79680000001099, 315520.1876 ], [ 197533.4062, 315525.406399999978021 ], [ 197547.79680000001099, 315535.406399999978021 ], [ 197605.203, 315571.8126 ], [ 197675.203, 315598.0001 ], [ 197759.79680000001099, 315607.593899999978021 ], [ 197800.703, 315644.8126 ], [ 197874.203, 315707.093899999978021 ], [ 197910.29680000001099, 315789.5001 ], [ 197966.703, 315852.593899999978021 ], [ 198095.79680000001099, 315961.0001 ], [ 198196.203, 316054.906399999978021 ], [ 198289.703, 316161.0001 ], [ 198417.5937, 316287.8126 ], [ 198547.60930000001099, 316372.788600000028964 ], [ 198551.318, 316306.033 ] ] ] ] } },
{ "type": "Feature", "properties": { "buurtcode": "BU09650103", "buurtnaam": "Baneheide", "pc6_codes": "6351JP, 6351JR, 6351JS, 6351JT, 6351JV, 6351JW, 6353AK, 6353AL", "wijkcode": "WK096501", "gemeentecode": "GM0965", "gemeentenaam": "Simpelveld", "oppervlakteLandInHa": 39, "AantalInwoners_5": 140, "Mannen_6": 75, "Vrouwen_7": 65, "HuishoudensTotaal_29": 65, "GemiddeldeHuishoudensgrootte_33": 2.1, "Woningvoorraad_35": 68, "NieuwbouwWoningen_36": 0, "NietWoningvoorraad_37": 6, "NieuwbouwNietWoningen_38": 0, "GemiddeldeWOZWaardeVanWoningen_39": 312, "PercentageEengezinswoning_40": 82, "PercentageTussenwoningEengezins_41": 3, "PercentageHoekwoningEengezins_42": 6, "PercentageTweeOnderEenKapWoningEe_43": 24, "PercentageVrijstaandeWoningEengezins_44": 50, "PercentageMeergezinswoning_45": 18, "Koopwoningen_47": 76, "HuurwoningenTotaal_48": 24, "InBezitWoningcorporatie_49": 0, "InBezitOverigeVerhuurders_50": 24, "BouwjaarMeerDanTienJaarGeleden_51": 100, "BouwjaarAfgelopenTienJaar_52": 0, "GemiddeldeElektriciteitslevering_53": 3030, "GemiddeldeElektriciteitsteruglevering_54": 1550, "GemiddeldAardgasverbruik_55": 1490, "AardgasvrijeWoningen_57": null, "Aardgaswoningen_58": null, "WoningenMetZonnestroom_59": null, "WoningenHoofdzElektrVerwarmd_60": null, "k_20PersonenMetHoogsteInkomen_80": 15.9, "k_20HuishoudensMetHoogsteInkomen_85": null, "MediaanVermogenVanParticuliereHuish_86": null, "PersonenautoSTotaal_104": 85, "PersonenautoSBrandstofBenzine_105": 70, "PersonenautoSOverigeBrandstof_106": 15, "PersonenautoSPerHuishouden_107": 1.4, "Omgevingsadressendichtheid_121": 88, "AantalInstallatiesBijWoningen_5": 23, "OpgesteldVermogenVanZonnepanelen_6": 106, "installaties_per_woning": 0.33823529411764708, "vermogen_per_woning": 1.5588235294117647, "installaties_per_100_woningen": 33.82352941176471, "vermogen_per_huishouden": 1.6307692307692307, "batterijdruk_score": null, "koop_zon_score": null, "eengezins_zon_score": null, "betaalkracht_zon_score": null, "overige_brandstof_zon_score": null, "lichte_batterij_kansscore": null }, "geometry": { "type": "MultiPolygon", "coordinates": [ [ [ [ 196377.5938, 314708.1875 ], [ 196418.5, 314577.0001 ], [ 196460.203, 314628.593899999978021 ], [ 196632.5937, 314582.406399999978021 ], [ 196974.9062, 314498.0 ], [ 196977.5, 314427.406299999973271 ], [ 196964.796899999986636, 314339.8125 ], [ 196929.9063, 314176.8126 ], [ 196703.4062, 314202.5001 ], [ 196636.4143, 314059.856000000028871 ], [ 196621.996000000013737, 314064.006 ], [ 196617.59, 314065.268999999971129 ], [ 196617.258, 314065.365 ], [ 196610.441, 314067.348999999987427 ], [ 196610.356, 314067.37400000001071 ], [ 196608.69, 314067.859 ], [ 196590.169, 314073.24900000001071 ], [ 196568.782, 314079.49 ], [ 196552.695, 314084.185 ], [ 196548.318999999988591, 314085.462 ], [ 196547.446, 314085.717 ], [ 196547.435, 314085.71999999997206 ], [ 196545.696999999985565, 314086.227000000013504 ], [ 196542.170000000012806, 314087.256 ], [ 196538.703, 314088.267999999981839 ], [ 196515.557, 314095.022 ], [ 196510.234, 314096.575000000011642 ], [ 196505.969000000011874, 314097.82 ], [ 196504.912000000011176, 314098.128000000026077 ], [ 196465.07, 314109.755 ], [ 196463.587999999988824, 314110.400000000023283 ], [ 196431.87, 314124.207999999984168 ], [ 196420.706, 314127.898999999975786 ], [ 196420.102000000013504, 314128.098999999987427 ], [ 196407.325000000011642, 314132.324000000022352 ], [ 196279.877, 314175.060999999986961 ], [ 196230.74, 314191.538 ], [ 196191.916999999986729, 314202.12300000002142 ], [ 196190.967, 314202.381999999983236 ], [ 196187.722, 314203.191999999980908 ], [ 196187.461000000010245, 314203.261 ], [ 196184.108, 314204.184 ], [ 196178.810999999986961, 314205.636999999987893 ], [ 196158.557999999989988, 314211.212999999988824 ], [ 196156.952, 314211.65500000002794 ], [ 196114.24900000001071, 314223.411000000021886 ], [ 196025.9, 314248.5 ], [ 196026.62400000001071, 314250.961000000010245 ], [ 196026.711000000010245, 314251.259000000020023 ], [ 196032.8125, 314272.1851 ], [ 196058.074, 314358.824000000022352 ], [ 196058.329, 314359.75 ], [ 196060.96, 314369.289999999979045 ], [ 196077.230000000010477, 314362.700000000011642 ], [ 196097.26, 314438.03000000002794 ], [ 196100.74, 314438.06 ], [ 196108.725, 314467.212999999988824 ], [ 196111.634, 314476.922000000020489 ], [ 196112.227000000013504, 314478.903 ], [ 196114.503999999986263, 314487.115999999979977 ], [ 196115.621000000013737, 314491.147999999986496 ], [ 196137.481, 314484.226000000024214 ], [ 196137.837, 314485.772 ], [ 196138.416999999986729, 314488.284999999974389 ], [ 196198.8929, 314754.022 ], [ 196377.5938, 314708.1875 ] ] ] ] } }
]
}
