{
"type": "FeatureCollection",
"name": "Son_en_Breugel",
"crs": { "type": "name", "properties": { "name": "urn:ogc:def:crs:OGC:1.3:CRS84" } },
"features": [
{ "type": "Feature", "properties": { "buurtcode": "BU08480000", "buurtnaam": "Son", "pc6_codes": "5691AA, 5691AB, 5691AC, 5691AD, 5691AE, 5691AG, 5691AH, 5691AJ, 5691AK, 5691AL, 5691AM, 5691AN, 5691AP, 5691AR, 5691AS, 5691AT, 5691AV, 5691AW, 5691AX, 5691AZ, 5691BA, 5691BB, 5691BD, 5691BE, 5691BG, 5691BX, 5691BZ, 5691CA, 5691CB, 5691CC, 5691CD, 5691CE, 5691CG, 5691CH, 5691CJ, 5691CK, 5691CL, 5691CM, 5691CN, 5691CP, 5691CR, 5691CT, 5691CV, 5691CW, 5691CX, 5691DA, 5691DB, 5691DD, 5691DG, 5691DH, 5691DJ, 5691DK, 5691DL, 5691DM, 5691DN, 5691DP, 5691DR, 5691DS, 5691DT, 5691DW, 5691DX, 5691DZ, 5691EA, 5691EB, 5691EC, 5691ED, 5691EE, 5691EG, 5691EH, 5691EJ, 5691EK, 5691EL, 5691EN, 5691EP, 5691ER, 5691ES, 5691ET, 5691EV, 5691EW, 5691EX, 5691EZ, 5691GA, 5691GB, 5691GC, 5691GD, 5691GE, 5691GG, 5691GH, 5691GJ, 5691GK, 5691GL, 5691GM, 5691GN, 5691GP, 5691GR, 5691GS, 5691GT, 5691GV, 5691GW, 5691GZ, 5691NA, 5691NB, 5691NC, 5691ND, 5691NE, 5691NG, 5691NL, 5691NM, 5691SC, 5691SE, 5691SG, 5691SH, 5691SJ, 5691SK, 5691SL, 5691SM, 5691SN, 5691SP, 5691SR, 5691ST, 5691SV, 5691SW, 5691SX, 5691SZ, 5691TA, 5691TB, 5691TC, 5691TD, 5691TJ, 5691TK, 5691TL, 5691TM, 5691TN, 5691TP, 5691TR, 5691TS, 5691TT, 5691TV, 5691TW, 5691TX, 5691VA, 5691VB, 5691VC, 5691VD, 5691VE, 5691VG, 5691VH, 5691VJ, 5691VK, 5691VL, 5691VM, 5691VP, 5691VR, 5691VS, 5691WB, 5691WC, 5691WD, 5691WE, 5691WG, 5691WH, 5691WJ, 5691WK, 5691WL, 5691WN, 5691WP, 5691WT, 5691WV, 5691WX, 5691XA, 5691XB, 5691XD, 5691XE, 5691XG, 5691XH, 5691XJ, 5691XK, 5691XL, 5691XM, 5691XN, 5691XT, 5691XV, 5691ZA, 5691ZB, 5691ZC", "wijkcode": "WK084800", "gemeentecode": "GM0848", "gemeentenaam": "Son en Breugel", "oppervlakteLandInHa": 271, "AantalInwoners_5": 5335, "Mannen_6": 2605, "Vrouwen_7": 2725, "HuishoudensTotaal_29": 2530, "GemiddeldeHuishoudensgrootte_33": 2.0, "Woningvoorraad_35": 2616, "NieuwbouwWoningen_36": 3, "NietWoningvoorraad_37": 296, "NieuwbouwNietWoningen_38": 0, "GemiddeldeWOZWaardeVanWoningen_39": 496, "PercentageEengezinswoning_40": 69, "PercentageTussenwoningEengezins_41": 22, "PercentageHoekwoningEengezins_42": 13, "PercentageTweeOnderEenKapWoningEe_43": 17, "PercentageVrijstaandeWoningEengezins_44": 17, "PercentageMeergezinswoning_45": 31, "Koopwoningen_47": 63, "HuurwoningenTotaal_48": 37, "InBezitWoningcorporatie_49": 22, "InBezitOverigeVerhuurders_50": 15, "BouwjaarMeerDanTienJaarGeleden_51": 87, "BouwjaarAfgelopenTienJaar_52": 13, "GemiddeldeElektriciteitslevering_53": 2860, "GemiddeldeElektriciteitsteruglevering_54": 890, "GemiddeldAardgasverbruik_55": 1020, "AardgasvrijeWoningen_57": 4, "Aardgaswoningen_58": 89, "WoningenMetZonnestroom_59": 40, "WoningenHoofdzElektrVerwarmd_60": 8, "k_20PersonenMetHoogsteInkomen_80": 23.6, "k_20HuishoudensMetHoogsteInkomen_85": 22.8, "MediaanVermogenVanParticuliereHuish_86": 316.0, "PersonenautoSTotaal_104": 2965, "PersonenautoSBrandstofBenzine_105": 2305, "PersonenautoSOverigeBrandstof_106": 665, "PersonenautoSPerHuishouden_107": 1.2, "Omgevingsadressendichtheid_121": 862, "AantalInstallatiesBijWoningen_5": 742, "OpgesteldVermogenVanZonnepanelen_6": 3487, "installaties_per_woning": 0.28363914373088683, "vermogen_per_woning": 1.3329510703363914, "installaties_per_100_woningen": 28.363914373088683, "vermogen_per_huishouden": 1.3782608695652174, "batterijdruk_score": 356.0, "koop_zon_score": 0.252, "eengezins_zon_score": 0.276, "betaalkracht_zon_score": 126.4, "overige_brandstof_zon_score": 266.0, "lichte_batterij_kansscore": 0.38141899427827963 }, "geometry": { "type": "MultiPolygon", "coordinates": [ [ [ [ 5.492170756251358, 51.520133150756287 ], [ 5.499768724849984, 51.520401341674656 ], [ 5.499724275180354, 51.519907009695423 ], [ 5.500205375274988, 51.518102357454417 ], [ 5.500800269410886, 51.518068633946726 ], [ 5.501506072275887, 51.518005866144655 ], [ 5.502184145302316, 51.517749866643996 ], [ 5.502523238868042, 51.517424255584707 ], [ 5.502678413914754, 51.517275789551107 ], [ 5.502725889812172, 51.516647380212376 ], [ 5.503275959821591, 51.516522678518982 ], [ 5.504100811551243, 51.516282812676444 ], [ 5.50535644727438, 51.515501501757505 ], [ 5.505421960899584, 51.51524526008685 ], [ 5.504150936161698, 51.514506664227518 ], [ 5.503675898542354, 51.514123437100224 ], [ 5.503164450318997, 51.51349474204644 ], [ 5.502441372615481, 51.513019060909564 ], [ 5.501546028557215, 51.512687362547474 ], [ 5.500466125469319, 51.512354713136965 ], [ 5.499779928387657, 51.512119987583496 ], [ 5.499340992217212, 51.511747381951736 ], [ 5.498903416600136, 51.511284886963885 ], [ 5.498172117536591, 51.510912556605575 ], [ 5.497175046700023, 51.510739908060827 ], [ 5.496681617114648, 51.51043672531307 ], [ 5.496663351466877, 51.510048264217126 ], [ 5.497343792624651, 51.509043704690988 ], [ 5.497783019571984, 51.50899834579139 ], [ 5.498095820342282, 51.508518841799948 ], [ 5.498875050357238, 51.507896196505321 ], [ 5.499095601077009, 51.507433913143124 ], [ 5.499490468751308, 51.506932135406046 ], [ 5.499930523754277, 51.506594636715164 ], [ 5.500608354661118, 51.506396228421735 ], [ 5.502156634145007, 51.506351455454926 ], [ 5.503647606572731, 51.506427222751739 ], [ 5.503785326586988, 51.505632432399132 ], [ 5.501055884931844, 51.503390777084576 ], [ 5.499903808058169, 51.502812971816518 ], [ 5.497544244674049, 51.502062148225207 ], [ 5.49473104152769, 51.50128894416747 ], [ 5.494458360375027, 51.501199316069815 ], [ 5.493542813486682, 51.50232717984813 ], [ 5.492965232955545, 51.502147600643255 ], [ 5.492569065161374, 51.502418116669567 ], [ 5.492101630481625, 51.503071420281898 ], [ 5.49203041908086, 51.503476722073394 ], [ 5.491996526664925, 51.504422305728184 ], [ 5.491635787418882, 51.504422629409284 ], [ 5.491421201983135, 51.505233295909214 ], [ 5.489359630169974, 51.505172872358514 ], [ 5.489316247390043, 51.505258646733104 ], [ 5.482698806623564, 51.505034202533942 ], [ 5.482518319743948, 51.505248953172234 ], [ 5.482619024177661, 51.505514597509169 ], [ 5.482619647321608, 51.505811783959253 ], [ 5.482845843871085, 51.506139966250494 ], [ 5.483021525351892, 51.506311729746344 ], [ 5.483197664488179, 51.506593040763121 ], [ 5.483548702063302, 51.506780389955914 ], [ 5.483900068579867, 51.507014645940636 ], [ 5.48432664348741, 51.507264569254396 ], [ 5.484226766742909, 51.507499198410642 ], [ 5.48420205297524, 51.507624217706578 ], [ 5.484277756987581, 51.507874432598165 ], [ 5.484604020153458, 51.508046067317686 ], [ 5.48442930682057, 51.508437218995304 ], [ 5.483160572590532, 51.508408066553741 ], [ 5.482985945210003, 51.508763889730844 ], [ 5.482863542475081, 51.508763990232751 ], [ 5.482728039148411, 51.509001733103133 ], [ 5.48184378697932, 51.508892125046131 ], [ 5.481609034322428, 51.509259732304763 ], [ 5.481649652548529, 51.509268145130214 ], [ 5.480225005042157, 51.511051849055264 ], [ 5.482456797133995, 51.511753970508153 ], [ 5.482632730595969, 51.512035282443222 ], [ 5.482357231168735, 51.512144776195207 ], [ 5.481130393644015, 51.512630595668917 ], [ 5.480854918005916, 51.512755815963189 ], [ 5.480554168200949, 51.512740608399319 ], [ 5.480328662165937, 51.512756236621449 ], [ 5.47985285566645, 51.512881895745146 ], [ 5.479251224520693, 51.512897821992773 ], [ 5.479226683490549, 51.513116938478518 ], [ 5.478775634012754, 51.513132743314394 ], [ 5.478463654034678, 51.513130179007497 ], [ 5.47654134741233, 51.520318080548115 ], [ 5.478708613678392, 51.520529317913834 ], [ 5.48964707949319, 51.52171936101913 ], [ 5.491718528582306, 51.522110213808929 ], [ 5.492170756251358, 51.520133150756287 ] ] ] ] } },
{ "type": "Feature", "properties": { "buurtcode": "BU08480001", "buurtnaam": "De Gentiaan", "pc6_codes": "5691HA, 5691HB, 5691HC, 5691HD, 5691HE, 5691HG, 5691HH, 5691HJ, 5691HK, 5691HL, 5691HM, 5691HN, 5691HP, 5691HR, 5691HS, 5691JA, 5691JB, 5691JC, 5691JD, 5691JE, 5691JG, 5691JH, 5691JJ, 5691JK, 5691JL, 5691JM, 5691JN, 5691JP, 5691JR, 5691JS, 5691JT, 5691JV, 5691JW, 5691JX, 5691KA, 5691KB, 5691KC, 5691KD, 5691KE, 5691KH, 5691KL, 5691KM, 5691KN, 5691KP, 5691KR, 5691KS, 5691KT, 5691KV, 5691KW, 5691LA, 5691LB, 5691LC, 5691LD, 5691LE, 5691LG, 5691LH, 5691LJ, 5691LK, 5691LL, 5691LM, 5691LN, 5691LP, 5691LR, 5691LS, 5691LT, 5691LV, 5691LW, 5691LX, 5691LZ, 5691MA, 5691MB, 5691MC, 5691MD, 5691MG, 5691MH, 5691MJ, 5691MK, 5691NZ, 5691PA, 5691PH, 5691RA, 5691RB, 5691RC, 5691RD, 5691RE, 5691ZG, 5691ZH, 5691ZJ, 5691ZK, 5691ZL, 5691ZM, 5691ZN, 5691ZP, 5691ZR, 5691ZS, 5691ZT, 5691ZV, 5691ZX, 5691ZZ, 5692VA, 5692VE", "wijkcode": "WK084800", "gemeentecode": "GM0848", "gemeentenaam": "Son en Breugel", "oppervlakteLandInHa": 126, "AantalInwoners_5": 4340, "Mannen_6": 2130, "Vrouwen_7": 2205, "HuishoudensTotaal_29": 1745, "GemiddeldeHuishoudensgrootte_33": 2.5, "Woningvoorraad_35": 1743, "NieuwbouwWoningen_36": 0, "NietWoningvoorraad_37": 141, "NieuwbouwNietWoningen_38": 1, "GemiddeldeWOZWaardeVanWoningen_39": 500, "PercentageEengezinswoning_40": 98, "PercentageTussenwoningEengezins_41": 54, "PercentageHoekwoningEengezins_42": 23, "PercentageTweeOnderEenKapWoningEe_43": 8, "PercentageVrijstaandeWoningEengezins_44": 13, "PercentageMeergezinswoning_45": 2, "Koopwoningen_47": 89, "HuurwoningenTotaal_48": 11, "InBezitWoningcorporatie_49": 9, "InBezitOverigeVerhuurders_50": 2, "BouwjaarMeerDanTienJaarGeleden_51": 94, "BouwjaarAfgelopenTienJaar_52": 6, "GemiddeldeElektriciteitslevering_53": 3130, "GemiddeldeElektriciteitsteruglevering_54": 1440, "GemiddeldAardgasverbruik_55": 1200, "AardgasvrijeWoningen_57": 4, "Aardgaswoningen_58": 90, "WoningenMetZonnestroom_59": 62, "WoningenHoofdzElektrVerwarmd_60": 10, "k_20PersonenMetHoogsteInkomen_80": 31.3, "k_20HuishoudensMetHoogsteInkomen_85": 39.0, "MediaanVermogenVanParticuliereHuish_86": 376.2, "PersonenautoSTotaal_104": 2425, "PersonenautoSBrandstofBenzine_105": 1885, "PersonenautoSOverigeBrandstof_106": 540, "PersonenautoSPerHuishouden_107": 1.4, "Omgevingsadressendichtheid_121": 764, "AantalInstallatiesBijWoningen_5": 797, "OpgesteldVermogenVanZonnepanelen_6": 3563, "installaties_per_woning": 0.45725760183591507, "vermogen_per_woning": 2.0441767068273093, "installaties_per_100_woningen": 45.725760183591504, "vermogen_per_huishouden": 2.0418338108882521, "batterijdruk_score": 892.8, "koop_zon_score": 0.5518, "eengezins_zon_score": 0.6076, "betaalkracht_zon_score": 233.244, "overige_brandstof_zon_score": 334.8, "lichte_batterij_kansscore": 0.54908645214512009 }, "geometry": { "type": "MultiPolygon", "coordinates": [ [ [ [ 5.487422641367126, 51.529615837578511 ], [ 5.487554374039467, 51.529211236124063 ], [ 5.488147795702216, 51.52712985682367 ], [ 5.489020196669849, 51.527389768661109 ], [ 5.490470210032253, 51.527576412719263 ], [ 5.491718528582306, 51.522110213808929 ], [ 5.48964707949319, 51.52171936101913 ], [ 5.478708613678392, 51.520529317913834 ], [ 5.47654134741233, 51.520318080548115 ], [ 5.474745628129196, 51.520142198648777 ], [ 5.470013304421866, 51.519667572622311 ], [ 5.471263495329178, 51.524086274604322 ], [ 5.473003623381989, 51.528482412120944 ], [ 5.473262515847454, 51.528931651673503 ], [ 5.478987576396896, 51.52944862682866 ], [ 5.480936307270234, 51.529604377647679 ], [ 5.483956314903213, 51.530026061918527 ], [ 5.486978740896115, 51.530293174065854 ], [ 5.487422641367126, 51.529615837578511 ] ] ] ] } },
{ "type": "Feature", "properties": { "buurtcode": "BU08480002", "buurtnaam": "Industrieterrein Ekkersrijt", "pc6_codes": "5691NG, 5692AA, 5692AB, 5692AC, 5692AD, 5692AE, 5692AG, 5692AH, 5692AJ, 5692AK, 5692AL, 5692AM, 5692AN, 5692BA, 5692BB, 5692CA, 5692CC, 5692CD, 5692CG, 5692CH, 5692CK, 5692DA, 5692DB, 5692DC, 5692DD, 5692DE, 5692DH, 5692DJ, 5692DK, 5692DL, 5692DM, 5692DN, 5692DR, 5692EA, 5692EB, 5692EC, 5692ED, 5692EG, 5692EL, 5692EM, 5692EN, 5692EP, 5692ER, 5692GA, 5692HB, 5692HC, 5692HD, 5692HE, 5692HH, 5692HK, 5692HL, 5692HN, 5692HP, 5692HR, 5692JV, 5692JW, 5692KA", "wijkcode": "WK084800", "gemeentecode": "GM0848", "gemeentenaam": "Son en Breugel", "oppervlakteLandInHa": 264, "AantalInwoners_5": 50, "Mannen_6": 30, "Vrouwen_7": 20, "HuishoudensTotaal_29": 30, "GemiddeldeHuishoudensgrootte_33": 1.5, "Woningvoorraad_35": 22, "NieuwbouwWoningen_36": 0, "NietWoningvoorraad_37": 456, "NieuwbouwNietWoningen_38": 1, "GemiddeldeWOZWaardeVanWoningen_39": 438, "PercentageEengezinswoning_40": 73, "PercentageTussenwoningEengezins_41": 14, "PercentageHoekwoningEengezins_42": 5, "PercentageTweeOnderEenKapWoningEe_43": 23, "PercentageVrijstaandeWoningEengezins_44": 32, "PercentageMeergezinswoning_45": 27, "Koopwoningen_47": 45, "HuurwoningenTotaal_48": 55, "InBezitWoningcorporatie_49": 0, "InBezitOverigeVerhuurders_50": 55, "BouwjaarMeerDanTienJaarGeleden_51": 100, "BouwjaarAfgelopenTienJaar_52": 0, "GemiddeldeElektriciteitslevering_53": 4150, "GemiddeldeElektriciteitsteruglevering_54": 1420, "GemiddeldAardgasverbruik_55": 1680, "AardgasvrijeWoningen_57": null, "Aardgaswoningen_58": null, "WoningenMetZonnestroom_59": null, "WoningenHoofdzElektrVerwarmd_60": null, "k_20PersonenMetHoogsteInkomen_80": null, "k_20HuishoudensMetHoogsteInkomen_85": null, "MediaanVermogenVanParticuliereHuish_86": null, "PersonenautoSTotaal_104": 830, "PersonenautoSBrandstofBenzine_105": 470, "PersonenautoSOverigeBrandstof_106": 360, "PersonenautoSPerHuishouden_107": null, "Omgevingsadressendichtheid_121": 358, "AantalInstallatiesBijWoningen_5": 4, "OpgesteldVermogenVanZonnepanelen_6": 29, "installaties_per_woning": 0.18181818181818182, "vermogen_per_woning": 1.3181818181818181, "installaties_per_100_woningen": 18.181818181818183, "vermogen_per_huishouden": 0.96666666666666667, "batterijdruk_score": null, "koop_zon_score": null, "eengezins_zon_score": null, "betaalkracht_zon_score": null, "overige_brandstof_zon_score": null, "lichte_batterij_kansscore": null }, "geometry": { "type": "MultiPolygon", "coordinates": [ [ [ [ 5.489359630169974, 51.505172872358514 ], [ 5.491421201983135, 51.505233295909214 ], [ 5.491635787418882, 51.504422629409284 ], [ 5.491996526664925, 51.504422305728184 ], [ 5.49203041908086, 51.503476722073394 ], [ 5.492101630481625, 51.503071420281898 ], [ 5.492569065161374, 51.502418116669567 ], [ 5.492965232955545, 51.502147600643255 ], [ 5.493542813486682, 51.50232717984813 ], [ 5.494458360375027, 51.501199316069815 ], [ 5.49473104152769, 51.50128894416747 ], [ 5.496213932947731, 51.496776270134063 ], [ 5.496051737312266, 51.496774463953308 ], [ 5.495954199765148, 51.496773566227318 ], [ 5.495943024629639, 51.496773459798717 ], [ 5.494767706776135, 51.496762604212897 ], [ 5.494033806638702, 51.496755818464869 ], [ 5.494031675310221, 51.496755802440617 ], [ 5.493905568459262, 51.496755513441556 ], [ 5.491386989737435, 51.496731319892234 ], [ 5.490842361314348, 51.496726088576949 ], [ 5.490837018578251, 51.496726039394822 ], [ 5.490682712738812, 51.496724558512724 ], [ 5.490678867703694, 51.496724525971189 ], [ 5.49067304972854, 51.496724468214779 ], [ 5.49018951014206, 51.496719817810764 ], [ 5.490177888594757, 51.49671970223612 ], [ 5.490139970991114, 51.496719340223791 ], [ 5.488005223491466, 51.496698788048903 ], [ 5.486678382351069, 51.496686004465403 ], [ 5.486566429797526, 51.496684922436394 ], [ 5.486485899826635, 51.496684065222958 ], [ 5.484647021797294, 51.496666354292223 ], [ 5.484057982634672, 51.496660679017801 ], [ 5.483886482586175, 51.496659023667469 ], [ 5.47985612680938, 51.496619960615376 ], [ 5.47976842560624, 51.49661910446958 ], [ 5.479147820950474, 51.496613078932576 ], [ 5.479144674364596, 51.496613048156796 ], [ 5.478779735268283, 51.496609494621083 ], [ 5.478421557431911, 51.496606009258983 ], [ 5.478361553605607, 51.496643529875023 ], [ 5.478304337745302, 51.496678234834441 ], [ 5.478239234049236, 51.496714824554346 ], [ 5.478183981395068, 51.496744790904152 ], [ 5.478124681885203, 51.496774652521076 ], [ 5.478062673958836, 51.496804003866359 ], [ 5.477999251870595, 51.496831945062773 ], [ 5.477974301495405, 51.49684211267963 ], [ 5.477973553274325, 51.496842418876334 ], [ 5.477933998400903, 51.496858674183066 ], [ 5.477867502990417, 51.496883696390064 ], [ 5.477799607937, 51.496907362361419 ], [ 5.477730341830782, 51.496929564208799 ], [ 5.47766003614207, 51.496950427513539 ], [ 5.477588531448566, 51.496969440044566 ], [ 5.477516304409552, 51.49698732052196 ], [ 5.47744302234942, 51.497003332133055 ], [ 5.477369204860427, 51.497018058735918 ], [ 5.477294303813093, 51.497031042332225 ], [ 5.477218665722354, 51.497042732084601 ], [ 5.477142720976584, 51.497052300704041 ], [ 5.4770659674301, 51.497060692384977 ], [ 5.476989642143364, 51.497067196069779 ], [ 5.476912003708276, 51.497072352418478 ], [ 5.476834405405783, 51.49707596263746 ], [ 5.476757307144042, 51.497077558963859 ], [ 5.476679601585777, 51.497077906283756 ], [ 5.476602122207668, 51.497076105091928 ], [ 5.476524669020094, 51.497072973508956 ], [ 5.476447601711362, 51.497068340475153 ], [ 5.47637067447119, 51.497061693826559 ], [ 5.476294478813554, 51.497053581418669 ], [ 5.476218568712024, 51.497044201343826 ], [ 5.476143130483634, 51.497033095039441 ], [ 5.476068639517138, 51.49702034304174 ], [ 5.475994347459683, 51.497006188616155 ], [ 5.475921405387481, 51.496990127522594 ], [ 5.475849138109404, 51.496972996221317 ], [ 5.475777774619929, 51.496954066459125 ], [ 5.475707747734168, 51.496933742398141 ], [ 5.475643625312892, 51.496913485723738 ], [ 5.475583866340306, 51.496893225705207 ], [ 5.475534308764634, 51.496875888223293 ], [ 5.475465799033572, 51.496850655066361 ], [ 5.475396609162726, 51.496823678586438 ], [ 5.475304197976603, 51.496785366961731 ], [ 5.47518545227291, 51.496734275315305 ], [ 5.475092432133326, 51.4966936449119 ], [ 5.475014771896996, 51.496657524151125 ], [ 5.475014469207143, 51.496657380560855 ], [ 5.474897793066745, 51.496603815184599 ], [ 5.474825726927108, 51.496570997910354 ], [ 5.474750159104, 51.496536906834379 ], [ 5.474600308158213, 51.496470134789703 ], [ 5.474447564762502, 51.496404200662163 ], [ 5.474291914365375, 51.496339023553503 ], [ 5.474169243378856, 51.496289884342794 ], [ 5.474050842266941, 51.49624444514361 ], [ 5.473886550300894, 51.496185539020786 ], [ 5.473719628010441, 51.496129007622258 ], [ 5.473550622781474, 51.496074949406299 ], [ 5.473380010470994, 51.496023714569262 ], [ 5.473206768253768, 51.495975106108659 ], [ 5.473032192137715, 51.495929123058318 ], [ 5.472855447658429, 51.495886179503401 ], [ 5.472677110595622, 51.495846167147924 ], [ 5.472497179888991, 51.495808537677966 ], [ 5.472315945221618, 51.495774198727908 ], [ 5.472133174437813, 51.495742233618905 ], [ 5.471949329998242, 51.49571354087206 ], [ 5.471764310494307, 51.495687814941959 ], [ 5.471578244792425, 51.495664678206516 ], [ 5.47139150833531, 51.495644705662926 ], [ 5.471203682896064, 51.495627583006758 ], [ 5.471015632470918, 51.495613318599965 ], [ 5.470826853546537, 51.495602200439521 ], [ 5.47063746098874, 51.495594066643996 ], [ 5.470448318955127, 51.495589015468127 ], [ 5.470258519617761, 51.49558673295757 ], [ 5.470147537825132, 51.4955871985199 ], [ 5.469886915107182, 51.495591158974051 ], [ 5.46988674230452, 51.495591159096662 ], [ 5.469852659024648, 51.495592306857148 ], [ 5.469864763771845, 51.495699820462008 ], [ 5.468790952279581, 51.495789412063353 ], [ 5.468738008627412, 51.495792097177059 ], [ 5.468276922409768, 51.495815478377807 ], [ 5.468259042055381, 51.496503760442707 ], [ 5.46825896098044, 51.496506744729579 ], [ 5.468249986604106, 51.496843942043164 ], [ 5.468008531681246, 51.496844253554151 ], [ 5.466465647550265, 51.496844306583789 ], [ 5.466294393704693, 51.496859991289604 ], [ 5.466282414279681, 51.496861087046661 ], [ 5.465599528651587, 51.496923633092578 ], [ 5.465264255354581, 51.496950446610406 ], [ 5.465136798130342, 51.496960644159465 ], [ 5.464978424574499, 51.496955186013366 ], [ 5.464925653345383, 51.496959409936153 ], [ 5.464613812678572, 51.496979761093606 ], [ 5.463895144653734, 51.496978501556207 ], [ 5.463429065439544, 51.496892004073274 ], [ 5.462764879923233, 51.496866846057287 ], [ 5.462757962138168, 51.49683760149216 ], [ 5.462452855782842, 51.496820154246507 ], [ 5.462036414358989, 51.496774023094403 ], [ 5.461668150494545, 51.49672320355505 ], [ 5.461610270107839, 51.496711744059155 ], [ 5.461183990207474, 51.496627369465052 ], [ 5.460861702803647, 51.496563583516654 ], [ 5.460699831973982, 51.496531542355022 ], [ 5.460318060125537, 51.496460511616164 ], [ 5.460191473669326, 51.496438910382601 ], [ 5.460064872932786, 51.496417309020778 ], [ 5.459723647227598, 51.496368587755654 ], [ 5.458494940128308, 51.496203496697269 ], [ 5.45843139427963, 51.496196398585845 ], [ 5.458387623701912, 51.496191508552592 ], [ 5.457343300443651, 51.496114273417113 ], [ 5.455902638950069, 51.495989380862916 ], [ 5.454466278940128, 51.495846580647012 ], [ 5.45303494208212, 51.49568587252034 ], [ 5.451608918016893, 51.49550725650731 ], [ 5.45142314771152, 51.495481552696226 ], [ 5.451297308544758, 51.495464143600806 ], [ 5.450821419304036, 51.495398306541034 ], [ 5.450604597119226, 51.495368303837196 ], [ 5.450188928497357, 51.495310822298485 ], [ 5.449783324024503, 51.495249371677289 ], [ 5.450511802107273, 51.498700602889386 ], [ 5.452533553691964, 51.503827506338823 ], [ 5.459355562066381, 51.504117016472208 ], [ 5.468941337879689, 51.50446124357849 ], [ 5.475325752322375, 51.504595914177806 ], [ 5.476151712933294, 51.50461326496783 ], [ 5.478754680002222, 51.504753382460386 ], [ 5.48047476694185, 51.504880387400526 ], [ 5.480875186643937, 51.504908155826293 ], [ 5.482698806623564, 51.505034202533942 ], [ 5.489316247390043, 51.505258646733104 ], [ 5.489359630169974, 51.505172872358514 ] ] ] ] } },
{ "type": "Feature", "properties": { "buurtcode": "BU08480003", "buurtnaam": "'t Zand", "pc6_codes": "5691CD, 5691CG, 5691NT, 5691NV, 5691NW, 5691NX, 5691RG, 5691RH, 5691RJ, 5691RK, 5691RL, 5691RM, 5691RN, 5691RP, 5691RR, 5691RS, 5691RT, 5691RV, 5691RW, 5691RX, 5691RZ, 5691SN", "wijkcode": "WK084800", "gemeentecode": "GM0848", "gemeentenaam": "Son en Breugel", "oppervlakteLandInHa": 62, "AantalInwoners_5": 1115, "Mannen_6": 545, "Vrouwen_7": 570, "HuishoudensTotaal_29": 450, "GemiddeldeHuishoudensgrootte_33": 2.5, "Woningvoorraad_35": 445, "NieuwbouwWoningen_36": 0, "NietWoningvoorraad_37": 2, "NieuwbouwNietWoningen_38": 0, "GemiddeldeWOZWaardeVanWoningen_39": 625, "PercentageEengezinswoning_40": 90, "PercentageTussenwoningEengezins_41": 44, "PercentageHoekwoningEengezins_42": 11, "PercentageTweeOnderEenKapWoningEe_43": 5, "PercentageVrijstaandeWoningEengezins_44": 29, "PercentageMeergezinswoning_45": 10, "Koopwoningen_47": 89, "HuurwoningenTotaal_48": 11, "InBezitWoningcorporatie_49": 9, "InBezitOverigeVerhuurders_50": 2, "BouwjaarMeerDanTienJaarGeleden_51": 100, "BouwjaarAfgelopenTienJaar_52": 0, "GemiddeldeElektriciteitslevering_53": 3600, "GemiddeldeElektriciteitsteruglevering_54": 1960, "GemiddeldAardgasverbruik_55": 990, "AardgasvrijeWoningen_57": 5, "Aardgaswoningen_58": 86, "WoningenMetZonnestroom_59": 65, "WoningenHoofdzElektrVerwarmd_60": 14, "k_20PersonenMetHoogsteInkomen_80": 36.4, "k_20HuishoudensMetHoogsteInkomen_85": 52.0, "MediaanVermogenVanParticuliereHuish_86": 521.1, "PersonenautoSTotaal_104": 645, "PersonenautoSBrandstofBenzine_105": 475, "PersonenautoSOverigeBrandstof_106": 170, "PersonenautoSPerHuishouden_107": 1.4, "Omgevingsadressendichtheid_121": 513, "AantalInstallatiesBijWoningen_5": 230, "OpgesteldVermogenVanZonnepanelen_6": 1202, "installaties_per_woning": 0.5168539325842697, "vermogen_per_woning": 2.7011235955056181, "installaties_per_100_woningen": 51.68539325842697, "vermogen_per_huishouden": 2.6711111111111112, "batterijdruk_score": 1274.0, "koop_zon_score": 0.5785, "eengezins_zon_score": 0.585, "betaalkracht_zon_score": 338.715, "overige_brandstof_zon_score": 110.5, "lichte_batterij_kansscore": 0.54756521545405534 }, "geometry": { "type": "MultiPolygon", "coordinates": [ [ [ [ 5.473262570923864, 51.513293401661898 ], [ 5.475142049885172, 51.513276269728735 ], [ 5.477422516075314, 51.513196438349354 ], [ 5.478463654034678, 51.513130179007497 ], [ 5.478775634012754, 51.513132743314394 ], [ 5.479226683490549, 51.513116938478518 ], [ 5.479251224520693, 51.512897821992773 ], [ 5.47985285566645, 51.512881895745146 ], [ 5.480328662165937, 51.512756236621449 ], [ 5.480554168200949, 51.512740608399319 ], [ 5.480854918005916, 51.512755815963189 ], [ 5.481130393644015, 51.512630595668917 ], [ 5.482357231168735, 51.512144776195207 ], [ 5.482632730595969, 51.512035282443222 ], [ 5.482456797133995, 51.511753970508153 ], [ 5.480225005042157, 51.511051849055264 ], [ 5.481649652548529, 51.509268145130214 ], [ 5.481609034322428, 51.509259732304763 ], [ 5.48184378697932, 51.508892125046131 ], [ 5.482728039148411, 51.509001733103133 ], [ 5.482863542475081, 51.508763990232751 ], [ 5.482985945210003, 51.508763889730844 ], [ 5.483160572590532, 51.508408066553741 ], [ 5.48442930682057, 51.508437218995304 ], [ 5.484604020153458, 51.508046067317686 ], [ 5.484277756987581, 51.507874432598165 ], [ 5.48420205297524, 51.507624217706578 ], [ 5.484226766742909, 51.507499198410642 ], [ 5.48432664348741, 51.507264569254396 ], [ 5.483900068579867, 51.507014645940636 ], [ 5.483548702063302, 51.506780389955914 ], [ 5.483197664488179, 51.506593040763121 ], [ 5.483021525351892, 51.506311729746344 ], [ 5.482845843871085, 51.506139966250494 ], [ 5.482619647321608, 51.505811783959253 ], [ 5.482619024177661, 51.505514597509169 ], [ 5.482518319743948, 51.505248953172234 ], [ 5.482698806623564, 51.505034202533942 ], [ 5.480875186643937, 51.504908155826293 ], [ 5.48047476694185, 51.504880387400526 ], [ 5.478754680002222, 51.504753382460386 ], [ 5.476151712933294, 51.50461326496783 ], [ 5.475325752322375, 51.504595914177806 ], [ 5.474900404842463, 51.50494201633321 ], [ 5.474499981332171, 51.505145684932124 ], [ 5.473948846669806, 51.505271095155102 ], [ 5.473498260311257, 51.505490527754766 ], [ 5.473568605967091, 51.5055493494486 ], [ 5.47063843908243, 51.510671620146177 ], [ 5.471145710329144, 51.510797810531066 ], [ 5.4711277398581, 51.510824206918969 ], [ 5.47406094939482, 51.511400701576378 ], [ 5.473735567767062, 51.511682400266892 ], [ 5.473335318368616, 51.512011062385312 ], [ 5.4729849429624, 51.512292777433096 ], [ 5.472784556822442, 51.512261745847596 ], [ 5.472159907880748, 51.513325389418846 ], [ 5.473262570923864, 51.513293401661898 ] ] ] ] } },
{ "type": "Feature", "properties": { "buurtcode": "BU08480009", "buurtnaam": "Verspreide huizen Son", "pc6_codes": "5691NE, 5691NG, 5691NH, 5691NL, 5691NM, 5691NN, 5691PA, 5691PB, 5691PC, 5691PD, 5691PE, 5691PG, 5691PJ, 5691PK, 5691PL, 5691PM, 5691PN, 5691PP, 5691PR, 5691PS, 5691PT, 5691SB, 5692KA, 5692VA, 5692VB, 5692VC, 5692VD, 5692VG, 5692VH, 5692VJ, 5692VK, 5692VL, 5692VM, 5692VN, 5692VP, 5692VR, 5692VS, 5692VT, 5692VV, 5692WB, 5692WD, 5692WG, 5692WH, 5692WJ, 5692WK, 5692WL, 5692WM, 5692WN, 5692WP, 5692WR, 5692WS, 5692WT, 5692WV, 5692WZ, 5694TS", "wijkcode": "WK084800", "gemeentecode": "GM0848", "gemeentenaam": "Son en Breugel", "oppervlakteLandInHa": 1222, "AantalInwoners_5": 2305, "Mannen_6": 1165, "Vrouwen_7": 1140, "HuishoudensTotaal_29": 830, "GemiddeldeHuishoudensgrootte_33": 2.8, "Woningvoorraad_35": 820, "NieuwbouwWoningen_36": 3, "NietWoningvoorraad_37": 32, "NieuwbouwNietWoningen_38": 1, "GemiddeldeWOZWaardeVanWoningen_39": 545, "PercentageEengezinswoning_40": 97, "PercentageTussenwoningEengezins_41": 36, "PercentageHoekwoningEengezins_42": 25, "PercentageTweeOnderEenKapWoningEe_43": 11, "PercentageVrijstaandeWoningEengezins_44": 26, "PercentageMeergezinswoning_45": 3, "Koopwoningen_47": 72, "HuurwoningenTotaal_48": 28, "InBezitWoningcorporatie_49": 17, "InBezitOverigeVerhuurders_50": 11, "BouwjaarMeerDanTienJaarGeleden_51": 49, "BouwjaarAfgelopenTienJaar_52": 51, "GemiddeldeElektriciteitslevering_53": 3370, "GemiddeldeElektriciteitsteruglevering_54": 1930, "GemiddeldAardgasverbruik_55": 760, "AardgasvrijeWoningen_57": 18, "Aardgaswoningen_58": 76, "WoningenMetZonnestroom_59": 75, "WoningenHoofdzElektrVerwarmd_60": 21, "k_20PersonenMetHoogsteInkomen_80": 34.6, "k_20HuishoudensMetHoogsteInkomen_85": 41.8, "MediaanVermogenVanParticuliereHuish_86": 297.6, "PersonenautoSTotaal_104": 1120, "PersonenautoSBrandstofBenzine_105": 835, "PersonenautoSOverigeBrandstof_106": 285, "PersonenautoSPerHuishouden_107": 1.3, "Omgevingsadressendichtheid_121": 560, "AantalInstallatiesBijWoningen_5": 506, "OpgesteldVermogenVanZonnepanelen_6": 2288, "installaties_per_woning": 0.61707317073170731, "vermogen_per_woning": 2.7902439024390242, "installaties_per_100_woningen": 61.707317073170728, "vermogen_per_huishouden": 2.7566265060240962, "batterijdruk_score": 1447.5, "koop_zon_score": 0.54, "eengezins_zon_score": 0.7275, "betaalkracht_zon_score": 223.2, "overige_brandstof_zon_score": 213.75, "lichte_batterij_kansscore": 0.54872852795393601 }, "geometry": { "type": "MultiPolygon", "coordinates": [ [ [ [ 5.507054716932998, 51.501722709180335 ], [ 5.507512705377569, 51.501740214851615 ], [ 5.50816171716929, 51.502083077852369 ], [ 5.508745808497487, 51.502380780348403 ], [ 5.509350249060453, 51.502210208525668 ], [ 5.509592040221791, 51.500576830074785 ], [ 5.509328529760197, 51.500073742037657 ], [ 5.508899722532653, 51.499604813898756 ], [ 5.50963327313368, 51.498760236589369 ], [ 5.509792286578174, 51.498587549477726 ], [ 5.509817672491866, 51.498372339008746 ], [ 5.50994677865599, 51.49800992463588 ], [ 5.510006584351081, 51.497838816645697 ], [ 5.51005431164972, 51.497679990855964 ], [ 5.510094532392093, 51.497578475601628 ], [ 5.510178800661944, 51.497411467523726 ], [ 5.510240401603342, 51.497287035573883 ], [ 5.510286579331003, 51.497205244052118 ], [ 5.510365364642338, 51.497130420233574 ], [ 5.510480796172506, 51.497086208922369 ], [ 5.510689774025247, 51.497047129861897 ], [ 5.510942104826413, 51.497021271678442 ], [ 5.511164402620887, 51.496998024623537 ], [ 5.51134803281388, 51.496953137693481 ], [ 5.511424142114053, 51.496922162645568 ], [ 5.511146907677761, 51.496919545333334 ], [ 5.510675374472921, 51.49691509284267 ], [ 5.509569864699961, 51.4969046448904 ], [ 5.508351278590595, 51.49689311750948 ], [ 5.506468374303909, 51.496875283615509 ], [ 5.506274119055542, 51.496873441727026 ], [ 5.506218646356715, 51.496872914100322 ], [ 5.505741353692816, 51.496868384642731 ], [ 5.504256984650236, 51.496854297953767 ], [ 5.502979313926071, 51.496842153594585 ], [ 5.502830450877859, 51.496840737293041 ], [ 5.501361895878877, 51.496826759912118 ], [ 5.500092939285637, 51.496814674312084 ], [ 5.49915615606024, 51.496805735035238 ], [ 5.49785440961801, 51.496793306031861 ], [ 5.497211248121759, 51.496787056339997 ], [ 5.497071544682269, 51.496785821803513 ], [ 5.496789270481782, 51.496782680775659 ], [ 5.496554894063658, 51.496780069422485 ], [ 5.496536518370999, 51.49677986194051 ], [ 5.496377639269504, 51.496778096247631 ], [ 5.49629563274289, 51.496777184261923 ], [ 5.496293558993404, 51.496777159236437 ], [ 5.496284039923898, 51.496777051290827 ], [ 5.496213932947731, 51.496776270134063 ], [ 5.49473104152769, 51.50128894416747 ], [ 5.497544244674049, 51.502062148225207 ], [ 5.499903808058169, 51.502812971816518 ], [ 5.501055884931844, 51.503390777084576 ], [ 5.503785326586988, 51.505632432399132 ], [ 5.503852075123462, 51.505245011707281 ], [ 5.504220631914832, 51.504079769803958 ], [ 5.504505787979245, 51.50356544513977 ], [ 5.504900517270543, 51.503046234441527 ], [ 5.5057252681789, 51.502778547741137 ], [ 5.506311841659987, 51.502395933492814 ], [ 5.50669664009071, 51.501962118048567 ], [ 5.507054716932998, 51.501722709180335 ] ] ], [ [ [ 5.487701546987555, 51.541343155250047 ], [ 5.487944593958265, 51.541362621684996 ], [ 5.488141462525614, 51.540678858089876 ], [ 5.488230547144334, 51.540369473613445 ], [ 5.488242519418795, 51.54032789987069 ], [ 5.488237317496259, 51.539720345642834 ], [ 5.488191547291468, 51.539620971149546 ], [ 5.488117188426928, 51.539370073251717 ], [ 5.488001178652819, 51.538978647268188 ], [ 5.488258210916474, 51.538151345992183 ], [ 5.488279262518967, 51.538083580520833 ], [ 5.488478584354207, 51.537442033598303 ], [ 5.488578448397793, 51.534729917870749 ], [ 5.488620394249051, 51.534474289917441 ], [ 5.488710809397819, 51.533922615422476 ], [ 5.488710837840426, 51.533922444613879 ], [ 5.488710880876396, 51.533922354690198 ], [ 5.488804252516585, 51.533353239595257 ], [ 5.488815413741922, 51.533285212956777 ], [ 5.488846140364668, 51.533265842665728 ], [ 5.488958742004996, 51.533194833231391 ], [ 5.489032227731554, 51.533065575607431 ], [ 5.489061795287943, 51.533017919071618 ], [ 5.489275656006046, 51.532755066538826 ], [ 5.48928377586695, 51.532744875321384 ], [ 5.489505324970763, 51.532467013617847 ], [ 5.490034812928816, 51.531802935819471 ], [ 5.49032574196826, 51.531422352257103 ], [ 5.490733104829277, 51.53085595965949 ], [ 5.491050731385926, 51.530395828182222 ], [ 5.491061777049802, 51.530379836570049 ], [ 5.491083827087974, 51.530336123222398 ], [ 5.491090599323675, 51.530323074694152 ], [ 5.491132330975589, 51.530258705919415 ], [ 5.491139410741809, 51.530247805395859 ], [ 5.492013953326986, 51.528899070366023 ], [ 5.492695216457201, 51.527848332796474 ], [ 5.492761454240444, 51.527746153065017 ], [ 5.493449072240691, 51.526685553696716 ], [ 5.493480037520771, 51.526690846753183 ], [ 5.493501238861536, 51.52671720006925 ], [ 5.493512751506843, 51.526729063554768 ], [ 5.493769657124496, 51.52699386781179 ], [ 5.49390376522655, 51.527094840308159 ], [ 5.494037784857965, 51.527151858337696 ], [ 5.494192903182305, 51.527191275103938 ], [ 5.494253692437786, 51.527206374153501 ], [ 5.49426341065777, 51.527208792163201 ], [ 5.49443960687821, 51.527221816616247 ], [ 5.494643989625156, 51.527234814842537 ], [ 5.494932858749622, 51.527216966631137 ], [ 5.495549251599273, 51.527154014596526 ], [ 5.495797147678058, 51.527128526011573 ], [ 5.495968342338108, 51.527110928557171 ], [ 5.496452520420045, 51.527048715185657 ], [ 5.496834551583962, 51.527359758789594 ], [ 5.497196503429703, 51.527654433807029 ], [ 5.498271528741403, 51.52852964457805 ], [ 5.499920494134194, 51.528028411897431 ], [ 5.499998511423533, 51.528004705376418 ], [ 5.500000541759722, 51.528004083197686 ], [ 5.50000352238323, 51.528003136509341 ], [ 5.500290121810582, 51.52791185812773 ], [ 5.500501226115127, 51.527844634056329 ], [ 5.500846228240762, 51.527730017017561 ], [ 5.501898241891109, 51.527437135547913 ], [ 5.50198699029988, 51.527412428395188 ], [ 5.501662069246239, 51.527105066886698 ], [ 5.501534843173483, 51.526951351261886 ], [ 5.501576757010329, 51.52680626065434 ], [ 5.501715903169719, 51.526767032584658 ], [ 5.501858418684694, 51.526726866219697 ], [ 5.502161875773345, 51.52690678058692 ], [ 5.502261006672646, 51.527095686765755 ], [ 5.502453766541787, 51.527218272165577 ], [ 5.502571559120824, 51.527293174827022 ], [ 5.502768234340018, 51.527051230948544 ], [ 5.502930002991941, 51.526932393689954 ], [ 5.503077778715145, 51.526853129067092 ], [ 5.50346482079588, 51.526650553705217 ], [ 5.503661897626123, 51.52656244831195 ], [ 5.503725146865288, 51.526496453545477 ], [ 5.503767166174377, 51.526395316439014 ], [ 5.503766838814227, 51.526267848998643 ], [ 5.503752531454452, 51.526184349929245 ], [ 5.503667647072763, 51.526056966941852 ], [ 5.503561623983129, 51.525929613968877 ], [ 5.503441643779341, 51.525855011104184 ], [ 5.503342825601331, 51.525789177928722 ], [ 5.50311712814053, 51.525705889059843 ], [ 5.502778645058344, 51.525605129798819 ], [ 5.502651735686588, 51.525570091951863 ], [ 5.502390864684311, 51.525508813689662 ], [ 5.501876204422611, 51.525399434777562 ], [ 5.501488523980294, 51.525347069980107 ], [ 5.501136086985825, 51.525299064917313 ], [ 5.500875329663075, 51.52528173756496 ], [ 5.500579373978681, 51.525277630170159 ], [ 5.500382165210524, 51.525312985214811 ], [ 5.500276525351587, 51.525335064873012 ], [ 5.500156759944868, 51.525343971794427 ], [ 5.50011448207144, 51.525344012728127 ], [ 5.49993818233439, 51.525287042533158 ], [ 5.49992388231774, 51.525203542986524 ], [ 5.499895271528945, 51.525032148456489 ], [ 5.499937308927112, 51.524935408144394 ], [ 5.500063715148879, 51.524763863722761 ], [ 5.500133739914844, 51.524587978323098 ], [ 5.500203829797996, 51.524438465459632 ], [ 5.500238677530638, 51.524284591270053 ], [ 5.500252364782313, 51.524121955686375 ], [ 5.500259104351281, 51.523998876812165 ], [ 5.50022347981761, 51.523840675467277 ], [ 5.500159605682077, 51.52365612882577 ], [ 5.50009575393045, 51.523480373007366 ], [ 5.500053182727886, 51.523361737297506 ], [ 5.500024750906168, 51.523256274218355 ], [ 5.4999963887025, 51.523190370033689 ], [ 5.499953897951411, 51.52309810685415 ], [ 5.499890295267334, 51.523027841263101 ], [ 5.499854927184988, 51.522966339252783 ], [ 5.499826456347395, 51.522856480719241 ], [ 5.499840297329314, 51.522755372206746 ], [ 5.499966228343272, 51.522394833331184 ], [ 5.500043383087151, 51.522254104589656 ], [ 5.500113349405006, 51.522056242015935 ], [ 5.500169529862128, 51.521981465111494 ], [ 5.50024683652623, 51.521902272264221 ], [ 5.500281846422774, 51.521814329496863 ], [ 5.500281594577414, 51.521713234585619 ], [ 5.5002320007072, 51.521603396617522 ], [ 5.500080271416584, 51.521385820885357 ], [ 5.500108861965638, 51.521377103001548 ], [ 5.499795343485139, 51.520695131946994 ], [ 5.499768724849984, 51.520401341674656 ], [ 5.492170756251358, 51.520133150756287 ], [ 5.491718528582306, 51.522110213808929 ], [ 5.490470210032253, 51.527576412719263 ], [ 5.489020196669849, 51.527389768661109 ], [ 5.488147795702216, 51.52712985682367 ], [ 5.487554374039467, 51.529211236124063 ], [ 5.487422641367126, 51.529615837578511 ], [ 5.486978740896115, 51.530293174065854 ], [ 5.483956314903213, 51.530026061918527 ], [ 5.480936307270234, 51.529604377647679 ], [ 5.478987576396896, 51.52944862682866 ], [ 5.473262515847454, 51.528931651673503 ], [ 5.473003623381989, 51.528482412120944 ], [ 5.471263495329178, 51.524086274604322 ], [ 5.470013304421866, 51.519667572622311 ], [ 5.474745628129196, 51.520142198648777 ], [ 5.47654134741233, 51.520318080548115 ], [ 5.478463654034678, 51.513130179007497 ], [ 5.477422516075314, 51.513196438349354 ], [ 5.475142049885172, 51.513276269728735 ], [ 5.473262570923864, 51.513293401661898 ], [ 5.472159907880748, 51.513325389418846 ], [ 5.472784556822442, 51.512261745847596 ], [ 5.4729849429624, 51.512292777433096 ], [ 5.473335318368616, 51.512011062385312 ], [ 5.473735567767062, 51.511682400266892 ], [ 5.47406094939482, 51.511400701576378 ], [ 5.4711277398581, 51.510824206918969 ], [ 5.471145710329144, 51.510797810531066 ], [ 5.47063843908243, 51.510671620146177 ], [ 5.473568605967091, 51.5055493494486 ], [ 5.473498260311257, 51.505490527754766 ], [ 5.473948846669806, 51.505271095155102 ], [ 5.474499981332171, 51.505145684932124 ], [ 5.474900404842463, 51.50494201633321 ], [ 5.475325752322375, 51.504595914177806 ], [ 5.468941337879689, 51.50446124357849 ], [ 5.459355562066381, 51.504117016472208 ], [ 5.452533553691964, 51.503827506338823 ], [ 5.450511802107273, 51.498700602889386 ], [ 5.449783324024503, 51.495249371677289 ], [ 5.449549860838361, 51.495213998949126 ], [ 5.449543408243923, 51.495213022641352 ], [ 5.448775551360428, 51.495096749581059 ], [ 5.447369364156434, 51.494865038296439 ], [ 5.445970944640577, 51.494615868185072 ], [ 5.444580726176379, 51.494349149425553 ], [ 5.443199286661851, 51.494065241577843 ], [ 5.442570568918303, 51.49392721604363 ], [ 5.442453750111631, 51.494156787621037 ], [ 5.442405137494248, 51.494252306052118 ], [ 5.442339329164493, 51.494381638902958 ], [ 5.442305239693131, 51.494448629439844 ], [ 5.441748998320387, 51.495104702950208 ], [ 5.441406550035889, 51.495490349926847 ], [ 5.440704808013792, 51.496059287231553 ], [ 5.440708317984371, 51.496068337182741 ], [ 5.440740673412677, 51.496151826808486 ], [ 5.440746436748746, 51.496166709351975 ], [ 5.440751505440538, 51.496178688882701 ], [ 5.441574374581414, 51.498124780185698 ], [ 5.441834709362097, 51.498740452228283 ], [ 5.442182141451524, 51.499562048306956 ], [ 5.442197653152216, 51.499598741605119 ], [ 5.442286838582527, 51.499809617920263 ], [ 5.442672750342783, 51.50072216830614 ], [ 5.442793124351101, 51.501006799131822 ], [ 5.442879816540377, 51.501211797593868 ], [ 5.443053983204723, 51.501623600658121 ], [ 5.443070897373746, 51.501663583004984 ], [ 5.443239304207014, 51.502061806708824 ], [ 5.443262285430611, 51.502116158942442 ], [ 5.443767177998224, 51.503309884782489 ], [ 5.443836342266801, 51.50347342642339 ], [ 5.443860509435013, 51.503530573424271 ], [ 5.444070360318503, 51.504026697941391 ], [ 5.44410531906252, 51.504109349376115 ], [ 5.444125947681671, 51.504158129625949 ], [ 5.444138125495281, 51.504186905294077 ], [ 5.444417249246344, 51.504844619984965 ], [ 5.444458741062995, 51.50494435550106 ], [ 5.444481240453946, 51.505002635756433 ], [ 5.444782206079618, 51.505714162758267 ], [ 5.445593775259602, 51.507632697908733 ], [ 5.445792894069624, 51.508098793541656 ], [ 5.446060914129733, 51.508710074424833 ], [ 5.446473671277634, 51.509668368274987 ], [ 5.447044650910261, 51.51099399885468 ], [ 5.447114297194113, 51.511155695553128 ], [ 5.447507692328061, 51.512068953505739 ], [ 5.447185667516573, 51.512391685917287 ], [ 5.447059655944953, 51.512517978131974 ], [ 5.445367569042352, 51.513973618812251 ], [ 5.444526363449666, 51.514697279251585 ], [ 5.444388515193512, 51.514815862137418 ], [ 5.444354884061788, 51.514844777099121 ], [ 5.444286024331395, 51.514904010002851 ], [ 5.444253760213739, 51.514931764731593 ], [ 5.44183180957302, 51.517014863869271 ], [ 5.437668194847866, 51.520624392136085 ], [ 5.437117970190615, 51.521077035959848 ], [ 5.437152896905848, 51.521090989306622 ], [ 5.437009500789486, 51.521191678426732 ], [ 5.436999984217902, 51.521198361047858 ], [ 5.43600848770203, 51.52204052092145 ], [ 5.435733835640598, 51.522273791732303 ], [ 5.435124520954779, 51.522791303655538 ], [ 5.435117510150194, 51.522797266000644 ], [ 5.434241273656102, 51.523541477120702 ], [ 5.434231556082277, 51.523549723616938 ], [ 5.433650749945516, 51.524121498579056 ], [ 5.433631086787429, 51.524140921854425 ], [ 5.433449150354715, 51.524319616242039 ], [ 5.43337726214691, 51.524390259420962 ], [ 5.433370366975162, 51.524397039579377 ], [ 5.431911537557619, 51.525830566629836 ], [ 5.431911307231389, 51.525830800422554 ], [ 5.431886589543486, 51.525855088188429 ], [ 5.431522126562314, 51.526213226458843 ], [ 5.431382210518444, 51.526350706723527 ], [ 5.431192770414535, 51.526536842990765 ], [ 5.431170729677989, 51.526558504913737 ], [ 5.429206343200406, 51.528443677316957 ], [ 5.429198928325409, 51.528450798981964 ], [ 5.428259768138139, 51.529352036747284 ], [ 5.428237162636669, 51.529373725276585 ], [ 5.427207468786482, 51.53047848877339 ], [ 5.426439009844881, 51.531302917073184 ], [ 5.427401565604524, 51.531620587854484 ], [ 5.427505038731539, 51.531666304131733 ], [ 5.42735911349866, 51.531820707165778 ], [ 5.427290592374448, 51.531893215024013 ], [ 5.427289066044397, 51.531894698672126 ], [ 5.426666088028091, 51.532504097354405 ], [ 5.426433778597907, 51.532732783473342 ], [ 5.426420558711881, 51.532744706839324 ], [ 5.425741943293217, 51.532527975340386 ], [ 5.425303567708736, 51.532381964806611 ], [ 5.425219926642316, 51.532474341245958 ], [ 5.424862337104044, 51.532854136834203 ], [ 5.424424449521277, 51.533319196109183 ], [ 5.423796214216261, 51.533986386892515 ], [ 5.423801302621483, 51.533987409993848 ], [ 5.423888470199664, 51.534006878843414 ], [ 5.423887116592664, 51.534008308460614 ], [ 5.42384280751136, 51.534055099195811 ], [ 5.424606451754545, 51.534231877963038 ], [ 5.425456775239826, 51.53442134215922 ], [ 5.425455033868835, 51.534424353918823 ], [ 5.425789198303601, 51.534486426812656 ], [ 5.426127542741146, 51.53454785017157 ], [ 5.427135468928356, 51.534674976166073 ], [ 5.428846135320364, 51.534867029549751 ], [ 5.428880086119068, 51.534829777552453 ], [ 5.428903483046269, 51.534804097678553 ], [ 5.428909227898153, 51.534797803587381 ], [ 5.428955847218257, 51.534807323792968 ], [ 5.429123490276582, 51.534833024900422 ], [ 5.429344513494557, 51.534869277063429 ], [ 5.429740937629511, 51.534949509053533 ], [ 5.429834783781009, 51.534970139545031 ], [ 5.429909944511684, 51.534846266814384 ], [ 5.43157264886482, 51.533346891606612 ], [ 5.432346188342067, 51.533557233458133 ], [ 5.432346346921737, 51.533557278339707 ], [ 5.432984841650283, 51.533730841886815 ], [ 5.432988359209461, 51.53373178430828 ], [ 5.433422261654749, 51.53384975025233 ], [ 5.434424361682375, 51.534328054934804 ], [ 5.43459680703686, 51.534410365547778 ], [ 5.43483167666061, 51.534330936154802 ], [ 5.434986995560628, 51.534271817288783 ], [ 5.435541181168334, 51.534079456802708 ], [ 5.435620290473937, 51.534051999656924 ], [ 5.437412300973919, 51.533972806019918 ], [ 5.437454956662499, 51.533981281864072 ], [ 5.438755725066298, 51.534239846157526 ], [ 5.438967899627234, 51.534285036698328 ], [ 5.439027465845223, 51.534297081920478 ], [ 5.439794794540327, 51.53445221406465 ], [ 5.440554361038843, 51.534608153700439 ], [ 5.440724704651879, 51.534670079035031 ], [ 5.441873471880679, 51.534904804594596 ], [ 5.442302370512845, 51.534992439273765 ], [ 5.442374838558074, 51.535004998025258 ], [ 5.443965458284974, 51.535329118403503 ], [ 5.444419233233723, 51.535421578052173 ], [ 5.444764674433271, 51.535496130258579 ], [ 5.444812422244236, 51.535505841329439 ], [ 5.445518982735331, 51.535649595309579 ], [ 5.446231011439198, 51.535794286051029 ], [ 5.446317252766726, 51.535811842038171 ], [ 5.446513148554033, 51.535851714860875 ], [ 5.4466187519198, 51.535873206770404 ], [ 5.447232092681325, 51.536000359961015 ], [ 5.447937075803387, 51.536149430380135 ], [ 5.448768978140147, 51.536324811145903 ], [ 5.449086229196187, 51.53639057459776 ], [ 5.449452811434416, 51.536451915410204 ], [ 5.450489186688058, 51.536675524287332 ], [ 5.450665437852248, 51.536710591904672 ], [ 5.450947427103769, 51.536767578633039 ], [ 5.452244660638216, 51.537034983292124 ], [ 5.452491421256806, 51.537087590516641 ], [ 5.453184486076837, 51.537224204690808 ], [ 5.453326515441399, 51.537253445062653 ], [ 5.457009874674744, 51.53801174046756 ], [ 5.465888438804163, 51.539838993362324 ], [ 5.465902985190871, 51.539823765816259 ], [ 5.466212086113552, 51.539932211163936 ], [ 5.466466552172604, 51.540028953714931 ], [ 5.467340715709357, 51.540375415647489 ], [ 5.467412646653221, 51.540401514072741 ], [ 5.467594573038574, 51.540467527021605 ], [ 5.467735178418973, 51.540520004411484 ], [ 5.467896156917549, 51.540559155393758 ], [ 5.467904506609115, 51.540561234974078 ], [ 5.468108230498202, 51.540611879477588 ], [ 5.468283847222831, 51.540646795118164 ], [ 5.468420327312908, 51.540664803208074 ], [ 5.468579270660596, 51.540685770695802 ], [ 5.468614666730715, 51.540690447034059 ], [ 5.468882103398899, 51.540716587661649 ], [ 5.469226922583326, 51.540729504945958 ], [ 5.469479888704385, 51.54073240982153 ], [ 5.470951472049405, 51.540749285501967 ], [ 5.471031416840605, 51.540750198829031 ], [ 5.472116934077039, 51.540758204294647 ], [ 5.472596355365332, 51.540762249643187 ], [ 5.472705556644587, 51.540768093125102 ], [ 5.472758477822891, 51.540770921679488 ], [ 5.473491443949156, 51.540816493234352 ], [ 5.473505636189992, 51.540828428603845 ], [ 5.474012638365341, 51.540865166291972 ], [ 5.47472902831203, 51.540917079397133 ], [ 5.474899649080962, 51.540929445394475 ], [ 5.474998619256165, 51.540936615753473 ], [ 5.478966379637849, 51.541261502025797 ], [ 5.482266358869196, 51.541531600651219 ], [ 5.482345423214677, 51.541538070909432 ], [ 5.482749516757669, 51.541571135998829 ], [ 5.483085246845364, 51.54159860566341 ], [ 5.483085448690541, 51.541598623474691 ], [ 5.483085636120919, 51.541598641297838 ], [ 5.483099331927514, 51.541599456991342 ], [ 5.483670648974087, 51.541633313411403 ], [ 5.483920178608376, 51.541650985132094 ], [ 5.484349373509888, 51.541681387511545 ], [ 5.484559827598312, 51.54169355341584 ], [ 5.484560634925131, 51.541693597685089 ], [ 5.484735105164874, 51.541703680977498 ], [ 5.484837751723769, 51.541709617477494 ], [ 5.484927347843178, 51.541719915312548 ], [ 5.484934853817323, 51.541704601408355 ], [ 5.486068036736465, 51.541778341869346 ], [ 5.486267581412459, 51.541791304942336 ], [ 5.486427667061336, 51.541801712524872 ], [ 5.487145717790984, 51.541848370654805 ], [ 5.487318716113259, 51.541752709253345 ], [ 5.487701546987555, 51.541343155250047 ] ] ] ] } },
{ "type": "Feature", "properties": { "buurtcode": "BU08480100", "buurtnaam": "Breugel", "pc6_codes": "5694AA, 5694AB, 5694AC, 5694AD, 5694AE, 5694AG, 5694AH, 5694AJ, 5694AK, 5694AL, 5694AM, 5694AN, 5694AP, 5694AR, 5694AS, 5694AT, 5694AV, 5694AW, 5694AX, 5694AZ, 5694BA, 5694EA, 5694NA, 5694NB, 5694NC, 5694ND, 5694NE, 5694NG, 5694NH, 5694NJ, 5694NK, 5694NL, 5694NN, 5694SC, 5694VP", "wijkcode": "WK084801", "gemeentecode": "GM0848", "gemeentenaam": "Son en Breugel", "oppervlakteLandInHa": 114, "AantalInwoners_5": 1165, "Mannen_6": 565, "Vrouwen_7": 595, "HuishoudensTotaal_29": 490, "GemiddeldeHuishoudensgrootte_33": 2.4, "Woningvoorraad_35": 477, "NieuwbouwWoningen_36": 1, "NietWoningvoorraad_37": 60, "NieuwbouwNietWoningen_38": 1, "GemiddeldeWOZWaardeVanWoningen_39": 510, "PercentageEengezinswoning_40": 99, "PercentageTussenwoningEengezins_41": 16, "PercentageHoekwoningEengezins_42": 10, "PercentageTweeOnderEenKapWoningEe_43": 33, "PercentageVrijstaandeWoningEengezins_44": 39, "PercentageMeergezinswoning_45": 1, "Koopwoningen_47": 87, "HuurwoningenTotaal_48": 13, "InBezitWoningcorporatie_49": 6, "InBezitOverigeVerhuurders_50": 6, "BouwjaarMeerDanTienJaarGeleden_51": 97, "BouwjaarAfgelopenTienJaar_52": 3, "GemiddeldeElektriciteitslevering_53": 3510, "GemiddeldeElektriciteitsteruglevering_54": 1330, "GemiddeldAardgasverbruik_55": 1240, "AardgasvrijeWoningen_57": 3, "Aardgaswoningen_58": 92, "WoningenMetZonnestroom_59": 49, "WoningenHoofdzElektrVerwarmd_60": 8, "k_20PersonenMetHoogsteInkomen_80": 22.1, "k_20HuishoudensMetHoogsteInkomen_85": 31.3, "MediaanVermogenVanParticuliereHuish_86": 452.0, "PersonenautoSTotaal_104": 670, "PersonenautoSBrandstofBenzine_105": 545, "PersonenautoSOverigeBrandstof_106": 125, "PersonenautoSPerHuishouden_107": 1.4, "Omgevingsadressendichtheid_121": 766, "AantalInstallatiesBijWoningen_5": 162, "OpgesteldVermogenVanZonnepanelen_6": 778, "installaties_per_woning": 0.33962264150943394, "vermogen_per_woning": 1.6310272536687631, "installaties_per_100_woningen": 33.962264150943398, "vermogen_per_huishouden": 1.5877551020408163, "batterijdruk_score": 651.7, "koop_zon_score": 0.4263, "eengezins_zon_score": 0.4851, "betaalkracht_zon_score": 221.48, "overige_brandstof_zon_score": 61.25, "lichte_batterij_kansscore": 0.51058939639001388 }, "geometry": { "type": "MultiPolygon", "coordinates": [ [ [ [ 5.523895689233576, 51.520597470053751 ], [ 5.525269834974269, 51.520438551631827 ], [ 5.526194567906223, 51.520335769618946 ], [ 5.526845020328405, 51.520136399700775 ], [ 5.527304022863487, 51.519908605833898 ], [ 5.524413312773294, 51.518306445963013 ], [ 5.523251268666466, 51.51755725559174 ], [ 5.521495834738756, 51.516413238136316 ], [ 5.518696647177816, 51.514942290169486 ], [ 5.515998137520611, 51.513826215276197 ], [ 5.513356510271779, 51.512395414097689 ], [ 5.509999952012106, 51.510791996273561 ], [ 5.508454454941281, 51.509825367577079 ], [ 5.507403593138427, 51.508978995423718 ], [ 5.505960167431282, 51.507840601972127 ], [ 5.504161964371701, 51.505942163469555 ], [ 5.503785326586988, 51.505632432399132 ], [ 5.503647606572731, 51.506427222751739 ], [ 5.502156634145007, 51.506351455454926 ], [ 5.500608354661118, 51.506396228421735 ], [ 5.499930523754277, 51.506594636715164 ], [ 5.499490468751308, 51.506932135406046 ], [ 5.499095601077009, 51.507433913143124 ], [ 5.498875050357238, 51.507896196505321 ], [ 5.498095820342282, 51.508518841799948 ], [ 5.497783019571984, 51.50899834579139 ], [ 5.497343792624651, 51.509043704690988 ], [ 5.496663351466877, 51.510048264217126 ], [ 5.496681617114648, 51.51043672531307 ], [ 5.497175046700023, 51.510739908060827 ], [ 5.498172117536591, 51.510912556605575 ], [ 5.498903416600136, 51.511284886963885 ], [ 5.499340992217212, 51.511747381951736 ], [ 5.499779928387657, 51.512119987583496 ], [ 5.500466125469319, 51.512354713136965 ], [ 5.501546028557215, 51.512687362547474 ], [ 5.502441372615481, 51.513019060909564 ], [ 5.503164450318997, 51.51349474204644 ], [ 5.503675898542354, 51.514123437100224 ], [ 5.504150936161698, 51.514506664227518 ], [ 5.505421960899584, 51.51524526008685 ], [ 5.50535644727438, 51.515501501757505 ], [ 5.504100811551243, 51.516282812676444 ], [ 5.503275959821591, 51.516522678518982 ], [ 5.502725889812172, 51.516647380212376 ], [ 5.502678413914754, 51.517275789551107 ], [ 5.502523238868042, 51.517424255584707 ], [ 5.505426096658902, 51.517353091356334 ], [ 5.508447295275896, 51.517344372034721 ], [ 5.511019770912631, 51.517638294681646 ], [ 5.514655841760806, 51.517998474820182 ], [ 5.514605870764258, 51.517542844129096 ], [ 5.514950994823223, 51.517150947664348 ], [ 5.515014126793147, 51.516516348950169 ], [ 5.515619777020143, 51.516434679939003 ], [ 5.517917619888779, 51.517876695318428 ], [ 5.518177563214456, 51.517970908490248 ], [ 5.518264003875935, 51.517930309499384 ], [ 5.520625935670392, 51.519034684283852 ], [ 5.522533173731686, 51.520018033050569 ], [ 5.523291957529925, 51.520476172211985 ], [ 5.523422407845419, 51.520678529466494 ], [ 5.523221100615176, 51.520758778498362 ], [ 5.52327242286855, 51.520785275577666 ], [ 5.523895689233576, 51.520597470053751 ] ] ] ] } },
{ "type": "Feature", "properties": { "buurtcode": "BU08480101", "buurtnaam": "'t Eigen en Hoogstraat", "pc6_codes": "5694CA, 5694CB, 5694CC, 5694CD, 5694CE, 5694CG, 5694CH, 5694CJ, 5694CK, 5694CL, 5694CM, 5694CN, 5694CP, 5694CR, 5694CS, 5694CT, 5694CV, 5694CW, 5694CX, 5694CZ, 5694EB, 5694EC, 5694LC, 5694LD, 5694LE, 5694LG, 5694LH, 5694LJ, 5694LK, 5694LL, 5694LM, 5694LN, 5694LP, 5694LS, 5694LT, 5694LV, 5694NK, 5694NL, 5694SB, 5694SC, 5694SE, 5694SG, 5694SH, 5694SJ, 5694SK, 5694SL, 5694SM, 5694SN, 5694SP, 5694ST, 5694SV, 5694TA, 5694TB, 5694TC, 5694TD, 5694TE, 5694TG, 5694TH, 5694TJ, 5694TK, 5694TL, 5694TM, 5694TP, 5694TR, 5694VA, 5694VB, 5694VC, 5694VD, 5694VE, 5694VG, 5694VH, 5694VJ, 5694VK, 5694VL, 5694VR, 5694WB, 5694WC, 5694WE, 5694WG, 5694WH, 5694WJ, 5694WL, 5694WN, 5694WP, 5694WR, 5694WS", "wijkcode": "WK084801", "gemeentecode": "GM0848", "gemeentenaam": "Son en Breugel", "oppervlakteLandInHa": 82, "AantalInwoners_5": 3460, "Mannen_6": 1730, "Vrouwen_7": 1730, "HuishoudensTotaal_29": 1470, "GemiddeldeHuishoudensgrootte_33": 2.3, "Woningvoorraad_35": 1464, "NieuwbouwWoningen_36": 0, "NietWoningvoorraad_37": 164, "NieuwbouwNietWoningen_38": 0, "GemiddeldeWOZWaardeVanWoningen_39": 380, "PercentageEengezinswoning_40": 93, "PercentageTussenwoningEengezins_41": 63, "PercentageHoekwoningEengezins_42": 26, "PercentageTweeOnderEenKapWoningEe_43": 1, "PercentageVrijstaandeWoningEengezins_44": 4, "PercentageMeergezinswoning_45": 7, "Koopwoningen_47": 72, "HuurwoningenTotaal_48": 28, "InBezitWoningcorporatie_49": 17, "InBezitOverigeVerhuurders_50": 11, "BouwjaarMeerDanTienJaarGeleden_51": 99, "BouwjaarAfgelopenTienJaar_52": 1, "GemiddeldeElektriciteitslevering_53": 2670, "GemiddeldeElektriciteitsteruglevering_54": 1020, "GemiddeldAardgasverbruik_55": 960, "AardgasvrijeWoningen_57": 2, "Aardgaswoningen_58": 95, "WoningenMetZonnestroom_59": 52, "WoningenHoofdzElektrVerwarmd_60": 5, "k_20PersonenMetHoogsteInkomen_80": 19.3, "k_20HuishoudensMetHoogsteInkomen_85": 20.7, "MediaanVermogenVanParticuliereHuish_86": 223.0, "PersonenautoSTotaal_104": 1830, "PersonenautoSBrandstofBenzine_105": 1540, "PersonenautoSOverigeBrandstof_106": 290, "PersonenautoSPerHuishouden_107": 1.2, "Omgevingsadressendichtheid_121": 689, "AantalInstallatiesBijWoningen_5": 521, "OpgesteldVermogenVanZonnepanelen_6": 2031, "installaties_per_woning": 0.35587431693989069, "vermogen_per_woning": 1.3872950819672132, "installaties_per_100_woningen": 35.587431693989068, "vermogen_per_huishouden": 1.3816326530612244, "batterijdruk_score": 530.4, "koop_zon_score": 0.3744, "eengezins_zon_score": 0.4836, "betaalkracht_zon_score": 115.96, "overige_brandstof_zon_score": 150.8, "lichte_batterij_kansscore": 0.46855412401155672 }, "geometry": { "type": "MultiPolygon", "coordinates": [ [ [ [ 5.513030454826493, 51.524296374832282 ], [ 5.513122485188685, 51.524207306040182 ], [ 5.513218840794506, 51.524114061776714 ], [ 5.513253309834536, 51.524073279062691 ], [ 5.513281933434863, 51.524039405926324 ], [ 5.513386779142189, 51.523947509630126 ], [ 5.5137169697385, 51.523705600458271 ], [ 5.513829629802397, 51.523626279373225 ], [ 5.513912915412083, 51.523569794252076 ], [ 5.514116661374047, 51.523477421296256 ], [ 5.514320934907335, 51.523362773574092 ], [ 5.514342819079628, 51.52335135213756 ], [ 5.514405004077198, 51.523318916277013 ], [ 5.514551348098396, 51.523249103687476 ], [ 5.51476814020732, 51.523200867519073 ], [ 5.515071124734387, 51.523121354931945 ], [ 5.515461435927668, 51.523024810992311 ], [ 5.515838498527049, 51.522931534241849 ], [ 5.516161720570701, 51.522861003116027 ], [ 5.51657776996641, 51.52277250776838 ], [ 5.516691953923589, 51.522750107245031 ], [ 5.517070303838971, 51.522675341671338 ], [ 5.517093516524464, 51.522670327135764 ], [ 5.51747247880131, 51.522588485520465 ], [ 5.51757193872081, 51.522567008428979 ], [ 5.518602848748811, 51.522344353867197 ], [ 5.518740337199971, 51.522314653281803 ], [ 5.518952012632854, 51.522268931925026 ], [ 5.519212952761348, 51.522308079074811 ], [ 5.519335826301478, 51.522326519478824 ], [ 5.519781761859653, 51.522464713586075 ], [ 5.520267268571056, 51.5218906930656 ], [ 5.520835553219268, 51.521600440427392 ], [ 5.521494727197729, 51.52136710253378 ], [ 5.522895939066125, 51.521138798526756 ], [ 5.52327242286855, 51.520785275577666 ], [ 5.523221100615176, 51.520758778498362 ], [ 5.523422407845419, 51.520678529466494 ], [ 5.523291957529925, 51.520476172211985 ], [ 5.522533173731686, 51.520018033050569 ], [ 5.520625935670392, 51.519034684283852 ], [ 5.518264003875935, 51.517930309499384 ], [ 5.518177563214456, 51.517970908490248 ], [ 5.517917619888779, 51.517876695318428 ], [ 5.515619777020143, 51.516434679939003 ], [ 5.515014126793147, 51.516516348950169 ], [ 5.514950994823223, 51.517150947664348 ], [ 5.514605870764258, 51.517542844129096 ], [ 5.514655841760806, 51.517998474820182 ], [ 5.511019770912631, 51.517638294681646 ], [ 5.508447295275896, 51.517344372034721 ], [ 5.505426096658902, 51.517353091356334 ], [ 5.502523238868042, 51.517424255584707 ], [ 5.502184145302316, 51.517749866643996 ], [ 5.501506072275887, 51.518005866144655 ], [ 5.500800269410886, 51.518068633946726 ], [ 5.500205375274988, 51.518102357454417 ], [ 5.499724275180354, 51.519907009695423 ], [ 5.499768724849984, 51.520401341674656 ], [ 5.499795343485139, 51.520695131946994 ], [ 5.500108861965638, 51.521377103001548 ], [ 5.500130605059032, 51.521370473508284 ], [ 5.50023232324697, 51.52133945407973 ], [ 5.500261039440558, 51.521397402932138 ], [ 5.501157886609534, 51.521355254336299 ], [ 5.501806012745131, 51.521323851215428 ], [ 5.502031430308777, 51.52130604774301 ], [ 5.5022991440838, 51.521296992989299 ], [ 5.502524617152955, 51.521301165719258 ], [ 5.50283461609839, 51.521296463364216 ], [ 5.503060077994954, 51.521296239629805 ], [ 5.503241034737753, 51.521308212377527 ], [ 5.503245243861871, 51.521308945257935 ], [ 5.503398372094018, 51.521335462088373 ], [ 5.503701460855486, 51.521383509619312 ], [ 5.503948184616912, 51.521431612793712 ], [ 5.504124414724707, 51.52147099524835 ], [ 5.504406379348896, 51.521523457565912 ], [ 5.504631899212825, 51.521545207949529 ], [ 5.50485745346873, 51.521580144188896 ], [ 5.505082973829027, 51.521601893701394 ], [ 5.505453341388319, 51.521667279659226 ], [ 5.505425989280376, 51.521737373785271 ], [ 5.505401728637317, 51.521799518819662 ], [ 5.505321932133272, 51.522047946610861 ], [ 5.505936133806357, 51.522149056375554 ], [ 5.505937440858636, 51.522230105553241 ], [ 5.505937579403601, 51.522239004159331 ], [ 5.505948178084819, 51.522242175346449 ], [ 5.5066589702798, 51.522454633007392 ], [ 5.50665485296939, 51.52247242572934 ], [ 5.50653282716003, 51.522999383408091 ], [ 5.506528154041963, 51.523019549692471 ], [ 5.506564941943934, 51.523036707308833 ], [ 5.507117557320679, 51.523294455855144 ], [ 5.507441555436181, 51.523445571808537 ], [ 5.507445580079894, 51.523447275500175 ], [ 5.508341081680102, 51.523827718685602 ], [ 5.508598866566545, 51.523258245516409 ], [ 5.508601416315515, 51.523252615978535 ], [ 5.508682322667535, 51.523128686361986 ], [ 5.508756753818933, 51.522992071485305 ], [ 5.508758087828167, 51.522989822936857 ], [ 5.508811425036007, 51.522896654090928 ], [ 5.50881235725327, 51.522895026176442 ], [ 5.508878788181451, 51.522778967575434 ], [ 5.508931407757433, 51.522687030864283 ], [ 5.508933527247653, 51.522687549993201 ], [ 5.509086807522467, 51.52272479163895 ], [ 5.509550413006422, 51.522837419273422 ], [ 5.509747338633034, 51.522885265798195 ], [ 5.509750207887478, 51.522885963897338 ], [ 5.51042899680245, 51.523077174125092 ], [ 5.511051033955483, 51.523252404953858 ], [ 5.511134280451032, 51.52329141709837 ], [ 5.511268576064946, 51.523387605530864 ], [ 5.512351623286652, 51.523969622187053 ], [ 5.512672200665516, 51.524141895541248 ], [ 5.512738727730985, 51.524178138047048 ], [ 5.512860175353633, 51.524227157137865 ], [ 5.512920929469126, 51.524259972100232 ], [ 5.513015365469769, 51.524310970669731 ], [ 5.513030454826493, 51.524296374832282 ] ] ] ] } },
{ "type": "Feature", "properties": { "buurtcode": "BU08480109", "buurtnaam": "Verspreide huizen Breugel", "pc6_codes": "5694NA, 5694NB, 5694NM, 5694NN, 5694NP, 5694NR, 5694NS, 5694PA, 5694PB, 5694TM", "wijkcode": "WK084801", "gemeentecode": "GM0848", "gemeentenaam": "Son en Breugel", "oppervlakteLandInHa": 453, "AantalInwoners_5": 195, "Mannen_6": 95, "Vrouwen_7": 100, "HuishoudensTotaal_29": 70, "GemiddeldeHuishoudensgrootte_33": 2.7, "Woningvoorraad_35": 52, "NieuwbouwWoningen_36": 2, "NietWoningvoorraad_37": 9, "NieuwbouwNietWoningen_38": 0, "GemiddeldeWOZWaardeVanWoningen_39": 666, "PercentageEengezinswoning_40": 100, "PercentageTussenwoningEengezins_41": 0, "PercentageHoekwoningEengezins_42": 0, "PercentageTweeOnderEenKapWoningEe_43": 4, "PercentageVrijstaandeWoningEengezins_44": 96, "PercentageMeergezinswoning_45": 0, "Koopwoningen_47": 88, "HuurwoningenTotaal_48": 12, "InBezitWoningcorporatie_49": 0, "InBezitOverigeVerhuurders_50": 12, "BouwjaarMeerDanTienJaarGeleden_51": 87, "BouwjaarAfgelopenTienJaar_52": 13, "GemiddeldeElektriciteitslevering_53": 4910, "GemiddeldeElektriciteitsteruglevering_54": 3130, "GemiddeldAardgasverbruik_55": 1520, "AardgasvrijeWoningen_57": null, "Aardgaswoningen_58": null, "WoningenMetZonnestroom_59": null, "WoningenHoofdzElektrVerwarmd_60": null, "k_20PersonenMetHoogsteInkomen_80": 20.7, "k_20HuishoudensMetHoogsteInkomen_85": null, "MediaanVermogenVanParticuliereHuish_86": null, "PersonenautoSTotaal_104": 120, "PersonenautoSBrandstofBenzine_105": 85, "PersonenautoSOverigeBrandstof_106": 35, "PersonenautoSPerHuishouden_107": 1.7, "Omgevingsadressendichtheid_121": 115, "AantalInstallatiesBijWoningen_5": 20, "OpgesteldVermogenVanZonnepanelen_6": 147, "installaties_per_woning": 0.38461538461538464, "vermogen_per_woning": 2.8269230769230771, "installaties_per_100_woningen": 38.461538461538467, "vermogen_per_huishouden": 2.1, "batterijdruk_score": null, "koop_zon_score": null, "eengezins_zon_score": null, "betaalkracht_zon_score": null, "overige_brandstof_zon_score": null, "lichte_batterij_kansscore": null }, "geometry": { "type": "MultiPolygon", "coordinates": [ [ [ [ 5.540194940234134, 51.526011774687539 ], [ 5.541041435507178, 51.52539950636573 ], [ 5.542095670320938, 51.524636953901997 ], [ 5.542237469407437, 51.524534385004024 ], [ 5.542498067570097, 51.52434587931436 ], [ 5.543004183676862, 51.523993578102534 ], [ 5.54324260287476, 51.523659205759586 ], [ 5.543453938727799, 51.523645736622456 ], [ 5.543721657899554, 51.523636586929754 ], [ 5.543855487117098, 51.52362322100543 ], [ 5.544080869129377, 51.523596545542659 ], [ 5.544747849705355, 51.523537373572033 ], [ 5.544763892593577, 51.522749974088853 ], [ 5.544739316373994, 51.522601982357578 ], [ 5.544648026490195, 51.522437011230693 ], [ 5.544406104700006, 51.522150204307415 ], [ 5.544030110404687, 51.521758014569855 ], [ 5.544349279413286, 51.521547206033752 ], [ 5.545106147414805, 51.521047260764725 ], [ 5.545177929398779, 51.520898078007598 ], [ 5.545589472247563, 51.52004275426156 ], [ 5.545623974211941, 51.519971049973002 ], [ 5.545634244710409, 51.519949714970487 ], [ 5.545025679530529, 51.519965946239644 ], [ 5.544718407899778, 51.519988824069159 ], [ 5.544310660916024, 51.520034343979596 ], [ 5.541195846986036, 51.520576340795053 ], [ 5.540674772331815, 51.520664927263823 ], [ 5.540696655863778, 51.520583191738965 ], [ 5.540700810650376, 51.520567689857529 ], [ 5.540751307660083, 51.520379131629312 ], [ 5.540987729919517, 51.519455776752146 ], [ 5.541029555596597, 51.519323858253252 ], [ 5.541078381700325, 51.519178744169125 ], [ 5.541120296244607, 51.519073198190647 ], [ 5.541169285713087, 51.51897643375132 ], [ 5.541218260096914, 51.518875282853472 ], [ 5.541323387670867, 51.518712512544667 ], [ 5.541533730184414, 51.518413344194443 ], [ 5.541758011260193, 51.518074597979741 ], [ 5.542157801605374, 51.517551009623716 ], [ 5.542705046466517, 51.516886578140202 ], [ 5.542887523148433, 51.516684144254853 ], [ 5.54317540042624, 51.516402451184952 ], [ 5.543695209710696, 51.515962210452777 ], [ 5.543737478798598, 51.515962153749498 ], [ 5.543878375757397, 51.515961964627991 ], [ 5.543983987783966, 51.515944240969631 ], [ 5.544089569361897, 51.515917726362929 ], [ 5.544195075636832, 51.515873629974479 ], [ 5.544279384829967, 51.515803189348766 ], [ 5.544363497644303, 51.515684399009864 ], [ 5.544671716568181, 51.515178516000653 ], [ 5.545659395198639, 51.51356404954749 ], [ 5.546272784675895, 51.512695675671289 ], [ 5.546187265983781, 51.512656745559703 ], [ 5.545034228057527, 51.51213185509426 ], [ 5.544072185582043, 51.511714650236001 ], [ 5.543703937916608, 51.511512981156507 ], [ 5.542766035188827, 51.510944400299557 ], [ 5.542272339932153, 51.510627039246025 ], [ 5.541667816942295, 51.510228250926602 ], [ 5.541342561042724, 51.510013681680185 ], [ 5.540764368331692, 51.509647968065352 ], [ 5.540509626085507, 51.509431775586357 ], [ 5.540439866328023, 51.509372560144797 ], [ 5.540421379114115, 51.50934940270551 ], [ 5.540397857737127, 51.5093199058891 ], [ 5.540411463846304, 51.509283888487296 ], [ 5.540412039096055, 51.509275069868508 ], [ 5.5404259379086, 51.509197722278763 ], [ 5.540543523819893, 51.5088141030743 ], [ 5.540541117225524, 51.508796722192621 ], [ 5.540534997484451, 51.508776020391714 ], [ 5.54047707396066, 51.508740887977517 ], [ 5.540020538727774, 51.508474955535455 ], [ 5.540001098513668, 51.50845950254844 ], [ 5.53994717363853, 51.508383861785589 ], [ 5.539926697155354, 51.508338648729179 ], [ 5.539914170394227, 51.508322988926146 ], [ 5.539695859449054, 51.508177226954523 ], [ 5.5396581366245, 51.508152036136273 ], [ 5.539161796388147, 51.507837946229039 ], [ 5.538856733453541, 51.507666021844258 ], [ 5.538675771817358, 51.507595947754197 ], [ 5.538384461458167, 51.507517225549741 ], [ 5.538156850601154, 51.507452703168269 ], [ 5.537952490253352, 51.507406091641165 ], [ 5.537731700175191, 51.507356579648224 ], [ 5.537527330997714, 51.507307037089589 ], [ 5.537297073102388, 51.507234103069656 ], [ 5.536842835492495, 51.507065115800003 ], [ 5.536455025668788, 51.506907430407253 ], [ 5.536094910715395, 51.506747820764353 ], [ 5.536033752577645, 51.506708357746511 ], [ 5.535989033939568, 51.506670329890198 ], [ 5.535850000786742, 51.506500603710371 ], [ 5.535675118141571, 51.506291265081352 ], [ 5.535537308986435, 51.506142786134284 ], [ 5.534324569382442, 51.505987101559136 ], [ 5.534142486555637, 51.505962486446769 ], [ 5.534015845817424, 51.505934250767012 ], [ 5.533906476037656, 51.505901858451502 ], [ 5.533802524321051, 51.505852290905466 ], [ 5.53326339935345, 51.505511254763086 ], [ 5.532794353477085, 51.505212154209474 ], [ 5.532702566783299, 51.505153623198368 ], [ 5.532635712020598, 51.505173265873147 ], [ 5.53233777163913, 51.505161628135205 ], [ 5.53222902770501, 51.505157385918871 ], [ 5.532221412815225, 51.505149755034964 ], [ 5.532213494484817, 51.505141818913735 ], [ 5.53212261825177, 51.505158012548591 ], [ 5.532072083554146, 51.505169059451951 ], [ 5.532023658294593, 51.505182171103641 ], [ 5.53196386864918, 51.505222352672405 ], [ 5.531904019476332, 51.505275531870254 ], [ 5.531619394791621, 51.50556075286427 ], [ 5.531608444102234, 51.505554932788996 ], [ 5.531602081452488, 51.505551551945402 ], [ 5.531028623871157, 51.505246646405773 ], [ 5.530867765731376, 51.505127610218132 ], [ 5.530553804589954, 51.504895271393039 ], [ 5.530243412535905, 51.504665570008505 ], [ 5.529498672081912, 51.50411442509084 ], [ 5.529171833320828, 51.503872534331983 ], [ 5.529165539113014, 51.503867876884058 ], [ 5.529031108964159, 51.503768392260255 ], [ 5.528319074019319, 51.503081642211768 ], [ 5.528301402048154, 51.503053834732604 ], [ 5.52783444138938, 51.502319028278976 ], [ 5.526956883136198, 51.502284083558088 ], [ 5.526954492047205, 51.502283987548012 ], [ 5.526158033884754, 51.5022911053765 ], [ 5.525973990963226, 51.502292744706416 ], [ 5.52614596787625, 51.50172705500654 ], [ 5.526163849241812, 51.501597911744476 ], [ 5.526146225956259, 51.501500639591292 ], [ 5.52612247506852, 51.501457666180997 ], [ 5.52611653559459, 51.501446347556147 ], [ 5.525233515971335, 51.501674629016819 ], [ 5.524384369194504, 51.501872041872581 ], [ 5.524159032709645, 51.501920135304104 ], [ 5.52398298612037, 51.501946238199722 ], [ 5.523458230864334, 51.501991328279132 ], [ 5.522849842411336, 51.502037070596998 ], [ 5.522631407691645, 51.502043526615907 ], [ 5.522396786469886, 51.502050567275397 ], [ 5.52229792669053, 51.502044911118169 ], [ 5.522261857216222, 51.502042849549575 ], [ 5.522124168196523, 51.50202726080385 ], [ 5.521985631831574, 51.502017299769498 ], [ 5.521842719063866, 51.502022534440314 ], [ 5.521626367394691, 51.502032096246914 ], [ 5.521208970264508, 51.502055030235695 ], [ 5.52117588575474, 51.502054205335426 ], [ 5.521091280457502, 51.502052100274888 ], [ 5.521014776508579, 51.502037788261504 ], [ 5.52094167452675, 51.502004919725294 ], [ 5.520827412500971, 51.501938300989444 ], [ 5.520779904400754, 51.501910598464079 ], [ 5.520582913982583, 51.501798996137197 ], [ 5.520495081062584, 51.501752022999945 ], [ 5.520367017550599, 51.501683531970158 ], [ 5.520184441145611, 51.501658940612977 ], [ 5.520105365887026, 51.501656433032359 ], [ 5.520003138244681, 51.501670859413039 ], [ 5.519941609655922, 51.501709436832016 ], [ 5.519917486929264, 51.501724547238496 ], [ 5.51982728238203, 51.501772640250373 ], [ 5.519756518316569, 51.501790320475983 ], [ 5.519690070526376, 51.50179169933471 ], [ 5.519585747587653, 51.50177917077157 ], [ 5.519573440231417, 51.501776470169283 ], [ 5.519500215783852, 51.501760391666508 ], [ 5.519461943314637, 51.501758394652882 ], [ 5.519420242560369, 51.501756203763122 ], [ 5.519305348259891, 51.501763381063725 ], [ 5.519139524770254, 51.501794336923048 ], [ 5.518987284377084, 51.501835919758811 ], [ 5.518899614246447, 51.501869393645897 ], [ 5.518853454745844, 51.501894128591758 ], [ 5.51880673442039, 51.501919178754832 ], [ 5.518740767556099, 51.50195740100169 ], [ 5.518733535342099, 51.501961588880221 ], [ 5.518714285066505, 51.501973457628509 ], [ 5.518699620921447, 51.501982498766978 ], [ 5.518669205725874, 51.501993283480914 ], [ 5.51859917472616, 51.501995798327577 ], [ 5.518522591309558, 51.501973619703982 ], [ 5.518475583407758, 51.501954068383341 ], [ 5.518439592105651, 51.501939097846765 ], [ 5.518364727185282, 51.501908485833333 ], [ 5.51828281705145, 51.501891939937252 ], [ 5.518044132415669, 51.501828244741972 ], [ 5.5178647481054, 51.501766559012758 ], [ 5.517591242402236, 51.501638390368051 ], [ 5.517210401346807, 51.501465676192034 ], [ 5.516998294900075, 51.50136760360072 ], [ 5.516768827003302, 51.501241514318295 ], [ 5.516689521378365, 51.501193234480887 ], [ 5.516398197122721, 51.501015950869608 ], [ 5.516246337147106, 51.500922708966897 ], [ 5.515900974520167, 51.500707731571367 ], [ 5.515691209816713, 51.500574823005564 ], [ 5.515303528870073, 51.500263936629146 ], [ 5.514939509018466, 51.499981615941444 ], [ 5.514822901362137, 51.499910706314523 ], [ 5.514622703594863, 51.499833371165089 ], [ 5.514425612131789, 51.499795348636447 ], [ 5.513540367628996, 51.499652591536815 ], [ 5.512841426067282, 51.499540970574337 ], [ 5.512677936720612, 51.499508409942621 ], [ 5.512575269947332, 51.499461968152026 ], [ 5.512534211443255, 51.499425464439284 ], [ 5.512479445068885, 51.499374108213104 ], [ 5.512431318625651, 51.499349144494261 ], [ 5.512397842532345, 51.499341324359563 ], [ 5.512368767209164, 51.499352204871286 ], [ 5.512350302088743, 51.499361761646576 ], [ 5.512339562021069, 51.499368227022607 ], [ 5.512170995798364, 51.499337792450604 ], [ 5.512148959145599, 51.499347370998741 ], [ 5.512144505022072, 51.499351124037929 ], [ 5.512114691279625, 51.499376306218679 ], [ 5.512098475477242, 51.499381626890752 ], [ 5.512051266928579, 51.499397128931832 ], [ 5.512029732889906, 51.49940096317232 ], [ 5.512014359664396, 51.499403703188385 ], [ 5.511979101012487, 51.499397044377396 ], [ 5.511949040201889, 51.499374254358443 ], [ 5.511933357839957, 51.499353570274273 ], [ 5.511895667935761, 51.499290123751699 ], [ 5.511885532455605, 51.499275519045234 ], [ 5.511878216349921, 51.499264956215832 ], [ 5.511843590739835, 51.499237029542542 ], [ 5.511782017076579, 51.499218479847038 ], [ 5.511672021325849, 51.499198229027868 ], [ 5.511631316860034, 51.49919073099155 ], [ 5.511609800240657, 51.49918512705419 ], [ 5.511421542136207, 51.499062830432763 ], [ 5.511432210695149, 51.499051259664355 ], [ 5.511456433820665, 51.499040753090632 ], [ 5.511589710169798, 51.499022031463468 ], [ 5.511669833433227, 51.499009415791733 ], [ 5.511694021373002, 51.498996608111895 ], [ 5.511699489171261, 51.498989636071009 ], [ 5.511715332901812, 51.498969448624997 ], [ 5.511681450630585, 51.498928874079546 ], [ 5.511595362651623, 51.498898422513463 ], [ 5.511498660488756, 51.498883559527997 ], [ 5.511376845634674, 51.49888036350815 ], [ 5.511338116299195, 51.498884072112489 ], [ 5.511137325680774, 51.498933992921138 ], [ 5.51109003506479, 51.498945755383225 ], [ 5.510892038177268, 51.498990540282499 ], [ 5.510772352781878, 51.499013192728881 ], [ 5.510688412435327, 51.499009740121664 ], [ 5.510596942087375, 51.498980471032716 ], [ 5.51043340720036, 51.498887314821978 ], [ 5.510260711636636, 51.498782734487676 ], [ 5.510148955385174, 51.498717963311179 ], [ 5.510100014321472, 51.498699902773446 ], [ 5.510004223453234, 51.498686188137476 ], [ 5.509893919139431, 51.498673558343789 ], [ 5.509783615250621, 51.498661063275215 ], [ 5.509792286578174, 51.498587549477726 ], [ 5.50963327313368, 51.498760236589369 ], [ 5.508899722532653, 51.499604813898756 ], [ 5.509328529760197, 51.500073742037657 ], [ 5.509592040221791, 51.500576830074785 ], [ 5.509350249060453, 51.502210208525668 ], [ 5.508745808497487, 51.502380780348403 ], [ 5.50816171716929, 51.502083077852369 ], [ 5.507512705377569, 51.501740214851615 ], [ 5.507054716932998, 51.501722709180335 ], [ 5.50669664009071, 51.501962118048567 ], [ 5.506311841659987, 51.502395933492814 ], [ 5.5057252681789, 51.502778547741137 ], [ 5.504900517270543, 51.503046234441527 ], [ 5.504505787979245, 51.50356544513977 ], [ 5.504220631914832, 51.504079769803958 ], [ 5.503852075123462, 51.505245011707281 ], [ 5.503785326586988, 51.505632432399132 ], [ 5.504161964371701, 51.505942163469555 ], [ 5.505960167431282, 51.507840601972127 ], [ 5.507403593138427, 51.508978995423718 ], [ 5.508454454941281, 51.509825367577079 ], [ 5.509999952012106, 51.510791996273561 ], [ 5.513356510271779, 51.512395414097689 ], [ 5.515998137520611, 51.513826215276197 ], [ 5.518696647177816, 51.514942290169486 ], [ 5.521495834738756, 51.516413238136316 ], [ 5.523251268666466, 51.51755725559174 ], [ 5.524413312773294, 51.518306445963013 ], [ 5.527304022863487, 51.519908605833898 ], [ 5.526845020328405, 51.520136399700775 ], [ 5.526194567906223, 51.520335769618946 ], [ 5.525269834974269, 51.520438551631827 ], [ 5.523895689233576, 51.520597470053751 ], [ 5.52327242286855, 51.520785275577666 ], [ 5.522895939066125, 51.521138798526756 ], [ 5.521494727197729, 51.52136710253378 ], [ 5.520835553219268, 51.521600440427392 ], [ 5.520267268571056, 51.5218906930656 ], [ 5.519781761859653, 51.522464713586075 ], [ 5.519932167112481, 51.522511323016154 ], [ 5.519947671510087, 51.52249180003659 ], [ 5.52098966723333, 51.52281824550154 ], [ 5.521060047501285, 51.522840276812651 ], [ 5.521138369521647, 51.522863116929955 ], [ 5.521603313183832, 51.522448583652491 ], [ 5.52261357341829, 51.523430817089093 ], [ 5.524176067636601, 51.522428998387447 ], [ 5.524278560429722, 51.522363287931846 ], [ 5.52473457560668, 51.522070890229863 ], [ 5.524806191441566, 51.522024963737742 ], [ 5.525047826071287, 51.521869004292192 ], [ 5.526312290020359, 51.52293999158033 ], [ 5.526312997073625, 51.522940323316838 ], [ 5.527649134455626, 51.523559405830916 ], [ 5.528428190782482, 51.52392036588067 ], [ 5.529329656991894, 51.524338015817385 ], [ 5.530185683573372, 51.524734609175596 ], [ 5.530863591734257, 51.525048675319745 ], [ 5.533237459749383, 51.52482595618546 ], [ 5.536631291335046, 51.525045368368161 ], [ 5.536704939988951, 51.525050127890921 ], [ 5.536733419399775, 51.525051970022517 ], [ 5.536811551152264, 51.526006193362058 ], [ 5.536916108043319, 51.526005807573917 ], [ 5.536920113946171, 51.526005793445407 ], [ 5.537174575067553, 51.526004846453958 ], [ 5.537189013597096, 51.526004791941034 ], [ 5.538042702533334, 51.526001606126719 ], [ 5.53816521389724, 51.526001151066112 ], [ 5.538494980088133, 51.525999914986251 ], [ 5.538499150103385, 51.525742124483315 ], [ 5.538500250165918, 51.525674411660027 ], [ 5.538463953497604, 51.525597030604679 ], [ 5.538867873347002, 51.525648748250809 ], [ 5.539004752762296, 51.525666268882716 ], [ 5.540123093249213, 51.526011994707268 ], [ 5.540194940234134, 51.526011774687539 ] ] ] ] } }
]
}
