{
"type": "FeatureCollection",
"name": "Stein__L__",
"crs": { "type": "name", "properties": { "name": "urn:ogc:def:crs:OGC:1.3:CRS84" } },
"features": [
{ "type": "Feature", "properties": { "buurtcode": "BU09710000", "buurtnaam": "Oud-Stein", "pc6_codes": "6171AB, 6171CH, 6171CJ, 6171CK, 6171CL, 6171CN, 6171CP, 6171CR, 6171CS, 6171CT, 6171CV, 6171CW, 6171CX, 6171CZ, 6171DA, 6171DB, 6171DD, 6171DE, 6171DW, 6171DX, 6171EA, 6171EB, 6171EC, 6171ED, 6171EE, 6171EG, 6171EH, 6171EJ, 6171EK, 6171EL, 6171EM, 6171EN, 6171EP, 6171ER, 6171ET, 6171EV, 6171EW, 6171EX, 6171GA, 6171GB, 6171GC, 6171GD, 6171GE, 6171GG, 6171GH, 6171GJ, 6171GK, 6171GL, 6171GM, 6171GN, 6171GP, 6171GR, 6171GS, 6171GT, 6171GV, 6171GW, 6171GX, 6171GZ, 6171HA, 6171HB, 6171HC, 6171HD, 6171HE, 6171HG, 6171HH, 6171HJ, 6171HK, 6171HL, 6171HM, 6171HN, 6171HP, 6171HR, 6171HS, 6171HV, 6171VH, 6171VJ, 6171VK, 6171VL, 6171VM, 6171VN, 6171VP, 6171VR, 6171VS, 6171VT, 6171VV, 6171VW, 6171ZV, 6171ZW, 6171ZX", "wijkcode": "WK097100", "gemeentecode": "GM0971", "gemeentenaam": "Stein (L.)", "oppervlakteLandInHa": 189, "AantalInwoners_5": 3175, "Mannen_6": 1530, "Vrouwen_7": 1650, "HuishoudensTotaal_29": 1500, "GemiddeldeHuishoudensgrootte_33": 2.1, "Woningvoorraad_35": 1587, "NieuwbouwWoningen_36": 2, "NietWoningvoorraad_37": 117, "NieuwbouwNietWoningen_38": 0, "GemiddeldeWOZWaardeVanWoningen_39": 318, "PercentageEengezinswoning_40": 71, "PercentageTussenwoningEengezins_41": 11, "PercentageHoekwoningEengezins_42": 9, "PercentageTweeOnderEenKapWoningEe_43": 19, "PercentageVrijstaandeWoningEengezins_44": 32, "PercentageMeergezinswoning_45": 29, "Koopwoningen_47": 72, "HuurwoningenTotaal_48": 28, "InBezitWoningcorporatie_49": 16, "InBezitOverigeVerhuurders_50": 12, "BouwjaarMeerDanTienJaarGeleden_51": 98, "BouwjaarAfgelopenTienJaar_52": 2, "GemiddeldeElektriciteitslevering_53": 3010, "GemiddeldeElektriciteitsteruglevering_54": 1270, "GemiddeldAardgasverbruik_55": 980, "AardgasvrijeWoningen_57": 3, "Aardgaswoningen_58": 93, "WoningenMetZonnestroom_59": 46, "WoningenHoofdzElektrVerwarmd_60": 7, "k_20PersonenMetHoogsteInkomen_80": 21.4, "k_20HuishoudensMetHoogsteInkomen_85": 21.9, "MediaanVermogenVanParticuliereHuish_86": 246.2, "PersonenautoSTotaal_104": 1885, "PersonenautoSBrandstofBenzine_105": 1570, "PersonenautoSOverigeBrandstof_106": 320, "PersonenautoSPerHuishouden_107": 1.3, "Omgevingsadressendichtheid_121": 1066, "AantalInstallatiesBijWoningen_5": 603, "OpgesteldVermogenVanZonnepanelen_6": 2874, "installaties_per_woning": 0.37996219281663518, "vermogen_per_woning": 1.8109640831758034, "installaties_per_100_woningen": 37.996219281663521, "vermogen_per_huishouden": 1.916, "batterijdruk_score": 584.2, "koop_zon_score": 0.3312, "eengezins_zon_score": 0.3266, "betaalkracht_zon_score": 113.252, "overige_brandstof_zon_score": 147.2, "lichte_batterij_kansscore": 0.42029846514804603 }, "geometry": { "type": "MultiPolygon", "coordinates": [ [ [ [ 5.763996625619892, 50.98350116617614 ], [ 5.765212120047292, 50.983087369139533 ], [ 5.766497931679463, 50.982730912657345 ], [ 5.769204708238247, 50.982682409190623 ], [ 5.768868480285281, 50.981468334102033 ], [ 5.768203229756193, 50.980391859576415 ], [ 5.767594327556055, 50.979264633809073 ], [ 5.767210415894506, 50.978465884368738 ], [ 5.767093167644767, 50.977195466888134 ], [ 5.767119127676817, 50.976024862144229 ], [ 5.766863424943517, 50.973661626792463 ], [ 5.766601423020974, 50.972098421416646 ], [ 5.766283797629976, 50.97120872001414 ], [ 5.765644812091395, 50.970380182536786 ], [ 5.764985880100494, 50.969530357200327 ], [ 5.764742012519328, 50.968596309811531 ], [ 5.764732102670457, 50.967384529677993 ], [ 5.764762083487946, 50.966018966386393 ], [ 5.765127990763002, 50.964989388897202 ], [ 5.76641388963693, 50.963134600045876 ], [ 5.765010792267677, 50.962490864753086 ], [ 5.763179646371668, 50.961714793964617 ], [ 5.75904305680761, 50.95973374817072 ], [ 5.756908954028296, 50.958590007781261 ], [ 5.756456288853327, 50.958576002421708 ], [ 5.755125614742587, 50.958948782697099 ], [ 5.753999414309749, 50.959420619775223 ], [ 5.753128197656368, 50.960135464107807 ], [ 5.751630102623721, 50.961283461094546 ], [ 5.750916538601413, 50.961777565054049 ], [ 5.750961753340089, 50.962463946790997 ], [ 5.749839423763745, 50.963444726450113 ], [ 5.749105755459719, 50.965012770268423 ], [ 5.748904319249985, 50.966015658321524 ], [ 5.748860008571042, 50.966889682624725 ], [ 5.74892564370819, 50.967289483032552 ], [ 5.748975091576991, 50.967582308948948 ], [ 5.750067749197942, 50.969149975510582 ], [ 5.751844610124792, 50.971154528818587 ], [ 5.755200099229736, 50.975075419831406 ], [ 5.75971733951207, 50.980489412216478 ], [ 5.76162325263707, 50.982690033984014 ], [ 5.764379891724517, 50.984930272254822 ], [ 5.763996625619892, 50.98350116617614 ] ] ] ] } },
{ "type": "Feature", "properties": { "buurtcode": "BU09710001", "buurtnaam": "Kerensheide", "pc6_codes": "6171AA, 6171AH, 6171AJ, 6171AK, 6171AM, 6171AN, 6171AP, 6171AR, 6171AS, 6171AT, 6171AV, 6171AW, 6171AX, 6171AZ, 6171BA, 6171BB, 6171BC, 6171BD, 6171BE, 6171BG, 6171BH, 6171BJ, 6171BK, 6171BL, 6171BM, 6171BN, 6171BP, 6171BR, 6171BS, 6171BT, 6171BV, 6171BW, 6171BX, 6171BZ, 6171CA, 6171CB, 6171CC, 6171CD, 6171CE, 6171CG, 6171CM, 6171DZ, 6171RM, 6171SB, 6171SC, 6171SE, 6171SH, 6171SJ, 6171SK, 6171SL, 6171SM, 6171SN, 6171TC, 6171TD, 6171TE, 6171TG, 6171TH, 6171TJ, 6171TK, 6171TL, 6171TM, 6171TN, 6171TP, 6171TR, 6171TS, 6171TT, 6171TV, 6171TW, 6171TX, 6171TZ, 6171VA, 6171VB, 6171VC, 6171VD", "wijkcode": "WK097100", "gemeentecode": "GM0971", "gemeentenaam": "Stein (L.)", "oppervlakteLandInHa": 132, "AantalInwoners_5": 2600, "Mannen_6": 1265, "Vrouwen_7": 1325, "HuishoudensTotaal_29": 1210, "GemiddeldeHuishoudensgrootte_33": 2.2, "Woningvoorraad_35": 1231, "NieuwbouwWoningen_36": 2, "NietWoningvoorraad_37": 216, "NieuwbouwNietWoningen_38": 0, "GemiddeldeWOZWaardeVanWoningen_39": 273, "PercentageEengezinswoning_40": 94, "PercentageTussenwoningEengezins_41": 36, "PercentageHoekwoningEengezins_42": 22, "PercentageTweeOnderEenKapWoningEe_43": 18, "PercentageVrijstaandeWoningEengezins_44": 18, "PercentageMeergezinswoning_45": 6, "Koopwoningen_47": 72, "HuurwoningenTotaal_48": 28, "InBezitWoningcorporatie_49": 22, "InBezitOverigeVerhuurders_50": 6, "BouwjaarMeerDanTienJaarGeleden_51": 100, "BouwjaarAfgelopenTienJaar_52": 0, "GemiddeldeElektriciteitslevering_53": 2910, "GemiddeldeElektriciteitsteruglevering_54": 1400, "GemiddeldAardgasverbruik_55": 980, "AardgasvrijeWoningen_57": 1, "Aardgaswoningen_58": 92, "WoningenMetZonnestroom_59": 63, "WoningenHoofdzElektrVerwarmd_60": 5, "k_20PersonenMetHoogsteInkomen_80": 16.0, "k_20HuishoudensMetHoogsteInkomen_85": 16.1, "MediaanVermogenVanParticuliereHuish_86": 178.0, "PersonenautoSTotaal_104": 1600, "PersonenautoSBrandstofBenzine_105": 1345, "PersonenautoSOverigeBrandstof_106": 255, "PersonenautoSPerHuishouden_107": 1.3, "Omgevingsadressendichtheid_121": 938, "AantalInstallatiesBijWoningen_5": 618, "OpgesteldVermogenVanZonnepanelen_6": 2271, "installaties_per_woning": 0.50203086921202278, "vermogen_per_woning": 1.8448415922014623, "installaties_per_100_woningen": 50.203086921202278, "vermogen_per_huishouden": 1.8768595041322313, "batterijdruk_score": 882.0, "koop_zon_score": 0.4536, "eengezins_zon_score": 0.5922, "betaalkracht_zon_score": 112.14, "overige_brandstof_zon_score": 160.65, "lichte_batterij_kansscore": 0.5029033787366386 }, "geometry": { "type": "MultiPolygon", "coordinates": [ [ [ [ 5.772744279951006, 50.983137259215383 ], [ 5.777822037124053, 50.98242725703377 ], [ 5.782465376897846, 50.981887717655802 ], [ 5.782530924765468, 50.981675155857552 ], [ 5.782560586171916, 50.981583727562146 ], [ 5.782677360709728, 50.981224133131661 ], [ 5.782868207951943, 50.980779879930445 ], [ 5.783017777114384, 50.980454151073509 ], [ 5.783021844599308, 50.980463530553166 ], [ 5.783058161089405, 50.980547227747628 ], [ 5.783172409337881, 50.980303867686473 ], [ 5.783137401713601, 50.980223357106212 ], [ 5.783290425170203, 50.979968718137648 ], [ 5.783279207450411, 50.979939183081889 ], [ 5.783380308021447, 50.979839869668922 ], [ 5.783359940511169, 50.979789475759873 ], [ 5.783330553506131, 50.979716802294078 ], [ 5.78350954690952, 50.979452276313587 ], [ 5.783875508104223, 50.978924005194912 ], [ 5.783885022634004, 50.978922687194036 ], [ 5.784014030652094, 50.978904833752793 ], [ 5.784209715717926, 50.978611763711292 ], [ 5.784212521021289, 50.978608482140871 ], [ 5.784310397706426, 50.978494158535149 ], [ 5.784316149353339, 50.978487442094618 ], [ 5.784306999734289, 50.978466619262178 ], [ 5.784381154286039, 50.978363900685444 ], [ 5.784348782873371, 50.978293628755452 ], [ 5.784410599806368, 50.978186844550294 ], [ 5.784631067621295, 50.977806002228412 ], [ 5.784655208993128, 50.977856409928854 ], [ 5.784686309860966, 50.977921319771511 ], [ 5.784756068136018, 50.977820854272537 ], [ 5.785018823599025, 50.977430553539364 ], [ 5.784998490560441, 50.977385894706309 ], [ 5.784989071570037, 50.97736521667516 ], [ 5.785015655445747, 50.977361988236147 ], [ 5.785066163538226, 50.97735587306623 ], [ 5.78513782039289, 50.977239652288254 ], [ 5.785289010881067, 50.97699447323965 ], [ 5.785361377467353, 50.976863274402398 ], [ 5.785369480419432, 50.976848576685271 ], [ 5.785371070612949, 50.976846404896904 ], [ 5.78546264551028, 50.976721962511235 ], [ 5.78576547081798, 50.976180158444556 ], [ 5.785774486629485, 50.976164028324305 ], [ 5.786024841437882, 50.975658890026395 ], [ 5.786038905626024, 50.975620656812488 ], [ 5.786255067485683, 50.975032920064287 ], [ 5.786437038400737, 50.974639298863814 ], [ 5.786460114846495, 50.974570507379696 ], [ 5.782415982621843, 50.974292745085798 ], [ 5.779642108547362, 50.973899645246341 ], [ 5.777693475682052, 50.973465777751564 ], [ 5.776230734108271, 50.973059741378272 ], [ 5.774403512326365, 50.9721346737524 ], [ 5.77326808231328, 50.971704189823519 ], [ 5.772008947095859, 50.971455007126252 ], [ 5.769002368181184, 50.970973380636579 ], [ 5.765644812091395, 50.970380182536786 ], [ 5.766283797629976, 50.97120872001414 ], [ 5.766601423020974, 50.972098421416646 ], [ 5.766863424943517, 50.973661626792463 ], [ 5.767119127676817, 50.976024862144229 ], [ 5.767093167644767, 50.977195466888134 ], [ 5.767210415894506, 50.978465884368738 ], [ 5.767594327556055, 50.979264633809073 ], [ 5.768203229756193, 50.980391859576415 ], [ 5.768868480285281, 50.981468334102033 ], [ 5.769204708238247, 50.982682409190623 ], [ 5.769239835694244, 50.982813474277243 ], [ 5.769687920885792, 50.983426891032593 ], [ 5.772744279951006, 50.983137259215383 ] ] ] ] } },
{ "type": "Feature", "properties": { "buurtcode": "BU09710002", "buurtnaam": "Nieuwdorp", "pc6_codes": "6171LX, 6171LZ, 6171NA, 6171NB, 6171NC, 6171ND, 6171NE, 6171NG, 6171NH, 6171NJ, 6171NK, 6171NL, 6171NM, 6171NN, 6171NP, 6171NR, 6171NS, 6171NT, 6171NV, 6171NW, 6171NX, 6171NZ, 6171PA, 6171PB, 6171PC, 6171PD, 6171PE, 6171PG, 6171PH, 6171PJ, 6171PK, 6171PL, 6171PM, 6171PN, 6171PP, 6171VX, 6171VZ, 6171WR, 6171WS, 6171WT, 6171WV, 6171WX, 6171WZ, 6171XA, 6171XB, 6171XC, 6171XD, 6171XE, 6171XG, 6171XH, 6171XJ, 6171XK, 6171XL, 6171XM, 6171XN, 6171XP, 6171XR, 6171XS, 6171XT, 6171XV, 6171XW, 6171XX, 6171XZ, 6181MA, 6181MD", "wijkcode": "WK097100", "gemeentecode": "GM0971", "gemeentenaam": "Stein (L.)", "oppervlakteLandInHa": 171, "AantalInwoners_5": 2355, "Mannen_6": 1175, "Vrouwen_7": 1180, "HuishoudensTotaal_29": 1145, "GemiddeldeHuishoudensgrootte_33": 2.1, "Woningvoorraad_35": 1160, "NieuwbouwWoningen_36": 1, "NietWoningvoorraad_37": 91, "NieuwbouwNietWoningen_38": 0, "GemiddeldeWOZWaardeVanWoningen_39": 250, "PercentageEengezinswoning_40": 81, "PercentageTussenwoningEengezins_41": 25, "PercentageHoekwoningEengezins_42": 17, "PercentageTweeOnderEenKapWoningEe_43": 31, "PercentageVrijstaandeWoningEengezins_44": 9, "PercentageMeergezinswoning_45": 19, "Koopwoningen_47": 65, "HuurwoningenTotaal_48": 35, "InBezitWoningcorporatie_49": 30, "InBezitOverigeVerhuurders_50": 5, "BouwjaarMeerDanTienJaarGeleden_51": 100, "BouwjaarAfgelopenTienJaar_52": 0, "GemiddeldeElektriciteitslevering_53": 2730, "GemiddeldeElektriciteitsteruglevering_54": 1220, "GemiddeldAardgasverbruik_55": 830, "AardgasvrijeWoningen_57": 2, "Aardgaswoningen_58": 91, "WoningenMetZonnestroom_59": 55, "WoningenHoofdzElektrVerwarmd_60": 8, "k_20PersonenMetHoogsteInkomen_80": 13.5, "k_20HuishoudensMetHoogsteInkomen_85": 13.7, "MediaanVermogenVanParticuliereHuish_86": 131.8, "PersonenautoSTotaal_104": 1435, "PersonenautoSBrandstofBenzine_105": 1245, "PersonenautoSOverigeBrandstof_106": 190, "PersonenautoSPerHuishouden_107": 1.3, "Omgevingsadressendichtheid_121": 1101, "AantalInstallatiesBijWoningen_5": 421, "OpgesteldVermogenVanZonnepanelen_6": 1734, "installaties_per_woning": 0.3629310344827586, "vermogen_per_woning": 1.4948275862068965, "installaties_per_100_woningen": 36.293103448275858, "vermogen_per_huishouden": 1.514410480349345, "batterijdruk_score": 671.0, "koop_zon_score": 0.3575, "eengezins_zon_score": 0.4455, "betaalkracht_zon_score": 72.49, "overige_brandstof_zon_score": 104.5, "lichte_batterij_kansscore": 0.44056168337862217 }, "geometry": { "type": "MultiPolygon", "coordinates": [ [ [ [ 5.784596773555694, 50.965550974608746 ], [ 5.784606292993334, 50.965495974923861 ], [ 5.784694941094396, 50.965078586510572 ], [ 5.784878069491983, 50.964508332231276 ], [ 5.785134541900755, 50.964108075019901 ], [ 5.7855256648348, 50.96365818488227 ], [ 5.785713657537877, 50.96335650031142 ], [ 5.785761687586206, 50.963249780775328 ], [ 5.785861000747395, 50.963029067424372 ], [ 5.78596360079566, 50.962630326845186 ], [ 5.785999465986852, 50.962250782601309 ], [ 5.785949030961106, 50.961651937216907 ], [ 5.785894588393725, 50.960984430559989 ], [ 5.785858877403817, 50.960425624857123 ], [ 5.785841521108484, 50.960223628040303 ], [ 5.785580284134328, 50.960024213615341 ], [ 5.783590789957917, 50.958626052453518 ], [ 5.782049779768131, 50.957632215239116 ], [ 5.780857790703847, 50.956980612207786 ], [ 5.77902374968823, 50.956393616681311 ], [ 5.777289933765402, 50.955962364380966 ], [ 5.775952914529898, 50.955685863325243 ], [ 5.775363678252875, 50.95615616999757 ], [ 5.774818616939133, 50.956001887375265 ], [ 5.773927018986564, 50.955786315528229 ], [ 5.773432442484344, 50.955756744688976 ], [ 5.77199919143468, 50.955792739566604 ], [ 5.771061293519995, 50.95595196217873 ], [ 5.769730002508171, 50.95636225429628 ], [ 5.769784088825649, 50.956924070770562 ], [ 5.765284692395044, 50.956813965010348 ], [ 5.764096018176758, 50.956536844396716 ], [ 5.762708105743505, 50.956073025486695 ], [ 5.760532351018559, 50.955986396732875 ], [ 5.758900838571251, 50.955965887340568 ], [ 5.758252947393957, 50.95863233678282 ], [ 5.756908954028296, 50.958590007781261 ], [ 5.75904305680761, 50.95973374817072 ], [ 5.763179646371668, 50.961714793964617 ], [ 5.765010792267677, 50.962490864753086 ], [ 5.76641388963693, 50.963134600045876 ], [ 5.767669904787665, 50.963711104857175 ], [ 5.77061342857315, 50.964746631718597 ], [ 5.771132711528431, 50.965221321334653 ], [ 5.772647801751033, 50.965965173143978 ], [ 5.775528467893944, 50.966742917410301 ], [ 5.778937202909249, 50.967354476473488 ], [ 5.782260795580638, 50.967805268373048 ], [ 5.784205334505758, 50.967811806780283 ], [ 5.784596773555694, 50.965550974608746 ] ] ] ] } },
{ "type": "Feature", "properties": { "buurtcode": "BU09710003", "buurtnaam": "Kleine Meers en Veldschuur", "pc6_codes": "6171PR, 6171PS, 6171PT, 6171PV, 6171PW, 6171PX, 6171PZ, 6171RP, 6171RR", "wijkcode": "WK097100", "gemeentecode": "GM0971", "gemeentenaam": "Stein (L.)", "oppervlakteLandInHa": 35, "AantalInwoners_5": 270, "Mannen_6": 145, "Vrouwen_7": 125, "HuishoudensTotaal_29": 110, "GemiddeldeHuishoudensgrootte_33": 2.5, "Woningvoorraad_35": 117, "NieuwbouwWoningen_36": 0, "NietWoningvoorraad_37": 5, "NieuwbouwNietWoningen_38": 0, "GemiddeldeWOZWaardeVanWoningen_39": 329, "PercentageEengezinswoning_40": 97, "PercentageTussenwoningEengezins_41": 3, "PercentageHoekwoningEengezins_42": 4, "PercentageTweeOnderEenKapWoningEe_43": 38, "PercentageVrijstaandeWoningEengezins_44": 51, "PercentageMeergezinswoning_45": 3, "Koopwoningen_47": 93, "HuurwoningenTotaal_48": 6, "InBezitWoningcorporatie_49": 0, "InBezitOverigeVerhuurders_50": 6, "BouwjaarMeerDanTienJaarGeleden_51": 97, "BouwjaarAfgelopenTienJaar_52": 3, "GemiddeldeElektriciteitslevering_53": 3620, "GemiddeldeElektriciteitsteruglevering_54": 1790, "GemiddeldAardgasverbruik_55": 1080, "AardgasvrijeWoningen_57": 3, "Aardgaswoningen_58": 87, "WoningenMetZonnestroom_59": 56, "WoningenHoofdzElektrVerwarmd_60": 12, "k_20PersonenMetHoogsteInkomen_80": 23.3, "k_20HuishoudensMetHoogsteInkomen_85": 30.3, "MediaanVermogenVanParticuliereHuish_86": 262.8, "PersonenautoSTotaal_104": 180, "PersonenautoSBrandstofBenzine_105": 160, "PersonenautoSOverigeBrandstof_106": 20, "PersonenautoSPerHuishouden_107": 1.6, "Omgevingsadressendichtheid_121": 297, "AantalInstallatiesBijWoningen_5": 54, "OpgesteldVermogenVanZonnepanelen_6": 264, "installaties_per_woning": 0.46153846153846156, "vermogen_per_woning": 2.2564102564102564, "installaties_per_100_woningen": 46.153846153846153, "vermogen_per_huishouden": 2.4, "batterijdruk_score": 1002.4, "koop_zon_score": 0.5208, "eengezins_zon_score": 0.5432, "betaalkracht_zon_score": 147.168, "overige_brandstof_zon_score": 11.2, "lichte_batterij_kansscore": 0.54401234094043982 }, "geometry": { "type": "MultiPolygon", "coordinates": [ [ [ [ 5.742310585424876, 50.97025830805795 ], [ 5.743098662552122, 50.969619364457735 ], [ 5.743606533301317, 50.969020042796096 ], [ 5.74554945907583, 50.967523579655719 ], [ 5.74892564370819, 50.967289483032552 ], [ 5.748860008571042, 50.966889682624725 ], [ 5.748904319249985, 50.966015658321524 ], [ 5.749105755459719, 50.965012770268423 ], [ 5.749839423763745, 50.963444726450113 ], [ 5.750961753340089, 50.962463946790997 ], [ 5.750916538601413, 50.961777565054049 ], [ 5.749482401611057, 50.962388809256424 ], [ 5.749391588423837, 50.962424564359154 ], [ 5.747834785545812, 50.96303750121492 ], [ 5.747104194271667, 50.962982189306615 ], [ 5.74709340275129, 50.962988853939038 ], [ 5.746931220591953, 50.96293827246069 ], [ 5.746454571259187, 50.963360701050171 ], [ 5.746215875579868, 50.963530845630132 ], [ 5.746003791076952, 50.96368201984393 ], [ 5.745367146661227, 50.964104939657837 ], [ 5.744783556573595, 50.964494016219483 ], [ 5.744332493219369, 50.964781653458161 ], [ 5.743961415395344, 50.965069042487428 ], [ 5.743722742190654, 50.965238157094497 ], [ 5.743324473404181, 50.965458276037197 ], [ 5.74274046000684, 50.965796829721754 ], [ 5.741864165153642, 50.966270979660159 ], [ 5.741598556467254, 50.966406497392065 ], [ 5.741625995118867, 50.96650744013224 ], [ 5.741467170672585, 50.966659467662097 ], [ 5.740777500785664, 50.967133038136588 ], [ 5.740645336400236, 50.967284983111512 ], [ 5.74027382920242, 50.967521847741232 ], [ 5.739531445910447, 50.968079761168944 ], [ 5.739399401756799, 50.968248542280584 ], [ 5.739160912881575, 50.96830314493662 ], [ 5.738744100414087, 50.968728443722192 ], [ 5.737903525802222, 50.969753756332445 ], [ 5.737438498895886, 50.970381857480625 ], [ 5.740521838728419, 50.971640761684689 ], [ 5.742310585424876, 50.97025830805795 ] ] ] ] } },
{ "type": "Feature", "properties": { "buurtcode": "BU09710004", "buurtnaam": "Maasband", "pc6_codes": "6171RN, 6171RP, 6171RS, 6171RT, 6171RV, 6171RW, 6171RX, 6171RZ", "wijkcode": "WK097100", "gemeentecode": "GM0971", "gemeentenaam": "Stein (L.)", "oppervlakteLandInHa": 235, "AantalInwoners_5": 115, "Mannen_6": 65, "Vrouwen_7": 50, "HuishoudensTotaal_29": 60, "GemiddeldeHuishoudensgrootte_33": 2.0, "Woningvoorraad_35": 58, "NieuwbouwWoningen_36": 0, "NietWoningvoorraad_37": 6, "NieuwbouwNietWoningen_38": 0, "GemiddeldeWOZWaardeVanWoningen_39": 339, "PercentageEengezinswoning_40": 100, "PercentageTussenwoningEengezins_41": 10, "PercentageHoekwoningEengezins_42": 19, "PercentageTweeOnderEenKapWoningEe_43": 22, "PercentageVrijstaandeWoningEengezins_44": 48, "PercentageMeergezinswoning_45": 0, "Koopwoningen_47": 88, "HuurwoningenTotaal_48": 12, "InBezitWoningcorporatie_49": 0, "InBezitOverigeVerhuurders_50": 12, "BouwjaarMeerDanTienJaarGeleden_51": 100, "BouwjaarAfgelopenTienJaar_52": 0, "GemiddeldeElektriciteitslevering_53": 3070, "GemiddeldeElektriciteitsteruglevering_54": 1390, "GemiddeldAardgasverbruik_55": 1130, "AardgasvrijeWoningen_57": null, "Aardgaswoningen_58": null, "WoningenMetZonnestroom_59": null, "WoningenHoofdzElektrVerwarmd_60": null, "k_20PersonenMetHoogsteInkomen_80": 23.4, "k_20HuishoudensMetHoogsteInkomen_85": null, "MediaanVermogenVanParticuliereHuish_86": null, "PersonenautoSTotaal_104": 80, "PersonenautoSBrandstofBenzine_105": 70, "PersonenautoSOverigeBrandstof_106": 10, "PersonenautoSPerHuishouden_107": 1.4, "Omgevingsadressendichtheid_121": 86, "AantalInstallatiesBijWoningen_5": 18, "OpgesteldVermogenVanZonnepanelen_6": 86, "installaties_per_woning": 0.31034482758620691, "vermogen_per_woning": 1.4827586206896552, "installaties_per_100_woningen": 31.03448275862069, "vermogen_per_huishouden": 1.4333333333333333, "batterijdruk_score": null, "koop_zon_score": null, "eengezins_zon_score": null, "betaalkracht_zon_score": null, "overige_brandstof_zon_score": null, "lichte_batterij_kansscore": null }, "geometry": { "type": "MultiPolygon", "coordinates": [ [ [ [ 5.761236233013056, 50.990639413972758 ], [ 5.762915448590209, 50.988881991839939 ], [ 5.763757277051181, 50.987326710442098 ], [ 5.76466495587726, 50.985994526009833 ], [ 5.764396179993013, 50.98499033230194 ], [ 5.764379891724517, 50.984930272254822 ], [ 5.76162325263707, 50.982690033984014 ], [ 5.75971733951207, 50.980489412216478 ], [ 5.755200099229736, 50.975075419831406 ], [ 5.751844610124792, 50.971154528818587 ], [ 5.750067749197942, 50.969149975510582 ], [ 5.748975091576991, 50.967582308948948 ], [ 5.74892564370819, 50.967289483032552 ], [ 5.74554945907583, 50.967523579655719 ], [ 5.743606533301317, 50.969020042796096 ], [ 5.743098662552122, 50.969619364457735 ], [ 5.742310585424876, 50.97025830805795 ], [ 5.740521838728419, 50.971640761684689 ], [ 5.737438498895886, 50.970381857480625 ], [ 5.737041774101019, 50.970807217853192 ], [ 5.735960610515378, 50.972061897047283 ], [ 5.733735390740502, 50.971492168349926 ], [ 5.733160934124588, 50.971824166577093 ], [ 5.733358811408714, 50.971863028180707 ], [ 5.733376876708225, 50.971879963117388 ], [ 5.734296216555848, 50.972741669609412 ], [ 5.734882325463079, 50.973588369768748 ], [ 5.735388679965093, 50.974372384832428 ], [ 5.735440981264714, 50.97467333642588 ], [ 5.735550170248303, 50.97530161704794 ], [ 5.735839382362514, 50.976155407588998 ], [ 5.735935136429073, 50.976508183758213 ], [ 5.7360792825439, 50.977039189035999 ], [ 5.736377366687406, 50.97791488438056 ], [ 5.737295237049567, 50.97869099793715 ], [ 5.738314251952709, 50.979375650592878 ], [ 5.739778836094835, 50.979798351461312 ], [ 5.741172014472436, 50.979893248511388 ], [ 5.742625867114933, 50.980081786359861 ], [ 5.743995275096381, 50.980157576161687 ], [ 5.745280236178142, 50.980268487736069 ], [ 5.745337008030543, 50.980284950567444 ], [ 5.74664531237929, 50.980664353156889 ], [ 5.747754012057817, 50.981249497574531 ], [ 5.748793337702129, 50.981864061895095 ], [ 5.749883983733197, 50.982536614216762 ], [ 5.750819605937562, 50.983284071017259 ], [ 5.750994931436761, 50.983506147698954 ], [ 5.751496234371757, 50.984141100618011 ], [ 5.751994628666925, 50.984966597612512 ], [ 5.752395209397167, 50.985792670645758 ], [ 5.752645807317913, 50.98672204834358 ], [ 5.753773742713727, 50.987370086934732 ], [ 5.754485591597901, 50.988182313183884 ], [ 5.755132123271727, 50.988980270551068 ], [ 5.755018548842625, 50.990115386271597 ], [ 5.755744155755415, 50.990858886277593 ], [ 5.756521105043812, 50.991607970971941 ], [ 5.757467935540029, 50.99233133873328 ], [ 5.758629491632496, 50.99288394100035 ], [ 5.758927768995919, 50.993049529940329 ], [ 5.759138142531266, 50.993166318481236 ], [ 5.761236233013056, 50.990639413972758 ] ] ] ] } },
{ "type": "Feature", "properties": { "buurtcode": "BU09710005", "buurtnaam": "Centrum", "pc6_codes": "6171AC, 6171AD, 6171AE, 6171AL, 6171AM, 6171AN, 6171HW, 6171HX, 6171HZ, 6171JA, 6171JB, 6171JC, 6171JD, 6171JE, 6171JG, 6171JH, 6171JJ, 6171JK, 6171JL, 6171JM, 6171JN, 6171JP, 6171JR, 6171JS, 6171JT, 6171JV, 6171JW, 6171JX, 6171JZ, 6171KA, 6171KB, 6171KC, 6171KD, 6171KE, 6171KG, 6171KH, 6171KJ, 6171KK, 6171KL, 6171KM, 6171KN, 6171KP, 6171KR, 6171KT, 6171KV, 6171KW, 6171KX, 6171KZ, 6171LA, 6171LB, 6171LC, 6171LD, 6171LE, 6171LG, 6171LH, 6171LJ, 6171LK, 6171LL, 6171LM, 6171LN, 6171LP, 6171LR, 6171LS, 6171LT, 6171LV, 6171LW, 6171MA, 6171RM, 6171VE, 6171VG", "wijkcode": "WK097100", "gemeentecode": "GM0971", "gemeentenaam": "Stein (L.)", "oppervlakteLandInHa": 103, "AantalInwoners_5": 2200, "Mannen_6": 1080, "Vrouwen_7": 1120, "HuishoudensTotaal_29": 1150, "GemiddeldeHuishoudensgrootte_33": 1.9, "Woningvoorraad_35": 1160, "NieuwbouwWoningen_36": 0, "NietWoningvoorraad_37": 216, "NieuwbouwNietWoningen_38": 0, "GemiddeldeWOZWaardeVanWoningen_39": 254, "PercentageEengezinswoning_40": 65, "PercentageTussenwoningEengezins_41": 18, "PercentageHoekwoningEengezins_42": 11, "PercentageTweeOnderEenKapWoningEe_43": 19, "PercentageVrijstaandeWoningEengezins_44": 17, "PercentageMeergezinswoning_45": 35, "Koopwoningen_47": 56, "HuurwoningenTotaal_48": 44, "InBezitWoningcorporatie_49": 41, "InBezitOverigeVerhuurders_50": 3, "BouwjaarMeerDanTienJaarGeleden_51": 90, "BouwjaarAfgelopenTienJaar_52": 10, "GemiddeldeElektriciteitslevering_53": 2480, "GemiddeldeElektriciteitsteruglevering_54": 860, "GemiddeldAardgasverbruik_55": 870, "AardgasvrijeWoningen_57": 1, "Aardgaswoningen_58": 96, "WoningenMetZonnestroom_59": 40, "WoningenHoofdzElektrVerwarmd_60": 4, "k_20PersonenMetHoogsteInkomen_80": 11.4, "k_20HuishoudensMetHoogsteInkomen_85": 10.8, "MediaanVermogenVanParticuliereHuish_86": 113.8, "PersonenautoSTotaal_104": 1210, "PersonenautoSBrandstofBenzine_105": 1045, "PersonenautoSOverigeBrandstof_106": 165, "PersonenautoSPerHuishouden_107": 1.1, "Omgevingsadressendichtheid_121": 1370, "AantalInstallatiesBijWoningen_5": 377, "OpgesteldVermogenVanZonnepanelen_6": 1443, "installaties_per_woning": 0.325, "vermogen_per_woning": 1.2439655172413793, "installaties_per_100_woningen": 32.5, "vermogen_per_huishouden": 1.2547826086956522, "batterijdruk_score": 344.0, "koop_zon_score": 0.224, "eengezins_zon_score": 0.26, "betaalkracht_zon_score": 45.52, "overige_brandstof_zon_score": 66.0, "lichte_batterij_kansscore": 0.34973096138777654 }, "geometry": { "type": "MultiPolygon", "coordinates": [ [ [ [ 5.786496873838574, 50.974460932890793 ], [ 5.786552437175812, 50.974295687410951 ], [ 5.786554795268211, 50.97428848817205 ], [ 5.786706318500336, 50.973568854853269 ], [ 5.786774075735001, 50.972860207177675 ], [ 5.786718257068331, 50.972168255767983 ], [ 5.786651126345483, 50.971753209951174 ], [ 5.786644252370287, 50.971710707257735 ], [ 5.786538394692871, 50.971372461150047 ], [ 5.786312004581974, 50.970875257564558 ], [ 5.78619273147038, 50.97066442986246 ], [ 5.785979955386683, 50.970341563060728 ], [ 5.785706486217769, 50.96999643256553 ], [ 5.785229426576604, 50.969566607070163 ], [ 5.785119448980677, 50.969607435034156 ], [ 5.784704370353016, 50.969348183141271 ], [ 5.78437857758749, 50.969124579069607 ], [ 5.783898140336394, 50.968879031804214 ], [ 5.783962594348351, 50.968716013329498 ], [ 5.784115911315142, 50.968328255838529 ], [ 5.784205334505758, 50.967811806780283 ], [ 5.782260795580638, 50.967805268373048 ], [ 5.778937202909249, 50.967354476473488 ], [ 5.775528467893944, 50.966742917410301 ], [ 5.772647801751033, 50.965965173143978 ], [ 5.771132711528431, 50.965221321334653 ], [ 5.77061342857315, 50.964746631718597 ], [ 5.767669904787665, 50.963711104857175 ], [ 5.76641388963693, 50.963134600045876 ], [ 5.765127990763002, 50.964989388897202 ], [ 5.764762083487946, 50.966018966386393 ], [ 5.764732102670457, 50.967384529677993 ], [ 5.764742012519328, 50.968596309811531 ], [ 5.764985880100494, 50.969530357200327 ], [ 5.765644812091395, 50.970380182536786 ], [ 5.769002368181184, 50.970973380636579 ], [ 5.772008947095859, 50.971455007126252 ], [ 5.77326808231328, 50.971704189823519 ], [ 5.774403512326365, 50.9721346737524 ], [ 5.776230734108271, 50.973059741378272 ], [ 5.777693475682052, 50.973465777751564 ], [ 5.779642108547362, 50.973899645246341 ], [ 5.782415982621843, 50.974292745085798 ], [ 5.786460114846495, 50.974570507379696 ], [ 5.786496873838574, 50.974460932890793 ] ] ] ] } },
{ "type": "Feature", "properties": { "buurtcode": "BU09710100", "buurtnaam": "Elsloo", "pc6_codes": "6181AA, 6181AB, 6181AC, 6181AD, 6181AE, 6181AG, 6181AH, 6181AJ, 6181AK, 6181AL, 6181AM, 6181AN, 6181AP, 6181AR, 6181AS, 6181AT, 6181AV, 6181AW, 6181AX, 6181AZ, 6181BA, 6181BB, 6181BC, 6181BD, 6181BE, 6181BG, 6181BH, 6181BJ, 6181BK, 6181BL, 6181BM, 6181BN, 6181BP, 6181BR, 6181BS, 6181BT, 6181BV, 6181BW, 6181BX, 6181BZ, 6181CA, 6181CB, 6181CC, 6181CD, 6181CE, 6181CG, 6181CH, 6181CJ, 6181CK, 6181CL, 6181CM, 6181CN, 6181CP, 6181CR, 6181CS, 6181CT, 6181CV, 6181CW, 6181CX, 6181CZ, 6181DA, 6181DB, 6181DC, 6181DD, 6181DE, 6181DG, 6181DH, 6181DJ, 6181DK, 6181DL, 6181DM, 6181DN, 6181DR, 6181DS, 6181DT, 6181DV, 6181DW, 6181EA, 6181EB, 6181EC, 6181ED, 6181EE, 6181EG, 6181EH, 6181EJ, 6181EK, 6181EL, 6181EM, 6181EN, 6181EP, 6181ER, 6181ES, 6181ET, 6181EV, 6181EW, 6181EX, 6181EZ, 6181GA, 6181GB, 6181GC, 6181GD, 6181GE, 6181GG, 6181GH, 6181GJ, 6181GK, 6181GL, 6181GM, 6181GN, 6181GP, 6181GR, 6181GS, 6181GT, 6181GV, 6181GW, 6181GX, 6181HA, 6181HB, 6181HC, 6181HD, 6181HE, 6181HG, 6181HH, 6181HJ, 6181HL, 6181HM, 6181HN, 6181HP, 6181HR, 6181HS, 6181HT, 6181HV, 6181HW, 6181HX, 6181HZ, 6181JA, 6181JB, 6181JC, 6181JD, 6181JZ, 6181KA, 6181KB, 6181KC, 6181KD, 6181KE, 6181KG, 6181KH, 6181KJ, 6181KK, 6181KL, 6181KM, 6181KN, 6181KP, 6181KR, 6181KS, 6181KT, 6181KV, 6181KW, 6181KX, 6181KZ, 6181LA, 6181LB, 6181LC, 6181MA, 6181MB, 6181MC, 6181MD, 6181MJ, 6181MK, 6181ML, 6181MN, 6181MP, 6181MR, 6181MS, 6181MT, 6181MV, 6181MX", "wijkcode": "WK097101", "gemeentecode": "GM0971", "gemeentenaam": "Stein (L.)", "oppervlakteLandInHa": 338, "AantalInwoners_5": 6915, "Mannen_6": 3420, "Vrouwen_7": 3490, "HuishoudensTotaal_29": 3140, "GemiddeldeHuishoudensgrootte_33": 2.2, "Woningvoorraad_35": 3207, "NieuwbouwWoningen_36": 34, "NietWoningvoorraad_37": 296, "NieuwbouwNietWoningen_38": 0, "GemiddeldeWOZWaardeVanWoningen_39": 296, "PercentageEengezinswoning_40": 87, "PercentageTussenwoningEengezins_41": 28, "PercentageHoekwoningEengezins_42": 19, "PercentageTweeOnderEenKapWoningEe_43": 23, "PercentageVrijstaandeWoningEengezins_44": 17, "PercentageMeergezinswoning_45": 13, "Koopwoningen_47": 76, "HuurwoningenTotaal_48": 24, "InBezitWoningcorporatie_49": 18, "InBezitOverigeVerhuurders_50": 6, "BouwjaarMeerDanTienJaarGeleden_51": 98, "BouwjaarAfgelopenTienJaar_52": 2, "GemiddeldeElektriciteitslevering_53": 2920, "GemiddeldeElektriciteitsteruglevering_54": 1310, "GemiddeldAardgasverbruik_55": 910, "AardgasvrijeWoningen_57": 2, "Aardgaswoningen_58": 93, "WoningenMetZonnestroom_59": 57, "WoningenHoofdzElektrVerwarmd_60": 7, "k_20PersonenMetHoogsteInkomen_80": 18.7, "k_20HuishoudensMetHoogsteInkomen_85": 20.0, "MediaanVermogenVanParticuliereHuish_86": 215.4, "PersonenautoSTotaal_104": 4185, "PersonenautoSBrandstofBenzine_105": 3500, "PersonenautoSOverigeBrandstof_106": 685, "PersonenautoSPerHuishouden_107": 1.3, "Omgevingsadressendichtheid_121": 1045, "AantalInstallatiesBijWoningen_5": 1431, "OpgesteldVermogenVanZonnepanelen_6": 5646, "installaties_per_woning": 0.44621141253507951, "vermogen_per_woning": 1.7605238540692236, "installaties_per_100_woningen": 44.62114125350795, "vermogen_per_huishouden": 1.7980891719745222, "batterijdruk_score": 746.7, "koop_zon_score": 0.4332, "eengezins_zon_score": 0.4959, "betaalkracht_zon_score": 122.778, "overige_brandstof_zon_score": 390.45, "lichte_batterij_kansscore": 0.4898930956804799 }, "geometry": { "type": "MultiPolygon", "coordinates": [ [ [ [ 5.785816788433088, 50.959935785831426 ], [ 5.785817305929531, 50.959072401959389 ], [ 5.785824309995411, 50.958614214544575 ], [ 5.785861030512216, 50.958185588115263 ], [ 5.785805753855737, 50.9581463172578 ], [ 5.785966019853037, 50.95633414614877 ], [ 5.785971123478646, 50.95631041589975 ], [ 5.785980249421892, 50.956267938966036 ], [ 5.786000227986751, 50.956175284665711 ], [ 5.786229145186463, 50.955112459504527 ], [ 5.786228138846544, 50.95510305161433 ], [ 5.786227285380947, 50.955094865685027 ], [ 5.786215596239462, 50.954980630324492 ], [ 5.786213777196496, 50.954962811642268 ], [ 5.786203810431917, 50.954865082919561 ], [ 5.786268273271386, 50.954666745772975 ], [ 5.786409117323577, 50.954134388048388 ], [ 5.78645038568668, 50.953900337054442 ], [ 5.786467315997841, 50.953804295386938 ], [ 5.787255563369622, 50.951455907392415 ], [ 5.787256700805754, 50.951452505664264 ], [ 5.787269245483239, 50.951422169779228 ], [ 5.787377921678574, 50.951170644787531 ], [ 5.787540004104016, 50.950743561923026 ], [ 5.787667221881127, 50.950415207478883 ], [ 5.787722612285156, 50.950271553289774 ], [ 5.78785773407601, 50.949886810995231 ], [ 5.787984464752742, 50.94945364751954 ], [ 5.787991822088259, 50.949397944912477 ], [ 5.788058170250156, 50.948895542303994 ], [ 5.788107062537375, 50.948610155764065 ], [ 5.788107725987516, 50.948606261280531 ], [ 5.788049880338422, 50.948565004886582 ], [ 5.787716156282962, 50.948351972992334 ], [ 5.787494315160494, 50.948220298179628 ], [ 5.787320248383528, 50.948123676253665 ], [ 5.787305335403709, 50.948115404097265 ], [ 5.787114144340747, 50.948013034235167 ], [ 5.786957257999768, 50.947931669463685 ], [ 5.786683748025512, 50.947792692787154 ], [ 5.78557549073432, 50.947234590362534 ], [ 5.785488655795536, 50.947139544127715 ], [ 5.785441999313098, 50.947088486016703 ], [ 5.785143530246236, 50.946941645424459 ], [ 5.784997479601828, 50.94687518028185 ], [ 5.784986951517805, 50.94687038943394 ], [ 5.784821159517737, 50.946794949097203 ], [ 5.784769319276792, 50.946771360564149 ], [ 5.784779229473792, 50.94676057582501 ], [ 5.78400207769146, 50.946438717022239 ], [ 5.783802761476325, 50.946367776726753 ], [ 5.783780981649278, 50.946360031024675 ], [ 5.783784814474821, 50.946345725574368 ], [ 5.783784924598711, 50.946345293730822 ], [ 5.783800682374466, 50.946286371568789 ], [ 5.783736125522538, 50.946254835032626 ], [ 5.783697400167327, 50.946248864241277 ], [ 5.782829277833033, 50.945989215597024 ], [ 5.782802830513942, 50.945981377798432 ], [ 5.78242624859402, 50.945879633711044 ], [ 5.782189631788508, 50.945815622588185 ], [ 5.781895241072082, 50.945739259526626 ], [ 5.781820656251332, 50.945724520380089 ], [ 5.781674047825685, 50.945691698340674 ], [ 5.781483859272155, 50.945649127818605 ], [ 5.781335031975932, 50.945592995759057 ], [ 5.780833740815711, 50.945489396899255 ], [ 5.780608460421948, 50.945447834175333 ], [ 5.779954571258076, 50.945339275841484 ], [ 5.779847987187768, 50.945118582971766 ], [ 5.779840420241838, 50.945100478074473 ], [ 5.77982945854779, 50.945073018281605 ], [ 5.779822115027041, 50.945057762099459 ], [ 5.779819005546272, 50.945053511918879 ], [ 5.779785490278366, 50.945007467711839 ], [ 5.779434576911429, 50.944525316455362 ], [ 5.77943437535443, 50.944525038483199 ], [ 5.779339321142928, 50.944394425872289 ], [ 5.775949335588288, 50.944530832606823 ], [ 5.771730682743986, 50.944537059313632 ], [ 5.768185118489194, 50.944397658616538 ], [ 5.764782772396659, 50.944179591473784 ], [ 5.76160213984329, 50.943581489534211 ], [ 5.759506669211209, 50.942898634606742 ], [ 5.7579447739278, 50.942240437862871 ], [ 5.756833510984406, 50.941329656286214 ], [ 5.755590950915352, 50.940200176725888 ], [ 5.754392719712707, 50.938179805181292 ], [ 5.752639779948887, 50.935090375053839 ], [ 5.752136499182072, 50.93440796725185 ], [ 5.752127133849826, 50.934395247878257 ], [ 5.752105886990595, 50.93439757917011 ], [ 5.751889666548465, 50.934448400632625 ], [ 5.751888999185357, 50.934448555546332 ], [ 5.751879130986957, 50.934450878803879 ], [ 5.751837505621426, 50.934475819231707 ], [ 5.751722049601781, 50.934554655742282 ], [ 5.751575935380614, 50.934642217980418 ], [ 5.751399584340612, 50.934719807666255 ], [ 5.751233330066461, 50.93474289280681 ], [ 5.75110311081952, 50.934771707163534 ], [ 5.750893968735817, 50.934876365774414 ], [ 5.750706246945157, 50.934955428352282 ], [ 5.750528805560799, 50.935046656237454 ], [ 5.75049430413528, 50.935058710749971 ], [ 5.750474227970244, 50.935070854804479 ], [ 5.750399898070017, 50.935115834668743 ], [ 5.75033208266833, 50.935162546872284 ], [ 5.750196502048537, 50.935224384135537 ], [ 5.749464099566777, 50.935577649268758 ], [ 5.749269609140929, 50.935650474445573 ], [ 5.748999673337258, 50.935751562457618 ], [ 5.748619245561729, 50.935891011554013 ], [ 5.748561031716858, 50.935912350427209 ], [ 5.750119667075562, 50.939203159133129 ], [ 5.749300566854791, 50.939107134908063 ], [ 5.749287238488544, 50.939105576590343 ], [ 5.74925484306177, 50.939101776771629 ], [ 5.749239378709631, 50.939099964453376 ], [ 5.748888451019408, 50.939058328634914 ], [ 5.748882954461881, 50.939057680636516 ], [ 5.748239583987955, 50.938981351515373 ], [ 5.748462345083789, 50.939232524332596 ], [ 5.748678790279109, 50.939567133106735 ], [ 5.748904173548896, 50.93995268040738 ], [ 5.749001473756778, 50.940205502677721 ], [ 5.749044661311916, 50.940469999808116 ], [ 5.748874713924456, 50.940460283710877 ], [ 5.748897298057895, 50.940528258831321 ], [ 5.748901228229705, 50.940583222438818 ], [ 5.74891183413707, 50.940731271832583 ], [ 5.7489141842403, 50.940867895215639 ], [ 5.748911073557333, 50.940924876355417 ], [ 5.748906719911611, 50.941004818937643 ], [ 5.748844679768724, 50.941156295386691 ], [ 5.748768308168322, 50.941334513499662 ], [ 5.748612134448731, 50.941503632366157 ], [ 5.748409175220206, 50.94165761597452 ], [ 5.748138923210768, 50.941866820945485 ], [ 5.747964875521555, 50.942006780864851 ], [ 5.748128683604194, 50.942031259190912 ], [ 5.747445819752645, 50.942494964792594 ], [ 5.747290722366092, 50.942602504797527 ], [ 5.74725990492215, 50.942626214416386 ], [ 5.747165217635658, 50.942699040080633 ], [ 5.747131189625773, 50.942725222598689 ], [ 5.747123410970532, 50.942731206404929 ], [ 5.746955863613191, 50.942884537987091 ], [ 5.746787906964334, 50.943058544981376 ], [ 5.746687756313864, 50.943151711045076 ], [ 5.746772566898859, 50.942884577240072 ], [ 5.746783162826752, 50.942851186650358 ], [ 5.746578230385477, 50.942996310137936 ], [ 5.745992588791847, 50.943411021513931 ], [ 5.746160551022289, 50.943564947357942 ], [ 5.746266185269612, 50.944488225363003 ], [ 5.74633011709974, 50.945427632868366 ], [ 5.745877403820443, 50.946495745023498 ], [ 5.746588304578614, 50.947303436479395 ], [ 5.747772271686197, 50.947862996516839 ], [ 5.749092750909063, 50.948280093729373 ], [ 5.750304113028091, 50.948769608981728 ], [ 5.751576839345085, 50.949242109288917 ], [ 5.75294619516895, 50.949604536327847 ], [ 5.754450793403985, 50.949792493753741 ], [ 5.755507263741341, 50.949834809503642 ], [ 5.755667273879979, 50.949841212708122 ], [ 5.756917691420643, 50.950253859655469 ], [ 5.758108041793514, 50.950750372004393 ], [ 5.758821582651406, 50.95165685810418 ], [ 5.759185328608783, 50.952541992283706 ], [ 5.759123859257286, 50.953567909671357 ], [ 5.758798733044538, 50.954423705381942 ], [ 5.758232836340551, 50.955249170618295 ], [ 5.758010234949568, 50.955505985732657 ], [ 5.758904523529655, 50.955950722072558 ], [ 5.758900838571251, 50.955965887340568 ], [ 5.760532351018559, 50.955986396732875 ], [ 5.762708105743505, 50.956073025486695 ], [ 5.764096018176758, 50.956536844396716 ], [ 5.765284692395044, 50.956813965010348 ], [ 5.769784088825649, 50.956924070770562 ], [ 5.769730002508171, 50.95636225429628 ], [ 5.771061293519995, 50.95595196217873 ], [ 5.77199919143468, 50.955792739566604 ], [ 5.773432442484344, 50.955756744688976 ], [ 5.773927018986564, 50.955786315528229 ], [ 5.774818616939133, 50.956001887375265 ], [ 5.775363678252875, 50.95615616999757 ], [ 5.775952914529898, 50.955685863325243 ], [ 5.777289933765402, 50.955962364380966 ], [ 5.77902374968823, 50.956393616681311 ], [ 5.780857790703847, 50.956980612207786 ], [ 5.782049779768131, 50.957632215239116 ], [ 5.783590789957917, 50.958626052453518 ], [ 5.785580284134328, 50.960024213615341 ], [ 5.785841521108484, 50.960223628040303 ], [ 5.785816788433088, 50.959935785831426 ] ] ] ] } },
{ "type": "Feature", "properties": { "buurtcode": "BU09710101", "buurtnaam": "Meers", "pc6_codes": "6181NA, 6181NB, 6181NC, 6181ND, 6181NE, 6181NG, 6181NH, 6181NJ, 6181NK, 6181NL, 6181NM, 6181NN, 6181NP, 6181NR, 6181NS, 6181NT, 6181NV, 6181NW, 6181NX, 6181NZ, 6181PA, 6181PB, 6181PC, 6181PD, 6181PE, 6181PG, 6181PH, 6181PK, 6181PL", "wijkcode": "WK097101", "gemeentecode": "GM0971", "gemeentenaam": "Stein (L.)", "oppervlakteLandInHa": 169, "AantalInwoners_5": 870, "Mannen_6": 440, "Vrouwen_7": 425, "HuishoudensTotaal_29": 395, "GemiddeldeHuishoudensgrootte_33": 2.2, "Woningvoorraad_35": 399, "NieuwbouwWoningen_36": 0, "NietWoningvoorraad_37": 18, "NieuwbouwNietWoningen_38": 0, "GemiddeldeWOZWaardeVanWoningen_39": 294, "PercentageEengezinswoning_40": 94, "PercentageTussenwoningEengezins_41": 18, "PercentageHoekwoningEengezins_42": 19, "PercentageTweeOnderEenKapWoningEe_43": 25, "PercentageVrijstaandeWoningEengezins_44": 32, "PercentageMeergezinswoning_45": 6, "Koopwoningen_47": 81, "HuurwoningenTotaal_48": 19, "InBezitWoningcorporatie_49": 12, "InBezitOverigeVerhuurders_50": 7, "BouwjaarMeerDanTienJaarGeleden_51": 100, "BouwjaarAfgelopenTienJaar_52": 0, "GemiddeldeElektriciteitslevering_53": 3140, "GemiddeldeElektriciteitsteruglevering_54": 1410, "GemiddeldAardgasverbruik_55": 980, "AardgasvrijeWoningen_57": 2, "Aardgaswoningen_58": 89, "WoningenMetZonnestroom_59": 56, "WoningenHoofdzElektrVerwarmd_60": 9, "k_20PersonenMetHoogsteInkomen_80": 17.3, "k_20HuishoudensMetHoogsteInkomen_85": 17.2, "MediaanVermogenVanParticuliereHuish_86": 204.1, "PersonenautoSTotaal_104": 525, "PersonenautoSBrandstofBenzine_105": 470, "PersonenautoSOverigeBrandstof_106": 55, "PersonenautoSPerHuishouden_107": 1.3, "Omgevingsadressendichtheid_121": 203, "AantalInstallatiesBijWoningen_5": 159, "OpgesteldVermogenVanZonnepanelen_6": 677, "installaties_per_woning": 0.39849624060150374, "vermogen_per_woning": 1.6967418546365916, "installaties_per_100_woningen": 39.849624060150376, "vermogen_per_huishouden": 1.7139240506329114, "batterijdruk_score": 789.6, "koop_zon_score": 0.4536, "eengezins_zon_score": 0.5264, "betaalkracht_zon_score": 114.296, "overige_brandstof_zon_score": 30.8, "lichte_batterij_kansscore": 0.50366308621535794 }, "geometry": { "type": "MultiPolygon", "coordinates": [ [ [ [ 5.737041774101019, 50.970807217853192 ], [ 5.737438498895886, 50.970381857480625 ], [ 5.737903525802222, 50.969753756332445 ], [ 5.738744100414087, 50.968728443722192 ], [ 5.739160912881575, 50.96830314493662 ], [ 5.739399401756799, 50.968248542280584 ], [ 5.739531445910447, 50.968079761168944 ], [ 5.74027382920242, 50.967521847741232 ], [ 5.740645336400236, 50.967284983111512 ], [ 5.740777500785664, 50.967133038136588 ], [ 5.741467170672585, 50.966659467662097 ], [ 5.741625995118867, 50.96650744013224 ], [ 5.741598556467254, 50.966406497392065 ], [ 5.741864165153642, 50.966270979660159 ], [ 5.74274046000684, 50.965796829721754 ], [ 5.743324473404181, 50.965458276037197 ], [ 5.743722742190654, 50.965238157094497 ], [ 5.743961415395344, 50.965069042487428 ], [ 5.744332493219369, 50.964781653458161 ], [ 5.744783556573595, 50.964494016219483 ], [ 5.745367146661227, 50.964104939657837 ], [ 5.746003791076952, 50.96368201984393 ], [ 5.746215875579868, 50.963530845630132 ], [ 5.746454571259187, 50.963360701050171 ], [ 5.746931220591953, 50.96293827246069 ], [ 5.74709340275129, 50.962988853939038 ], [ 5.747104194271667, 50.962982189306615 ], [ 5.747834785545812, 50.96303750121492 ], [ 5.749391588423837, 50.962424564359154 ], [ 5.749482401611057, 50.962388809256424 ], [ 5.750916538601413, 50.961777565054049 ], [ 5.751630102623721, 50.961283461094546 ], [ 5.753128197656368, 50.960135464107807 ], [ 5.753999414309749, 50.959420619775223 ], [ 5.755125614742587, 50.958948782697099 ], [ 5.756456288853327, 50.958576002421708 ], [ 5.756908954028296, 50.958590007781261 ], [ 5.758252947393957, 50.95863233678282 ], [ 5.758900838571251, 50.955965887340568 ], [ 5.758904523529655, 50.955950722072558 ], [ 5.758010234949568, 50.955505985732657 ], [ 5.757852333153749, 50.955688156453554 ], [ 5.75755076270368, 50.956036082978642 ], [ 5.75680124883991, 50.956899522106475 ], [ 5.756048257880128, 50.95772314672169 ], [ 5.753828832454868, 50.958992683265734 ], [ 5.752840356996392, 50.959656670968819 ], [ 5.751689849741678, 50.960208709704268 ], [ 5.750523075405426, 50.960740922612082 ], [ 5.74902741028612, 50.961082509454556 ], [ 5.747619618240368, 50.961433601268929 ], [ 5.747400823093761, 50.961466794935305 ], [ 5.746226943874972, 50.961644852201189 ], [ 5.744633668406742, 50.961538859634722 ], [ 5.744083065803066, 50.961348457244 ], [ 5.743327956953992, 50.961087327917333 ], [ 5.742036634669989, 50.960560141097467 ], [ 5.741013888297377, 50.959898724715224 ], [ 5.740020743574238, 50.959195860390452 ], [ 5.739311578111725, 50.95841940433067 ], [ 5.739013728548438, 50.957434411564677 ], [ 5.737747492294786, 50.956892179509197 ], [ 5.737330274579244, 50.956739759603792 ], [ 5.736551534455438, 50.956455250825961 ], [ 5.735276099738643, 50.95606358303057 ], [ 5.734159561228171, 50.955451018269706 ], [ 5.732809977977044, 50.955185749211353 ], [ 5.731240773880128, 50.954876352878244 ], [ 5.729658133529437, 50.954940012657786 ], [ 5.728100389409503, 50.95496447595918 ], [ 5.726569192155549, 50.955270641121366 ], [ 5.725323896284069, 50.955558243208493 ], [ 5.724115791356587, 50.95595179213008 ], [ 5.72307737614787, 50.956452163107741 ], [ 5.722012221465286, 50.957134626379244 ], [ 5.721255316187959, 50.9579164164169 ], [ 5.720540343578556, 50.958753452068059 ], [ 5.719903319952576, 50.959587472721132 ], [ 5.719630268645386, 50.96052759237427 ], [ 5.719785941899134, 50.961510256216812 ], [ 5.720127426273567, 50.962421283834153 ], [ 5.721005302160944, 50.96317993215505 ], [ 5.721779458623086, 50.964098425855269 ], [ 5.722599028399293, 50.964778218671682 ], [ 5.723456998491875, 50.965489175436716 ], [ 5.724272794121368, 50.966210675771322 ], [ 5.725667176022434, 50.966685444182126 ], [ 5.726458519906263, 50.967442596595632 ], [ 5.727044893686495, 50.968315312965771 ], [ 5.728016894338321, 50.969027519481578 ], [ 5.728544751469018, 50.969873434028891 ], [ 5.729628814947196, 50.970466014561374 ], [ 5.730712656730613, 50.97102505722129 ], [ 5.731926059966635, 50.971581636696492 ], [ 5.73212866014838, 50.971621429267238 ], [ 5.733160934124588, 50.971824166577093 ], [ 5.733735390740502, 50.971492168349926 ], [ 5.735960610515378, 50.972061897047283 ], [ 5.737041774101019, 50.970807217853192 ] ] ] ] } },
{ "type": "Feature", "properties": { "buurtcode": "BU09710102", "buurtnaam": "Catsop", "pc6_codes": "6181AC, 6181DP, 6181HR, 6181JE, 6181JG, 6181JH, 6181JJ, 6181JK, 6181JL, 6181JM, 6181JN, 6181JP, 6181JR, 6181JS, 6181JT, 6181JV, 6181JW, 6181JX, 6181LZ", "wijkcode": "WK097101", "gemeentecode": "GM0971", "gemeentenaam": "Stein (L.)", "oppervlakteLandInHa": 265, "AantalInwoners_5": 555, "Mannen_6": 280, "Vrouwen_7": 280, "HuishoudensTotaal_29": 240, "GemiddeldeHuishoudensgrootte_33": 2.3, "Woningvoorraad_35": 246, "NieuwbouwWoningen_36": 0, "NietWoningvoorraad_37": 19, "NieuwbouwNietWoningen_38": 0, "GemiddeldeWOZWaardeVanWoningen_39": 397, "PercentageEengezinswoning_40": 98, "PercentageTussenwoningEengezins_41": 11, "PercentageHoekwoningEengezins_42": 10, "PercentageTweeOnderEenKapWoningEe_43": 28, "PercentageVrijstaandeWoningEengezins_44": 49, "PercentageMeergezinswoning_45": 2, "Koopwoningen_47": 87, "HuurwoningenTotaal_48": 13, "InBezitWoningcorporatie_49": 6, "InBezitOverigeVerhuurders_50": 7, "BouwjaarMeerDanTienJaarGeleden_51": 99, "BouwjaarAfgelopenTienJaar_52": 1, "GemiddeldeElektriciteitslevering_53": 3450, "GemiddeldeElektriciteitsteruglevering_54": 1920, "GemiddeldAardgasverbruik_55": 1170, "AardgasvrijeWoningen_57": 3, "Aardgaswoningen_58": 89, "WoningenMetZonnestroom_59": 58, "WoningenHoofdzElektrVerwarmd_60": 9, "k_20PersonenMetHoogsteInkomen_80": 25.5, "k_20HuishoudensMetHoogsteInkomen_85": 30.7, "MediaanVermogenVanParticuliereHuish_86": 362.9, "PersonenautoSTotaal_104": 355, "PersonenautoSBrandstofBenzine_105": 305, "PersonenautoSOverigeBrandstof_106": 55, "PersonenautoSPerHuishouden_107": 1.5, "Omgevingsadressendichtheid_121": 537, "AantalInstallatiesBijWoningen_5": 103, "OpgesteldVermogenVanZonnepanelen_6": 467, "installaties_per_woning": 0.41869918699186992, "vermogen_per_woning": 1.8983739837398375, "installaties_per_100_woningen": 41.869918699186989, "vermogen_per_huishouden": 1.9458333333333333, "batterijdruk_score": 1113.6, "koop_zon_score": 0.5046, "eengezins_zon_score": 0.5684, "betaalkracht_zon_score": 210.482, "overige_brandstof_zon_score": 31.9, "lichte_batterij_kansscore": 0.54238170093397264 }, "geometry": { "type": "MultiPolygon", "coordinates": [ [ [ [ 5.779339321142928, 50.944394425872289 ], [ 5.779211450106958, 50.944218724663394 ], [ 5.779064034520645, 50.944016156113918 ], [ 5.779037402065316, 50.943979571657458 ], [ 5.77924000547583, 50.943923550077152 ], [ 5.779171324948325, 50.943816086945013 ], [ 5.779322819291003, 50.943776732875946 ], [ 5.779513396808953, 50.943727187591243 ], [ 5.779700857973269, 50.943672618788376 ], [ 5.780017942035705, 50.943580225098543 ], [ 5.781470055683065, 50.943174869249027 ], [ 5.781983595521754, 50.943132866612267 ], [ 5.783730983139422, 50.942996887286341 ], [ 5.783484049927881, 50.942594509857258 ], [ 5.78319879822521, 50.942634416979502 ], [ 5.782604937126915, 50.941813892948993 ], [ 5.782729823545471, 50.941773690453687 ], [ 5.782023588376507, 50.941183123409779 ], [ 5.781561552560595, 50.940909351295105 ], [ 5.780878354269197, 50.940504534896164 ], [ 5.780838859632993, 50.940481136344516 ], [ 5.780078130525876, 50.940030385077407 ], [ 5.7802095311689, 50.939963529139554 ], [ 5.779230535357987, 50.939241204264633 ], [ 5.779646870666569, 50.938982118156673 ], [ 5.779445170998701, 50.938652649457495 ], [ 5.779156944993468, 50.938173449131234 ], [ 5.779104328376287, 50.938068583302346 ], [ 5.779089176963237, 50.938038351082149 ], [ 5.779119545172458, 50.937891837430485 ], [ 5.779094406625191, 50.937811247389334 ], [ 5.778993182163004, 50.937486911889103 ], [ 5.778979626071465, 50.937443460606701 ], [ 5.77889720848052, 50.937179349755134 ], [ 5.7786674683426, 50.937199138541622 ], [ 5.778639551926798, 50.937052471584018 ], [ 5.778630797843621, 50.937006532079543 ], [ 5.778621924338464, 50.936959927801546 ], [ 5.7786045795942, 50.936868857235844 ], [ 5.778533472566583, 50.936495301576159 ], [ 5.778491324082324, 50.93627387997973 ], [ 5.778695688902522, 50.93619795195395 ], [ 5.778657740453123, 50.935983713603058 ], [ 5.778637572189969, 50.935838063150797 ], [ 5.778605257838136, 50.935763241172168 ], [ 5.778570505335114, 50.935682710504864 ], [ 5.778555545205732, 50.935648055044595 ], [ 5.778504764686786, 50.935556243584351 ], [ 5.778397873381148, 50.935362975574826 ], [ 5.77825113965952, 50.935097688396823 ], [ 5.777981556625296, 50.934610269341498 ], [ 5.777673205992624, 50.93418229807223 ], [ 5.778551974805765, 50.933817221888326 ], [ 5.778320076113729, 50.933675819817047 ], [ 5.777575044612863, 50.93322155666889 ], [ 5.7772262198072, 50.933008887469207 ], [ 5.777919438087316, 50.932689340680597 ], [ 5.777689040465164, 50.932517621810263 ], [ 5.777432045223799, 50.932325767208013 ], [ 5.776907560672879, 50.931946783840438 ], [ 5.77699884540425, 50.931773827084996 ], [ 5.776996098471393, 50.93177194867382 ], [ 5.776836108824755, 50.93173899490759 ], [ 5.776695842216182, 50.931715403870186 ], [ 5.776554026609218, 50.931690280777161 ], [ 5.776444125643147, 50.931669625506579 ], [ 5.776331111983699, 50.931645870447966 ], [ 5.776192810637809, 50.931610658568403 ], [ 5.776047452009224, 50.931571802776901 ], [ 5.775943503803441, 50.931540079703815 ], [ 5.775806522091044, 50.931489186334808 ], [ 5.775686853342489, 50.931448643802405 ], [ 5.775555437180935, 50.931399834850524 ], [ 5.775444805345284, 50.931351306588539 ], [ 5.775328220532055, 50.931290033986329 ], [ 5.775057974490919, 50.931147774258029 ], [ 5.774817420127923, 50.930980569207577 ], [ 5.774716542932569, 50.930904312860832 ], [ 5.77464489785108, 50.930840075562429 ], [ 5.774548209511781, 50.930757791489683 ], [ 5.774476120115932, 50.930682912749084 ], [ 5.774397820295526, 50.930601870398853 ], [ 5.774285341014989, 50.93046316185184 ], [ 5.774167555354834, 50.930315778701171 ], [ 5.77394483702256, 50.930020097171443 ], [ 5.773785672299264, 50.929817804062367 ], [ 5.77371459904785, 50.929738247246163 ], [ 5.77368470518449, 50.929704773648581 ], [ 5.77362059411748, 50.929632789120788 ], [ 5.773627651160677, 50.929612621491216 ], [ 5.77344936488648, 50.929392387066223 ], [ 5.773410998566306, 50.929388380236361 ], [ 5.773407824170723, 50.929386377323119 ], [ 5.773373264123342, 50.929364667675955 ], [ 5.773334980634262, 50.929307581250875 ], [ 5.77332709388566, 50.929298250150438 ], [ 5.77332753857507, 50.929285079968075 ], [ 5.773321127310831, 50.929261676358145 ], [ 5.773274341834377, 50.929198209215215 ], [ 5.773123845284188, 50.929048749851944 ], [ 5.773054900843752, 50.929000718502408 ], [ 5.772968430709217, 50.928901275253665 ], [ 5.772887066283783, 50.928840925508624 ], [ 5.772731221807385, 50.928730405282991 ], [ 5.77261704268852, 50.928644258740448 ], [ 5.772531476470167, 50.928589918320121 ], [ 5.772498478531627, 50.928569497610312 ], [ 5.772340637932114, 50.928471828608167 ], [ 5.77189539553471, 50.928291536655109 ], [ 5.771596417792599, 50.928171468064861 ], [ 5.771366494718179, 50.928080383309201 ], [ 5.771174945222118, 50.928004505789545 ], [ 5.771089417976769, 50.927976771240992 ], [ 5.77093835989103, 50.927927941343803 ], [ 5.77087782028128, 50.92795640309847 ], [ 5.770839878690632, 50.92797426393583 ], [ 5.769015073203345, 50.9288327409066 ], [ 5.769006182655, 50.928822307194999 ], [ 5.768949593325555, 50.928755877371778 ], [ 5.76881425396208, 50.928597049968459 ], [ 5.768766799787016, 50.928541340620669 ], [ 5.768753049972289, 50.928521178976816 ], [ 5.768543901184162, 50.928190997067887 ], [ 5.768144707723233, 50.928304654805082 ], [ 5.767390047368941, 50.928519309975997 ], [ 5.76709112627783, 50.928603879188159 ], [ 5.766918441591045, 50.928652608328072 ], [ 5.766551659591818, 50.928756365316765 ], [ 5.766016757845178, 50.928943890571198 ], [ 5.765889112701148, 50.928988650451458 ], [ 5.765625268575822, 50.92907238196279 ], [ 5.765255368195299, 50.92918691369416 ], [ 5.764536507098065, 50.929409972668296 ], [ 5.762954854845182, 50.929900724913033 ], [ 5.761228803847332, 50.930427635059203 ], [ 5.761100305199669, 50.930503350059553 ], [ 5.761527858394903, 50.931176869997969 ], [ 5.761334864261205, 50.931233117230185 ], [ 5.761305925744455, 50.931241112000592 ], [ 5.760536764033392, 50.931461234439347 ], [ 5.759715348898583, 50.931697241498121 ], [ 5.758984083251535, 50.931912431540241 ], [ 5.758306832754708, 50.932091847832197 ], [ 5.757463481072832, 50.932301976331964 ], [ 5.757353069011676, 50.932060340281375 ], [ 5.757242805153949, 50.93183706790829 ], [ 5.757137739336824, 50.931594884220125 ], [ 5.757083037604255, 50.931460459796625 ], [ 5.757081724241097, 50.931452760536359 ], [ 5.756537615756249, 50.93154528592963 ], [ 5.756044532047357, 50.931631201123331 ], [ 5.755431362984218, 50.9317544496148 ], [ 5.755425271500216, 50.931766514077367 ], [ 5.755353428822857, 50.931936740076416 ], [ 5.755255965041249, 50.931995954134635 ], [ 5.755245744410762, 50.932002161991271 ], [ 5.755237557174691, 50.931995778968734 ], [ 5.754865198271418, 50.932229387680877 ], [ 5.754851129394842, 50.932265046261968 ], [ 5.754855912634731, 50.93231558444311 ], [ 5.754826983225433, 50.932337465357953 ], [ 5.754790395917037, 50.932440971508314 ], [ 5.75477651913093, 50.932785136310692 ], [ 5.754786463251738, 50.932849644776539 ], [ 5.754683886333306, 50.932926268043445 ], [ 5.754691815694535, 50.932952085850694 ], [ 5.754581262321067, 50.933039952459133 ], [ 5.754574679756508, 50.933076180504756 ], [ 5.754532893629066, 50.933094875156122 ], [ 5.754487760014849, 50.933145203244003 ], [ 5.754372923491236, 50.933213298753678 ], [ 5.754416265395153, 50.933259687595644 ], [ 5.754376773711717, 50.933307588720929 ], [ 5.754324820275143, 50.93333392013519 ], [ 5.754309628166459, 50.93339122739976 ], [ 5.754245640352091, 50.933492779820767 ], [ 5.754140969568322, 50.933553220297497 ], [ 5.754078111462297, 50.933562426432886 ], [ 5.754031016116194, 50.933607663873772 ], [ 5.75386307501675, 50.933666686641594 ], [ 5.75379980327741, 50.933731364221103 ], [ 5.753852129988402, 50.933762740373872 ], [ 5.753750102586292, 50.933819423763381 ], [ 5.753664928905921, 50.933771728928519 ], [ 5.753595306113562, 50.933900202502677 ], [ 5.753454453251973, 50.933981431293084 ], [ 5.753206433673371, 50.934029263687059 ], [ 5.753167241150386, 50.934057702558022 ], [ 5.753089645326742, 50.934068752532816 ], [ 5.752838430659168, 50.934198294028143 ], [ 5.752779421945529, 50.934135010079409 ], [ 5.752680836068886, 50.934175654505118 ], [ 5.752647535376275, 50.93416670788239 ], [ 5.752616296786393, 50.934173880761556 ], [ 5.752511718729154, 50.934179936835648 ], [ 5.752480507125511, 50.934197725441791 ], [ 5.752285419975665, 50.934308922062336 ], [ 5.752240439469127, 50.934377289434764 ], [ 5.752207935560151, 50.934386380822708 ], [ 5.752127133849826, 50.934395247878257 ], [ 5.752136499182072, 50.93440796725185 ], [ 5.752639779948887, 50.935090375053839 ], [ 5.754392719712707, 50.938179805181292 ], [ 5.755590950915352, 50.940200176725888 ], [ 5.756833510984406, 50.941329656286214 ], [ 5.7579447739278, 50.942240437862871 ], [ 5.759506669211209, 50.942898634606742 ], [ 5.76160213984329, 50.943581489534211 ], [ 5.764782772396659, 50.944179591473784 ], [ 5.768185118489194, 50.944397658616538 ], [ 5.771730682743986, 50.944537059313632 ], [ 5.775949335588288, 50.944530832606823 ], [ 5.779339321142928, 50.944394425872289 ] ] ] ] } },
{ "type": "Feature", "properties": { "buurtcode": "BU09710200", "buurtnaam": "Berg", "pc6_codes": "6129AA, 6129AB, 6129AC, 6129AD, 6129AE, 6129AG, 6129AH, 6129AJ, 6129AK, 6129AL, 6129AM, 6129AN, 6129AP, 6129AR, 6129AS, 6129AT, 6129AV, 6129AW, 6129AX, 6129AZ, 6129BA, 6129BB, 6129BC, 6129BD, 6129BE, 6129BG, 6129BH, 6129BJ, 6129BK, 6129BL, 6129BM, 6129BN, 6129BP, 6129BR, 6129BS, 6129BT, 6129BV, 6129BW, 6129BX, 6129BZ, 6129CB, 6129CC, 6129CE, 6129CG, 6129KA, 6129KB, 6129KC, 6129KD, 6129KG, 6129KH, 6129KJ, 6129KK, 6129KL, 6129KM, 6129KN, 6129LH, 6129PD, 6129PE, 6129PG, 6129PH, 6129RA", "wijkcode": "WK097102", "gemeentecode": "GM0971", "gemeentenaam": "Stein (L.)", "oppervlakteLandInHa": 88, "AantalInwoners_5": 1950, "Mannen_6": 975, "Vrouwen_7": 970, "HuishoudensTotaal_29": 925, "GemiddeldeHuishoudensgrootte_33": 2.1, "Woningvoorraad_35": 930, "NieuwbouwWoningen_36": 0, "NietWoningvoorraad_37": 53, "NieuwbouwNietWoningen_38": 1, "GemiddeldeWOZWaardeVanWoningen_39": 285, "PercentageEengezinswoning_40": 81, "PercentageTussenwoningEengezins_41": 18, "PercentageHoekwoningEengezins_42": 12, "PercentageTweeOnderEenKapWoningEe_43": 26, "PercentageVrijstaandeWoningEengezins_44": 25, "PercentageMeergezinswoning_45": 19, "Koopwoningen_47": 72, "HuurwoningenTotaal_48": 28, "InBezitWoningcorporatie_49": 23, "InBezitOverigeVerhuurders_50": 5, "BouwjaarMeerDanTienJaarGeleden_51": 98, "BouwjaarAfgelopenTienJaar_52": 2, "GemiddeldeElektriciteitslevering_53": 3040, "GemiddeldeElektriciteitsteruglevering_54": 1250, "GemiddeldAardgasverbruik_55": 920, "AardgasvrijeWoningen_57": 2, "Aardgaswoningen_58": 91, "WoningenMetZonnestroom_59": 51, "WoningenHoofdzElektrVerwarmd_60": 7, "k_20PersonenMetHoogsteInkomen_80": 16.8, "k_20HuishoudensMetHoogsteInkomen_85": 16.6, "MediaanVermogenVanParticuliereHuish_86": 164.3, "PersonenautoSTotaal_104": 1280, "PersonenautoSBrandstofBenzine_105": 1095, "PersonenautoSOverigeBrandstof_106": 185, "PersonenautoSPerHuishouden_107": 1.4, "Omgevingsadressendichtheid_121": 383, "AantalInstallatiesBijWoningen_5": 378, "OpgesteldVermogenVanZonnepanelen_6": 1586, "installaties_per_woning": 0.40645161290322579, "vermogen_per_woning": 1.7053763440860215, "installaties_per_100_woningen": 40.645161290322577, "vermogen_per_huishouden": 1.7145945945945946, "batterijdruk_score": 637.5, "koop_zon_score": 0.3672, "eengezins_zon_score": 0.4131, "betaalkracht_zon_score": 83.793, "overige_brandstof_zon_score": 94.35, "lichte_batterij_kansscore": 0.44733926192417589 }, "geometry": { "type": "MultiPolygon", "coordinates": [ [ [ [ 5.781155984403094, 51.011186821510961 ], [ 5.781127520749026, 51.011155461695921 ], [ 5.778414229676081, 51.008165856422146 ], [ 5.77760012120797, 51.007259503127806 ], [ 5.777209413453113, 51.006822287522574 ], [ 5.776032349973719, 51.005514227065412 ], [ 5.774827737467374, 51.004154632848596 ], [ 5.775412557247508, 51.003967449729217 ], [ 5.77546302769271, 51.00402602291949 ], [ 5.775510239454777, 51.004081649669317 ], [ 5.77581889023072, 51.003962806444015 ], [ 5.776251850717068, 51.003796101684969 ], [ 5.776771684249106, 51.003717167260234 ], [ 5.776650297901795, 51.003642302507153 ], [ 5.776698859922233, 51.003592844225693 ], [ 5.776875919192418, 51.003522387214069 ], [ 5.778616161789995, 51.003159751849651 ], [ 5.779032505156889, 51.00306653196597 ], [ 5.779442113973563, 51.002979169865846 ], [ 5.778318720855512, 51.002043812468294 ], [ 5.777084443956161, 51.000623235519875 ], [ 5.7757962224368, 50.998893552490948 ], [ 5.774575303596633, 50.996685535219484 ], [ 5.772774679455904, 50.997000535498209 ], [ 5.772115792554534, 50.997071266995547 ], [ 5.769934074573101, 50.997303218053958 ], [ 5.76608707957465, 50.997687854303216 ], [ 5.766496326834984, 50.998102628913969 ], [ 5.766711933027742, 50.998375696923446 ], [ 5.767079036663816, 50.998840638751304 ], [ 5.767628294692906, 50.999738272161096 ], [ 5.767633972329651, 50.999854956093806 ], [ 5.767672885209483, 51.000653849493958 ], [ 5.767616160298478, 51.001555584110079 ], [ 5.767640828959692, 51.002487550682304 ], [ 5.767591717262494, 51.003404118896306 ], [ 5.767438286796435, 51.004355007482118 ], [ 5.767112780823129, 51.00500064073497 ], [ 5.766445770885918, 51.00608061935305 ], [ 5.766087740767966, 51.006871966932621 ], [ 5.766069437335008, 51.006912422798329 ], [ 5.766040395405234, 51.007799719795827 ], [ 5.766030700306898, 51.008596705214423 ], [ 5.766006600086909, 51.008997234831376 ], [ 5.771488304096673, 51.009138953120789 ], [ 5.773274183171888, 51.009372063311297 ], [ 5.775784362775488, 51.010167333945319 ], [ 5.7777855914301, 51.010768196420763 ], [ 5.779742084695253, 51.011940251386015 ], [ 5.781155984403094, 51.011186821510961 ] ] ] ] } },
{ "type": "Feature", "properties": { "buurtcode": "BU09710201", "buurtnaam": "Urmond ten westen van Julianakanaal", "pc6_codes": "6129CA, 6129CB, 6129CD, 6129CE, 6129CH, 6129CJ, 6129CK, 6129CL, 6129CM, 6129CN, 6129CP, 6129CR, 6129CS, 6129CT, 6129CV, 6129CW, 6129CX, 6129CZ, 6129DA, 6129DB, 6129DC, 6129DG, 6129DH, 6129EA, 6129EB, 6129EC, 6129ED, 6129EE, 6129EG, 6129EH, 6129EJ, 6129EK", "wijkcode": "WK097102", "gemeentecode": "GM0971", "gemeentenaam": "Stein (L.)", "oppervlakteLandInHa": 49, "AantalInwoners_5": 995, "Mannen_6": 495, "Vrouwen_7": 505, "HuishoudensTotaal_29": 470, "GemiddeldeHuishoudensgrootte_33": 2.1, "Woningvoorraad_35": 459, "NieuwbouwWoningen_36": 0, "NietWoningvoorraad_37": 35, "NieuwbouwNietWoningen_38": 0, "GemiddeldeWOZWaardeVanWoningen_39": 299, "PercentageEengezinswoning_40": 81, "PercentageTussenwoningEengezins_41": 21, "PercentageHoekwoningEengezins_42": 11, "PercentageTweeOnderEenKapWoningEe_43": 31, "PercentageVrijstaandeWoningEengezins_44": 18, "PercentageMeergezinswoning_45": 19, "Koopwoningen_47": 69, "HuurwoningenTotaal_48": 31, "InBezitWoningcorporatie_49": 26, "InBezitOverigeVerhuurders_50": 5, "BouwjaarMeerDanTienJaarGeleden_51": 93, "BouwjaarAfgelopenTienJaar_52": 7, "GemiddeldeElektriciteitslevering_53": 2990, "GemiddeldeElektriciteitsteruglevering_54": 1170, "GemiddeldAardgasverbruik_55": 850, "AardgasvrijeWoningen_57": 22, "Aardgaswoningen_58": 71, "WoningenMetZonnestroom_59": 44, "WoningenHoofdzElektrVerwarmd_60": 29, "k_20PersonenMetHoogsteInkomen_80": 18.2, "k_20HuishoudensMetHoogsteInkomen_85": 18.4, "MediaanVermogenVanParticuliereHuish_86": 143.5, "PersonenautoSTotaal_104": 600, "PersonenautoSBrandstofBenzine_105": 510, "PersonenautoSOverigeBrandstof_106": 90, "PersonenautoSPerHuishouden_107": 1.3, "Omgevingsadressendichtheid_121": 565, "AantalInstallatiesBijWoningen_5": 164, "OpgesteldVermogenVanZonnepanelen_6": 825, "installaties_per_woning": 0.35729847494553379, "vermogen_per_woning": 1.7973856209150327, "installaties_per_100_woningen": 35.729847494553383, "vermogen_per_huishouden": 1.7553191489361701, "batterijdruk_score": 514.8, "koop_zon_score": 0.3036, "eengezins_zon_score": 0.3564, "betaalkracht_zon_score": 63.14, "overige_brandstof_zon_score": 39.6, "lichte_batterij_kansscore": 0.42335423553068019 }, "geometry": { "type": "MultiPolygon", "coordinates": [ [ [ [ 5.769934074573101, 50.997303218053958 ], [ 5.772115792554534, 50.997071266995547 ], [ 5.771915971826802, 50.996356191409681 ], [ 5.771256393414895, 50.994444872837455 ], [ 5.770078155371098, 50.992351556100893 ], [ 5.768510411424144, 50.989995462375184 ], [ 5.766233435529355, 50.987099529522261 ], [ 5.765184884364398, 50.985847042456761 ], [ 5.764396179993013, 50.98499033230194 ], [ 5.76466495587726, 50.985994526009833 ], [ 5.763757277051181, 50.987326710442098 ], [ 5.762915448590209, 50.988881991839939 ], [ 5.761236233013056, 50.990639413972758 ], [ 5.759138142531266, 50.993166318481236 ], [ 5.75967993880103, 50.993467091652811 ], [ 5.760705733908742, 50.994168785683421 ], [ 5.761691094245754, 50.994763543958655 ], [ 5.762715487053815, 50.995408145519342 ], [ 5.763732880862818, 50.995994512936051 ], [ 5.764939167154489, 50.996520030191704 ], [ 5.765718383687947, 50.997314170541053 ], [ 5.76608707957465, 50.997687854303216 ], [ 5.769934074573101, 50.997303218053958 ] ] ] ] } },
{ "type": "Feature", "properties": { "buurtcode": "BU09710202", "buurtnaam": "Urmond ten oosten van Julianakanaal", "pc6_codes": "6129EL, 6129EM, 6129EN, 6129EP, 6129ER, 6129ES, 6129ET, 6129EV, 6129EW, 6129EX, 6129EZ, 6129GA, 6129GC, 6129GD, 6129GG, 6129GH, 6129GJ, 6129GK, 6129GL, 6129GM, 6129GN, 6129GP, 6129GR, 6129GS, 6129GT, 6129GV, 6129HA, 6129HB, 6129HC, 6129HD, 6129HE, 6129HG, 6129HH, 6129HJ, 6129HK, 6129HL, 6129HP, 6129HR, 6129HS, 6129HT, 6129HV, 6129HX, 6129HZ, 6129JA, 6129JB, 6129JC, 6129JD, 6129JE, 6129JG, 6129JH, 6129NA, 6129NB, 6129NC, 6129ND, 6129NE, 6129PA, 6129PB, 6129PC, 6129PG, 6129PH, 6129PJ, 6129PK, 6129PL, 6129PM, 6129PN, 6129PP, 6129PR, 6129PS, 6129PT, 6129PV, 6129PW, 6129PX, 6129RA, 6129RB, 6129RC, 6171CM, 6171RA, 6171ZZ", "wijkcode": "WK097102", "gemeentecode": "GM0971", "gemeentenaam": "Stein (L.)", "oppervlakteLandInHa": 224, "AantalInwoners_5": 2600, "Mannen_6": 1270, "Vrouwen_7": 1330, "HuishoudensTotaal_29": 1200, "GemiddeldeHuishoudensgrootte_33": 2.1, "Woningvoorraad_35": 1229, "NieuwbouwWoningen_36": 0, "NietWoningvoorraad_37": 109, "NieuwbouwNietWoningen_38": 0, "GemiddeldeWOZWaardeVanWoningen_39": 293, "PercentageEengezinswoning_40": 80, "PercentageTussenwoningEengezins_41": 19, "PercentageHoekwoningEengezins_42": 13, "PercentageTweeOnderEenKapWoningEe_43": 29, "PercentageVrijstaandeWoningEengezins_44": 19, "PercentageMeergezinswoning_45": 20, "Koopwoningen_47": 71, "HuurwoningenTotaal_48": 29, "InBezitWoningcorporatie_49": 22, "InBezitOverigeVerhuurders_50": 7, "BouwjaarMeerDanTienJaarGeleden_51": 96, "BouwjaarAfgelopenTienJaar_52": 4, "GemiddeldeElektriciteitslevering_53": 2900, "GemiddeldeElektriciteitsteruglevering_54": 1400, "GemiddeldAardgasverbruik_55": 830, "AardgasvrijeWoningen_57": 6, "Aardgaswoningen_58": 89, "WoningenMetZonnestroom_59": 53, "WoningenHoofdzElektrVerwarmd_60": 11, "k_20PersonenMetHoogsteInkomen_80": 19.4, "k_20HuishoudensMetHoogsteInkomen_85": 18.1, "MediaanVermogenVanParticuliereHuish_86": 175.2, "PersonenautoSTotaal_104": 1605, "PersonenautoSBrandstofBenzine_105": 1340, "PersonenautoSOverigeBrandstof_106": 265, "PersonenautoSPerHuishouden_107": 1.3, "Omgevingsadressendichtheid_121": 580, "AantalInstallatiesBijWoningen_5": 538, "OpgesteldVermogenVanZonnepanelen_6": 2416, "installaties_per_woning": 0.43775427176566312, "vermogen_per_woning": 1.9658258746948738, "installaties_per_100_woningen": 43.775427176566311, "vermogen_per_huishouden": 2.0133333333333332, "batterijdruk_score": 742.0, "koop_zon_score": 0.3763, "eengezins_zon_score": 0.424, "betaalkracht_zon_score": 92.856, "overige_brandstof_zon_score": 140.45, "lichte_batterij_kansscore": 0.4530798233771326 }, "geometry": { "type": "MultiPolygon", "coordinates": [ [ [ [ 5.780147368324593, 51.002828748237441 ], [ 5.781462051060651, 51.002547495794587 ], [ 5.7820343005914, 51.002426785730989 ], [ 5.784038443723934, 51.002004759252138 ], [ 5.78642255600223, 51.001506448893252 ], [ 5.787490957151744, 51.001284826578605 ], [ 5.787533183269749, 51.001390030397161 ], [ 5.787833207680927, 51.001333325036263 ], [ 5.787946521181365, 51.001315503656649 ], [ 5.788122504948477, 51.001291451727589 ], [ 5.788176639439687, 51.001286563177672 ], [ 5.788277250094942, 51.001280749648245 ], [ 5.788406551723317, 51.001273281592916 ], [ 5.788416632712098, 51.001272698357162 ], [ 5.788450834027125, 51.001270719201045 ], [ 5.788577603669004, 51.001263691191184 ], [ 5.789001448071678, 51.001224666333023 ], [ 5.789196660319249, 51.00119705838901 ], [ 5.789247147069045, 51.000837462581202 ], [ 5.789239373208796, 51.00082815010812 ], [ 5.789048290200324, 51.000296140719456 ], [ 5.788947672465193, 51.000013034183013 ], [ 5.788786084640244, 50.999574361551538 ], [ 5.788534868283643, 50.99909629534816 ], [ 5.788369386796227, 50.998764351691406 ], [ 5.787925514767517, 50.997925346344815 ], [ 5.787919417382366, 50.997913798742118 ], [ 5.787784984997616, 50.997636120627739 ], [ 5.787587063972712, 50.997222012792079 ], [ 5.78752780128806, 50.99709995978921 ], [ 5.78748254948351, 50.997006757607771 ], [ 5.787389580848777, 50.996808712114415 ], [ 5.787057124755917, 50.996116385707218 ], [ 5.787036357068899, 50.996067135383058 ], [ 5.787005277970318, 50.995993389978921 ], [ 5.78667408888112, 50.995207519797852 ], [ 5.786541070628206, 50.994940037787103 ], [ 5.786523646293005, 50.994905014240508 ], [ 5.78646748035631, 50.994791192841667 ], [ 5.786430831840269, 50.994700774126812 ], [ 5.786363840872665, 50.994563879566172 ], [ 5.78632132633396, 50.994476986696775 ], [ 5.786289286392649, 50.994408817525326 ], [ 5.786118988995743, 50.994046513892819 ], [ 5.786083943117391, 50.993983155082468 ], [ 5.78595704387612, 50.993753755227253 ], [ 5.785884232531079, 50.993622084997092 ], [ 5.785850146626266, 50.993577437670083 ], [ 5.785742025700036, 50.993435794352209 ], [ 5.785623705675712, 50.993280783591217 ], [ 5.785610741773617, 50.993264009980336 ], [ 5.785571288129393, 50.993212936005463 ], [ 5.78555422354769, 50.99317982571165 ], [ 5.785268493056938, 50.99280078497187 ], [ 5.78520998221656, 50.992738090818229 ], [ 5.785175666368394, 50.992701309359468 ], [ 5.785023999216679, 50.992538798982061 ], [ 5.784987671238674, 50.992499885024735 ], [ 5.78483413635621, 50.992335349328656 ], [ 5.784807742173596, 50.992307053040413 ], [ 5.784537029841664, 50.992003447614437 ], [ 5.784450032615428, 50.99190573123014 ], [ 5.784203890827865, 50.991636522122931 ], [ 5.784174379221385, 50.991603373391534 ], [ 5.78401579087372, 50.991398727570974 ], [ 5.78388012151075, 50.991189229950827 ], [ 5.783778759949946, 50.990974293295807 ], [ 5.783707718337848, 50.990725805131831 ], [ 5.783657269162075, 50.990580556573391 ], [ 5.783553166311724, 50.990280836079634 ], [ 5.783509453744457, 50.990177748334965 ], [ 5.783420895708558, 50.98996894293056 ], [ 5.783396968348037, 50.989912529651555 ], [ 5.783378826721849, 50.989869768668584 ], [ 5.783329063950773, 50.989747006910378 ], [ 5.783376129252899, 50.989736418831022 ], [ 5.78324767628141, 50.989424287711344 ], [ 5.783091465809734, 50.9889841867234 ], [ 5.782945102211297, 50.988544402454963 ], [ 5.782798049675772, 50.98839103312195 ], [ 5.782610265504792, 50.987752286167563 ], [ 5.782541482349153, 50.987536688918013 ], [ 5.782487342767017, 50.987180095980243 ], [ 5.782417698754732, 50.986813946812269 ], [ 5.782386588638478, 50.986606949122262 ], [ 5.782310267448119, 50.986558489770118 ], [ 5.782279078607758, 50.986408751500299 ], [ 5.782226354327584, 50.986155534755028 ], [ 5.782206317655731, 50.986010882092451 ], [ 5.782178074096554, 50.985805852128344 ], [ 5.782138473803528, 50.985421982134383 ], [ 5.782248826550114, 50.985370369152001 ], [ 5.782246010077359, 50.985340805337088 ], [ 5.782203337808773, 50.984880899903118 ], [ 5.782201996240278, 50.984624361788391 ], [ 5.782250168483333, 50.984612242269833 ], [ 5.782245177497965, 50.98459482086303 ], [ 5.782238422278467, 50.984570933478665 ], [ 5.782234749862403, 50.98455782223725 ], [ 5.782195592299487, 50.984485127870776 ], [ 5.782147637092227, 50.984396139683312 ], [ 5.782145052795419, 50.983961086613526 ], [ 5.782172444917583, 50.983501122003823 ], [ 5.782218352868018, 50.983041633568227 ], [ 5.782290044479551, 50.982583315600344 ], [ 5.782391543001861, 50.982127143098928 ], [ 5.782465376897846, 50.981887717655802 ], [ 5.777822037124053, 50.98242725703377 ], [ 5.772744279951006, 50.983137259215383 ], [ 5.769687920885792, 50.983426891032593 ], [ 5.769239835694244, 50.982813474277243 ], [ 5.769204708238247, 50.982682409190623 ], [ 5.766497931679463, 50.982730912657345 ], [ 5.765212120047292, 50.983087369139533 ], [ 5.763996625619892, 50.98350116617614 ], [ 5.764379891724517, 50.984930272254822 ], [ 5.764396179993013, 50.98499033230194 ], [ 5.765184884364398, 50.985847042456761 ], [ 5.766233435529355, 50.987099529522261 ], [ 5.768510411424144, 50.989995462375184 ], [ 5.770078155371098, 50.992351556100893 ], [ 5.771256393414895, 50.994444872837455 ], [ 5.771915971826802, 50.996356191409681 ], [ 5.772115792554534, 50.997071266995547 ], [ 5.772774679455904, 50.997000535498209 ], [ 5.774575303596633, 50.996685535219484 ], [ 5.7757962224368, 50.998893552490948 ], [ 5.777084443956161, 51.000623235519875 ], [ 5.778318720855512, 51.002043812468294 ], [ 5.779442113973563, 51.002979169865846 ], [ 5.780147368324593, 51.002828748237441 ] ] ] ] } },
{ "type": "Feature", "properties": { "buurtcode": "BU09710203", "buurtnaam": "Nattenhoven", "pc6_codes": "6129AW, 6129LC, 6129LD, 6129LE, 6129LH", "wijkcode": "WK097102", "gemeentecode": "GM0971", "gemeentenaam": "Stein (L.)", "oppervlakteLandInHa": 95, "AantalInwoners_5": 150, "Mannen_6": 75, "Vrouwen_7": 75, "HuishoudensTotaal_29": 75, "GemiddeldeHuishoudensgrootte_33": 2.1, "Woningvoorraad_35": 70, "NieuwbouwWoningen_36": 0, "NietWoningvoorraad_37": 5, "NieuwbouwNietWoningen_38": 0, "GemiddeldeWOZWaardeVanWoningen_39": 336, "PercentageEengezinswoning_40": 97, "PercentageTussenwoningEengezins_41": 11, "PercentageHoekwoningEengezins_42": 11, "PercentageTweeOnderEenKapWoningEe_43": 23, "PercentageVrijstaandeWoningEengezins_44": 51, "PercentageMeergezinswoning_45": 3, "Koopwoningen_47": 97, "HuurwoningenTotaal_48": 3, "InBezitWoningcorporatie_49": 0, "InBezitOverigeVerhuurders_50": 3, "BouwjaarMeerDanTienJaarGeleden_51": 96, "BouwjaarAfgelopenTienJaar_52": 4, "GemiddeldeElektriciteitslevering_53": 3280, "GemiddeldeElektriciteitsteruglevering_54": 1690, "GemiddeldAardgasverbruik_55": 1040, "AardgasvrijeWoningen_57": null, "Aardgaswoningen_58": null, "WoningenMetZonnestroom_59": null, "WoningenHoofdzElektrVerwarmd_60": null, "k_20PersonenMetHoogsteInkomen_80": 22.7, "k_20HuishoudensMetHoogsteInkomen_85": null, "MediaanVermogenVanParticuliereHuish_86": null, "PersonenautoSTotaal_104": 110, "PersonenautoSBrandstofBenzine_105": 90, "PersonenautoSOverigeBrandstof_106": 20, "PersonenautoSPerHuishouden_107": 1.5, "Omgevingsadressendichtheid_121": 188, "AantalInstallatiesBijWoningen_5": 37, "OpgesteldVermogenVanZonnepanelen_6": 191, "installaties_per_woning": 0.52857142857142858, "vermogen_per_woning": 2.7285714285714286, "installaties_per_100_woningen": 52.857142857142861, "vermogen_per_huishouden": 2.5466666666666669, "batterijdruk_score": null, "koop_zon_score": null, "eengezins_zon_score": null, "betaalkracht_zon_score": null, "overige_brandstof_zon_score": null, "lichte_batterij_kansscore": null }, "geometry": { "type": "MultiPolygon", "coordinates": [ [ [ [ 5.785159105281949, 51.015928418019016 ], [ 5.78459986424556, 51.015113454569047 ], [ 5.783972853889598, 51.014313102769108 ], [ 5.783291734859738, 51.013539737464747 ], [ 5.781155984403094, 51.011186821510961 ], [ 5.779742084695253, 51.011940251386015 ], [ 5.7777855914301, 51.010768196420763 ], [ 5.775784362775488, 51.010167333945319 ], [ 5.773274183171888, 51.009372063311297 ], [ 5.771488304096673, 51.009138953120789 ], [ 5.766006600086909, 51.008997234831376 ], [ 5.76596801683681, 51.009638451185353 ], [ 5.766276960018133, 51.010561587081412 ], [ 5.766616154866069, 51.011419273992296 ], [ 5.766967650215949, 51.012367527494796 ], [ 5.767492931405353, 51.013255074106986 ], [ 5.768173741721672, 51.013940936038857 ], [ 5.769339117991705, 51.014713269904696 ], [ 5.76984995756678, 51.015591343398476 ], [ 5.770562959463001, 51.016301355112802 ], [ 5.771559419022769, 51.016992984147407 ], [ 5.772031252524226, 51.017879878799093 ], [ 5.772929455508528, 51.018590968778966 ], [ 5.773406528221976, 51.018999218634804 ], [ 5.774239711522508, 51.018967997849863 ], [ 5.774569895878553, 51.018955631444769 ], [ 5.775833116976057, 51.018908281943688 ], [ 5.775840268798891, 51.018908006268269 ], [ 5.776134436369595, 51.018896978686314 ], [ 5.776285081797246, 51.018891331306136 ], [ 5.77672525005156, 51.018874832050201 ], [ 5.7777147725375, 51.018837721226497 ], [ 5.777727480650801, 51.018837246931291 ], [ 5.778055825281746, 51.018824939715408 ], [ 5.778063433029209, 51.018824653376008 ], [ 5.778117898276664, 51.018822608945193 ], [ 5.778122955882347, 51.018822421093915 ], [ 5.778171708208569, 51.018820593666511 ], [ 5.778269654473227, 51.018816919282024 ], [ 5.779203085232601, 51.018781908661325 ], [ 5.782634736840387, 51.018653114496956 ], [ 5.782592377714577, 51.018743974853393 ], [ 5.782596872352758, 51.018766215991469 ], [ 5.783724279061156, 51.018722012400261 ], [ 5.783889281208022, 51.018715541950108 ], [ 5.783911045685211, 51.018744025123148 ], [ 5.783966764163859, 51.018823053385276 ], [ 5.783979427728686, 51.018906822376707 ], [ 5.78402575092418, 51.018985388393403 ], [ 5.784038485943826, 51.019044329836717 ], [ 5.784092216840049, 51.019046375056043 ], [ 5.784096265570874, 51.019046531977231 ], [ 5.78410742752154, 51.019046898244724 ], [ 5.784159690579195, 51.019048948460522 ], [ 5.785980001311469, 51.019118312770793 ], [ 5.786284107339228, 51.01912989519527 ], [ 5.786558797531633, 51.019140355717056 ], [ 5.786560964453607, 51.019140438137768 ], [ 5.787179177956793, 51.019163988895599 ], [ 5.787245341889431, 51.019166509294976 ], [ 5.785159105281949, 51.015928418019016 ] ] ] ] } }
]
}
