{
"type": "FeatureCollection",
"name": "Uitgeest",
"crs": { "type": "name", "properties": { "name": "urn:ogc:def:crs:EPSG::28992" } },
"features": [
{ "type": "Feature", "properties": { "buurtcode": "BU04500001", "buurtnaam": "De Koog", "pc6_codes": "1911BL, 1911HS, 1911MA, 1911MB, 1911MV, 1911MZ, 1911PA, 1911PB, 1911PC, 1911PD, 1911PE, 1911PG, 1911PH, 1911PJ, 1911PL, 1911PM, 1911PP, 1911PR, 1911PS, 1911PT, 1911PV, 1911PW, 1911PX, 1911RA, 1911RB, 1911RC, 1911RD, 1911RE, 1911RG, 1911RK, 1911RM, 1911RN, 1911RP, 1911RT, 1911RV, 1911RW, 1911RX, 1911RZ, 1911SB, 1911SC, 1911SE, 1911SG, 1911SH, 1911SJ, 1911SK, 1911SL, 1911SM, 1911SN, 1911SP, 1911TA, 1911TC, 1911TD, 1911TE, 1911TG, 1911TH, 1911TJ, 1911TK, 1911TL, 1911TM, 1911TN, 1911TP, 1911TR, 1911VA, 1911VB, 1911VC, 1911VD, 1911VE, 1911VG, 1911VH, 1911VJ, 1911VK, 1911VL, 1911VM, 1911VN, 1911VP, 1911VR, 1911VS, 1911VT, 1911VW, 1911VZ, 1911WB, 1911WC, 1911WD, 1911WE, 1911WG, 1911WH, 1911WJ, 1911WL, 1911WP, 1911WS, 1911WT, 1911XA, 1911XB, 1911XC, 1911XD, 1911XE, 1911XG, 1911XH, 1911XJ, 1911XK, 1911XL, 1911XM, 1911XN, 1911XP, 1911XR, 1911XS, 1911XV, 1911XW", "wijkcode": "WK045000", "gemeentecode": "GM0450", "gemeentenaam": "Uitgeest", "oppervlakteLandInHa": 83, "AantalInwoners_5": 3625, "Mannen_6": 1805, "Vrouwen_7": 1820, "HuishoudensTotaal_29": 1570, "GemiddeldeHuishoudensgrootte_33": 2.3, "Woningvoorraad_35": 1561, "NieuwbouwWoningen_36": 20, "NietWoningvoorraad_37": 225, "NieuwbouwNietWoningen_38": 0, "GemiddeldeWOZWaardeVanWoningen_39": 391, "PercentageEengezinswoning_40": 90, "PercentageTussenwoningEengezins_41": 57, "PercentageHoekwoningEengezins_42": 25, "PercentageTweeOnderEenKapWoningEe_43": 5, "PercentageVrijstaandeWoningEengezins_44": 3, "PercentageMeergezinswoning_45": 10, "Koopwoningen_47": 64, "HuurwoningenTotaal_48": 36, "InBezitWoningcorporatie_49": 35, "InBezitOverigeVerhuurders_50": 1, "BouwjaarMeerDanTienJaarGeleden_51": 99, "BouwjaarAfgelopenTienJaar_52": 1, "GemiddeldeElektriciteitslevering_53": 2300, "GemiddeldeElektriciteitsteruglevering_54": 1140, "GemiddeldAardgasverbruik_55": 900, "AardgasvrijeWoningen_57": 1, "Aardgaswoningen_58": 97, "WoningenMetZonnestroom_59": 70, "WoningenHoofdzElektrVerwarmd_60": 3, "k_20PersonenMetHoogsteInkomen_80": 20.3, "k_20HuishoudensMetHoogsteInkomen_85": 23.2, "MediaanVermogenVanParticuliereHuish_86": 238.4, "PersonenautoSTotaal_104": 1805, "PersonenautoSBrandstofBenzine_105": 1530, "PersonenautoSOverigeBrandstof_106": 275, "PersonenautoSPerHuishouden_107": 1.1, "Omgevingsadressendichtheid_121": 1069, "AantalInstallatiesBijWoningen_5": 956, "OpgesteldVermogenVanZonnepanelen_6": 2591, "installaties_per_woning": 0.61242793081358105, "vermogen_per_woning": 1.6598334401024983, "installaties_per_100_woningen": 61.242793081358101, "vermogen_per_huishouden": 1.6503184713375796, "batterijdruk_score": 798.0, "koop_zon_score": 0.448, "eengezins_zon_score": 0.63, "betaalkracht_zon_score": 166.88, "overige_brandstof_zon_score": 192.5, "lichte_batterij_kansscore": 0.48575266051401911 }, "geometry": { "type": "MultiPolygon", "coordinates": [ [ [ [ 108906.9999, 505911.0001 ], [ 108961.9999, 505886.0 ], [ 108969.9999, 505883.0 ], [ 109002.9999, 505865.0001 ], [ 109033.9999, 505837.0001 ], [ 109034.9999, 505835.0001 ], [ 109045.9999, 505819.0001 ], [ 109060.9999, 505803.0001 ], [ 109071.9999, 505793.0001 ], [ 109084.9999, 505773.0001 ], [ 109124.9999, 505739.0001 ], [ 109147.9999, 505715.0001 ], [ 109165.9999, 505692.0001 ], [ 109176.9999, 505684.0001 ], [ 109180.4953, 505681.5403 ], [ 109180.021, 505654.499699999985751 ], [ 109193.1021, 505628.337300000013784 ], [ 109189.3647, 505604.043599999975413 ], [ 109183.7586, 505571.028999999980442 ], [ 109190.6106, 505552.341699999989942 ], [ 109202.4459, 505534.900000000023283 ], [ 109271.5894, 505459.527200000011362 ], [ 109270.9666, 505454.543899999989662 ], [ 109216.1501, 505380.417000000015832 ], [ 109211.7897, 505369.2046 ], [ 109198.592, 505343.787100000015926 ], [ 109316.9999, 505322.0001 ], [ 109317.9999, 505324.0001 ], [ 109325.9999, 505328.0001 ], [ 109336.9999, 505329.0001 ], [ 109341.9999, 505326.0001 ], [ 109343.0, 505323.0001 ], [ 109344.0, 505319.0001 ], [ 109342.0, 505311.0001 ], [ 109331.9999, 505306.0001 ], [ 109327.9999, 505306.0001 ], [ 109315.9999, 505269.0001 ], [ 109306.9999, 505257.0001 ], [ 109301.4909, 505254.997099999978673 ], [ 109295.9999, 505253.0001 ], [ 109280.9999, 505235.0001 ], [ 109257.9999, 505209.0001 ], [ 109191.9999, 505151.0001 ], [ 109161.9999, 505121.0001 ], [ 109149.9999, 505111.0001 ], [ 109132.9999, 505099.0001 ], [ 109095.9999, 505062.0001 ], [ 109041.9999, 505011.0001 ], [ 108999.9999, 504963.0001 ], [ 108986.9999, 504946.0001 ], [ 108984.9889, 504943.987299999978859 ], [ 108978.9999, 504937.0001 ], [ 108929.9999, 504862.0001 ], [ 108918.9999, 504844.0001 ], [ 108766.9999, 504576.0001 ], [ 108748.9999, 504543.0001 ], [ 108740.9999, 504523.0001 ], [ 108739.523, 504519.62300000002142 ], [ 108720.333, 504469.664999999979045 ], [ 108698.715, 504381.0491 ], [ 108694.081, 504306.075100000016391 ], [ 108689.915, 504241.211100000014994 ], [ 108673.0, 504102.0001 ], [ 108670.0, 504092.0001 ], [ 108670.0, 504084.0001 ], [ 108653.9999, 504054.0001 ], [ 108643.9999, 504038.0001 ], [ 108640.9999, 504033.0001 ], [ 108629.9999, 504016.0001 ], [ 108611.9999, 504003.0001 ], [ 108513.9947, 503932.5575 ], [ 108471.7311, 503973.630599999974947 ], [ 108373.7363, 504058.702999999979511 ], [ 108309.1244, 504116.853699999977835 ], [ 108281.1259, 504144.852200000023004 ], [ 108256.358, 504175.004399999976158 ], [ 108246.2475, 504195.2253 ], [ 108293.3894, 504236.1642 ], [ 108314.1655, 504232.386699999973644 ], [ 108310.388, 504275.8274 ], [ 108312.2767, 504298.492199999978766 ], [ 108321.8631, 504325.653899999975692 ], [ 108311.556, 504344.587 ], [ 108294.0, 504381.0 ], [ 108287.0, 504400.0 ], [ 108284.0, 504407.0 ], [ 108281.0, 504416.0 ], [ 108274.0, 504437.0 ], [ 108270.0, 504455.0 ], [ 108260.0, 504497.0 ], [ 108239.0, 504594.0 ], [ 108221.0, 504691.0 ], [ 108203.0, 504789.0 ], [ 108194.9583, 504834.85820000001695 ], [ 108203.009, 504838.588999999978114 ], [ 108204.887, 504840.259000000020023 ], [ 108204.3288, 504843.340900000010151 ], [ 108230.034, 504855.699399999983143 ], [ 108254.1396, 504868.3261 ], [ 108309.2379, 504883.248499999986961 ], [ 108384.9982, 504918.832799999974668 ], [ 108395.329, 504914.2414 ], [ 108484.8638, 504836.185400000016671 ], [ 108502.0821, 504863.734500000020489 ], [ 108497.4905, 504874.065500000026077 ], [ 108527.3355, 504940.642600000021048 ], [ 108539.9622, 504933.755300000018906 ], [ 108576.6944, 505004.924 ], [ 108572.103, 505010.663300000014715 ], [ 108608.8351, 505074.9448 ], [ 108620.3139, 505078.3885 ], [ 108644.4194, 505126.599500000011176 ], [ 108662.7855, 505141.522 ], [ 108650.1589, 505153.000699999975041 ], [ 108763.0087, 505334.244599999976344 ], [ 108757.0, 505338.0001 ], [ 108756.9999, 505342.0 ], [ 108774.0, 505376.0 ], [ 108775.0, 505380.0 ], [ 108777.9999, 505397.0 ], [ 108782.0, 505406.0 ], [ 108793.0, 505442.0 ], [ 108804.0, 505464.0 ], [ 108810.9999, 505500.0 ], [ 108815.9999, 505510.0001 ], [ 108831.0, 505536.0 ], [ 108832.0, 505543.0 ], [ 108840.0, 505601.0 ], [ 108841.0, 505615.0 ], [ 108837.0, 505644.0 ], [ 108837.0, 505660.0001 ], [ 108842.0, 505673.0 ], [ 108855.0, 505724.0 ], [ 108860.0, 505754.0 ], [ 108863.0, 505775.0 ], [ 108861.0, 505805.0 ], [ 108869.0, 505839.0 ], [ 108872.0, 505858.0001 ], [ 108879.0, 505882.0 ], [ 108882.9999, 505907.0 ], [ 108884.9999, 505911.0001 ], [ 108890.9999, 505913.0001 ], [ 108896.9999, 505913.0001 ], [ 108906.9999, 505911.0001 ] ] ] ] } },
{ "type": "Feature", "properties": { "buurtcode": "BU04500002", "buurtnaam": "De Kleis", "pc6_codes": "1911JG, 1911JH, 1911JJ, 1911JK, 1911JL, 1911JM, 1911JN, 1911JP, 1911JR, 1911JS, 1911JT, 1911JV, 1911JW, 1911JX, 1911JZ, 1911KA, 1911KB, 1911KC, 1911KD, 1911KE, 1911KG, 1911KH, 1911KJ, 1911KK, 1911KL, 1911KM, 1911KN, 1911KP, 1911KR, 1911KS, 1911KT, 1911KX, 1911KZ, 1911LA, 1911LB, 1911LC, 1911LD, 1911MC, 1911MD, 1911ME, 1911MG, 1911MH, 1911MK, 1911MN", "wijkcode": "WK045000", "gemeentecode": "GM0450", "gemeentenaam": "Uitgeest", "oppervlakteLandInHa": 43, "AantalInwoners_5": 2420, "Mannen_6": 1215, "Vrouwen_7": 1205, "HuishoudensTotaal_29": 1015, "GemiddeldeHuishoudensgrootte_33": 2.4, "Woningvoorraad_35": 1013, "NieuwbouwWoningen_36": 1, "NietWoningvoorraad_37": 13, "NieuwbouwNietWoningen_38": 0, "GemiddeldeWOZWaardeVanWoningen_39": 458, "PercentageEengezinswoning_40": 79, "PercentageTussenwoningEengezins_41": 44, "PercentageHoekwoningEengezins_42": 16, "PercentageTweeOnderEenKapWoningEe_43": 7, "PercentageVrijstaandeWoningEengezins_44": 12, "PercentageMeergezinswoning_45": 21, "Koopwoningen_47": 81, "HuurwoningenTotaal_48": 19, "InBezitWoningcorporatie_49": 16, "InBezitOverigeVerhuurders_50": 3, "BouwjaarMeerDanTienJaarGeleden_51": 100, "BouwjaarAfgelopenTienJaar_52": 0, "GemiddeldeElektriciteitslevering_53": 2520, "GemiddeldeElektriciteitsteruglevering_54": 1170, "GemiddeldAardgasverbruik_55": 820, "AardgasvrijeWoningen_57": 1, "Aardgaswoningen_58": 94, "WoningenMetZonnestroom_59": 62, "WoningenHoofdzElektrVerwarmd_60": 6, "k_20PersonenMetHoogsteInkomen_80": 26.5, "k_20HuishoudensMetHoogsteInkomen_85": 34.9, "MediaanVermogenVanParticuliereHuish_86": 358.6, "PersonenautoSTotaal_104": 1185, "PersonenautoSBrandstofBenzine_105": 980, "PersonenautoSOverigeBrandstof_106": 210, "PersonenautoSPerHuishouden_107": 1.2, "Omgevingsadressendichtheid_121": 1264, "AantalInstallatiesBijWoningen_5": 484, "OpgesteldVermogenVanZonnepanelen_6": 1569, "installaties_per_woning": 0.4777887462981244, "vermogen_per_woning": 1.5488647581441264, "installaties_per_100_woningen": 47.778874629812442, "vermogen_per_huishouden": 1.5458128078817734, "batterijdruk_score": 725.4, "koop_zon_score": 0.5022, "eengezins_zon_score": 0.4898, "betaalkracht_zon_score": 222.332, "overige_brandstof_zon_score": 130.2, "lichte_batterij_kansscore": 0.48147157121660877 }, "geometry": { "type": "MultiPolygon", "coordinates": [ [ [ [ 108256.358, 504175.004399999976158 ], [ 108281.1259, 504144.852200000023004 ], [ 108309.1244, 504116.853699999977835 ], [ 108373.7363, 504058.702999999979511 ], [ 108471.7311, 503973.630599999974947 ], [ 108513.9947, 503932.5575 ], [ 108548.1884, 503899.327 ], [ 108720.4869, 503738.87410000001546 ], [ 108782.6794, 503795.968899999978021 ], [ 108799.5683, 503777.2035 ], [ 108814.6781, 503748.8725 ], [ 108814.7631, 503748.0234 ], [ 108818.4557, 503711.098 ], [ 108812.7895, 503667.657200000016019 ], [ 108793.9021, 503639.32640000001993 ], [ 108608.8068, 503388.125600000028498 ], [ 108569.1436, 503350.351100000028964 ], [ 108546.4788, 503327.6863 ], [ 108521.9254, 503318.2427 ], [ 108487.9284, 503346.5735 ], [ 108435.044, 503386.236800000013318 ], [ 108391.6032, 503340.907400000025518 ], [ 108276.3908, 503223.8063 ], [ 108279.573, 503219.298300000024028 ], [ 108238.6163, 503169.0332 ], [ 108176.2883, 503119.9263 ], [ 108085.6295, 503210.585100000025705 ], [ 108074.2971, 503231.36109999998007 ], [ 108070.5196, 503237.027300000016112 ], [ 108078.0745, 503240.804899999988265 ], [ 108095.073, 503255.914700000023004 ], [ 108195.1755, 503295.577999999979511 ], [ 108252.124, 503318.7133 ], [ 108236.0, 503332.0 ], [ 108205.0, 503365.0 ], [ 108199.0, 503371.0 ], [ 108190.0, 503376.0 ], [ 108178.0, 503382.0 ], [ 108172.0, 503385.0001 ], [ 108162.0, 503400.0 ], [ 108153.0, 503415.0 ], [ 108114.0, 503475.0 ], [ 108106.0, 503498.0 ], [ 108105.0, 503512.0 ], [ 108103.0, 503532.0 ], [ 108107.0, 503567.0 ], [ 108102.0, 503592.0 ], [ 108076.0, 503701.0 ], [ 108073.0, 503730.0 ], [ 108072.0, 503735.0 ], [ 108054.0, 503816.0 ], [ 108067.0, 503908.0 ], [ 108064.0973, 503953.2806 ], [ 108155.5123, 504003.8507 ], [ 108202.7305, 504109.619499999971595 ], [ 108217.8404, 504147.393900000024587 ], [ 108221.6177, 504173.836200000019744 ], [ 108246.2475, 504195.2253 ], [ 108256.358, 504175.004399999976158 ] ] ] ] } },
{ "type": "Feature", "properties": { "buurtcode": "BU04500003", "buurtnaam": "Waldijk", "pc6_codes": "1911LD, 1911LE, 1911LG, 1911LH, 1911LJ, 1911LK, 1911LL, 1911LN, 1911LP, 1911LR, 1911LS, 1911LT, 1911LV, 1911LW, 1911ME, 1911MJ, 1911ML, 1911MN", "wijkcode": "WK045000", "gemeentecode": "GM0450", "gemeentenaam": "Uitgeest", "oppervlakteLandInHa": 32, "AantalInwoners_5": 2330, "Mannen_6": 1185, "Vrouwen_7": 1145, "HuishoudensTotaal_29": 800, "GemiddeldeHuishoudensgrootte_33": 2.9, "Woningvoorraad_35": 798, "NieuwbouwWoningen_36": 2, "NietWoningvoorraad_37": 16, "NieuwbouwNietWoningen_38": 0, "GemiddeldeWOZWaardeVanWoningen_39": 573, "PercentageEengezinswoning_40": 81, "PercentageTussenwoningEengezins_41": 54, "PercentageHoekwoningEengezins_42": 16, "PercentageTweeOnderEenKapWoningEe_43": 4, "PercentageVrijstaandeWoningEengezins_44": 7, "PercentageMeergezinswoning_45": 19, "Koopwoningen_47": 83, "HuurwoningenTotaal_48": 17, "InBezitWoningcorporatie_49": 11, "InBezitOverigeVerhuurders_50": 5, "BouwjaarMeerDanTienJaarGeleden_51": 83, "BouwjaarAfgelopenTienJaar_52": 17, "GemiddeldeElektriciteitslevering_53": 2990, "GemiddeldeElektriciteitsteruglevering_54": 1460, "GemiddeldAardgasverbruik_55": 810, "AardgasvrijeWoningen_57": 1, "Aardgaswoningen_58": 91, "WoningenMetZonnestroom_59": 63, "WoningenHoofdzElektrVerwarmd_60": 9, "k_20PersonenMetHoogsteInkomen_80": 34.7, "k_20HuishoudensMetHoogsteInkomen_85": 52.9, "MediaanVermogenVanParticuliereHuish_86": 400.0, "PersonenautoSTotaal_104": 1095, "PersonenautoSBrandstofBenzine_105": 850, "PersonenautoSOverigeBrandstof_106": 245, "PersonenautoSPerHuishouden_107": 1.4, "Omgevingsadressendichtheid_121": 926, "AantalInstallatiesBijWoningen_5": 428, "OpgesteldVermogenVanZonnepanelen_6": 1529, "installaties_per_woning": 0.53634085213032578, "vermogen_per_woning": 1.9160401002506267, "installaties_per_100_woningen": 53.634085213032577, "vermogen_per_huishouden": 1.91125, "batterijdruk_score": 919.8, "koop_zon_score": 0.5229, "eengezins_zon_score": 0.5103, "betaalkracht_zon_score": 252.0, "overige_brandstof_zon_score": 154.35, "lichte_batterij_kansscore": 0.50045853582774624 }, "geometry": { "type": "MultiPolygon", "coordinates": [ [ [ [ 108837.8168, 503709.528 ], [ 108884.1477, 503629.441799999971408 ], [ 108898.7089, 503596.568900000012945 ], [ 108899.4638, 503593.172199999971781 ], [ 108900.4203, 503590.554400000022724 ], [ 108926.6469, 503518.776300000026822 ], [ 108928.8476, 503512.753399999986868 ], [ 108961.999, 503363.5722 ], [ 108969.5539, 503280.4682 ], [ 108961.999, 503191.697999999974854 ], [ 108950.6666, 503095.372900000016671 ], [ 108922.3357, 503016.046299999987241 ], [ 108880.7836, 502914.0551 ], [ 108803.3458, 502804.508900000015274 ], [ 108773.1261, 502766.73430000001099 ], [ 108663.58, 502795.065200000011828 ], [ 108578.5873, 502880.057900000014342 ], [ 108514.3706, 502949.940799999982119 ], [ 108467.1524, 502987.715299999981653 ], [ 108333.0527, 503144.479700000025332 ], [ 108299.0557, 503191.697900000028312 ], [ 108279.573, 503219.298300000024028 ], [ 108276.3908, 503223.8063 ], [ 108391.6032, 503340.907400000025518 ], [ 108435.044, 503386.236800000013318 ], [ 108487.9284, 503346.5735 ], [ 108521.9254, 503318.2427 ], [ 108546.4788, 503327.6863 ], [ 108569.1436, 503350.351100000028964 ], [ 108608.8068, 503388.125600000028498 ], [ 108793.9021, 503639.32640000001993 ], [ 108812.7895, 503667.657200000016019 ], [ 108818.4557, 503711.098 ], [ 108814.7631, 503748.0234 ], [ 108837.8168, 503709.528 ] ] ] ] } },
{ "type": "Feature", "properties": { "buurtcode": "BU04500004", "buurtnaam": "Oude Dorp", "pc6_codes": "1911AA, 1911AB, 1911AC, 1911AD, 1911AE, 1911AG, 1911AH, 1911AJ, 1911AK, 1911AL, 1911AM, 1911AN, 1911AP, 1911AR, 1911AS, 1911AT, 1911AV, 1911AW, 1911AX, 1911AZ, 1911BA, 1911BB, 1911BC, 1911BD, 1911BJ, 1911BK, 1911BL, 1911BM, 1911BP, 1911BR, 1911BS, 1911BT, 1911BV, 1911BW, 1911BX, 1911BZ, 1911CB, 1911CC, 1911CD, 1911CE, 1911CG, 1911CH, 1911CJ, 1911CK, 1911CL, 1911CM, 1911CN, 1911CP, 1911CR, 1911CS, 1911DR, 1911DS, 1911DT, 1911DW, 1911DZ, 1911EA, 1911EB, 1911EC, 1911ED, 1911EE, 1911EG, 1911EH, 1911EJ, 1911EK, 1911EL, 1911EM, 1911EN, 1911EP, 1911ER, 1911ES, 1911ET, 1911EV, 1911EW, 1911EX, 1911EZ, 1911GA, 1911GB, 1911GC, 1911GD, 1911GE, 1911GG, 1911GH, 1911GJ, 1911GK, 1911GL, 1911GM, 1911GN, 1911GP, 1911GR, 1911GS, 1911GT, 1911GV, 1911GW, 1911GX, 1911GZ, 1911HA, 1911HB, 1911HC, 1911HD, 1911HE, 1911HG, 1911HH, 1911HJ, 1911HK, 1911HL, 1911HM, 1911HN, 1911HP, 1911HR, 1911HT, 1911HV, 1911HW, 1911HX, 1911HZ", "wijkcode": "WK045000", "gemeentecode": "GM0450", "gemeentenaam": "Uitgeest", "oppervlakteLandInHa": 89, "AantalInwoners_5": 4445, "Mannen_6": 2190, "Vrouwen_7": 2250, "HuishoudensTotaal_29": 2060, "GemiddeldeHuishoudensgrootte_33": 2.1, "Woningvoorraad_35": 2106, "NieuwbouwWoningen_36": 96, "NietWoningvoorraad_37": 209, "NieuwbouwNietWoningen_38": 0, "GemiddeldeWOZWaardeVanWoningen_39": 408, "PercentageEengezinswoning_40": 73, "PercentageTussenwoningEengezins_41": 29, "PercentageHoekwoningEengezins_42": 18, "PercentageTweeOnderEenKapWoningEe_43": 13, "PercentageVrijstaandeWoningEengezins_44": 12, "PercentageMeergezinswoning_45": 27, "Koopwoningen_47": 71, "HuurwoningenTotaal_48": 29, "InBezitWoningcorporatie_49": 19, "InBezitOverigeVerhuurders_50": 10, "BouwjaarMeerDanTienJaarGeleden_51": 98, "BouwjaarAfgelopenTienJaar_52": 2, "GemiddeldeElektriciteitslevering_53": 2340, "GemiddeldeElektriciteitsteruglevering_54": 850, "GemiddeldAardgasverbruik_55": 890, "AardgasvrijeWoningen_57": 1, "Aardgaswoningen_58": 94, "WoningenMetZonnestroom_59": 47, "WoningenHoofdzElektrVerwarmd_60": 6, "k_20PersonenMetHoogsteInkomen_80": 20.9, "k_20HuishoudensMetHoogsteInkomen_85": 21.4, "MediaanVermogenVanParticuliereHuish_86": 281.2, "PersonenautoSTotaal_104": 2125, "PersonenautoSBrandstofBenzine_105": 1795, "PersonenautoSOverigeBrandstof_106": 330, "PersonenautoSPerHuishouden_107": 1.0, "Omgevingsadressendichtheid_121": 1254, "AantalInstallatiesBijWoningen_5": 842, "OpgesteldVermogenVanZonnepanelen_6": 2570, "installaties_per_woning": 0.39981006647673312, "vermogen_per_woning": 1.2203228869895537, "installaties_per_100_woningen": 39.981006647673311, "vermogen_per_huishouden": 1.2475728155339805, "batterijdruk_score": 399.5, "koop_zon_score": 0.3337, "eengezins_zon_score": 0.3431, "betaalkracht_zon_score": 132.164, "overige_brandstof_zon_score": 155.1, "lichte_batterij_kansscore": 0.41235369766732799 }, "geometry": { "type": "MultiPolygon", "coordinates": [ [ [ [ 109314.9999, 505248.0 ], [ 109328.9999, 505241.0 ], [ 109351.9999, 505231.0 ], [ 109356.9999, 505230.0001 ], [ 109445.9999, 505189.0 ], [ 109464.9999, 505179.0001 ], [ 109469.9168, 505177.033400000014808 ], [ 109469.9375, 505177.025100000028033 ], [ 109467.4616, 505091.102699999988545 ], [ 109467.4542, 505090.84230000001844 ], [ 109482.5985, 505085.7943 ], [ 109464.0887, 505049.615999999979977 ], [ 109512.046, 505026.057900000014342 ], [ 109446.5369, 504867.1985 ], [ 109446.9999, 504867.0 ], [ 109440.9999, 504851.0001 ], [ 109431.0, 504818.0001 ], [ 109422.0, 504787.0001 ], [ 109435.9999, 504781.0 ], [ 109483.9999, 504756.0001 ], [ 109504.9999, 504742.0001 ], [ 109577.9999, 504699.0001 ], [ 109609.7469, 504679.1581 ], [ 109657.9999, 504647.0001 ], [ 109684.9999, 504632.0001 ], [ 109693.9999, 504627.0001 ], [ 109702.9999, 504623.0 ], [ 109734.9999, 504609.0 ], [ 109740.8957, 504606.4732 ], [ 109692.9363, 504598.799899999983609 ], [ 109596.6112, 504619.5759 ], [ 109511.6185, 504629.0195 ], [ 109483.2876, 504636.574399999983143 ], [ 109369.964, 504434.4806 ], [ 109330.3007, 504353.265300000028219 ], [ 109317.0796, 504321.1569 ], [ 109303.8585, 504290.9373 ], [ 109243.4192, 504217.2769 ], [ 109216.9771, 504177.613699999987148 ], [ 109222.6433, 504128.506700000027195 ], [ 109237.7531, 504041.625300000014249 ], [ 109213.1997, 503799.868200000026263 ], [ 109186.7575, 503688.433299999975134 ], [ 109173.5365, 503618.5503 ], [ 109194.3123, 503590.2194 ], [ 109179.2025, 503567.554699999978766 ], [ 109152.7603, 503561.8885 ], [ 109135.7619, 503425.900199999974575 ], [ 108922.3357, 503620.439000000013039 ], [ 108900.4203, 503590.554400000022724 ], [ 108899.4638, 503593.172199999971781 ], [ 108898.7089, 503596.568900000012945 ], [ 108884.1477, 503629.441799999971408 ], [ 108837.8168, 503709.528 ], [ 108814.7631, 503748.0234 ], [ 108814.6781, 503748.8725 ], [ 108799.5683, 503777.2035 ], [ 108782.6794, 503795.968899999978021 ], [ 108720.4869, 503738.87410000001546 ], [ 108548.1884, 503899.327 ], [ 108513.9947, 503932.5575 ], [ 108611.9999, 504003.0001 ], [ 108629.9999, 504016.0001 ], [ 108640.9999, 504033.0001 ], [ 108643.9999, 504038.0001 ], [ 108653.9999, 504054.0001 ], [ 108670.0, 504084.0001 ], [ 108670.0, 504092.0001 ], [ 108673.0, 504102.0001 ], [ 108689.915, 504241.211100000014994 ], [ 108694.081, 504306.075100000016391 ], [ 108698.715, 504381.0491 ], [ 108720.333, 504469.664999999979045 ], [ 108739.523, 504519.62300000002142 ], [ 108740.9999, 504523.0001 ], [ 108748.9999, 504543.0001 ], [ 108766.9999, 504576.0001 ], [ 108918.9999, 504844.0001 ], [ 108929.9999, 504862.0001 ], [ 108978.9999, 504937.0001 ], [ 108984.9889, 504943.987299999978859 ], [ 108986.9999, 504946.0001 ], [ 108999.9999, 504963.0001 ], [ 109041.9999, 505011.0001 ], [ 109095.9999, 505062.0001 ], [ 109132.9999, 505099.0001 ], [ 109149.9999, 505111.0001 ], [ 109161.9999, 505121.0001 ], [ 109191.9999, 505151.0001 ], [ 109257.9999, 505209.0001 ], [ 109280.9999, 505235.0001 ], [ 109295.9999, 505253.0001 ], [ 109301.4909, 505254.997099999978673 ], [ 109314.9999, 505248.0 ] ] ] ] } },
{ "type": "Feature", "properties": { "buurtcode": "BU04500005", "buurtnaam": "Bedrijventerrein", "pc6_codes": "1911BA, 1911BC, 1911BE, 1911BG, 1911BH, 1911BK, 1911BM, 1911BN, 1911BR, 1911DA, 1911DB, 1911JA, 1911JB, 1911NB", "wijkcode": "WK045000", "gemeentecode": "GM0450", "gemeentenaam": "Uitgeest", "oppervlakteLandInHa": 45, "AantalInwoners_5": 175, "Mannen_6": 95, "Vrouwen_7": 85, "HuishoudensTotaal_29": 80, "GemiddeldeHuishoudensgrootte_33": 2.1, "Woningvoorraad_35": 75, "NieuwbouwWoningen_36": 0, "NietWoningvoorraad_37": 201, "NieuwbouwNietWoningen_38": 2, "GemiddeldeWOZWaardeVanWoningen_39": 471, "PercentageEengezinswoning_40": 87, "PercentageTussenwoningEengezins_41": 20, "PercentageHoekwoningEengezins_42": 12, "PercentageTweeOnderEenKapWoningEe_43": 19, "PercentageVrijstaandeWoningEengezins_44": 36, "PercentageMeergezinswoning_45": 13, "Koopwoningen_47": 80, "HuurwoningenTotaal_48": 20, "InBezitWoningcorporatie_49": 0, "InBezitOverigeVerhuurders_50": 20, "BouwjaarMeerDanTienJaarGeleden_51": 96, "BouwjaarAfgelopenTienJaar_52": 4, "GemiddeldeElektriciteitslevering_53": 2860, "GemiddeldeElektriciteitsteruglevering_54": 670, "GemiddeldAardgasverbruik_55": 1010, "AardgasvrijeWoningen_57": null, "Aardgaswoningen_58": null, "WoningenMetZonnestroom_59": null, "WoningenHoofdzElektrVerwarmd_60": null, "k_20PersonenMetHoogsteInkomen_80": 19.9, "k_20HuishoudensMetHoogsteInkomen_85": null, "MediaanVermogenVanParticuliereHuish_86": null, "PersonenautoSTotaal_104": 235, "PersonenautoSBrandstofBenzine_105": 145, "PersonenautoSOverigeBrandstof_106": 90, "PersonenautoSPerHuishouden_107": null, "Omgevingsadressendichtheid_121": 745, "AantalInstallatiesBijWoningen_5": 16, "OpgesteldVermogenVanZonnepanelen_6": 36, "installaties_per_woning": 0.21333333333333335, "vermogen_per_woning": 0.48, "installaties_per_100_woningen": 21.333333333333336, "vermogen_per_huishouden": 0.45, "batterijdruk_score": null, "koop_zon_score": null, "eengezins_zon_score": null, "betaalkracht_zon_score": null, "overige_brandstof_zon_score": null, "lichte_batterij_kansscore": null }, "geometry": { "type": "MultiPolygon", "coordinates": [ [ [ [ 109574.9999, 506121.0 ], [ 109644.9999, 506113.0001 ], [ 109715.9999, 506105.0001 ], [ 109727.9999, 506100.0 ], [ 109739.9999, 506093.0001 ], [ 109749.9999, 506082.0001 ], [ 109754.9999, 506071.0001 ], [ 109758.0, 506059.0001 ], [ 109758.773, 506054.170099999988452 ], [ 109762.0, 506034.0001 ], [ 109769.753, 505997.839099999982864 ], [ 109786.0, 505712.0001 ], [ 109795.0, 505616.0001 ], [ 109813.0, 505324.0001 ], [ 109814.0, 505243.0001 ], [ 109813.0, 505174.0001 ], [ 109808.0, 505090.0001 ], [ 109795.0, 504950.0001 ], [ 109772.0, 504800.0001 ], [ 109742.0, 504606.0001 ], [ 109740.8957, 504606.4732 ], [ 109734.9999, 504609.0 ], [ 109702.9999, 504623.0 ], [ 109693.9999, 504627.0001 ], [ 109684.9999, 504632.0001 ], [ 109657.9999, 504647.0001 ], [ 109609.7469, 504679.1581 ], [ 109577.9999, 504699.0001 ], [ 109504.9999, 504742.0001 ], [ 109483.9999, 504756.0001 ], [ 109435.9999, 504781.0 ], [ 109422.0, 504787.0001 ], [ 109431.0, 504818.0001 ], [ 109440.9999, 504851.0001 ], [ 109446.9999, 504867.0 ], [ 109446.5369, 504867.1985 ], [ 109512.046, 505026.057900000014342 ], [ 109464.0887, 505049.615999999979977 ], [ 109482.5985, 505085.7943 ], [ 109467.4542, 505090.84230000001844 ], [ 109467.4616, 505091.102699999988545 ], [ 109469.9375, 505177.025100000028033 ], [ 109469.9315, 505177.5479 ], [ 109468.0, 505193.0 ], [ 109470.0, 505241.0 ], [ 109469.0, 505249.0 ], [ 109469.0, 505254.0 ], [ 109468.0, 505309.0 ], [ 109463.0, 505370.0 ], [ 109460.0, 505387.0 ], [ 109456.0, 505407.0 ], [ 109452.0, 505417.0 ], [ 109451.0, 505419.0 ], [ 109448.0, 505423.0 ], [ 109443.0, 505430.0 ], [ 109436.9999, 505426.0001 ], [ 109422.9999, 505427.0001 ], [ 109392.0, 505435.0001 ], [ 109398.0, 505455.0 ], [ 109405.0, 505490.0 ], [ 109407.0, 505500.0 ], [ 109408.0, 505507.0 ], [ 109411.0, 505534.0 ], [ 109411.0, 505629.0 ], [ 109412.0, 505651.0 ], [ 109417.0, 505691.0 ], [ 109419.0, 505705.0001 ], [ 109443.0, 505780.0 ], [ 109459.0, 505840.0001 ], [ 109502.0, 505985.0001 ], [ 109511.0, 506016.0001 ], [ 109544.9999, 506130.0001 ], [ 109574.9999, 506121.0 ] ] ] ] } },
{ "type": "Feature", "properties": { "buurtcode": "BU04500006", "buurtnaam": "Buitengebied", "pc6_codes": "1911BC, 1911DA, 1911JV, 1911LZ, 1911MB, 1911MK, 1911MN, 1911MP, 1911MR, 1911MS, 1911MT, 1911MX, 1911MZ, 1911NB, 1911NC, 1911ND, 1911NG, 1911NH, 1911NJ, 1911NK, 1911NL, 1911NM", "wijkcode": "WK045000", "gemeentecode": "GM0450", "gemeentenaam": "Uitgeest", "oppervlakteLandInHa": 1624, "AantalInwoners_5": 405, "Mannen_6": 210, "Vrouwen_7": 190, "HuishoudensTotaal_29": 170, "GemiddeldeHuishoudensgrootte_33": 2.4, "Woningvoorraad_35": 148, "NieuwbouwWoningen_36": 0, "NietWoningvoorraad_37": 194, "NieuwbouwNietWoningen_38": 0, "GemiddeldeWOZWaardeVanWoningen_39": 582, "PercentageEengezinswoning_40": 70, "PercentageTussenwoningEengezins_41": 0, "PercentageHoekwoningEengezins_42": 0, "PercentageTweeOnderEenKapWoningEe_43": 12, "PercentageVrijstaandeWoningEengezins_44": 58, "PercentageMeergezinswoning_45": 30, "Koopwoningen_47": 73, "HuurwoningenTotaal_48": 27, "InBezitWoningcorporatie_49": 0, "InBezitOverigeVerhuurders_50": 27, "BouwjaarMeerDanTienJaarGeleden_51": 95, "BouwjaarAfgelopenTienJaar_52": 5, "GemiddeldeElektriciteitslevering_53": 3680, "GemiddeldeElektriciteitsteruglevering_54": 1540, "GemiddeldAardgasverbruik_55": 1250, "AardgasvrijeWoningen_57": 5, "Aardgaswoningen_58": 65, "WoningenMetZonnestroom_59": 40, "WoningenHoofdzElektrVerwarmd_60": 12, "k_20PersonenMetHoogsteInkomen_80": 21.0, "k_20HuishoudensMetHoogsteInkomen_85": 36.4, "MediaanVermogenVanParticuliereHuish_86": 617.0, "PersonenautoSTotaal_104": 260, "PersonenautoSBrandstofBenzine_105": 190, "PersonenautoSOverigeBrandstof_106": 70, "PersonenautoSPerHuishouden_107": 1.5, "Omgevingsadressendichtheid_121": 418, "AantalInstallatiesBijWoningen_5": 31, "OpgesteldVermogenVanZonnepanelen_6": 309, "installaties_per_woning": 0.20945945945945946, "vermogen_per_woning": 2.0878378378378377, "installaties_per_100_woningen": 20.945945945945947, "vermogen_per_huishouden": 1.8176470588235294, "batterijdruk_score": 616.0, "koop_zon_score": 0.292, "eengezins_zon_score": 0.28, "betaalkracht_zon_score": 246.8, "overige_brandstof_zon_score": 28.0, "lichte_batterij_kansscore": 0.4116795569279027 }, "geometry": { "type": "MultiPolygon", "coordinates": [ [ [ [ 109676.325, 507229.887999999977183 ], [ 109679.474, 507184.659999999974389 ], [ 109679.51, 507184.150000000023283 ], [ 109680.842, 507164.017 ], [ 109681.157, 507159.254000000015367 ], [ 109683.061, 507130.206 ], [ 109689.529, 507036.151000000012573 ], [ 109689.902, 507029.766 ], [ 109695.661, 506931.174 ], [ 109695.674, 506931.047000000020489 ], [ 109695.975, 506927.99800000002142 ], [ 109696.386, 506923.841000000014901 ], [ 109702.346, 506826.541000000026543 ], [ 109706.094, 506771.961000000010245 ], [ 109706.563, 506764.452 ], [ 109706.568, 506764.375 ], [ 109708.682, 506730.523999999975786 ], [ 109708.739, 506729.642 ], [ 109715.166, 506630.539999999979045 ], [ 109716.921, 506600.0 ], [ 109717.793, 506584.827999999979511 ], [ 109717.823, 506584.306999999971595 ], [ 109718.102, 506579.465000000025611 ], [ 109718.122, 506579.108 ], [ 109718.248, 506576.919999999983702 ], [ 109723.331, 506491.631999999983236 ], [ 109723.75, 506485.365999999979977 ], [ 109723.794, 506484.711000000010245 ], [ 109723.959, 506482.25099999998929 ], [ 109723.964, 506482.172000000020489 ], [ 109725.627, 506457.332999999984168 ], [ 109725.77, 506455.194000000017695 ], [ 109780.722, 506483.955000000016298 ], [ 109797.465, 506493.648999999975786 ], [ 109797.125, 506501.066 ], [ 109802.427, 506504.064000000013039 ], [ 109805.304, 506506.093999999982771 ], [ 109820.91, 506516.363000000012107 ], [ 109835.501, 506527.756 ], [ 109849.093, 506540.049 ], [ 109861.243, 506553.457999999984168 ], [ 109873.202, 506568.357000000018161 ], [ 109884.336, 506584.520000000018626 ], [ 109899.691, 506607.03000000002794 ], [ 109913.588, 506627.972 ], [ 109923.478, 506645.291000000026543 ], [ 109943.419, 506680.745999999984633 ], [ 109955.319, 506702.208999999973457 ], [ 109958.495, 506711.031000000017229 ], [ 109965.437, 506729.148999999975786 ], [ 109974.459, 506751.816999999980908 ], [ 109977.02, 506758.892999999981839 ], [ 109977.957, 506761.482000000018161 ], [ 109979.744, 506766.420999999972992 ], [ 109985.006, 506766.245 ], [ 109991.623, 506766.023999999975786 ], [ 109994.5398, 506765.9265 ], [ 110000.0, 506765.744 ], [ 110004.545, 506765.592 ], [ 110005.81, 506765.549999999988358 ], [ 110019.26, 506760.150000000023283 ], [ 110021.01, 506764.549999999988358 ], [ 110029.24, 506761.090000000025611 ], [ 110034.2, 506770.582999999984168 ], [ 110035.62, 506773.299999999988358 ], [ 110108.629, 506737.299999999988358 ], [ 110109.311, 506741.536000000021886 ], [ 110109.825, 506744.104 ], [ 110110.773, 506748.09499999997206 ], [ 110111.721, 506751.808000000019092 ], [ 110117.783, 506748.370999999984633 ], [ 110118.489, 506747.977000000013504 ], [ 110193.503, 506706.125 ], [ 110193.68, 506706.718 ], [ 110198.34, 506704.049 ], [ 110200.0, 506703.023999999975786 ], [ 110203.328, 506700.968999999982771 ], [ 110210.076, 506697.15500000002794 ], [ 110217.997, 506693.047000000020489 ], [ 110226.065, 506689.086000000010245 ], [ 110234.134, 506684.979 ], [ 110240.735, 506681.897999999986496 ], [ 110244.403, 506680.577999999979511 ], [ 110246.603, 506680.870999999984633 ], [ 110248.217, 506681.310999999986961 ], [ 110249.906, 506682.297000000020489 ], [ 110249.977, 506682.337999999988824 ], [ 110251.444, 506683.218999999982771 ], [ 110253.058, 506683.658999999985099 ], [ 110255.112, 506683.952 ], [ 110257.049, 506683.805999999982305 ], [ 110259.983, 506682.924999999988358 ], [ 110264.531, 506680.430999999982305 ], [ 110270.838, 506677.056999999971595 ], [ 110276.266, 506673.830000000016298 ], [ 110279.493, 506670.456 ], [ 110286.241, 506665.908999999985099 ], [ 110293.429, 506661.36099999997532 ], [ 110300.178, 506657.107000000018161 ], [ 110307.659, 506651.679 ], [ 110314.407, 506646.691 ], [ 110315.803, 506645.993000000016764 ], [ 110315.843, 506645.973 ], [ 110316.461, 506645.663999999989755 ], [ 110319.982, 506642.436999999976251 ], [ 110320.601, 506642.077999999979511 ], [ 110322.769, 506640.822999999974854 ], [ 110326.32, 506640.090000000025611 ], [ 110330.282, 506639.356000000028871 ], [ 110338.936, 506638.329000000027008 ], [ 110345.244, 506637.009000000020023 ], [ 110348.178, 506635.102000000013504 ], [ 110353.753, 506629.087999999988824 ], [ 110356.392, 506626.13900000002468 ], [ 110359.883, 506622.238000000012107 ], [ 110379.786, 506600.0 ], [ 110381.88, 506597.659999999974389 ], [ 110382.396, 506600.0 ], [ 110383.737, 506606.080000000016298 ], [ 110384.412, 506609.136999999987893 ], [ 110386.906, 506614.565 ], [ 110387.925, 506617.169999999983702 ], [ 110389.547, 506621.313000000023749 ], [ 110389.92, 506621.804 ], [ 110393.801, 506625.566999999980908 ], [ 110397.469, 506628.794 ], [ 110400.0, 506629.548 ], [ 110404.363, 506630.848 ], [ 110409.937, 506629.674 ], [ 110415.072, 506626.299999999988358 ], [ 110417.272, 506623.659999999974389 ], [ 110417.804, 506622.36099999997532 ], [ 110418.152, 506622.778999999980442 ], [ 110419.073, 506623.615999999979977 ], [ 110419.766, 506624.246999999973923 ], [ 110421.82, 506626.446999999985565 ], [ 110423.727, 506627.473999999987427 ], [ 110425.927, 506628.060999999986961 ], [ 110428.128, 506628.060999999986961 ], [ 110429.155, 506628.060999999986961 ], [ 110430.621, 506628.060999999986961 ], [ 110431.795, 506628.647999999986496 ], [ 110433.746, 506627.908 ], [ 110433.992, 506627.815 ], [ 110435.834, 506626.597 ], [ 110435.86, 506626.582 ], [ 110438.792, 506624.881999999983236 ], [ 110441.028, 506623.608 ], [ 110440.429, 506623.21999999997206 ], [ 110438.009, 506622.680999999982305 ], [ 110436.429, 506619.672000000020489 ], [ 110435.936, 506618.174999999988358 ], [ 110436.402, 506617.424999999988358 ], [ 110437.34, 506615.900000000023283 ], [ 110437.554, 506615.522 ], [ 110440.023, 506617.018999999971129 ], [ 110443.632, 506603.787000000011176 ], [ 110445.526, 506598.272 ], [ 110451.511, 506597.558000000019092 ], [ 110461.816, 506592.282 ], [ 110466.157, 506591.662000000011176 ], [ 110494.442, 506597.075000000011642 ], [ 110495.303, 506597.24 ], [ 110504.873, 506599.204000000027008 ], [ 110515.114, 506586.196 ], [ 110521.576, 506579.733 ], [ 110530.624, 506573.271 ], [ 110549.15, 506563.793 ], [ 110558.197, 506556.038 ], [ 110576.723, 506536.218999999982771 ], [ 110594.818, 506517.261999999987893 ], [ 110611.19, 506503.906000000017229 ], [ 110628.855, 506491.843 ], [ 110653.0, 506480.0 ], [ 110750.0, 506457.0 ], [ 110767.0, 506450.0 ], [ 110783.0, 506442.0 ], [ 111322.484, 506127.467 ], [ 111325.0, 506126.0 ], [ 111336.791, 506117.208999999973457 ], [ 111701.609, 505845.211000000010245 ], [ 111797.8746, 505773.43839999998454 ], [ 112124.08, 505530.229999999981374 ], [ 112398.68, 505703.96999999997206 ], [ 112410.67, 505710.590000000025611 ], [ 112423.89, 505714.46999999997206 ], [ 112448.33, 505718.789999999979045 ], [ 112459.3, 505720.450000000011642 ], [ 112523.37, 505726.270000000018626 ], [ 112535.83, 505727.43 ], [ 112548.29, 505728.099999999976717 ], [ 112560.5, 505728.770000000018626 ], [ 112574.45, 505727.94 ], [ 112586.41, 505727.38 ], [ 112600.11, 505725.56 ], [ 112611.06, 505723.520000000018626 ], [ 112688.7, 505699.270000000018626 ], [ 112717.03, 505682.26 ], [ 112736.4, 505666.539999999979045 ], [ 112763.95, 505640.85999999998603 ], [ 112781.31, 505622.68 ], [ 112880.66, 505491.539999999979045 ], [ 112894.29, 505475.85999999998603 ], [ 112906.69, 505461.419999999983702 ], [ 112923.81, 505445.210000000020955 ], [ 112939.7, 505432.24 ], [ 112962.55, 505415.51 ], [ 112987.65, 505400.25 ], [ 113012.78, 505391.18 ], [ 113038.66, 505383.840000000025611 ], [ 113073.02, 505378.68 ], [ 113108.14, 505373.770000000018626 ], [ 113152.47, 505369.049999999988358 ], [ 113188.6, 505370.32 ], [ 113221.02, 505375.080000000016298 ], [ 113254.43, 505380.080000000016298 ], [ 113348.91, 505390.419999999983702 ], [ 113382.8, 505390.960000000020955 ], [ 113412.2, 505390.289999999979045 ], [ 113440.59, 505386.900000000023283 ], [ 113468.72, 505379.799999999988358 ], [ 113487.63, 505373.99 ], [ 113509.77, 505366.18 ], [ 113533.65, 505356.38 ], [ 113554.29, 505347.090000000025611 ], [ 113567.72, 505340.82 ], [ 113605.962, 505315.800999999977648 ], [ 113645.9393, 505295.669899999978952 ], [ 113645.758, 505284.642 ], [ 113645.599, 505252.710000000020955 ], [ 113645.575, 505230.141 ], [ 113645.692, 505214.571 ], [ 113645.702, 505186.036000000021886 ], [ 113645.76, 505163.63 ], [ 113646.067, 505136.5 ], [ 113647.4, 505114.713999999978114 ], [ 113648.531, 505100.653 ], [ 113650.337, 505085.517 ], [ 113651.702, 505075.907 ], [ 113658.231, 505042.746999999973923 ], [ 113662.183, 505021.94 ], [ 113666.443, 505000.0 ], [ 113671.153, 504975.768999999971129 ], [ 113676.711, 504950.772 ], [ 113682.607, 504924.811999999976251 ], [ 113687.481, 504906.729999999981374 ], [ 113693.215, 504886.560999999986961 ], [ 113698.033, 504869.884000000020023 ], [ 113701.574, 504858.441 ], [ 113704.144, 504846.337999999988824 ], [ 113708.309, 504826.996999999973923 ], [ 113712.08, 504808.967 ], [ 113713.617, 504801.310999999986961 ], [ 113713.681, 504800.993000000016764 ], [ 113714.114, 504798.966000000014901 ], [ 113715.0, 504796.316 ], [ 113717.144, 504793.832 ], [ 113721.982, 504792.848999999987427 ], [ 113722.155, 504792.071999999985565 ], [ 113722.707, 504789.599999999976717 ], [ 113722.861, 504788.908 ], [ 113719.422, 504786.003000000026077 ], [ 113718.824, 504785.496999999973923 ], [ 113718.485, 504781.431999999971595 ], [ 113726.116, 504745.772999999986496 ], [ 113728.047, 504736.74900000001071 ], [ 113728.527, 504734.716000000014901 ], [ 113728.56, 504734.322999999974854 ], [ 113728.538, 504733.637999999977183 ], [ 113728.491, 504733.223 ], [ 113728.5, 504732.829000000027008 ], [ 113733.676, 504709.35999999998603 ], [ 113735.701, 504700.414999999979045 ], [ 113737.468, 504691.968 ], [ 113742.538, 504670.240999999979977 ], [ 113749.856, 504637.348 ], [ 113765.562, 504567.51 ], [ 113767.445, 504559.13900000002468 ], [ 113772.122, 504538.341000000014901 ], [ 113772.57, 504536.331 ], [ 113773.537, 504535.99800000002142 ], [ 113774.026, 504533.777 ], [ 113774.735, 504530.555999999982305 ], [ 113775.331, 504527.84499999997206 ], [ 113774.635, 504527.066 ], [ 113798.229, 504421.207999999984168 ], [ 113802.748, 504400.534999999974389 ], [ 113812.474, 504356.047000000020489 ], [ 113822.539, 504311.603 ], [ 113830.049, 504280.306999999971595 ], [ 113834.779, 504258.452 ], [ 113840.814, 504231.892999999981839 ], [ 113851.943, 504181.492000000027474 ], [ 113861.351, 504140.24 ], [ 113880.142, 504055.243000000016764 ], [ 113891.015, 504007.365999999979977 ], [ 113892.585, 504000.0 ], [ 113899.519, 503967.468 ], [ 113904.445, 503944.761999999987893 ], [ 113910.875, 503915.085000000020955 ], [ 113916.144, 503892.077 ], [ 113917.706, 503885.506999999983236 ], [ 113919.722, 503878.287000000011176 ], [ 113921.573, 503869.836000000010245 ], [ 113931.093, 503826.38 ], [ 113945.824, 503757.824000000022352 ], [ 113954.594, 503717.011 ], [ 113937.0, 503715.0 ], [ 113919.42, 503712.99 ], [ 113889.88, 503708.94 ], [ 113887.902, 503708.548 ], [ 113859.32, 503702.88 ], [ 113849.56, 503701.950000000011642 ], [ 113839.55, 503701.020000000018626 ], [ 113819.05, 503701.159999999974389 ], [ 113800.05, 503702.039999999979045 ], [ 113780.05, 503703.43 ], [ 113763.3, 503704.549999999988358 ], [ 113717.31, 503708.13 ], [ 113639.31, 503713.43 ], [ 113620.81, 503715.06 ], [ 113596.82, 503717.74 ], [ 113550.83, 503721.31 ], [ 113540.57, 503720.88 ], [ 113526.55, 503718.979999999981374 ], [ 113516.79, 503716.789999999979045 ], [ 113506.26, 503714.10999999998603 ], [ 113501.0, 503712.14000000001397 ], [ 113501.25, 503712.39000000001397 ], [ 113496.24, 503710.419999999983702 ], [ 113491.46, 503707.44 ], [ 113490.481, 503706.814000000013039 ], [ 113487.19, 503704.710000000020955 ], [ 113485.3978, 503703.21840000001248 ], [ 113482.42, 503700.74 ], [ 113479.593, 503698.370999999984633 ], [ 113473.833, 503700.23499999998603 ], [ 113465.898, 503702.716000000014901 ], [ 113457.205, 503705.738000000012107 ], [ 113448.826, 503707.864 ], [ 113441.258, 503709.202999999979511 ], [ 113435.412, 503709.244 ], [ 113429.759, 503709.283 ], [ 113420.507, 503709.547000000020489 ], [ 113411.46, 503709.463999999978114 ], [ 113406.359, 503709.63900000002468 ], [ 113401.442, 503710.816999999980908 ], [ 113393.361, 503713.047000000020489 ], [ 113388.277, 503715.422000000020489 ], [ 113380.74, 503718.009000000020023 ], [ 113371.116, 503719.767999999981839 ], [ 113361.809, 503720.38 ], [ 113312.767, 503723.908 ], [ 113278.26, 503724.900000000023283 ], [ 113228.513, 503728.867000000027474 ], [ 113187.907, 503729.869 ], [ 113117.166, 503736.927000000025146 ], [ 113084.349, 503735.193000000028405 ], [ 113050.27, 503737.641 ], [ 113013.561, 503738.75 ], [ 112913.257, 503743.822999999974854 ], [ 112910.126, 503708.632999999972526 ], [ 112912.11, 503689.267 ], [ 112913.606, 503679.391 ], [ 112915.487, 503670.471000000019558 ], [ 112918.471, 503657.917000000015832 ], [ 112918.881, 503653.87400000001071 ], [ 112918.327, 503650.717 ], [ 112915.913, 503648.282 ], [ 112910.636, 503646.805 ], [ 112905.307, 503646.378000000026077 ], [ 112901.449, 503646.069000000017695 ], [ 112894.394, 503646.465000000025611 ], [ 112888.835, 503647.183000000019092 ], [ 112880.86, 503649.01500000001397 ], [ 112872.223, 503651.636999999987893 ], [ 112865.39, 503653.98599999997532 ], [ 112859.198, 503656.895000000018626 ], [ 112842.865, 503666.202 ], [ 112832.98, 503672.104999999981374 ], [ 112816.746, 503681.463999999978114 ], [ 112797.062, 503694.222 ], [ 112773.282, 503706.768999999971129 ], [ 112747.637, 503720.340000000025611 ], [ 112729.563, 503725.621999999973923 ], [ 112705.933, 503734.772 ], [ 112691.23, 503738.555 ], [ 112682.1, 503740.721000000019558 ], [ 112674.834, 503741.913 ], [ 112669.161, 503740.18 ], [ 112662.162, 503736.777 ], [ 112655.933, 503732.087 ], [ 112648.826, 503725.884000000020023 ], [ 112641.438, 503718.326 ], [ 112629.265, 503706.5 ], [ 112622.604, 503700.50199999997858 ], [ 112613.98, 503695.476000000024214 ], [ 112554.81, 503667.11099999997532 ], [ 112540.216, 503646.5 ], [ 112519.985, 503628.556999999971595 ], [ 112511.387, 503614.983 ], [ 112502.53, 503619.732000000018161 ], [ 112457.673, 503643.786000000021886 ], [ 112408.139, 503670.601000000024214 ], [ 112383.7, 503683.788999999989755 ], [ 112346.758, 503704.141 ], [ 112315.864, 503724.531000000017229 ], [ 112287.009, 503742.75199999997858 ], [ 112286.342, 503743.12 ], [ 112282.583, 503745.19 ], [ 112282.462, 503745.256 ], [ 112280.097, 503746.559 ], [ 112266.392, 503754.843999999982771 ], [ 112255.565, 503759.791000000026543 ], [ 112224.575, 503777.23499999998603 ], [ 112208.699, 503785.901000000012573 ], [ 112183.867, 503798.625 ], [ 112163.813, 503807.94 ], [ 112142.674, 503818.816999999980908 ], [ 112123.526, 503824.96999999997206 ], [ 112111.685, 503828.052000000025146 ], [ 112093.356, 503836.457 ], [ 112090.29, 503837.863000000012107 ], [ 112058.042, 503856.011 ], [ 112026.77, 503874.661000000021886 ], [ 111980.503, 503898.781000000017229 ], [ 111962.068, 503907.462 ], [ 111949.1, 503914.292000000015832 ], [ 111940.76, 503918.51500000001397 ], [ 111932.243, 503920.446 ], [ 111922.799, 503920.19 ], [ 111916.734, 503918.25199999997858 ], [ 111906.713, 503912.066 ], [ 111899.545, 503904.920999999972992 ], [ 111893.572, 503898.48499999998603 ], [ 111848.336, 503871.98599999997532 ], [ 111840.656, 503867.223 ], [ 111832.466, 503861.661000000021886 ], [ 111740.11, 503799.548 ], [ 111734.081, 503793.37300000002142 ], [ 111732.391, 503791.011999999987893 ], [ 111712.321, 503740.455000000016298 ], [ 111698.233, 503658.343999999982771 ], [ 111698.241, 503618.564000000013039 ], [ 111693.6, 503590.521 ], [ 111693.479, 503589.791000000026543 ], [ 111692.939, 503587.465000000025611 ], [ 111691.137, 503584.463999999978114 ], [ 111688.583, 503581.586000000010245 ], [ 111681.011, 503571.88900000002468 ], [ 111672.196, 503561.086000000010245 ], [ 111665.193, 503550.607000000018161 ], [ 111656.356, 503538.75 ], [ 111647.852, 503529.174 ], [ 111643.918, 503522.194000000017695 ], [ 111635.733, 503509.683000000019092 ], [ 111631.247, 503501.934 ], [ 111629.621, 503497.271 ], [ 111628.213, 503491.101000000024214 ], [ 111626.389, 503482.365 ], [ 111626.234, 503481.620999999984633 ], [ 111626.231, 503481.59499999997206 ], [ 111625.815, 503478.158999999985099 ], [ 111625.812, 503478.13 ], [ 111625.73, 503477.726000000024214 ], [ 111624.991, 503474.080000000016298 ], [ 111623.764, 503469.324000000022352 ], [ 111622.69, 503463.341000000014901 ], [ 111621.769, 503455.977000000013504 ], [ 111621.769, 503446.004000000015367 ], [ 111622.107, 503429.864 ], [ 111623.334, 503418.049999999988358 ], [ 111623.488, 503405.316 ], [ 111623.672, 503390.403999999980442 ], [ 111623.672, 503381.352000000013504 ], [ 111621.984, 503369.232000000018161 ], [ 111621.677, 503362.174 ], [ 111621.984, 503353.582999999984168 ], [ 111622.359, 503337.234 ], [ 111623.331, 503324.560999999986961 ], [ 111625.937, 503296.354999999981374 ], [ 111626.302, 503287.93 ], [ 111626.607, 503273.843 ], [ 111626.871, 503267.856000000028871 ], [ 111627.581, 503262.473999999987427 ], [ 111629.532, 503254.577 ], [ 111632.739, 503246.229999999981374 ], [ 111641.205, 503225.13900000002468 ], [ 111659.304, 503182.091000000014901 ], [ 111663.252, 503172.675999999977648 ], [ 111668.646, 503161.625 ], [ 111676.649, 503147.419 ], [ 111683.055, 503137.856000000028871 ], [ 111688.749, 503130.056999999971595 ], [ 111693.402, 503119.242000000027474 ], [ 111695.964, 503113.506 ], [ 111703.585, 503100.555 ], [ 111715.834, 503084.818000000028405 ], [ 111732.677, 503062.995 ], [ 111736.81, 503057.857000000018161 ], [ 111755.305, 503031.473999999987427 ], [ 111762.477, 503023.202 ], [ 111768.766, 503016.981000000028871 ], [ 111776.297, 503011.032 ], [ 111783.62, 503004.386999999987893 ], [ 111788.067, 502999.462 ], [ 111792.053, 502994.00199999997858 ], [ 111796.647, 502984.946999999985565 ], [ 111797.638, 502981.580000000016298 ], [ 111800.594, 502945.849999999976717 ], [ 111801.915, 502935.208999999973457 ], [ 111804.442, 502930.62400000001071 ], [ 111810.792, 502921.809 ], [ 111823.789, 502907.614 ], [ 111839.722, 502890.766 ], [ 111844.392, 502882.849999999976717 ], [ 111849.374, 502874.495999999984633 ], [ 111851.875, 502867.552000000025146 ], [ 111853.48, 502862.548 ], [ 111855.338, 502854.412000000011176 ], [ 111856.808, 502849.196 ], [ 111857.018, 502848.863000000012107 ], [ 111894.9938, 502788.6629 ], [ 111929.416, 502734.096000000019558 ], [ 111785.028, 502479.327999999979511 ], [ 111782.845, 502476.587999999988824 ], [ 111776.356, 502468.635 ], [ 111768.915, 502459.923 ], [ 111764.185, 502456.913999999989755 ], [ 111756.088, 502451.957999999984168 ], [ 111746.089, 502446.087999999988824 ], [ 111736.09, 502441.632999999972526 ], [ 111726.937, 502439.243000000016764 ], [ 111715.212, 502437.283999999985099 ], [ 111672.126, 502429.647 ], [ 111661.174, 502427.799999999988358 ], [ 111652.266, 502425.457 ], [ 111645.088, 502422.566999999980908 ], [ 111637.826, 502417.194000000017695 ], [ 111630.731, 502410.661000000021886 ], [ 111624.403, 502403.707999999984168 ], [ 111605.752, 502378.441 ], [ 111602.366, 502372.868000000016764 ], [ 111600.379, 502369.292000000015832 ], [ 111598.218, 502365.401000000012573 ], [ 111591.027, 502355.168 ], [ 111582.177, 502340.51 ], [ 111575.816, 502333.042000000015832 ], [ 111569.455, 502326.40500000002794 ], [ 111563.647, 502320.32 ], [ 111556.006, 502314.01 ], [ 111548.053, 502309.663 ], [ 111542.048, 502306.657 ], [ 111538.583, 502303.181999999971595 ], [ 111536.288, 502299.663 ], [ 111518.472, 502267.25 ], [ 111490.865, 502237.867000000027474 ], [ 111485.468, 502231.664999999979045 ], [ 111482.281, 502228.003000000026077 ], [ 111479.041, 502224.287000000011176 ], [ 111477.2034, 502221.406200000026729 ], [ 111474.133, 502216.593 ], [ 111459.326, 502203.387999999977183 ], [ 111452.412, 502198.409999999974389 ], [ 111445.498, 502192.049 ], [ 111436.648, 502183.199000000022352 ], [ 111422.266, 502168.541000000026543 ], [ 111416.793, 502161.896 ], [ 111409.644, 502155.076 ], [ 111402.066, 502148.305 ], [ 111395.258, 502142.39000000001397 ], [ 111386.01, 502135.036000000021886 ], [ 111365.482, 502120.613000000012107 ], [ 111347.892, 502096.072999999974854 ], [ 111331.495, 502071.738000000012107 ], [ 111320.363, 502052.352000000013504 ], [ 111303.231, 502033.254000000015367 ], [ 111282.344, 502010.136 ], [ 111270.068, 501996.356000000028871 ], [ 111264.319, 501988.477000000013504 ], [ 111262.232, 501984.365999999979977 ], [ 111257.367, 501975.153 ], [ 111253.401, 501966.340000000025611 ], [ 111251.615, 501958.527 ], [ 111247.78, 501949.934 ], [ 111243.224, 501942.259000000020023 ], [ 111227.843, 501922.863000000012107 ], [ 111208.966, 501899.212999999988824 ], [ 111200.968, 501891.004000000015367 ], [ 111176.287, 501865.243000000016764 ], [ 111163.124, 501852.869 ], [ 111145.801, 501836.770000000018626 ], [ 111138.721, 501831.300999999977648 ], [ 111104.139, 501805.979 ], [ 111090.146, 501795.913 ], [ 111096.23, 501790.13 ], [ 111100.23, 501790.520000000018626 ], [ 111104.62, 501788.700000000011642 ], [ 111106.52, 501784.99 ], [ 111106.49, 501784.96999999997206 ], [ 111108.83, 501780.419999999983702 ], [ 111111.38, 501775.46999999997206 ], [ 111120.44, 501767.07 ], [ 111122.49, 501765.330000000016298 ], [ 111126.87, 501761.62 ], [ 111073.58, 501768.159999999974389 ], [ 111070.59, 501768.18 ], [ 111068.19, 501767.99 ], [ 111065.59, 501767.409999999974389 ], [ 111063.18, 501766.419999999983702 ], [ 111060.18, 501765.039999999979045 ], [ 111057.77, 501764.06 ], [ 111056.17, 501763.07 ], [ 111055.17, 501762.28000000002794 ], [ 111054.7, 501762.200000000011642 ], [ 111054.619, 501762.113000000012107 ], [ 111046.52, 501753.340000000025611 ], [ 111044.533, 501751.568000000028405 ], [ 111037.147, 501744.982000000018161 ], [ 111036.0442, 501743.9986 ], [ 111035.07, 501743.13 ], [ 111033.051, 501740.509000000020023 ], [ 111020.58, 501724.28000000002794 ], [ 111018.757, 501722.163999999989755 ], [ 111012.396, 501716.079000000027008 ], [ 110994.93, 501699.18 ], [ 110987.781, 501690.912000000011176 ], [ 110957.636, 501663.808000000019092 ], [ 110950.445, 501658.277 ], [ 110935.45, 501645.94 ], [ 110930.304, 501640.407 ], [ 110925.831, 501635.598999999987427 ], [ 110918.74, 501629.87 ], [ 110915.56, 501626.659999999974389 ], [ 110911.502, 501624.31 ], [ 110911.38, 501624.24 ], [ 110905.94, 501632.01 ], [ 110901.17, 501628.39000000001397 ], [ 110891.42, 501620.150000000023283 ], [ 110879.68, 501610.700000000011642 ], [ 110864.75, 501599.24 ], [ 110839.27, 501580.13 ], [ 110833.3, 501575.299999999988358 ], [ 110829.12, 501571.69 ], [ 110824.15, 501565.270000000018626 ], [ 110811.83, 501551.62 ], [ 110807.67, 501545.409999999974389 ], [ 110804.5, 501540.400000000023283 ], [ 110802.72, 501535.590000000025611 ], [ 110800.75, 501530.590000000025611 ], [ 110795.59, 501523.57 ], [ 110782.27, 501509.12 ], [ 110768.56, 501494.669999999983702 ], [ 110744.5, 501471.37 ], [ 110719.05, 501445.669999999983702 ], [ 110715.47, 501441.659999999974389 ], [ 110713.29, 501438.25 ], [ 110712.5, 501435.650000000023283 ], [ 110711.13, 501430.849999999976717 ], [ 110709.74, 501429.039999999979045 ], [ 110700.2, 501418.409999999974389 ], [ 110676.34, 501394.10999999998603 ], [ 110668.0, 501385.28000000002794 ], [ 110659.05, 501375.849999999976717 ], [ 110652.49, 501368.419999999983702 ], [ 110647.14, 501360.799999999988358 ], [ 110643.37, 501355.789999999979045 ], [ 110639.6, 501350.38 ], [ 110630.85, 501340.74 ], [ 110614.36, 501322.88 ], [ 110603.83, 501309.24 ], [ 110597.28, 501300.62 ], [ 110591.73, 501292.400000000023283 ], [ 110584.41, 501277.580000000016298 ], [ 110583.834, 501276.13 ], [ 110582.86, 501273.68 ], [ 110579.468, 501270.533 ], [ 110578.85, 501269.960000000020955 ], [ 110571.11, 501259.53000000002794 ], [ 110567.94, 501255.32 ], [ 110567.789, 501255.104999999981374 ], [ 110560.03, 501243.982000000018161 ], [ 110554.426, 501237.897999999986496 ], [ 110522.155, 501207.722 ], [ 110509.868, 501195.721000000019558 ], [ 110489.891, 501172.793 ], [ 110485.672, 501168.398999999975786 ], [ 110482.291, 501164.963999999978114 ], [ 110479.739, 501162.811999999976251 ], [ 110476.489, 501160.229 ], [ 110473.091, 501158.897 ], [ 110407.368, 501134.816 ], [ 110377.735, 501125.027 ], [ 110367.592, 501120.927000000025146 ], [ 110358.82, 501117.137999999977183 ], [ 110350.866, 501114.446 ], [ 110345.489, 501112.495999999984633 ], [ 110340.882, 501111.24 ], [ 110334.405, 501110.364 ], [ 110323.217, 501108.941999999980908 ], [ 110300.074, 501107.10999999998603 ], [ 110271.001, 501104.672000000020489 ], [ 110270.566, 501104.636 ], [ 110227.692, 501101.217 ], [ 110067.91, 501077.710000000020955 ], [ 109914.189, 501054.99800000002142 ], [ 109898.659, 501051.734 ], [ 109858.777, 501046.776000000012573 ], [ 109807.035, 501038.246999999973923 ], [ 109789.089, 501035.145000000018626 ], [ 109787.835, 501034.90500000002794 ], [ 109785.906, 501034.536000000021886 ], [ 109782.3765, 501033.8614 ], [ 109780.967, 501033.592 ], [ 109776.62, 501032.631 ], [ 109776.545, 501032.614 ], [ 109776.497, 501032.604 ], [ 109769.753, 501031.112000000022817 ], [ 109748.188, 501026.412000000011176 ], [ 109748.05, 501026.381999999983236 ], [ 109746.973, 501026.147 ], [ 109746.779, 501026.104999999981374 ], [ 109740.036799, 501024.635805999976583 ], [ 109737.711, 501024.129000000015367 ], [ 109734.292, 501023.191999999980908 ], [ 109733.116, 501022.707 ], [ 109732.923, 501022.628000000026077 ], [ 109732.521, 501022.454000000027008 ], [ 109732.071, 501022.257999999972526 ], [ 109730.021, 501021.369 ], [ 109726.909, 501019.57 ], [ 109723.892, 501017.384000000020023 ], [ 109721.082, 501015.993000000016764 ], [ 109717.551, 501015.076 ], [ 109715.516, 501014.441 ], [ 109713.817, 501013.911000000021886 ], [ 109710.01, 501016.228 ], [ 109708.818, 501016.954000000027008 ], [ 109706.04, 501018.325000000011642 ], [ 109700.159, 501021.055999999982305 ], [ 109689.354, 501025.934 ], [ 109676.568, 501030.701 ], [ 109642.657, 501043.153 ], [ 109581.291, 501063.378000000026077 ], [ 109576.417, 501065.675999999977648 ], [ 109574.39, 501067.120999999984633 ], [ 109573.166, 501068.538999999989755 ], [ 109572.266, 501070.476000000024214 ], [ 109569.517, 501075.118000000016764 ], [ 109567.689, 501077.428000000014435 ], [ 109565.732, 501079.391 ], [ 109563.267, 501081.098999999987427 ], [ 109503.377, 501110.414999999979045 ], [ 109500.0, 501111.987000000022817 ], [ 109461.041, 501130.12300000002142 ], [ 109445.198, 501136.941 ], [ 109434.047, 501141.24 ], [ 109430.949, 501142.184 ], [ 109411.226, 501147.922000000020489 ], [ 109256.845, 501191.919999999983702 ], [ 109249.733, 501193.946999999985565 ], [ 109177.59, 501214.507999999972526 ], [ 109163.624, 501214.204000000027008 ], [ 109148.161, 501215.146 ], [ 109148.059, 501215.152 ], [ 109134.573, 501225.191 ], [ 109127.427, 501226.646 ], [ 109119.394, 501231.677000000025146 ], [ 109118.135, 501234.322999999974854 ], [ 109105.749, 501240.82 ], [ 109099.986, 501244.202 ], [ 109091.615, 501254.039999999979045 ], [ 109088.85, 501255.922000000020489 ], [ 109086.119, 501257.854999999981374 ], [ 109084.095, 501259.335000000020955 ], [ 109081.803, 501260.831 ], [ 109079.542, 501262.37599999998929 ], [ 109077.315, 501263.968 ], [ 109074.845, 501265.819000000017695 ], [ 109072.42, 501267.728 ], [ 109070.042, 501269.695 ], [ 109067.711, 501271.717 ], [ 109065.428, 501273.794999999983702 ], [ 109063.196, 501275.925999999977648 ], [ 109061.015, 501278.10999999998603 ], [ 109058.887, 501280.34499999997206 ], [ 109056.813, 501282.631 ], [ 109054.794, 501284.965000000025611 ], [ 109053.857, 501287.042000000015832 ], [ 109052.202, 501289.667000000015832 ], [ 109049.976, 501292.717 ], [ 109046.969, 501295.652 ], [ 109041.663, 501299.411000000021886 ], [ 109028.307, 501309.066999999980908 ], [ 109026.844, 501310.125 ], [ 109008.066, 501328.533 ], [ 108982.061, 501353.90500000002794 ], [ 108975.382, 501360.278999999980442 ], [ 108972.27, 501363.651000000012573 ], [ 108967.47, 501368.852000000013504 ], [ 108967.47, 501371.43 ], [ 108967.27, 501377.03000000002794 ], [ 108966.07, 501380.229999999981374 ], [ 108964.47, 501382.82 ], [ 108963.07, 501384.419999999983702 ], [ 108960.88, 501386.419999999983702 ], [ 108959.68, 501387.419999999983702 ], [ 108957.28, 501389.020000000018626 ], [ 108952.48, 501391.419999999983702 ], [ 108946.48, 501396.409999999974389 ], [ 108943.312, 501394.552000000025146 ], [ 108935.918, 501402.077 ], [ 108920.053, 501413.331 ], [ 108902.294, 501426.082 ], [ 108885.766, 501438.734 ], [ 108872.106, 501450.085000000020955 ], [ 108859.669, 501461.299999999988358 ], [ 108850.345, 501470.330000000016298 ], [ 108841.495, 501478.989 ], [ 108833.254, 501487.041000000026543 ], [ 108824.464, 501495.004000000015367 ], [ 108817.294, 501500.778999999980442 ], [ 108815.958, 501501.854999999981374 ], [ 108804.33, 501510.74 ], [ 108793.215, 501518.678000000014435 ], [ 108789.225, 501521.526000000012573 ], [ 108782.074, 501526.424999999988358 ], [ 108773.852, 501532.038 ], [ 108767.467, 501536.789999999979045 ], [ 108758.983, 501543.336000000010245 ], [ 108755.462, 501546.293 ], [ 108750.244, 501550.544 ], [ 108745.295, 501555.12699999997858 ], [ 108738.589, 501561.278999999980442 ], [ 108737.665, 501562.12699999997858 ], [ 108734.792, 501564.947999999974854 ], [ 108727.983, 501571.636 ], [ 108720.8, 501579.223999999987427 ], [ 108704.408, 501596.775000000023283 ], [ 108710.801, 501610.920999999972992 ], [ 108712.708, 501616.869 ], [ 108716.42, 501622.46999999997206 ], [ 108718.474, 501626.636 ], [ 108719.147, 501629.327999999979511 ], [ 108719.222, 501631.319000000017695 ], [ 108718.848, 501633.533999999985099 ], [ 108718.25, 501635.300999999977648 ], [ 108710.492, 501650.238000000012107 ], [ 108707.372, 501656.245 ], [ 108696.219, 501677.718999999982771 ], [ 108680.413, 501705.726000000024214 ], [ 108679.183, 501707.90500000002794 ], [ 108675.179, 501712.86099999997532 ], [ 108663.814, 501727.695 ], [ 108655.738, 501738.854999999981374 ], [ 108649.195, 501748.528999999980442 ], [ 108646.354, 501753.01500000001397 ], [ 108619.697, 501798.104 ], [ 108616.743, 501802.787000000011176 ], [ 108614.163, 501808.423 ], [ 108612.107, 501813.778999999980442 ], [ 108610.649, 501818.462 ], [ 108609.527, 501823.313000000023749 ], [ 108603.433, 501854.522 ], [ 108600.218, 501867.897 ], [ 108593.376, 501893.919 ], [ 108591.581, 501901.237000000022817 ], [ 108589.151, 501909.397 ], [ 108586.384, 501915.819000000017695 ], [ 108584.104, 501919.827999999979511 ], [ 108580.515, 501925.604999999981374 ], [ 108579.356, 501927.538999999989755 ], [ 108578.197, 501928.772999999986496 ], [ 108575.916, 501930.428000000014435 ], [ 108573.04, 501931.490999999979977 ], [ 108583.575, 501956.907 ], [ 108596.6, 501988.330000000016298 ], [ 108601.252, 501998.908999999985099 ], [ 108627.98, 502059.69 ], [ 108648.56, 502104.53000000002794 ], [ 108656.843, 502121.974999999976717 ], [ 108671.361, 502152.532 ], [ 108680.27, 502168.74 ], [ 108718.91, 502239.03000000002794 ], [ 108733.7, 502267.340000000025611 ], [ 108740.34, 502280.06 ], [ 108734.96, 502283.409999999974389 ], [ 108728.525, 502287.007999999972526 ], [ 108730.24, 502289.32 ], [ 108756.92, 502325.229999999981374 ], [ 108820.4, 502293.979999999981374 ], [ 108881.4, 502266.5 ], [ 108911.396, 502331.26 ], [ 108905.61, 502341.51 ], [ 108948.09, 502432.210000000020955 ], [ 108953.39, 502446.229999999981374 ], [ 108957.03, 502460.770000000018626 ], [ 108958.97, 502475.64000000001397 ], [ 108959.19, 502490.63 ], [ 108957.75, 502505.150000000023283 ], [ 108946.355, 502567.994 ], [ 108945.183, 502574.457999999984168 ], [ 108945.073, 502575.065 ], [ 108943.911, 502581.48499999998603 ], [ 108943.725, 502598.477000000013504 ], [ 108945.237, 502615.402 ], [ 108948.431, 502632.092 ], [ 108953.276, 502648.38 ], [ 108959.722, 502664.103 ], [ 108967.706, 502679.104 ], [ 108903.092, 502717.641 ], [ 108902.902, 502717.754000000015367 ], [ 108888.152, 502726.552000000025146 ], [ 108886.181, 502726.370999999984633 ], [ 108880.463, 502726.351000000024214 ], [ 108865.695, 502727.379000000015367 ], [ 108856.38, 502728.711000000010245 ], [ 108841.401, 502730.922000000020489 ], [ 108827.763, 502733.359 ], [ 108811.538, 502736.691 ], [ 108795.744, 502741.121999999973923 ], [ 108795.051, 502741.348 ], [ 108794.34, 502741.504000000015367 ], [ 108793.616, 502741.588999999978114 ], [ 108792.888, 502741.602000000013504 ], [ 108792.161, 502741.543 ], [ 108791.445, 502741.413 ], [ 108790.744, 502741.212 ], [ 108790.067, 502740.943000000028405 ], [ 108754.641, 502698.009000000020023 ], [ 108747.428, 502689.259000000020023 ], [ 108737.019, 502676.321 ], [ 108727.626, 502664.618000000016764 ], [ 108715.372, 502649.674 ], [ 108704.741, 502636.536000000021886 ], [ 108694.953, 502624.550999999977648 ], [ 108683.015, 502609.552000000025146 ], [ 108669.442, 502592.46999999997206 ], [ 108661.879, 502582.813000000023749 ], [ 108650.515, 502568.463999999978114 ], [ 108637.116, 502551.423 ], [ 108622.9, 502533.710000000020955 ], [ 108612.287, 502520.650000000023283 ], [ 108609.786, 502516.994 ], [ 108606.5166, 502512.5247 ], [ 108606.462, 502512.450000000011642 ], [ 108602.143, 502515.897999999986496 ], [ 108602.08, 502515.949000000022352 ], [ 108584.08, 502530.326 ], [ 108583.968, 502530.416000000026543 ], [ 108579.737, 502533.794999999983702 ], [ 108568.75, 502540.960000000020955 ], [ 108564.765, 502543.325000000011642 ], [ 108560.748, 502545.635 ], [ 108556.699, 502547.89000000001397 ], [ 108552.62, 502550.088999999978114 ], [ 108548.512, 502552.233 ], [ 108544.374, 502554.32 ], [ 108540.209, 502556.351000000024214 ], [ 108536.016, 502558.324000000022352 ], [ 108531.744, 502560.262999999977183 ], [ 108527.445, 502562.142999999981839 ], [ 108523.12, 502563.963999999978114 ], [ 108518.771, 502565.723999999987427 ], [ 108514.398, 502567.424 ], [ 108510.002, 502569.063000000023749 ], [ 108505.583, 502570.641 ], [ 108501.143, 502572.158 ], [ 108495.769, 502573.170999999972992 ], [ 108490.365, 502574.004000000015367 ], [ 108485.46, 502574.602000000013504 ], [ 108480.54, 502575.053000000014435 ], [ 108472.96, 502575.381 ], [ 108466.88, 502575.482000000018161 ], [ 108460.801, 502575.364 ], [ 108454.091, 502574.979 ], [ 108447.404, 502574.327 ], [ 108429.261, 502573.609 ], [ 108427.095, 502573.343999999982771 ], [ 108424.611, 502572.922000000020489 ], [ 108422.139, 502572.435999999986961 ], [ 108419.68, 502571.887999999977183 ], [ 108417.236, 502571.278 ], [ 108414.808, 502570.604999999981374 ], [ 108412.397, 502569.871999999973923 ], [ 108410.007, 502569.077 ], [ 108407.637, 502568.221000000019558 ], [ 108405.274, 502567.299 ], [ 108402.935, 502566.316 ], [ 108400.622, 502565.273999999975786 ], [ 108398.336, 502564.173 ], [ 108396.079, 502563.01400000002468 ], [ 108393.853, 502561.798 ], [ 108391.658, 502560.525000000023283 ], [ 108389.497, 502559.196999999985565 ], [ 108388.32, 502559.63 ], [ 108379.878, 502554.742000000027474 ], [ 108347.37, 502535.919999999983702 ], [ 108317.2, 502518.400000000023283 ], [ 108317.099, 502517.727000000013504 ], [ 108284.895, 502497.593 ], [ 108276.792, 502492.696999999985565 ], [ 108268.659, 502487.851000000024214 ], [ 108259.867, 502482.689000000013039 ], [ 108251.04, 502477.586000000010245 ], [ 108243.179, 502473.107000000018161 ], [ 108235.292, 502468.673 ], [ 108224.688, 502462.896 ], [ 108213.945, 502457.382999999972526 ], [ 108201.766, 502451.531000000017229 ], [ 108189.43, 502446.017999999981839 ], [ 108166.908, 502437.174999999988358 ], [ 108163.49, 502435.836000000010245 ], [ 108160.051, 502434.552000000025146 ], [ 108156.591, 502433.326 ], [ 108153.111, 502432.156000000017229 ], [ 108149.613, 502431.044 ], [ 108146.097, 502429.989 ], [ 108142.564, 502428.992000000027474 ], [ 108138.853, 502428.011999999987893 ], [ 108135.126, 502427.096000000019558 ], [ 108131.384, 502426.244 ], [ 108127.628, 502425.457 ], [ 108123.858, 502424.73499999998603 ], [ 108120.077, 502424.077999999979511 ], [ 108116.285, 502423.48599999997532 ], [ 108098.555, 502421.495999999984633 ], [ 108078.958, 502421.028999999980442 ], [ 108073.221, 502420.919 ], [ 108067.484, 502420.976000000024214 ], [ 108060.254, 502421.284999999974389 ], [ 108053.041, 502421.858 ], [ 108049.96, 502422.185 ], [ 108046.884, 502422.559 ], [ 108041.988, 502423.256999999983236 ], [ 108037.111, 502424.077 ], [ 108033.096, 502424.672000000020489 ], [ 108029.094, 502425.34499999997206 ], [ 108025.106, 502426.096000000019558 ], [ 108021.133, 502426.924999999988358 ], [ 108017.177, 502427.831 ], [ 108013.239, 502428.814000000013039 ], [ 108003.721, 502431.533999999985099 ], [ 107994.343, 502434.701 ], [ 107978.25, 502440.0601 ], [ 107976.31, 502443.78000000002794 ], [ 107974.53, 502446.99 ], [ 107972.67, 502450.94 ], [ 107970.76, 502453.35999999998603 ], [ 107968.37, 502456.830000000016298 ], [ 107966.02, 502459.950000000011642 ], [ 107963.638, 502462.669999999983702 ], [ 107969.506, 502476.039999999979045 ], [ 107972.39, 502482.037000000011176 ], [ 107973.255, 502483.723999999987427 ], [ 107973.84, 502484.830000000016298 ], [ 107975.433, 502488.054 ], [ 107977.906, 502493.06 ], [ 107978.39, 502494.039999999979045 ], [ 107982.53, 502503.26 ], [ 107986.08, 502513.270000000018626 ], [ 107988.24, 502520.07 ], [ 107989.4, 502527.270000000018626 ], [ 107990.35, 502536.270000000018626 ], [ 107991.1, 502545.26 ], [ 107991.45, 502555.460000000020955 ], [ 107991.6, 502563.849999999976717 ], [ 107991.295, 502571.547000000020489 ], [ 107991.14, 502575.44 ], [ 107990.87, 502587.82 ], [ 107991.23, 502596.419999999983702 ], [ 107992.0, 502601.62 ], [ 107992.78, 502605.419999999983702 ], [ 107994.35, 502609.419999999983702 ], [ 107996.73, 502613.830000000016298 ], [ 108000.0, 502618.039999999979045 ], [ 108007.284, 502631.422000000020489 ], [ 108017.951, 502652.503000000026077 ], [ 108028.18, 502673.64000000001397 ], [ 108025.408, 502674.815 ], [ 108020.027, 502677.685999999986961 ], [ 108010.49, 502681.118000000016764 ], [ 108005.536, 502683.322999999974854 ], [ 108003.533, 502683.993000000016764 ], [ 108002.517, 502684.18 ], [ 108010.27, 502697.03000000002794 ], [ 108011.59, 502697.60999999998603 ], [ 108013.0, 502699.049999999988358 ], [ 108013.85, 502700.68 ], [ 108014.43, 502702.46999999997206 ], [ 108014.92, 502703.919999999983702 ], [ 108014.53, 502705.94 ], [ 108012.6, 502708.24 ], [ 108010.07, 502710.169999999983702 ], [ 108005.61, 502711.909999999974389 ], [ 108003.06, 502713.549999999988358 ], [ 108001.33, 502714.840000000025611 ], [ 107996.91, 502718.710000000020955 ], [ 107991.82, 502722.919999999983702 ], [ 107988.29, 502725.57 ], [ 107984.39, 502728.830000000016298 ], [ 107981.07, 502731.39000000001397 ], [ 107977.68, 502734.03000000002794 ], [ 107974.84, 502736.479999999981374 ], [ 107971.44, 502738.979999999981374 ], [ 107967.79, 502741.789999999979045 ], [ 107964.59, 502744.200000000011642 ], [ 107961.95, 502746.419999999983702 ], [ 107959.06, 502749.090000000025611 ], [ 107954.07, 502752.080000000016298 ], [ 107950.84, 502753.289999999979045 ], [ 107947.64, 502754.78000000002794 ], [ 107945.54, 502755.10999999998603 ], [ 107942.75, 502755.64000000001397 ], [ 107938.81, 502756.12 ], [ 107938.492, 502756.104 ], [ 107934.68, 502755.919999999983702 ], [ 107930.69, 502755.960000000020955 ], [ 107929.487, 502755.972 ], [ 107925.6, 502756.01 ], [ 107921.21, 502756.10999999998603 ], [ 107916.77, 502756.43 ], [ 107912.27, 502756.96999999997206 ], [ 107908.25, 502757.26 ], [ 107904.19, 502757.900000000023283 ], [ 107899.57, 502758.590000000025611 ], [ 107895.31, 502759.460000000020955 ], [ 107891.16, 502760.68 ], [ 107886.96, 502762.10999999998603 ], [ 107882.84, 502762.830000000016298 ], [ 107878.66, 502763.770000000018626 ], [ 107873.75, 502765.26 ], [ 107865.06, 502768.159999999974389 ], [ 107861.27, 502770.200000000011642 ], [ 107857.58, 502771.799999999988358 ], [ 107853.58, 502773.93 ], [ 107849.27, 502776.580000000016298 ], [ 107845.72, 502778.950000000011642 ], [ 107842.21, 502781.099999999976717 ], [ 107843.409, 502795.887999999977183 ], [ 107843.693, 502800.913999999989755 ], [ 107845.156, 502816.710000000020955 ], [ 107845.2602, 502817.273999999975786 ], [ 107848.074, 502832.496999999973923 ], [ 107843.661, 502850.864 ], [ 107829.495, 502909.824000000022352 ], [ 107817.94, 502956.739 ], [ 107808.384, 502999.738000000012107 ], [ 107806.385, 503007.65500000002794 ], [ 107803.385, 503014.403999999980442 ], [ 107796.052, 503024.903999999980442 ], [ 107790.98, 503031.027 ], [ 107786.941, 503035.903999999980442 ], [ 107777.608, 503047.237000000022817 ], [ 107774.69, 503051.474999999976717 ], [ 107770.608, 503057.403 ], [ 107762.386, 503071.319000000017695 ], [ 107756.497, 503083.98599999997532 ], [ 107750.497, 503099.73499999998603 ], [ 107746.831, 503111.818000000028405 ], [ 107743.275, 503126.651000000012573 ], [ 107740.942, 503138.901000000012573 ], [ 107734.831, 503171.733 ], [ 107730.276, 503195.148999999975786 ], [ 107721.937, 503218.590000000025611 ], [ 107714.53, 503250.37 ], [ 107708.39, 503271.35999999998603 ], [ 107708.02, 503283.75 ], [ 107708.84, 503290.94 ], [ 107712.67, 503309.520000000018626 ], [ 107715.3, 503322.5 ], [ 107717.51, 503327.89000000001397 ], [ 107719.4977, 503332.1139 ], [ 107727.75, 503349.650000000023283 ], [ 107731.76, 503358.229999999981374 ], [ 107736.99, 503374.400000000023283 ], [ 107752.09, 503422.53000000002794 ], [ 107755.52, 503440.099999999976717 ], [ 107757.33, 503445.5 ], [ 107759.14, 503449.090000000025611 ], [ 107761.75, 503453.88 ], [ 107766.56, 503461.659999999974389 ], [ 107768.57, 503466.25 ], [ 107769.17, 503469.650000000023283 ], [ 107769.78, 503472.840000000025611 ], [ 107768.99, 503478.24 ], [ 107765.04, 503495.03000000002794 ], [ 107762.15, 503511.460000000020955 ], [ 107759.59, 503522.840000000025611 ], [ 107754.374, 503535.232000000018161 ], [ 107748.08, 503550.21999999997206 ], [ 107733.38, 503583.590000000025611 ], [ 107728.62, 503594.78000000002794 ], [ 107724.26, 503606.57 ], [ 107721.29, 503617.56 ], [ 107717.93, 503628.549999999988358 ], [ 107714.17, 503640.74 ], [ 107712.0, 503651.520000000018626 ], [ 107710.43, 503660.51 ], [ 107710.65, 503667.700000000011642 ], [ 107712.27, 503676.88 ], [ 107714.7, 503686.659999999974389 ], [ 107716.13, 503697.24 ], [ 107717.16, 503706.229999999981374 ], [ 107717.19, 503717.60999999998603 ], [ 107717.82, 503727.789999999979045 ], [ 107722.325, 503739.745 ], [ 107726.276, 503749.077999999979511 ], [ 107729.041, 503757.782 ], [ 107731.34, 503767.900000000023283 ], [ 107732.57, 503778.289999999979045 ], [ 107733.4, 503787.46999999997206 ], [ 107734.42, 503794.85999999998603 ], [ 107736.24, 503802.24 ], [ 107739.06, 503810.62 ], [ 107742.49, 503819.400000000023283 ], [ 107745.51, 503827.39000000001397 ], [ 107750.55, 503841.549999999988358 ], [ 107755.8, 503857.919999999983702 ], [ 107763.41, 503878.518999999971129 ], [ 107766.373, 503887.223 ], [ 107770.916, 503897.63 ], [ 107778.077, 503912.778 ], [ 107780.612, 503919.387999999977183 ], [ 107783.361, 503926.555 ], [ 107787.311, 503938.555 ], [ 107793.385, 503953.147 ], [ 107796.595, 503960.479999999981374 ], [ 107800.249, 503968.071999999985565 ], [ 107804.101, 503972.368000000016764 ], [ 107809.236, 503978.331 ], [ 107816.397, 503986.294 ], [ 107824.446, 503996.663999999989755 ], [ 107829.088, 504003.886 ], [ 107833.087, 504012.996999999973923 ], [ 107837.334, 504020.737000000022817 ], [ 107842.964, 504029.108 ], [ 107850.618, 504039.700000000011642 ], [ 107861.63, 504054.218 ], [ 107866.815, 504061.403 ], [ 107872.9483, 504072.1042 ], [ 107873.926, 504073.81 ], [ 107874.001, 504073.946999999985565 ], [ 107878.953, 504082.669 ], [ 107884.04, 504088.75199999997858 ], [ 107888.958, 504095.672000000020489 ], [ 107894.106, 504104.365 ], [ 107899.851, 504117.62400000001071 ], [ 107909.382, 504130.808000000019092 ], [ 107911.801, 504134.031000000017229 ], [ 107918.073, 504140.474999999976717 ], [ 107923.455, 504147.956 ], [ 107936.443, 504169.237000000022817 ], [ 107942.467, 504181.918 ], [ 107944.245, 504186.213999999978114 ], [ 107945.294, 504189.89000000001397 ], [ 107945.537, 504193.593 ], [ 107945.416, 504199.117000000027474 ], [ 107945.134, 504208.177000000025146 ], [ 107945.726, 504218.362000000022817 ], [ 107947.01, 504226.102000000013504 ], [ 107948.738, 504232.545999999972992 ], [ 107952.543, 504244.32 ], [ 107954.91, 504250.87599999998929 ], [ 107957.035, 504255.976000000024214 ], [ 107959.876, 504261.391 ], [ 107964.004, 504267.826 ], [ 107967.059, 504274.507999999972526 ], [ 107967.756, 504282.528999999980442 ], [ 107968.606, 504289.267 ], [ 107969.929, 504298.81 ], [ 107973.824, 504314.618000000016764 ], [ 107975.701, 504325.210000000020955 ], [ 107977.615, 504333.984 ], [ 107979.922, 504343.757999999972526 ], [ 107982.008, 504350.685999999986961 ], [ 107985.587, 504364.919 ], [ 107986.319, 504367.935 ], [ 107991.966, 504389.870999999984633 ], [ 107995.001, 504399.523999999975786 ], [ 108000.938, 504417.505 ], [ 108005.878, 504438.319000000017695 ], [ 108006.197, 504439.477000000013504 ], [ 108015.169, 504466.338999999978114 ], [ 108015.966, 504469.016 ], [ 108016.105, 504469.483 ], [ 108016.154, 504469.547000000020489 ], [ 108018.39, 504472.472 ], [ 108023.048, 504477.657 ], [ 108028.497, 504483.809 ], [ 108033.155, 504489.522 ], [ 108035.968, 504492.950000000011642 ], [ 108038.517, 504496.729 ], [ 108040.485, 504499.858 ], [ 108041.54, 504501.352000000013504 ], [ 108043.738, 504505.306999999971595 ], [ 108045.759, 504509.965000000025611 ], [ 108047.78, 504514.096000000019558 ], [ 108050.681, 504518.93 ], [ 108051.919, 504521.818000000028405 ], [ 108052.263, 504522.620999999984633 ], [ 108054.284, 504530.443000000028405 ], [ 108055.163, 504534.31 ], [ 108056.218, 504537.12300000002142 ], [ 108057.536, 504539.495999999984633 ], [ 108059.294, 504541.693000000028405 ], [ 108061.755, 504543.715000000025611 ], [ 108064.567, 504545.647999999986496 ], [ 108067.468, 504547.406000000017229 ], [ 108070.632, 504548.723999999987427 ], [ 108074.323, 504549.603 ], [ 108075.993, 504551.976000000024214 ], [ 108076.872, 504556.545999999972992 ], [ 108074.887, 504564.939000000013039 ], [ 108076.585, 504571.939000000013039 ], [ 108079.168, 504582.196 ], [ 108081.161, 504590.992000000027474 ], [ 108087.34, 504611.609 ], [ 108090.125, 504621.298 ], [ 108092.448, 504628.918 ], [ 108098.123, 504649.811999999976251 ], [ 108101.429, 504660.143999999971129 ], [ 108103.082, 504665.929 ], [ 108105.562, 504670.474999999976717 ], [ 108106.802, 504675.021 ], [ 108107.215, 504678.327 ], [ 108107.628, 504682.460000000020955 ], [ 108106.388, 504688.245 ], [ 108105.562, 504694.858 ], [ 108104.735, 504701.882999999972526 ], [ 108103.909, 504709.321999999985565 ], [ 108101.842, 504715.521 ], [ 108098.95, 504722.132999999972526 ], [ 108097.71, 504727.505 ], [ 108097.297, 504732.050999999977648 ], [ 108098.123, 504737.423 ], [ 108099.363, 504741.968999999982771 ], [ 108102.256, 504747.341000000014901 ], [ 108106.719, 504758.417000000015832 ], [ 108109.198, 504763.37599999998929 ], [ 108111.265, 504767.922000000020489 ], [ 108112.505, 504771.228 ], [ 108113.744, 504774.533999999985099 ], [ 108115.397, 504779.493000000016764 ], [ 108117.05, 504784.452 ], [ 108119.117, 504786.931999999971595 ], [ 108120.77, 504789.824000000022352 ], [ 108123.663, 504792.717 ], [ 108127.382, 504796.849999999976717 ], [ 108130.688, 504800.156000000017229 ], [ 108133.581, 504803.049 ], [ 108136.887, 504805.941 ], [ 108139.366, 504808.420999999972992 ], [ 108143.086, 504810.487000000022817 ], [ 108145.979, 504812.554 ], [ 108149.284, 504814.207 ], [ 108150.997, 504815.234 ], [ 108153.417, 504816.685999999986961 ], [ 108160.443, 504819.579000000027008 ], [ 108165.401, 504822.059 ], [ 108169.121, 504823.712 ], [ 108172.427, 504824.951 ], [ 108177.386, 504826.604 ], [ 108180.884, 504827.771 ], [ 108182.345, 504828.257999999972526 ], [ 108183.436, 504828.98499999998603 ], [ 108184.119, 504829.552000000025146 ], [ 108186.065, 504830.737000000022817 ], [ 108194.9583, 504834.85820000001695 ], [ 108203.0, 504789.0 ], [ 108221.0, 504691.0 ], [ 108239.0, 504594.0 ], [ 108260.0, 504497.0 ], [ 108270.0, 504455.0 ], [ 108274.0, 504437.0 ], [ 108281.0, 504416.0 ], [ 108284.0, 504407.0 ], [ 108287.0, 504400.0 ], [ 108294.0, 504381.0 ], [ 108311.556, 504344.587 ], [ 108321.8631, 504325.653899999975692 ], [ 108312.2767, 504298.492199999978766 ], [ 108310.388, 504275.8274 ], [ 108314.1655, 504232.386699999973644 ], [ 108293.3894, 504236.1642 ], [ 108246.2475, 504195.2253 ], [ 108221.6177, 504173.836200000019744 ], [ 108217.8404, 504147.393900000024587 ], [ 108202.7305, 504109.619499999971595 ], [ 108155.5123, 504003.8507 ], [ 108064.0973, 503953.2806 ], [ 108067.0, 503908.0 ], [ 108054.0, 503816.0 ], [ 108072.0, 503735.0 ], [ 108073.0, 503730.0 ], [ 108076.0, 503701.0 ], [ 108102.0, 503592.0 ], [ 108107.0, 503567.0 ], [ 108103.0, 503532.0 ], [ 108105.0, 503512.0 ], [ 108106.0, 503498.0 ], [ 108114.0, 503475.0 ], [ 108153.0, 503415.0 ], [ 108162.0, 503400.0 ], [ 108172.0, 503385.0001 ], [ 108178.0, 503382.0 ], [ 108190.0, 503376.0 ], [ 108199.0, 503371.0 ], [ 108205.0, 503365.0 ], [ 108236.0, 503332.0 ], [ 108252.124, 503318.7133 ], [ 108195.1755, 503295.577999999979511 ], [ 108095.073, 503255.914700000023004 ], [ 108078.0745, 503240.804899999988265 ], [ 108070.5196, 503237.027300000016112 ], [ 108074.2971, 503231.36109999998007 ], [ 108085.6295, 503210.585100000025705 ], [ 108176.2883, 503119.9263 ], [ 108238.6163, 503169.0332 ], [ 108279.573, 503219.298300000024028 ], [ 108299.0557, 503191.697900000028312 ], [ 108333.0527, 503144.479700000025332 ], [ 108467.1524, 502987.715299999981653 ], [ 108514.3706, 502949.940799999982119 ], [ 108578.5873, 502880.057900000014342 ], [ 108663.58, 502795.065200000011828 ], [ 108773.1261, 502766.73430000001099 ], [ 108803.3458, 502804.508900000015274 ], [ 108880.7836, 502914.0551 ], [ 108922.3357, 503016.046299999987241 ], [ 108950.6666, 503095.372900000016671 ], [ 108961.999, 503191.697999999974854 ], [ 108969.5539, 503280.4682 ], [ 108961.999, 503363.5722 ], [ 108928.8476, 503512.753399999986868 ], [ 108926.6469, 503518.776300000026822 ], [ 108900.4203, 503590.554400000022724 ], [ 108922.3357, 503620.439000000013039 ], [ 109135.7619, 503425.900199999974575 ], [ 109152.7603, 503561.8885 ], [ 109179.2025, 503567.554699999978766 ], [ 109194.3123, 503590.2194 ], [ 109173.5365, 503618.5503 ], [ 109186.7575, 503688.433299999975134 ], [ 109213.1997, 503799.868200000026263 ], [ 109237.7531, 504041.625300000014249 ], [ 109222.6433, 504128.506700000027195 ], [ 109216.9771, 504177.613699999987148 ], [ 109243.4192, 504217.2769 ], [ 109303.8585, 504290.9373 ], [ 109317.0796, 504321.1569 ], [ 109330.3007, 504353.265300000028219 ], [ 109369.964, 504434.4806 ], [ 109483.2876, 504636.574399999983143 ], [ 109511.6185, 504629.0195 ], [ 109596.6112, 504619.5759 ], [ 109692.9363, 504598.799899999983609 ], [ 109740.8957, 504606.4732 ], [ 109742.0, 504606.0001 ], [ 109772.0, 504800.0001 ], [ 109795.0, 504950.0001 ], [ 109808.0, 505090.0001 ], [ 109813.0, 505174.0001 ], [ 109814.0, 505243.0001 ], [ 109813.0, 505324.0001 ], [ 109795.0, 505616.0001 ], [ 109786.0, 505712.0001 ], [ 109769.753, 505997.839099999982864 ], [ 109762.0, 506034.0001 ], [ 109758.773, 506054.170099999988452 ], [ 109758.0, 506059.0001 ], [ 109754.9999, 506071.0001 ], [ 109749.9999, 506082.0001 ], [ 109739.9999, 506093.0001 ], [ 109727.9999, 506100.0 ], [ 109715.9999, 506105.0001 ], [ 109644.9999, 506113.0001 ], [ 109574.9999, 506121.0 ], [ 109544.9999, 506130.0001 ], [ 109511.0, 506016.0001 ], [ 109502.0, 505985.0001 ], [ 109459.0, 505840.0001 ], [ 109443.0, 505780.0 ], [ 109419.0, 505705.0001 ], [ 109417.0, 505691.0 ], [ 109412.0, 505651.0 ], [ 109411.0, 505629.0 ], [ 109411.0, 505534.0 ], [ 109408.0, 505507.0 ], [ 109407.0, 505500.0 ], [ 109405.0, 505490.0 ], [ 109398.0, 505455.0 ], [ 109392.0, 505435.0001 ], [ 109422.9999, 505427.0001 ], [ 109436.9999, 505426.0001 ], [ 109443.0, 505430.0 ], [ 109448.0, 505423.0 ], [ 109451.0, 505419.0 ], [ 109452.0, 505417.0 ], [ 109456.0, 505407.0 ], [ 109460.0, 505387.0 ], [ 109463.0, 505370.0 ], [ 109468.0, 505309.0 ], [ 109469.0, 505254.0 ], [ 109469.0, 505249.0 ], [ 109470.0, 505241.0 ], [ 109468.0, 505193.0 ], [ 109469.9315, 505177.5479 ], [ 109469.9375, 505177.025100000028033 ], [ 109469.9168, 505177.033400000014808 ], [ 109464.9999, 505179.0001 ], [ 109445.9999, 505189.0 ], [ 109356.9999, 505230.0001 ], [ 109351.9999, 505231.0 ], [ 109328.9999, 505241.0 ], [ 109314.9999, 505248.0 ], [ 109301.4909, 505254.997099999978673 ], [ 109306.9999, 505257.0001 ], [ 109315.9999, 505269.0001 ], [ 109327.9999, 505306.0001 ], [ 109331.9999, 505306.0001 ], [ 109342.0, 505311.0001 ], [ 109344.0, 505319.0001 ], [ 109343.0, 505323.0001 ], [ 109341.9999, 505326.0001 ], [ 109336.9999, 505329.0001 ], [ 109325.9999, 505328.0001 ], [ 109317.9999, 505324.0001 ], [ 109316.9999, 505322.0001 ], [ 109198.592, 505343.787100000015926 ], [ 109211.7897, 505369.2046 ], [ 109216.1501, 505380.417000000015832 ], [ 109270.9666, 505454.543899999989662 ], [ 109271.5894, 505459.527200000011362 ], [ 109202.4459, 505534.900000000023283 ], [ 109190.6106, 505552.341699999989942 ], [ 109183.7586, 505571.028999999980442 ], [ 109189.3647, 505604.043599999975413 ], [ 109193.1021, 505628.337300000013784 ], [ 109180.021, 505654.499699999985751 ], [ 109180.4953, 505681.5403 ], [ 109176.9999, 505684.0001 ], [ 109165.9999, 505692.0001 ], [ 109147.9999, 505715.0001 ], [ 109124.9999, 505739.0001 ], [ 109084.9999, 505773.0001 ], [ 109071.9999, 505793.0001 ], [ 109060.9999, 505803.0001 ], [ 109045.9999, 505819.0001 ], [ 109034.9999, 505835.0001 ], [ 109033.9999, 505837.0001 ], [ 109002.9999, 505865.0001 ], [ 108969.9999, 505883.0 ], [ 108961.9999, 505886.0 ], [ 108906.9999, 505911.0001 ], [ 108896.9999, 505913.0001 ], [ 108890.9999, 505913.0001 ], [ 108884.9999, 505911.0001 ], [ 108882.9999, 505907.0 ], [ 108879.0, 505882.0 ], [ 108872.0, 505858.0001 ], [ 108869.0, 505839.0 ], [ 108861.0, 505805.0 ], [ 108863.0, 505775.0 ], [ 108860.0, 505754.0 ], [ 108855.0, 505724.0 ], [ 108842.0, 505673.0 ], [ 108837.0, 505660.0001 ], [ 108837.0, 505644.0 ], [ 108841.0, 505615.0 ], [ 108840.0, 505601.0 ], [ 108832.0, 505543.0 ], [ 108831.0, 505536.0 ], [ 108815.9999, 505510.0001 ], [ 108810.9999, 505500.0 ], [ 108804.0, 505464.0 ], [ 108793.0, 505442.0 ], [ 108782.0, 505406.0 ], [ 108777.9999, 505397.0 ], [ 108775.0, 505380.0 ], [ 108774.0, 505376.0 ], [ 108756.9999, 505342.0 ], [ 108757.0, 505338.0001 ], [ 108763.0087, 505334.244599999976344 ], [ 108650.1589, 505153.000699999975041 ], [ 108662.7855, 505141.522 ], [ 108644.4194, 505126.599500000011176 ], [ 108620.3139, 505078.3885 ], [ 108608.8351, 505074.9448 ], [ 108572.103, 505010.663300000014715 ], [ 108576.6944, 505004.924 ], [ 108539.9622, 504933.755300000018906 ], [ 108527.3355, 504940.642600000021048 ], [ 108497.4905, 504874.065500000026077 ], [ 108502.0821, 504863.734500000020489 ], [ 108484.8638, 504836.185400000016671 ], [ 108395.329, 504914.2414 ], [ 108384.9982, 504918.832799999974668 ], [ 108309.2379, 504883.248499999986961 ], [ 108254.1396, 504868.3261 ], [ 108230.034, 504855.699399999983143 ], [ 108204.3288, 504843.340900000010151 ], [ 108203.524, 504847.783999999985099 ], [ 108202.788, 504851.847 ], [ 108198.723, 504872.973 ], [ 108196.545, 504886.092 ], [ 108195.145, 504893.715000000025611 ], [ 108195.059, 504894.118000000016764 ], [ 108193.485, 504901.494 ], [ 108192.427, 504907.425999999977648 ], [ 108186.547, 504941.463999999978114 ], [ 108184.11, 504954.636 ], [ 108183.487, 504958.732000000018161 ], [ 108183.332, 504964.12599999998929 ], [ 108183.383, 504969.881999999983236 ], [ 108183.415, 504974.777 ], [ 108183.0, 504981.621999999973923 ], [ 108182.326, 504985.978 ], [ 108181.185, 504992.615 ], [ 108180.096, 504998.007999999972526 ], [ 108178.955, 505002.104999999981374 ], [ 108177.97, 505005.371999999973923 ], [ 108176.082, 505010.163 ], [ 108174.63, 505013.69 ], [ 108173.593, 505017.216000000014901 ], [ 108172.297, 505021.987000000022817 ], [ 108170.897, 505029.091000000014901 ], [ 108168.978, 505039.772999999986496 ], [ 108168.491, 505042.646 ], [ 108164.913, 505062.039999999979045 ], [ 108163.357, 505069.559 ], [ 108162.886, 505071.267 ], [ 108162.527, 505072.566999999980908 ], [ 108162.04, 505076.011 ], [ 108158.669, 505094.575000000011642 ], [ 108158.047, 505096.753000000026077 ], [ 108156.802, 505104.169 ], [ 108155.848, 505110.049 ], [ 108154.292, 505118.813000000023749 ], [ 108154.032, 505120.305 ], [ 108152.166, 505130.99900000001071 ], [ 108149.708, 505144.243000000016764 ], [ 108147.375, 505156.169999999983702 ], [ 108146.338, 505163.585000000020955 ], [ 108143.413, 505178.903999999980442 ], [ 108137.17, 505212.89000000001397 ], [ 108135.095, 505223.935999999986961 ], [ 108134.211, 505229.39000000001397 ], [ 108133.54, 505233.528999999980442 ], [ 108130.978, 505247.395000000018626 ], [ 108124.942, 505281.278 ], [ 108118.698, 505315.419999999983702 ], [ 108113.513, 505343.786000000021886 ], [ 108112.143, 505351.636999999987893 ], [ 108107.3, 505379.141 ], [ 108101.16, 505413.335000000020955 ], [ 108094.813, 505447.424999999988358 ], [ 108094.243, 505450.48499999998603 ], [ 108092.272, 505461.271 ], [ 108091.183, 505468.322999999974854 ], [ 108090.965, 505469.846000000019558 ], [ 108090.768, 505471.227000000013504 ], [ 108090.509, 505474.027 ], [ 108090.405, 505476.36099999997532 ], [ 108090.561, 505478.382999999972526 ], [ 108090.851, 505481.827 ], [ 108090.903, 505486.960000000020955 ], [ 108090.799, 505489.50199999997858 ], [ 108090.177, 505495.62 ], [ 108089.451, 505500.338999999978114 ], [ 108087.014, 505513.718 ], [ 108086.474, 505515.710000000020955 ], [ 108085.644, 505518.457999999984168 ], [ 108082.326, 505529.244 ], [ 108081.444, 505532.304 ], [ 108080.718, 505535.830000000016298 ], [ 108080.439, 505538.792000000015832 ], [ 108079.843, 505543.73599999997532 ], [ 108078.75, 505552.799999999988358 ], [ 108078.083, 505558.331 ], [ 108075.6, 505578.913999999989755 ], [ 108075.153, 505582.618000000016764 ], [ 108074.73, 505587.268999999971129 ], [ 108072.384, 505631.037000000011176 ], [ 108071.423, 505649.96999999997206 ], [ 108069.79, 505681.302000000025146 ], [ 108068.693, 505696.429 ], [ 108065.483, 505755.669999999983702 ], [ 108061.888, 505818.658999999985099 ], [ 108059.197, 505867.097 ], [ 108058.678, 505878.188000000023749 ], [ 108058.556, 505880.918 ], [ 108058.39, 505884.62699999997858 ], [ 108057.621, 505894.815 ], [ 108057.56, 505895.728 ], [ 108056.948, 505904.81 ], [ 108056.371, 505917.400000000023283 ], [ 108056.276, 505923.550999999977648 ], [ 108056.468, 505925.664999999979045 ], [ 108056.852, 505928.645000000018626 ], [ 108057.236, 505932.104999999981374 ], [ 108057.717, 505935.949000000022352 ], [ 108058.062, 505939.255 ], [ 108058.062, 505942.522 ], [ 108057.87, 505946.847 ], [ 108057.294, 505955.881 ], [ 108056.909, 505960.879000000015367 ], [ 108056.332, 505964.338999999978114 ], [ 108055.756, 505967.51 ], [ 108054.987, 505970.104999999981374 ], [ 108053.93, 505973.468999999982771 ], [ 108053.546, 505975.295999999972992 ], [ 108053.161, 505978.755 ], [ 108052.776, 505982.215000000025611 ], [ 108052.008, 505992.403 ], [ 108051.296, 506002.435999999986961 ], [ 108050.623, 506013.200000000011642 ], [ 108050.527, 506020.88900000002468 ], [ 108049.071, 506046.897999999986496 ], [ 108048.509, 506056.93 ], [ 108047.893, 506065.712999999988824 ], [ 108046.644, 506083.493000000016764 ], [ 108045.779, 506105.983 ], [ 108044.298, 506129.183000000019092 ], [ 108042.184, 506171.278 ], [ 108041.902, 506175.602000000013504 ], [ 108040.896, 506191.018999999971129 ], [ 108037.109, 506253.816 ], [ 108034.418, 506302.63900000002468 ], [ 108033.514, 506316.517 ], [ 108032.649, 506332.086000000010245 ], [ 108031.8, 506345.006999999983236 ], [ 108031.399, 506351.115999999979977 ], [ 108029.958, 506371.106000000028871 ], [ 108029.054, 506379.026000000012573 ], [ 108026.651, 506403.436999999976251 ], [ 108025.882, 506409.299 ], [ 108023.576, 506426.119 ], [ 108022.038, 506436.787000000011176 ], [ 108020.269, 506447.973 ], [ 108019.788, 506451.145000000018626 ], [ 108019.668, 506453.371999999973923 ], [ 108019.596, 506454.701 ], [ 108019.212, 506457.87300000002142 ], [ 108018.443, 506460.852000000013504 ], [ 108017.482, 506464.696 ], [ 108016.713, 506468.541000000026543 ], [ 108015.272, 506478.631999999983236 ], [ 108014.118, 506484.206 ], [ 108013.157, 506490.164999999979045 ], [ 108012.677, 506497.854 ], [ 108012.196, 506505.061999999976251 ], [ 108011.812, 506508.425999999977648 ], [ 108011.9303, 506508.435300000011921 ], [ 108012.833, 506508.506 ], [ 108019.888, 506509.077999999979511 ], [ 108099.458, 506515.53000000002794 ], [ 108100.728, 506515.342 ], [ 108114.992, 506512.416000000026543 ], [ 108120.273, 506512.342 ], [ 108124.737, 506511.757999999972526 ], [ 108130.043, 506510.782 ], [ 108131.361, 506511.185 ], [ 108135.227, 506512.368000000016764 ], [ 108139.984, 506514.196999999985565 ], [ 108146.546, 506516.538 ], [ 108196.955, 506534.12599999998929 ], [ 108219.275, 506541.931999999971595 ], [ 108230.253, 506545.896 ], [ 108241.108, 506549.25 ], [ 108250.231, 506551.592 ], [ 108268.892, 506556.287000000011176 ], [ 108274.076, 506557.811999999976251 ], [ 108281.272, 506560.799999999988358 ], [ 108285.724, 506563.544999999983702 ], [ 108286.747, 506564.072999999974854 ], [ 108288.897, 506565.184 ], [ 108293.582, 506566.621999999973923 ], [ 108306.021, 506568.775000000023283 ], [ 108307.935, 506569.971000000019558 ], [ 108309.131, 506574.038 ], [ 108310.327, 506579.778 ], [ 108311.523, 506584.085000000020955 ], [ 108313.437, 506584.802000000025146 ], [ 108318.221, 506585.041000000026543 ], [ 108325.636, 506585.28000000002794 ], [ 108331.856, 506585.99800000002142 ], [ 108341.185, 506586.955000000016298 ], [ 108348.6, 506588.151000000012573 ], [ 108354.82, 506589.586000000010245 ], [ 108362.713, 506591.739 ], [ 108369.411, 506593.892 ], [ 108379.219, 506597.958999999973457 ], [ 108388.069, 506600.11099999997532 ], [ 108394.049, 506601.306999999971595 ], [ 108403.139, 506602.26400000002468 ], [ 108406.967, 506602.503000000026077 ], [ 108409.359, 506602.025000000023283 ], [ 108412.947, 506598.675999999977648 ], [ 108415.1, 506595.805999999982305 ], [ 108417.492, 506592.935 ], [ 108419.406, 506591.261 ], [ 108421.798, 506589.347 ], [ 108425.147, 506587.912000000011176 ], [ 108428.735, 506586.237000000022817 ], [ 108432.083, 506585.759000000020023 ], [ 108434.475, 506585.520000000018626 ], [ 108440.217, 506586.476000000024214 ], [ 108446.436, 506587.433000000019092 ], [ 108451.698, 506589.108 ], [ 108454.569, 506589.825000000011642 ], [ 108459.831, 506592.218 ], [ 108465.094, 506594.37 ], [ 108470.117, 506595.805999999982305 ], [ 108476.815, 506597.718999999982771 ], [ 108485.187, 506599.153999999980442 ], [ 108495.234, 506600.829000000027008 ], [ 108503.128, 506602.503000000026077 ], [ 108506.955, 506602.982000000018161 ], [ 108508.241, 506602.125 ], [ 108508.367, 506602.041000000026543 ], [ 108509.108, 506601.547000000020489 ], [ 108509.347, 506598.675999999977648 ], [ 108510.543, 506597.00199999997858 ], [ 108511.978, 506596.283999999985099 ], [ 108514.61, 506596.283999999985099 ], [ 108517.48, 506597.958999999973457 ], [ 108568.192, 506613.98499999998603 ], [ 108570.715, 506614.902 ], [ 108571.209, 506615.082 ], [ 108573.455, 506615.898999999975786 ], [ 108576.564, 506617.574000000022352 ], [ 108588.764, 506623.075000000011642 ], [ 108598.571, 506627.62 ], [ 108608.857, 506630.729999999981374 ], [ 108619.861, 506632.643999999971129 ], [ 108625.601, 506633.838999999978114 ], [ 108629.668, 506635.036000000021886 ], [ 108634.452, 506636.949000000022352 ], [ 108638.28, 506639.580000000016298 ], [ 108642.346, 506643.169 ], [ 108646.412, 506648.670999999972992 ], [ 108650.479, 506655.368000000016764 ], [ 108654.306, 506663.022999999986496 ], [ 108655.741, 506668.525000000023283 ], [ 108660.526, 506695.794 ], [ 108661.722, 506700.577999999979511 ], [ 108664.114, 506705.601000000024214 ], [ 108665.788, 506708.472 ], [ 108670.094, 506713.73499999998603 ], [ 108676.792, 506720.431999999971595 ], [ 108679.184, 506722.346000000019558 ], [ 108680.858, 506725.216000000014901 ], [ 108680.858, 506729.522 ], [ 108681.37, 506730.033999999985099 ], [ 108681.815, 506730.479 ], [ 108747.358, 506727.848 ], [ 108769.126, 506726.652 ], [ 108777.976, 506726.173 ], [ 108783.08, 506725.89000000001397 ], [ 108786.513, 506726.363000000012107 ], [ 108786.668, 506726.40500000002794 ], [ 108792.066, 506727.870999999984633 ], [ 108796.353, 506729.036000000021886 ], [ 108798.644, 506729.494 ], [ 108801.179, 506730.00099999998929 ], [ 108801.361, 506730.048 ], [ 108801.488, 506730.081 ], [ 108804.417, 506730.840000000025611 ], [ 108805.31, 506731.071 ], [ 108821.138, 506735.174 ], [ 108819.235, 506750.945 ], [ 108818.247, 506762.37699999997858 ], [ 108816.695, 506776.631999999983236 ], [ 108815.067, 506791.169 ], [ 108814.503, 506793.708999999973457 ], [ 108813.233, 506801.189000000013039 ], [ 108812.103, 506805.423 ], [ 108810.692, 506809.234 ], [ 108809.281, 506813.468 ], [ 108807.164, 506818.548 ], [ 108804.623, 506824.617000000027474 ], [ 108801.659, 506830.262999999977183 ], [ 108796.719, 506839.577999999979511 ], [ 108793.258, 506845.929 ], [ 108789.729, 506853.408999999985099 ], [ 108787.189, 506859.901000000012573 ], [ 108785.636, 506865.686999999976251 ], [ 108784.366, 506874.297000000020489 ], [ 108783.519, 506882.200000000011642 ], [ 108782.955, 506891.233 ], [ 108782.88, 506898.430999999982305 ], [ 108782.88, 506901.677000000025146 ], [ 108783.021, 506912.685 ], [ 108784.009, 506925.528 ], [ 108785.561, 506941.759000000020023 ], [ 108786.927, 506949.815 ], [ 108786.973, 506950.086000000010245 ], [ 108789.38, 506949.169999999983702 ], [ 108798.77, 506946.409999999974389 ], [ 108798.95, 506946.886999999987893 ], [ 108799.252, 506947.686999999976251 ], [ 108799.816, 506948.533999999985099 ], [ 108800.522, 506949.663 ], [ 108802.497, 506951.356000000028871 ], [ 108802.86, 506951.550999999977648 ], [ 108804.332, 506952.343999999982771 ], [ 108805.386, 506952.767999999981839 ], [ 108811.879, 506953.897 ], [ 108819.076, 506955.590000000025611 ], [ 108822.022, 506956.614 ], [ 108828.418, 506957.15500000002794 ], [ 108839.999, 506961.51 ], [ 108853.758, 506966.064000000013039 ], [ 108877.811, 506973.487000000022817 ], [ 108905.625, 506980.911000000021886 ], [ 108915.524, 506984.245 ], [ 108929.877, 506989.392 ], [ 108954.523, 506999.686999999976251 ], [ 108968.48, 507005.329000000027008 ], [ 108980.655, 507008.495999999984633 ], [ 108998.175, 507013.246999999973923 ], [ 109005.401, 507015.128000000026077 ], [ 109025.495, 507020.64000000001397 ], [ 109042.124, 507025.193000000028405 ], [ 109058.456, 507030.340000000025611 ], [ 109075.383, 507035.487000000022817 ], [ 109089.438, 507038.457 ], [ 109103.692, 507041.62400000001071 ], [ 109108.839, 507042.119 ], [ 109119.53, 507043.571999999985565 ], [ 109133.289, 507045.947999999974854 ], [ 109149.225, 507049.413 ], [ 109163.181, 507051.689000000013039 ], [ 109186.245, 507055.351000000024214 ], [ 109198.123, 507057.232000000018161 ], [ 109207.328, 507060.598 ], [ 109211.585, 507061.983 ], [ 109224.848, 507066.306999999971595 ], [ 109237.914, 507071.949000000022352 ], [ 109258.404, 507081.452 ], [ 109274.34, 507089.37 ], [ 109285.327, 507094.319000000017695 ], [ 109294.434, 507098.18 ], [ 109301.659, 507102.13900000002468 ], [ 109308.687, 507107.582999999984168 ], [ 109312.844, 507110.849999999976717 ], [ 109323.534, 507118.935 ], [ 109332.444, 507125.170999999972992 ], [ 109339.174, 507130.615 ], [ 109346.499, 507135.069000000017695 ], [ 109353.032, 507140.017999999981839 ], [ 109359.169, 507145.166000000026543 ], [ 109370.354, 507155.163 ], [ 109382.429, 507166.348 ], [ 109391.734, 507175.354999999981374 ], [ 109398.663, 507181.262999999977183 ], [ 109401.929, 507184.924999999988358 ], [ 109402.638, 507187.88900000002468 ], [ 109409.458, 507193.966000000014901 ], [ 109417.08, 507201.163999999989755 ], [ 109424.701, 507207.938000000023749 ], [ 109430.628, 507213.159999999974389 ], [ 109431.616, 507214.147999999986496 ], [ 109435.427, 507216.830000000016298 ], [ 109442.343, 507222.615999999979977 ], [ 109443.389, 507223.37699999997858 ], [ 109443.895, 507223.745 ], [ 109445.025, 507224.592 ], [ 109446.295, 507224.87400000001071 ], [ 109447.565, 507225.01500000001397 ], [ 109449.682, 507224.87400000001071 ], [ 109452.928, 507224.733 ], [ 109454.763, 507224.592 ], [ 109459.279, 507224.028 ], [ 109463.513, 507224.169 ], [ 109468.03, 507224.451 ], [ 109473.393, 507224.733 ], [ 109479.038, 507225.298 ], [ 109485.812, 507225.721000000019558 ], [ 109489.748, 507226.050999999977648 ], [ 109491.851, 507225.727000000013504 ], [ 109494.44, 507224.109 ], [ 109496.868, 507222.167000000015832 ], [ 109499.134, 507219.577999999979511 ], [ 109500.752, 507217.636 ], [ 109501.56, 507215.532 ], [ 109502.655, 507213.261999999987893 ], [ 109503.33, 507213.710000000020955 ], [ 109504.217, 507214.299 ], [ 109504.3, 507214.354 ], [ 109506.968, 507216.12599999998929 ], [ 109507.607, 507216.604999999981374 ], [ 109508.165, 507217.023999999975786 ], [ 109508.904, 507217.577999999979511 ], [ 109507.548, 507219.902 ], [ 109505.768, 507222.814000000013039 ], [ 109503.664, 507226.212999999988824 ], [ 109501.56, 507229.61099999997532 ], [ 109500.752, 507230.90500000002794 ], [ 109500.752, 507232.36099999997532 ], [ 109500.913, 507233.818000000028405 ], [ 109501.722, 507235.112000000022817 ], [ 109503.016, 507236.407 ], [ 109510.622, 507241.585000000020955 ], [ 109536.027, 507258.413999999989755 ], [ 109537.807, 507261.164999999979045 ], [ 109545.251, 507267.636999999987893 ], [ 109558.134, 507273.075000000011642 ], [ 109575.962, 507281.011 ], [ 109606.066, 507294.386 ], [ 109648.757, 507313.392 ], [ 109660.643, 507318.461000000010245 ], [ 109664.6752, 507320.1803 ], [ 109669.691, 507322.319000000017695 ], [ 109676.325, 507229.887999999977183 ] ] ] ] } }
]
}
