{
"type": "FeatureCollection",
"name": "Westervoort",
"crs": { "type": "name", "properties": { "name": "urn:ogc:def:crs:OGC:1.3:CRS84" } },
"features": [
{ "type": "Feature", "properties": { "buurtcode": "BU02930000", "buurtnaam": "Westervoort", "pc6_codes": "6931AB, 6931AC, 6931AD, 6931AE, 6931AG, 6931AH, 6931AJ, 6931AK, 6931AL, 6931AM, 6931AN, 6931AP, 6931AR, 6931AS, 6931AT, 6931AV, 6931AW, 6931AX, 6931AZ, 6931BA, 6931BB, 6931BC, 6931BD, 6931BE, 6931BG, 6931BH, 6931BJ, 6931BK, 6931BL, 6931BM, 6931BN, 6931BP, 6931BR, 6931BS, 6931BT, 6931BV, 6931BW, 6931BX, 6931BZ, 6931CA, 6931CC, 6931CD, 6931CE, 6931CG, 6931CH, 6931CJ, 6931CK, 6931CL, 6931CM, 6931CN, 6931CP, 6931CR, 6931CS, 6931CT, 6931CV, 6931CW, 6931CX, 6931CZ, 6931DA, 6931DB, 6931DC, 6931DD, 6931DE, 6931DG, 6931DH, 6931DJ, 6931DK, 6931DM, 6931DN, 6931DP, 6931DR, 6931DS, 6931DT, 6931DV, 6931DW, 6931DX, 6931DZ, 6931EA, 6931EB, 6931EC, 6931ED, 6931EE, 6931EG, 6931EH, 6931EJ, 6931EK, 6931EL, 6931EM, 6931EN, 6931EP, 6931ER, 6931ES, 6931ET, 6931EV, 6931EW, 6931EX, 6931EZ, 6931GA, 6931GB, 6931GC, 6931GD, 6931GE, 6931GG, 6931HA, 6931HB, 6931HC, 6931HD, 6931HE, 6931HG, 6931HH, 6931HJ, 6931HK, 6931HM, 6931HN, 6931HP, 6931HR, 6931HS, 6931HT, 6931HV, 6931HW, 6931HX, 6931HZ, 6931JA, 6931JB, 6931JC, 6931JP, 6931JR, 6931KC, 6931KD, 6931KE, 6931KG, 6931KH, 6931LA, 6931LB, 6931LC, 6931LD, 6931LE, 6931LG, 6931LH, 6931LJ, 6931LK, 6931LL, 6931MA, 6931SC, 6931TA, 6931TB, 6931TC, 6931TD, 6931TE, 6931TG, 6931TH, 6931TJ, 6931TK, 6931TL, 6931TM, 6931TN, 6931TP, 6931TR, 6931TS, 6931TT, 6931TV, 6931TW, 6931TX", "wijkcode": "WK029300", "gemeentecode": "GM0293", "gemeentenaam": "Westervoort", "oppervlakteLandInHa": 211, "AantalInwoners_5": 6135, "Mannen_6": 2990, "Vrouwen_7": 3145, "HuishoudensTotaal_29": 2710, "GemiddeldeHuishoudensgrootte_33": 2.2, "Woningvoorraad_35": 2717, "NieuwbouwWoningen_36": 0, "NietWoningvoorraad_37": 326, "NieuwbouwNietWoningen_38": 1, "GemiddeldeWOZWaardeVanWoningen_39": 346, "PercentageEengezinswoning_40": 83, "PercentageTussenwoningEengezins_41": 33, "PercentageHoekwoningEengezins_42": 18, "PercentageTweeOnderEenKapWoningEe_43": 17, "PercentageVrijstaandeWoningEengezins_44": 16, "PercentageMeergezinswoning_45": 17, "Koopwoningen_47": 66, "HuurwoningenTotaal_48": 34, "InBezitWoningcorporatie_49": 27, "InBezitOverigeVerhuurders_50": 7, "BouwjaarMeerDanTienJaarGeleden_51": 90, "BouwjaarAfgelopenTienJaar_52": 10, "GemiddeldeElektriciteitslevering_53": 2700, "GemiddeldeElektriciteitsteruglevering_54": 940, "GemiddeldAardgasverbruik_55": 830, "AardgasvrijeWoningen_57": 17, "Aardgaswoningen_58": 77, "WoningenMetZonnestroom_59": 44, "WoningenHoofdzElektrVerwarmd_60": 8, "k_20PersonenMetHoogsteInkomen_80": 17.9, "k_20HuishoudensMetHoogsteInkomen_85": 20.1, "MediaanVermogenVanParticuliereHuish_86": 177.8, "PersonenautoSTotaal_104": 3055, "PersonenautoSBrandstofBenzine_105": 2485, "PersonenautoSOverigeBrandstof_106": 570, "PersonenautoSPerHuishouden_107": 1.1, "Omgevingsadressendichtheid_121": 1051, "AantalInstallatiesBijWoningen_5": 864, "OpgesteldVermogenVanZonnepanelen_6": 3367, "installaties_per_woning": 0.31799779168200221, "vermogen_per_woning": 1.2392344497607655, "installaties_per_100_woningen": 31.799779168200221, "vermogen_per_huishouden": 1.2424354243542435, "batterijdruk_score": 413.6, "koop_zon_score": 0.2904, "eengezins_zon_score": 0.3652, "betaalkracht_zon_score": 78.232, "overige_brandstof_zon_score": 250.8, "lichte_batterij_kansscore": 0.42318577163658777 }, "geometry": { "type": "MultiPolygon", "coordinates": [ [ [ [ 5.980106797059841, 51.966737090031771 ], [ 5.979849992380142, 51.965145472007698 ], [ 5.979614106411109, 51.963914406523408 ], [ 5.979430592836136, 51.962585047252468 ], [ 5.981209891731388, 51.961681724434065 ], [ 5.983521252594844, 51.961200940028235 ], [ 5.983027276647145, 51.958618153761897 ], [ 5.982273666080904, 51.956542276684225 ], [ 5.982236674573379, 51.956495556089024 ], [ 5.977069822198425, 51.958642016942605 ], [ 5.974416057547502, 51.956091920764102 ], [ 5.972641862116481, 51.955812017169954 ], [ 5.971877572473791, 51.953643434690008 ], [ 5.971682635831418, 51.953091616813822 ], [ 5.970801001044699, 51.951068267085773 ], [ 5.969846351380148, 51.950137365672752 ], [ 5.967965596673029, 51.949137161941067 ], [ 5.966732516458336, 51.948707309898879 ], [ 5.966523356709791, 51.94861396171347 ], [ 5.966336213606946, 51.94955782505447 ], [ 5.966047286972268, 51.950047150004643 ], [ 5.965253272564886, 51.950302733820259 ], [ 5.9649210116828, 51.950587502227975 ], [ 5.965164696141152, 51.950978422786726 ], [ 5.965433336715447, 51.951295067493788 ], [ 5.965648433675963, 51.951618714593181 ], [ 5.965588364178212, 51.952036971190132 ], [ 5.965343531994426, 51.952439845101715 ], [ 5.96521748031366, 51.952817978114155 ], [ 5.964727276076163, 51.953618670379818 ], [ 5.964393307743181, 51.954126189827356 ], [ 5.96413321531808, 51.954369310434799 ], [ 5.963927545178525, 51.954549245529911 ], [ 5.964008027584008, 51.955045741310904 ], [ 5.964212819922293, 51.955362981489579 ], [ 5.964247956148576, 51.955602967473311 ], [ 5.964235836180033, 51.955791783431756 ], [ 5.963551302028533, 51.95629736853008 ], [ 5.963040152122365, 51.956480765042535 ], [ 5.962583570093139, 51.95661220893966 ], [ 5.962049984424641, 51.956978850475096 ], [ 5.962103892815696, 51.957212284352629 ], [ 5.961652595964193, 51.957526556935207 ], [ 5.961217843857517, 51.957784006803379 ], [ 5.960583999333879, 51.958151974151519 ], [ 5.960546960367746, 51.958437815953339 ], [ 5.960535672067357, 51.958924367985354 ], [ 5.960329476653066, 51.959635456681163 ], [ 5.96030295350468, 51.959961696646772 ], [ 5.959752388865959, 51.960374193439293 ], [ 5.959325649818564, 51.960567836985021 ], [ 5.959203121414232, 51.960764491638201 ], [ 5.959080865478648, 51.960982493161389 ], [ 5.958968838272663, 51.961218421585848 ], [ 5.958915166801209, 51.961573724096688 ], [ 5.958976903389461, 51.961744203308363 ], [ 5.95899762429488, 51.962103638199878 ], [ 5.958969399131245, 51.962636057208456 ], [ 5.958900166218463, 51.963019242697598 ], [ 5.958772086356669, 51.963369570436591 ], [ 5.958709954028349, 51.963971251453657 ], [ 5.958782860635522, 51.964215268852818 ], [ 5.958733959094604, 51.964713519922036 ], [ 5.95931619646136, 51.964729508025123 ], [ 5.95965020582222, 51.965016353768156 ], [ 5.959984886445155, 51.965355439402025 ], [ 5.960280949580877, 51.965643310427673 ], [ 5.960692578101922, 51.966078363693981 ], [ 5.961018624500047, 51.966434342628617 ], [ 5.96153827883252, 51.966781509337288 ], [ 5.962037981089637, 51.967061359303479 ], [ 5.962679331943471, 51.967482361480108 ], [ 5.963099991190121, 51.967608105000018 ], [ 5.963939621127437, 51.967603989449451 ], [ 5.964401874193063, 51.967569138192665 ], [ 5.964971596312901, 51.967510724319247 ], [ 5.965976272540434, 51.967451852735863 ], [ 5.966839119009779, 51.967555462868077 ], [ 5.967544516301612, 51.967632878761016 ], [ 5.967990671591102, 51.967707077081322 ], [ 5.96871499777304, 51.967560524899845 ], [ 5.969904127483799, 51.967471214621838 ], [ 5.970573748413402, 51.967594574733461 ], [ 5.971772138299386, 51.967779906482065 ], [ 5.972191317969731, 51.967894670777767 ], [ 5.973139726286819, 51.968088816514097 ], [ 5.974227940342617, 51.96828000961267 ], [ 5.975376548141933, 51.96865459088626 ], [ 5.975997749807767, 51.968966918695244 ], [ 5.976466047188194, 51.969166811588138 ], [ 5.977983087749166, 51.969233071952324 ], [ 5.980106797059841, 51.966737090031771 ] ] ] ] } },
{ "type": "Feature", "properties": { "buurtcode": "BU02930001", "buurtnaam": "Westervoort-Broeklanden", "pc6_codes": "6931EP, 6931VB, 6931VC, 6931VD, 6931VE, 6931VG, 6931VH, 6931VJ, 6931VK, 6931VL, 6931VN, 6931VP, 6931VR, 6931VS, 6931VT, 6931WB, 6931WC, 6931WD, 6931WE, 6931WG, 6931WH, 6931WJ, 6931WK, 6931WN, 6931WP, 6931WR, 6931WS, 6931WT, 6931WV, 6931XA, 6931XB, 6931XC, 6931XD, 6931XE, 6931XG, 6931XH, 6931XJ, 6931XK, 6931XL, 6931XM, 6931XN, 6931XP, 6931XS", "wijkcode": "WK029300", "gemeentecode": "GM0293", "gemeentenaam": "Westervoort", "oppervlakteLandInHa": 27, "AantalInwoners_5": 1455, "Mannen_6": 715, "Vrouwen_7": 740, "HuishoudensTotaal_29": 665, "GemiddeldeHuishoudensgrootte_33": 2.2, "Woningvoorraad_35": 645, "NieuwbouwWoningen_36": 0, "NietWoningvoorraad_37": 9, "NieuwbouwNietWoningen_38": 0, "GemiddeldeWOZWaardeVanWoningen_39": 268, "PercentageEengezinswoning_40": 85, "PercentageTussenwoningEengezins_41": 60, "PercentageHoekwoningEengezins_42": 25, "PercentageTweeOnderEenKapWoningEe_43": 0, "PercentageVrijstaandeWoningEengezins_44": 0, "PercentageMeergezinswoning_45": 15, "Koopwoningen_47": 53, "HuurwoningenTotaal_48": 47, "InBezitWoningcorporatie_49": 37, "InBezitOverigeVerhuurders_50": 10, "BouwjaarMeerDanTienJaarGeleden_51": 100, "BouwjaarAfgelopenTienJaar_52": 0, "GemiddeldeElektriciteitslevering_53": 2340, "GemiddeldeElektriciteitsteruglevering_54": 720, "GemiddeldAardgasverbruik_55": 620, "AardgasvrijeWoningen_57": 11, "Aardgaswoningen_58": 61, "WoningenMetZonnestroom_59": 41, "WoningenHoofdzElektrVerwarmd_60": 5, "k_20PersonenMetHoogsteInkomen_80": 11.9, "k_20HuishoudensMetHoogsteInkomen_85": 9.3, "MediaanVermogenVanParticuliereHuish_86": 62.3, "PersonenautoSTotaal_104": 705, "PersonenautoSBrandstofBenzine_105": 605, "PersonenautoSOverigeBrandstof_106": 100, "PersonenautoSPerHuishouden_107": 1.1, "Omgevingsadressendichtheid_121": 1407, "AantalInstallatiesBijWoningen_5": 174, "OpgesteldVermogenVanZonnepanelen_6": 615, "installaties_per_woning": 0.26976744186046514, "vermogen_per_woning": 0.95348837209302328, "installaties_per_100_woningen": 26.976744186046513, "vermogen_per_huishouden": 0.92481203007518797, "batterijdruk_score": 295.2, "koop_zon_score": 0.2173, "eengezins_zon_score": 0.3485, "betaalkracht_zon_score": 25.543, "overige_brandstof_zon_score": 41.0, "lichte_batterij_kansscore": 0.38054366718416122 }, "geometry": { "type": "MultiPolygon", "coordinates": [ [ [ [ 5.982236674573379, 51.956495556089024 ], [ 5.981994030231116, 51.956196514345194 ], [ 5.981343726710529, 51.955530165931968 ], [ 5.980790866072175, 51.954753775615579 ], [ 5.980750772303683, 51.954695553359464 ], [ 5.980223335740018, 51.954087003011807 ], [ 5.979697018519921, 51.953562149284167 ], [ 5.979425395569232, 51.953252294106811 ], [ 5.979357330179976, 51.953175392345223 ], [ 5.979271228996066, 51.953041000689602 ], [ 5.9790055643765, 51.952630837052794 ], [ 5.978855838940964, 51.952652938237605 ], [ 5.978504637021533, 51.952702456348248 ], [ 5.971877572473791, 51.953643434690008 ], [ 5.972641862116481, 51.955812017169954 ], [ 5.974416057547502, 51.956091920764102 ], [ 5.977069822198425, 51.958642016942605 ], [ 5.982236674573379, 51.956495556089024 ] ] ] ] } },
{ "type": "Feature", "properties": { "buurtcode": "BU02930002", "buurtnaam": "Westervoort-Lange Maat en Hoogeind", "pc6_codes": "6931CH, 6931DL, 6931SG, 6932AA, 6932AB, 6932AC, 6932AD, 6932AE, 6932AG, 6932AH, 6932AJ, 6932AK, 6932AL, 6932AM, 6932AN, 6932AP, 6932AR, 6932AS, 6932AT, 6932AV, 6932AW, 6932AX, 6932AZ, 6932GA, 6932GB, 6932GC, 6932GD, 6932GE, 6932GG, 6932GH, 6932GJ, 6932GK, 6932GL, 6932GM, 6932GP, 6932GR, 6932GS, 6932GT, 6932GV, 6932GW, 6932GX, 6932GZ, 6932HA, 6932HB, 6932HC, 6932HD, 6932HE, 6932HG, 6932HH, 6932HJ, 6932HK, 6932HL, 6932HM, 6932HN, 6932HP, 6932HR, 6932HS, 6932HT, 6932JA, 6932JB, 6932JC, 6932JD, 6932JE, 6932JG, 6932JH, 6932JJ, 6932JK, 6932JL, 6932JM, 6932JN, 6932JP, 6932JR, 6932JS, 6932KA, 6932KE, 6932KH, 6932KJ, 6932KK", "wijkcode": "WK029300", "gemeentecode": "GM0293", "gemeentenaam": "Westervoort", "oppervlakteLandInHa": 54, "AantalInwoners_5": 3020, "Mannen_6": 1480, "Vrouwen_7": 1540, "HuishoudensTotaal_29": 1425, "GemiddeldeHuishoudensgrootte_33": 2.1, "Woningvoorraad_35": 1404, "NieuwbouwWoningen_36": 0, "NietWoningvoorraad_37": 14, "NieuwbouwNietWoningen_38": 1, "GemiddeldeWOZWaardeVanWoningen_39": 287, "PercentageEengezinswoning_40": 90, "PercentageTussenwoningEengezins_41": 58, "PercentageHoekwoningEengezins_42": 24, "PercentageTweeOnderEenKapWoningEe_43": 5, "PercentageVrijstaandeWoningEengezins_44": 3, "PercentageMeergezinswoning_45": 10, "Koopwoningen_47": 50, "HuurwoningenTotaal_48": 50, "InBezitWoningcorporatie_49": 41, "InBezitOverigeVerhuurders_50": 9, "BouwjaarMeerDanTienJaarGeleden_51": 100, "BouwjaarAfgelopenTienJaar_52": 0, "GemiddeldeElektriciteitslevering_53": 2390, "GemiddeldeElektriciteitsteruglevering_54": 660, "GemiddeldAardgasverbruik_55": 350, "AardgasvrijeWoningen_57": 61, "Aardgaswoningen_58": 38, "WoningenMetZonnestroom_59": 38, "WoningenHoofdzElektrVerwarmd_60": 6, "k_20PersonenMetHoogsteInkomen_80": 12.7, "k_20HuishoudensMetHoogsteInkomen_85": 12.5, "MediaanVermogenVanParticuliereHuish_86": 56.9, "PersonenautoSTotaal_104": 1530, "PersonenautoSBrandstofBenzine_105": 1295, "PersonenautoSOverigeBrandstof_106": 235, "PersonenautoSPerHuishouden_107": 1.1, "Omgevingsadressendichtheid_121": 1332, "AantalInstallatiesBijWoningen_5": 303, "OpgesteldVermogenVanZonnepanelen_6": 1041, "installaties_per_woning": 0.21581196581196582, "vermogen_per_woning": 0.74145299145299148, "installaties_per_100_woningen": 21.581196581196583, "vermogen_per_huishouden": 0.73052631578947369, "batterijdruk_score": 250.8, "koop_zon_score": 0.19, "eengezins_zon_score": 0.342, "betaalkracht_zon_score": 21.622, "overige_brandstof_zon_score": 89.3, "lichte_batterij_kansscore": 0.37919406809922906 }, "geometry": { "type": "MultiPolygon", "coordinates": [ [ [ [ 5.978504637021533, 51.952702456348248 ], [ 5.978855838940964, 51.952652938237605 ], [ 5.978795536756218, 51.952595940576742 ], [ 5.97877223140327, 51.952155625413937 ], [ 5.978641334722389, 51.951792876960511 ], [ 5.978624856013799, 51.951360136972795 ], [ 5.97855935113501, 51.950884610654995 ], [ 5.978492402503839, 51.950299278215965 ], [ 5.978386125135737, 51.949726345286173 ], [ 5.978281619350992, 51.949287619315839 ], [ 5.978212747550609, 51.948555879385928 ], [ 5.978145480876595, 51.948110389162792 ], [ 5.978126223542827, 51.947982846786111 ], [ 5.978004871088846, 51.94776383099699 ], [ 5.977842427962689, 51.947423006424636 ], [ 5.977402299020135, 51.946985965607624 ], [ 5.976884008979992, 51.946610322424831 ], [ 5.976228007312555, 51.946271971625386 ], [ 5.975870556686599, 51.9461151436929 ], [ 5.975236071142924, 51.94591089475739 ], [ 5.974721165062592, 51.945791455434765 ], [ 5.973770969617076, 51.945600978081373 ], [ 5.972644372485953, 51.945508983412658 ], [ 5.971062274017377, 51.945309429105485 ], [ 5.969560425862269, 51.945207066605064 ], [ 5.967316691734927, 51.945089262960835 ], [ 5.967177664067613, 51.946009431851813 ], [ 5.967188332490342, 51.946166676508938 ], [ 5.96722908055899, 51.946734711451022 ], [ 5.966849858762662, 51.947550876937328 ], [ 5.966580550096316, 51.948326050574657 ], [ 5.966523356709791, 51.94861396171347 ], [ 5.966732516458336, 51.948707309898879 ], [ 5.967965596673029, 51.949137161941067 ], [ 5.969846351380148, 51.950137365672752 ], [ 5.970801001044699, 51.951068267085773 ], [ 5.971682635831418, 51.953091616813822 ], [ 5.971877572473791, 51.953643434690008 ], [ 5.978504637021533, 51.952702456348248 ] ] ] ] } },
{ "type": "Feature", "properties": { "buurtcode": "BU02930003", "buurtnaam": "De Leigraaf-De Steenderens", "pc6_codes": "6932BA, 6932BB, 6932BC, 6932BD, 6932BE, 6932BG, 6932BH, 6932BJ, 6932BK, 6932BL, 6932BM, 6932BN, 6932BP, 6932BR, 6932BS, 6932BT, 6932BV, 6932BW, 6932BX, 6932BZ, 6932CA, 6932CD, 6932CH, 6932CJ, 6932CK, 6932CL, 6932CN, 6932CP, 6932DA, 6932DB, 6932DC, 6932DD, 6932DE, 6932DH, 6932DJ, 6932DM, 6932DN, 6932DP, 6932DR, 6932DS, 6932DT, 6932DV, 6932DW, 6932KG, 6932KL, 6932LK", "wijkcode": "WK029300", "gemeentecode": "GM0293", "gemeentenaam": "Westervoort", "oppervlakteLandInHa": 41, "AantalInwoners_5": 2090, "Mannen_6": 1050, "Vrouwen_7": 1040, "HuishoudensTotaal_29": 920, "GemiddeldeHuishoudensgrootte_33": 2.3, "Woningvoorraad_35": 906, "NieuwbouwWoningen_36": 0, "NietWoningvoorraad_37": 8, "NieuwbouwNietWoningen_38": 0, "GemiddeldeWOZWaardeVanWoningen_39": 323, "PercentageEengezinswoning_40": 96, "PercentageTussenwoningEengezins_41": 58, "PercentageHoekwoningEengezins_42": 26, "PercentageTweeOnderEenKapWoningEe_43": 4, "PercentageVrijstaandeWoningEengezins_44": 8, "PercentageMeergezinswoning_45": 4, "Koopwoningen_47": 72, "HuurwoningenTotaal_48": 28, "InBezitWoningcorporatie_49": 20, "InBezitOverigeVerhuurders_50": 8, "BouwjaarMeerDanTienJaarGeleden_51": 100, "BouwjaarAfgelopenTienJaar_52": 0, "GemiddeldeElektriciteitslevering_53": 2520, "GemiddeldeElektriciteitsteruglevering_54": 880, "GemiddeldAardgasverbruik_55": 440, "AardgasvrijeWoningen_57": 45, "Aardgaswoningen_58": 54, "WoningenMetZonnestroom_59": 41, "WoningenHoofdzElektrVerwarmd_60": 7, "k_20PersonenMetHoogsteInkomen_80": 17.3, "k_20HuishoudensMetHoogsteInkomen_85": 18.3, "MediaanVermogenVanParticuliereHuish_86": 167.5, "PersonenautoSTotaal_104": 1110, "PersonenautoSBrandstofBenzine_105": 915, "PersonenautoSOverigeBrandstof_106": 195, "PersonenautoSPerHuishouden_107": 1.2, "Omgevingsadressendichtheid_121": 1266, "AantalInstallatiesBijWoningen_5": 279, "OpgesteldVermogenVanZonnepanelen_6": 1096, "installaties_per_woning": 0.30794701986754969, "vermogen_per_woning": 1.2097130242825607, "installaties_per_100_woningen": 30.794701986754969, "vermogen_per_huishouden": 1.191304347826087, "batterijdruk_score": 360.8, "koop_zon_score": 0.2952, "eengezins_zon_score": 0.3936, "betaalkracht_zon_score": 68.675, "overige_brandstof_zon_score": 79.95, "lichte_batterij_kansscore": 0.44683749588645921 }, "geometry": { "type": "MultiPolygon", "coordinates": [ [ [ [ 5.985480448610824, 51.955147121323336 ], [ 5.98552494881409, 51.955128902720269 ], [ 5.985483532590852, 51.955024895492294 ], [ 5.985479603966953, 51.955015019237415 ], [ 5.985453655038919, 51.954949859423806 ], [ 5.985417154916018, 51.954858192520014 ], [ 5.98539907109575, 51.95482973732571 ], [ 5.985383739916608, 51.954794967240005 ], [ 5.985131002789577, 51.954221686318199 ], [ 5.985026578675658, 51.953972519123894 ], [ 5.984984893994066, 51.95389012752976 ], [ 5.984964981080381, 51.953825871703877 ], [ 5.98494369029131, 51.953701849887679 ], [ 5.984909710864164, 51.953280465754538 ], [ 5.984909146512189, 51.953273044188713 ], [ 5.98490669163168, 51.953240545553697 ], [ 5.984878827367751, 51.952871946255456 ], [ 5.98487870100795, 51.952870104271625 ], [ 5.984877624461761, 51.952855899051606 ], [ 5.984877344445714, 51.952852350048992 ], [ 5.98487499364581, 51.952821109261372 ], [ 5.984859207282065, 51.952612253673621 ], [ 5.984844618604276, 51.952424505791249 ], [ 5.984835367211689, 51.952305465228413 ], [ 5.984832876223189, 51.952273524053631 ], [ 5.984854392768791, 51.952185175323244 ], [ 5.984854530686655, 51.952184608351438 ], [ 5.984830468021618, 51.952136372980199 ], [ 5.984828465217687, 51.951980505948356 ], [ 5.984826263759434, 51.951809719142076 ], [ 5.984826146950873, 51.951800947035792 ], [ 5.984825749057083, 51.951760141621264 ], [ 5.984836204890725, 51.951682338608862 ], [ 5.984853649281955, 51.951677099551674 ], [ 5.985060625145969, 51.951614233660621 ], [ 5.985569287571605, 51.951404462318017 ], [ 5.986029262251315, 51.951192815525488 ], [ 5.986618772408409, 51.950921560346146 ], [ 5.987228816224, 51.950623205120138 ], [ 5.987304659338495, 51.95058611820685 ], [ 5.987316964924415, 51.950579547763276 ], [ 5.98733340137717, 51.95057078102942 ], [ 5.987461757841019, 51.950502263024362 ], [ 5.987529250620296, 51.950466234297608 ], [ 5.987576480583582, 51.950441095137883 ], [ 5.987024384896266, 51.949797259368893 ], [ 5.986305279281835, 51.948958648227347 ], [ 5.985306390307871, 51.947821036465704 ], [ 5.985278530162401, 51.94778785812624 ], [ 5.985030598776649, 51.947492591165485 ], [ 5.984930244805343, 51.947373079059346 ], [ 5.984795424651361, 51.947200440725759 ], [ 5.984568953510363, 51.946910403705814 ], [ 5.983684107483573, 51.946961336096585 ], [ 5.978145480876595, 51.948110389162792 ], [ 5.978212747550609, 51.948555879385928 ], [ 5.978281619350992, 51.949287619315839 ], [ 5.978386125135737, 51.949726345286173 ], [ 5.978492402503839, 51.950299278215965 ], [ 5.97855935113501, 51.950884610654995 ], [ 5.978624856013799, 51.951360136972795 ], [ 5.978641334722389, 51.951792876960511 ], [ 5.97877223140327, 51.952155625413937 ], [ 5.978795536756218, 51.952595940576742 ], [ 5.978855838940964, 51.952652938237605 ], [ 5.9790055643765, 51.952630837052794 ], [ 5.979271228996066, 51.953041000689602 ], [ 5.979357330179976, 51.953175392345223 ], [ 5.979425395569232, 51.953252294106811 ], [ 5.979697018519921, 51.953562149284167 ], [ 5.980223335740018, 51.954087003011807 ], [ 5.980750772303683, 51.954695553359464 ], [ 5.980790866072175, 51.954753775615579 ], [ 5.981343726710529, 51.955530165931968 ], [ 5.981994030231116, 51.956196514345194 ], [ 5.982236674573379, 51.956495556089024 ], [ 5.985480448610824, 51.955147121323336 ] ] ] ] } },
{ "type": "Feature", "properties": { "buurtcode": "BU02930004", "buurtnaam": "De Ganzepoel-Schans", "pc6_codes": "6931SG, 6932KK, 6932KL, 6932KM, 6932KP, 6932KR, 6932LA, 6932LB, 6932LC, 6932LE, 6932LG, 6932LH, 6932LJ, 6932LK, 6932LL, 6932LM, 6932LN, 6932LP, 6932LR, 6932LS, 6932LT, 6932LV, 6932LW, 6932LX, 6932MA, 6932MB, 6932ME, 6932MG, 6932MK, 6932ML, 6932MN, 6932MP, 6932MS, 6932MT, 6932MV, 6932MW, 6932MX, 6932MZ, 6932NA, 6932NB, 6932NC, 6932ND, 6932NE, 6932NG, 6932NH, 6932NK, 6932NL, 6932NM, 6932NP, 6932NR, 6932NS, 6932PA, 6932PB, 6932PC, 6932PD, 6932PE, 6932PG, 6932PH, 6932PJ, 6932PK", "wijkcode": "WK029300", "gemeentecode": "GM0293", "gemeentenaam": "Westervoort", "oppervlakteLandInHa": 63, "AantalInwoners_5": 2325, "Mannen_6": 1140, "Vrouwen_7": 1185, "HuishoudensTotaal_29": 1055, "GemiddeldeHuishoudensgrootte_33": 2.1, "Woningvoorraad_35": 1099, "NieuwbouwWoningen_36": 0, "NietWoningvoorraad_37": 26, "NieuwbouwNietWoningen_38": 0, "GemiddeldeWOZWaardeVanWoningen_39": 300, "PercentageEengezinswoning_40": 80, "PercentageTussenwoningEengezins_41": 48, "PercentageHoekwoningEengezins_42": 21, "PercentageTweeOnderEenKapWoningEe_43": 5, "PercentageVrijstaandeWoningEengezins_44": 7, "PercentageMeergezinswoning_45": 20, "Koopwoningen_47": 51, "HuurwoningenTotaal_48": 49, "InBezitWoningcorporatie_49": 34, "InBezitOverigeVerhuurders_50": 16, "BouwjaarMeerDanTienJaarGeleden_51": 95, "BouwjaarAfgelopenTienJaar_52": 5, "GemiddeldeElektriciteitslevering_53": 2290, "GemiddeldeElektriciteitsteruglevering_54": 820, "GemiddeldAardgasverbruik_55": 40, "AardgasvrijeWoningen_57": 97, "Aardgaswoningen_58": 2, "WoningenMetZonnestroom_59": 39, "WoningenHoofdzElektrVerwarmd_60": 9, "k_20PersonenMetHoogsteInkomen_80": 16.1, "k_20HuishoudensMetHoogsteInkomen_85": 14.5, "MediaanVermogenVanParticuliereHuish_86": 95.1, "PersonenautoSTotaal_104": 1175, "PersonenautoSBrandstofBenzine_105": 980, "PersonenautoSOverigeBrandstof_106": 200, "PersonenautoSPerHuishouden_107": 1.1, "Omgevingsadressendichtheid_121": 1081, "AantalInstallatiesBijWoningen_5": 340, "OpgesteldVermogenVanZonnepanelen_6": 1216, "installaties_per_woning": 0.30937215650591449, "vermogen_per_woning": 1.1064604185623295, "installaties_per_100_woningen": 30.937215650591448, "vermogen_per_huishouden": 1.15260663507109, "batterijdruk_score": 319.8, "koop_zon_score": 0.1989, "eengezins_zon_score": 0.312, "betaalkracht_zon_score": 37.089, "overige_brandstof_zon_score": 78.0, "lichte_batterij_kansscore": 0.36719411647510458 }, "geometry": { "type": "MultiPolygon", "coordinates": [ [ [ [ 5.983684107483573, 51.946961336096585 ], [ 5.984568953510363, 51.946910403705814 ], [ 5.984516509003386, 51.94684323814284 ], [ 5.984488097714, 51.946806808605537 ], [ 5.98609551955265, 51.946382986420645 ], [ 5.986168105177313, 51.946363848712402 ], [ 5.986165515501451, 51.946344177247283 ], [ 5.986156726495418, 51.946285024234079 ], [ 5.986016113024552, 51.945339133107353 ], [ 5.985989374460885, 51.945231857575486 ], [ 5.985942519579389, 51.945110303021863 ], [ 5.985854351861484, 51.944988239801432 ], [ 5.985750654294318, 51.944868592592961 ], [ 5.985095705842851, 51.944193892725167 ], [ 5.984794479947238, 51.943883562024709 ], [ 5.984751605509738, 51.943842163567311 ], [ 5.984719128014953, 51.943795139411094 ], [ 5.984376407814547, 51.943048153792517 ], [ 5.984375434312339, 51.943046037468633 ], [ 5.984374221548666, 51.943043427996614 ], [ 5.984363844244459, 51.943020884700793 ], [ 5.984306333177463, 51.943027198240998 ], [ 5.983942395786981, 51.943067157552157 ], [ 5.983506927807094, 51.943087164810983 ], [ 5.983179082591104, 51.94309610831327 ], [ 5.98274338262907, 51.943087710473861 ], [ 5.981873211424979, 51.943042859830712 ], [ 5.981094659660664, 51.943018258167193 ], [ 5.980811358379252, 51.943009307711925 ], [ 5.98045326453858, 51.943007430497978 ], [ 5.980308902026291, 51.943000788573876 ], [ 5.979982572486567, 51.942937268768894 ], [ 5.979694118039558, 51.942823221927519 ], [ 5.978955304125662, 51.942537067194984 ], [ 5.978860772155528, 51.942504106152597 ], [ 5.978719310079569, 51.942474617070488 ], [ 5.978324285890864, 51.942395888405969 ], [ 5.977743741585167, 51.94228152579123 ], [ 5.976967004021245, 51.942112632435951 ], [ 5.976505990654505, 51.94200532200658 ], [ 5.97608850042874, 51.941911840624087 ], [ 5.975770371692001, 51.94184268626146 ], [ 5.975564773780556, 51.94179961844776 ], [ 5.975379048272466, 51.941758095708529 ], [ 5.975241118822507, 51.941722589493693 ], [ 5.975072584431138, 51.941674418705617 ], [ 5.974910166168521, 51.941620158892803 ], [ 5.974669129054781, 51.941529385371133 ], [ 5.974466031810487, 51.941441594702866 ], [ 5.974262905710455, 51.94135042418069 ], [ 5.974068788556146, 51.941258588122963 ], [ 5.97392043691621, 51.941175439808582 ], [ 5.973811264615875, 51.941110054641385 ], [ 5.973612427785078, 51.940976283409412 ], [ 5.97348371680845, 51.940883544767765 ], [ 5.97336542426962, 51.940802331120238 ], [ 5.973242015557608, 51.94072131364571 ], [ 5.973099140190741, 51.94062738683342 ], [ 5.972976690569606, 51.940557384113191 ], [ 5.972836228929203, 51.940474491730598 ], [ 5.97267987624945, 51.940382977547081 ], [ 5.972528170086799, 51.940296437581438 ], [ 5.972355549352153, 51.940197435731946 ], [ 5.972307159649188, 51.940169120413209 ], [ 5.972154626805839, 51.940091572511584 ], [ 5.972045422240183, 51.940040055017789 ], [ 5.972025219267104, 51.940030897470578 ], [ 5.971770642855255, 51.939915566104091 ], [ 5.971499344632332, 51.939796964641324 ], [ 5.971457172751798, 51.939779251371782 ], [ 5.971263115566954, 51.939697765075671 ], [ 5.970957147939578, 51.939572278740918 ], [ 5.970689636426984, 51.939462734921712 ], [ 5.970459736694588, 51.939369111104355 ], [ 5.970440615271942, 51.939361439997562 ], [ 5.970357083312636, 51.939327923194455 ], [ 5.970352186047932, 51.939325961051836 ], [ 5.970231903926535, 51.939290118734206 ], [ 5.970090935333705, 51.939250370055717 ], [ 5.969968137518356, 51.939210027755664 ], [ 5.969875381506222, 51.939181751661422 ], [ 5.96978607131424, 51.939154528035921 ], [ 5.969771132357306, 51.939153118998476 ], [ 5.969731921366379, 51.939149430359542 ], [ 5.969580232080572, 51.939135180447167 ], [ 5.969518001202603, 51.939129322746005 ], [ 5.969527077460715, 51.939257272978665 ], [ 5.969529448497453, 51.939517440239236 ], [ 5.969526539206607, 51.93959474613667 ], [ 5.969469351680954, 51.939596557512004 ], [ 5.969324810213342, 51.939574011488688 ], [ 5.969273550075622, 51.939560773748497 ], [ 5.969259924169084, 51.939557791459833 ], [ 5.969461433011624, 51.940088252883136 ], [ 5.969421306521089, 51.941374638707266 ], [ 5.968250809971725, 51.941954849104775 ], [ 5.967219100999654, 51.942585482711266 ], [ 5.966923774652074, 51.943138041439092 ], [ 5.967137980284588, 51.943729379113783 ], [ 5.967383971255462, 51.944194719801231 ], [ 5.96735854545445, 51.944812237352288 ], [ 5.967316691734927, 51.945089262960835 ], [ 5.969560425862269, 51.945207066605064 ], [ 5.971062274017377, 51.945309429105485 ], [ 5.972644372485953, 51.945508983412658 ], [ 5.973770969617076, 51.945600978081373 ], [ 5.974721165062592, 51.945791455434765 ], [ 5.975236071142924, 51.94591089475739 ], [ 5.975870556686599, 51.9461151436929 ], [ 5.976228007312555, 51.946271971625386 ], [ 5.976884008979992, 51.946610322424831 ], [ 5.977402299020135, 51.946985965607624 ], [ 5.977842427962689, 51.947423006424636 ], [ 5.978004871088846, 51.94776383099699 ], [ 5.978126223542827, 51.947982846786111 ], [ 5.978145480876595, 51.948110389162792 ], [ 5.983684107483573, 51.946961336096585 ] ] ] ] } },
{ "type": "Feature", "properties": { "buurtcode": "BU02930009", "buurtnaam": "Verspreide huizen Westervoort", "pc6_codes": "6931AA, 6931AB, 6931AE, 6931DK, 6931EX, 6931KA, 6931KB, 6931KJ, 6931MA, 6931MB, 6931SB, 6931SC, 6931SE, 6931SG, 6931SH", "wijkcode": "WK029300", "gemeentecode": "GM0293", "gemeentenaam": "Westervoort", "oppervlakteLandInHa": 304, "AantalInwoners_5": 125, "Mannen_6": 60, "Vrouwen_7": 60, "HuishoudensTotaal_29": 45, "GemiddeldeHuishoudensgrootte_33": 2.7, "Woningvoorraad_35": 45, "NieuwbouwWoningen_36": 0, "NietWoningvoorraad_37": 47, "NieuwbouwNietWoningen_38": 0, "GemiddeldeWOZWaardeVanWoningen_39": 557, "PercentageEengezinswoning_40": 98, "PercentageTussenwoningEengezins_41": 24, "PercentageHoekwoningEengezins_42": 22, "PercentageTweeOnderEenKapWoningEe_43": 20, "PercentageVrijstaandeWoningEengezins_44": 31, "PercentageMeergezinswoning_45": 2, "Koopwoningen_47": 91, "HuurwoningenTotaal_48": 9, "InBezitWoningcorporatie_49": 0, "InBezitOverigeVerhuurders_50": 9, "BouwjaarMeerDanTienJaarGeleden_51": 53, "BouwjaarAfgelopenTienJaar_52": 47, "GemiddeldeElektriciteitslevering_53": 5150, "GemiddeldeElektriciteitsteruglevering_54": 3090, "GemiddeldAardgasverbruik_55": 340, "AardgasvrijeWoningen_57": null, "Aardgaswoningen_58": null, "WoningenMetZonnestroom_59": null, "WoningenHoofdzElektrVerwarmd_60": null, "k_20PersonenMetHoogsteInkomen_80": null, "k_20HuishoudensMetHoogsteInkomen_85": null, "MediaanVermogenVanParticuliereHuish_86": null, "PersonenautoSTotaal_104": 90, "PersonenautoSBrandstofBenzine_105": 55, "PersonenautoSOverigeBrandstof_106": 35, "PersonenautoSPerHuishouden_107": null, "Omgevingsadressendichtheid_121": 685, "AantalInstallatiesBijWoningen_5": 27, "OpgesteldVermogenVanZonnepanelen_6": 181, "installaties_per_woning": 0.6, "vermogen_per_woning": 4.0222222222222221, "installaties_per_100_woningen": 60.0, "vermogen_per_huishouden": 4.0222222222222221, "batterijdruk_score": null, "koop_zon_score": null, "eengezins_zon_score": null, "betaalkracht_zon_score": null, "overige_brandstof_zon_score": null, "lichte_batterij_kansscore": null }, "geometry": { "type": "MultiPolygon", "coordinates": [ [ [ [ 6.002516311922616, 51.980534488966846 ], [ 6.002885293122866, 51.980457145153608 ], [ 6.003085220166641, 51.980303502252397 ], [ 6.003143152835661, 51.980258993895895 ], [ 6.003187876849442, 51.980224621703904 ], [ 6.003083901186978, 51.979839698752649 ], [ 6.002979358244779, 51.979474813809425 ], [ 6.002749523941411, 51.979082441952073 ], [ 6.002627447947767, 51.978908598032817 ], [ 6.002357682077094, 51.978519580305999 ], [ 6.002152057761642, 51.97822338235224 ], [ 6.00204305354375, 51.978091750905804 ], [ 6.001801558152607, 51.977797915070468 ], [ 6.001732846369996, 51.977551704324085 ], [ 6.001701222635053, 51.977438364038157 ], [ 6.00165022338952, 51.977261064640338 ], [ 6.001648648974867, 51.977255571964641 ], [ 6.001595567070459, 51.977164203559589 ], [ 6.00153285215756, 51.977075114577922 ], [ 6.001292924185992, 51.976864277396018 ], [ 6.001086350638888, 51.976685866546532 ], [ 6.000858380135616, 51.976498713418778 ], [ 6.000765187119376, 51.976427490224118 ], [ 6.000428450626583, 51.976170152402901 ], [ 6.00042624732571, 51.97616846867983 ], [ 6.000313171201707, 51.976078931575358 ], [ 6.000148464945821, 51.975948514583131 ], [ 5.99983281862697, 51.975693693341206 ], [ 5.999705174133183, 51.975611485192545 ], [ 5.999697042700427, 51.97560648505214 ], [ 5.999410386968843, 51.975430079307912 ], [ 5.999158819844495, 51.975286441756381 ], [ 5.999131741732053, 51.975270987789905 ], [ 5.998989425631495, 51.975181062270742 ], [ 5.998978517802945, 51.975174170983998 ], [ 5.998781122159476, 51.975058123825917 ], [ 5.998671854087481, 51.974997651818057 ], [ 5.99856774368537, 51.974949305215112 ], [ 5.998394938319142, 51.97486468784642 ], [ 5.998165556546935, 51.974761533485413 ], [ 5.998055249931181, 51.974712319784075 ], [ 5.997944990821535, 51.974668714496417 ], [ 5.997859084618224, 51.97462858699221 ], [ 5.997783534139987, 51.974593295346018 ], [ 5.997708668274045, 51.974560175290662 ], [ 5.997524609088475, 51.974482554123611 ], [ 5.997350109009053, 51.974417511776508 ], [ 5.997158511853309, 51.974356998128258 ], [ 5.996998658687268, 51.974304067560006 ], [ 5.99686650179444, 51.974256467120775 ], [ 5.996771993857956, 51.974224751625847 ], [ 5.99669713538453, 51.974196358791239 ], [ 5.996624846176405, 51.974166388611785 ], [ 5.996595597340943, 51.97414958806575 ], [ 5.996570667395305, 51.974122877888789 ], [ 5.996530319950047, 51.974108660581649 ], [ 5.996398748903818, 51.974062323948395 ], [ 5.996336930359568, 51.974137814202798 ], [ 5.996186235759586, 51.974093634737841 ], [ 5.996203931562462, 51.974068851951223 ], [ 5.99621947397933, 51.974049473355976 ], [ 5.996226923339348, 51.974036446532992 ], [ 5.996191832059996, 51.97395592140807 ], [ 5.996093276537075, 51.9739304373186 ], [ 5.995968507764634, 51.973895165660359 ], [ 5.995769149264745, 51.973843696318781 ], [ 5.995596341370141, 51.9737957385654 ], [ 5.995330627788833, 51.973732081944767 ], [ 5.995131026248864, 51.973676532048053 ], [ 5.994975422302693, 51.973625356477704 ], [ 5.994835498037546, 51.97357132226368 ], [ 5.994631746385042, 51.973490787234482 ], [ 5.994494445701388, 51.973439129978921 ], [ 5.994377006558296, 51.973397886439848 ], [ 5.994296890590189, 51.973373312337436 ], [ 5.994196563410023, 51.973346865064485 ], [ 5.994099631415703, 51.973328247057857 ], [ 5.99386622286598, 51.973274685160185 ], [ 5.99361629673828, 51.973218987849499 ], [ 5.993356043260325, 51.973158282776161 ], [ 5.993121737269973, 51.973106027350539 ], [ 5.992894767399998, 51.973041958866297 ], [ 5.99268045529091, 51.972984026766603 ], [ 5.992608587585703, 51.972967687364395 ], [ 5.992525661336916, 51.972950425110724 ], [ 5.992322344903432, 51.972908102539492 ], [ 5.992041042785655, 51.972823072409795 ], [ 5.99182044814721, 51.97275128398514 ], [ 5.991551841507474, 51.972663230227575 ], [ 5.991353875896861, 51.97259553119742 ], [ 5.991143517047255, 51.97252501021277 ], [ 5.991116009143117, 51.972516217023127 ], [ 5.991051536587627, 51.972495605155586 ], [ 5.990882147950012, 51.972436009930959 ], [ 5.990734539598953, 51.972391070616936 ], [ 5.990679138511926, 51.972369701901492 ], [ 5.990619780363581, 51.972350600566635 ], [ 5.990556134270611, 51.972335134541034 ], [ 5.990435194390089, 51.97231337392104 ], [ 5.990396766003965, 51.972306317417512 ], [ 5.990347147471248, 51.972297197037889 ], [ 5.990277016133702, 51.972285377463677 ], [ 5.99023102300542, 51.972278539471738 ], [ 5.990198150782322, 51.972273404892135 ], [ 5.990167493969372, 51.97226959821478 ], [ 5.990135072059998, 51.972268730798618 ], [ 5.99011837621165, 51.97227065902846 ], [ 5.99010315359448, 51.972273918973883 ], [ 5.990087629614171, 51.97227966126097 ], [ 5.990071757470175, 51.972287652431049 ], [ 5.990059555406427, 51.972295840504422 ], [ 5.990050231132267, 51.972302665562538 ], [ 5.990018342760322, 51.972327421307398 ], [ 5.989974371282436, 51.972365973259564 ], [ 5.989881130369574, 51.972452802750695 ], [ 5.989842046272233, 51.972481433373893 ], [ 5.98980899184231, 51.972502824386751 ], [ 5.989776611206597, 51.972521290707363 ], [ 5.989747797041297, 51.972536574826826 ], [ 5.98971965970454, 51.972549158951217 ], [ 5.989699421378244, 51.972556066869267 ], [ 5.989664974214026, 51.972562625129505 ], [ 5.989413028687044, 51.972595384099179 ], [ 5.989273772733992, 51.972620752380749 ], [ 5.989159129735527, 51.972639855423331 ], [ 5.98902909058435, 51.972671000713234 ], [ 5.988904380007076, 51.97269579974774 ], [ 5.988696950182501, 51.972733830280177 ], [ 5.988509845074587, 51.972769230772556 ], [ 5.988404197938864, 51.972783091779661 ], [ 5.988328653230864, 51.972790875452496 ], [ 5.988252023081333, 51.972799114044918 ], [ 5.988103365124235, 51.972791955038772 ], [ 5.987982072320607, 51.972788395207239 ], [ 5.987869102454643, 51.972782536647365 ], [ 5.987806711643931, 51.972774927572004 ], [ 5.987707765918517, 51.972759963885231 ], [ 5.987626545030068, 51.972739462641165 ], [ 5.987530120573545, 51.97270626644886 ], [ 5.987445739680536, 51.972673646876352 ], [ 5.987355357175921, 51.97263298629418 ], [ 5.987244711941812, 51.97259742659373 ], [ 5.987157957446052, 51.97257337588276 ], [ 5.987033714214072, 51.972549381524509 ], [ 5.986936770942736, 51.97252629944181 ], [ 5.986806661194801, 51.972482578267694 ], [ 5.98670182304617, 51.972446979458319 ], [ 5.986582117878826, 51.972395519910286 ], [ 5.986544953682427, 51.972483031624442 ], [ 5.986459104125648, 51.972485275837926 ], [ 5.986381950075146, 51.972485875745178 ], [ 5.986292385734605, 51.972485666956828 ], [ 5.986214074805391, 51.972482461567694 ], [ 5.986105625629375, 51.972483751028847 ], [ 5.986056430429832, 51.972481215180622 ], [ 5.985984999002664, 51.972476599377735 ], [ 5.985863809763446, 51.972460003662277 ], [ 5.985765927138345, 51.972443900395525 ], [ 5.985648310405628, 51.972423448227538 ], [ 5.985472591149824, 51.972410212642416 ], [ 5.985350932770307, 51.972406427251869 ], [ 5.985198455932276, 51.972408515089441 ], [ 5.985093020817538, 51.972414273498991 ], [ 5.984945602365073, 51.972432280703373 ], [ 5.98475563216611, 51.972455932961388 ], [ 5.98469478537253, 51.972458183651 ], [ 5.984632229176225, 51.972451193934603 ], [ 5.984573229424894, 51.972450073516789 ], [ 5.984532118891623, 51.972447001597196 ], [ 5.984467001156746, 51.972439997840233 ], [ 5.984391718005463, 51.972430268260666 ], [ 5.98432188405799, 51.972421005323135 ], [ 5.984225764972192, 51.972418167682022 ], [ 5.984132193722172, 51.972417591092409 ], [ 5.984059669198408, 51.972421581565122 ], [ 5.98403530743987, 51.972418343560292 ], [ 5.984018992402132, 51.972410633430094 ], [ 5.984000172814521, 51.972399538395692 ], [ 5.983993368674432, 51.972386926256426 ], [ 5.983988406709526, 51.972373855347371 ], [ 5.983990377301072, 51.972357890943549 ], [ 5.984012925834559, 51.972250014622865 ], [ 5.98404303194679, 51.972153416326059 ], [ 5.984091278634164, 51.972026749634736 ], [ 5.984136543085552, 51.971904565293023 ], [ 5.984220337772447, 51.971681317519256 ], [ 5.984337364458939, 51.97152318364553 ], [ 5.984484578968459, 51.971329410118059 ], [ 5.984660303427678, 51.971090989980368 ], [ 5.984797993211352, 51.970902351868048 ], [ 5.984944639242014, 51.970731743725629 ], [ 5.985001192171298, 51.970665184759412 ], [ 5.98505589662231, 51.970600801367496 ], [ 5.985096802788918, 51.970553727861201 ], [ 5.985191641264621, 51.970441151258768 ], [ 5.985239404113386, 51.970384452207789 ], [ 5.985352153359215, 51.97021818654774 ], [ 5.985362471901846, 51.970202961637916 ], [ 5.985651954585179, 51.969837656188602 ], [ 5.985688142100824, 51.969790408738206 ], [ 5.985816127345135, 51.969623256100462 ], [ 5.985913906260697, 51.969492489371163 ], [ 5.985947118750454, 51.969448079343117 ], [ 5.986124673205193, 51.969244306856936 ], [ 5.986320637695842, 51.969017879398194 ], [ 5.986336944207323, 51.96899995433165 ], [ 5.986395587386141, 51.96893549628706 ], [ 5.986516105323869, 51.968744606579278 ], [ 5.986560966283662, 51.968673558289929 ], [ 5.986584063562288, 51.9686204179649 ], [ 5.98663635667679, 51.96850008430043 ], [ 5.986634260885265, 51.968393339727143 ], [ 5.986620077070484, 51.96833268638818 ], [ 5.986605391069173, 51.968260584381994 ], [ 5.986580893500849, 51.968157720144653 ], [ 5.986555393907802, 51.968032129337594 ], [ 5.986465361217491, 51.967648702526425 ], [ 5.986375152931081, 51.967343529570101 ], [ 5.986300839390322, 51.967090893664867 ], [ 5.986296219626571, 51.967076212175058 ], [ 5.986143960445418, 51.966591883707288 ], [ 5.986142425808422, 51.966587019809559 ], [ 5.986074981572581, 51.96637787060709 ], [ 5.985942614105205, 51.965967334206816 ], [ 5.985845920345843, 51.965667416086987 ], [ 5.985781290783886, 51.9654781616862 ], [ 5.985704758680373, 51.965249616595294 ], [ 5.985582185040403, 51.964891018834763 ], [ 5.985570767851776, 51.964857595127462 ], [ 5.985570358700731, 51.964856374786493 ], [ 5.985525476200622, 51.964724887091869 ], [ 5.985425445151186, 51.964431807777366 ], [ 5.985395387484113, 51.964343730509214 ], [ 5.985380911450997, 51.964301315961173 ], [ 5.985264285668198, 51.963959540841813 ], [ 5.986439205272383, 51.963537979315454 ], [ 5.987167317156034, 51.963275076222388 ], [ 5.987766708301559, 51.963063251160257 ], [ 5.987731670361875, 51.962971883175776 ], [ 5.987706119573285, 51.962926190767135 ], [ 5.9876979056284, 51.96291149172783 ], [ 5.987669924916475, 51.962861443354768 ], [ 5.98764864738379, 51.962836060892741 ], [ 5.987616416057605, 51.962803256009842 ], [ 5.98758232535822, 51.96276958873743 ], [ 5.987553809002215, 51.962740387195836 ], [ 5.987513492891114, 51.962705780944269 ], [ 5.987461017065335, 51.962668225644656 ], [ 5.987414339962157, 51.962636680930089 ], [ 5.98736804059747, 51.962608352119773 ], [ 5.987299233600443, 51.962574691200757 ], [ 5.987229670385041, 51.962542139675598 ], [ 5.987150127507344, 51.962509710943053 ], [ 5.987070413194403, 51.962473157351255 ], [ 5.987026016107817, 51.962453222864838 ], [ 5.986982368188531, 51.962430552063097 ], [ 5.986944086371, 51.962412015505691 ], [ 5.986918797673714, 51.962393466589155 ], [ 5.986898038325038, 51.962376323721095 ], [ 5.986884535008553, 51.962361022416495 ], [ 5.986873182566825, 51.962345530371316 ], [ 5.986859000793916, 51.962317567853873 ], [ 5.986852760234513, 51.96229590166061 ], [ 5.986840632193199, 51.962268099445687 ], [ 5.986833810043971, 51.962237753412985 ], [ 5.986831249308949, 51.962209452979955 ], [ 5.986829502949224, 51.962182209025649 ], [ 5.986837017441151, 51.962113031844083 ], [ 5.986840065769484, 51.962076568290755 ], [ 5.986841883725552, 51.962054735156975 ], [ 5.986847817531593, 51.961983777341629 ], [ 5.986865902541305, 51.961775801126919 ], [ 5.986898194137023, 51.961520383508393 ], [ 5.986918259143489, 51.961356071863833 ], [ 5.986938398205314, 51.961244117333592 ], [ 5.986952825771418, 51.961143544299034 ], [ 5.986996311967462, 51.960882110201275 ], [ 5.98704138879236, 51.960668953713842 ], [ 5.987111205381921, 51.960368105841205 ], [ 5.987103617210735, 51.960337044652249 ], [ 5.987101877582726, 51.960329898752178 ], [ 5.987054869238928, 51.960137337147913 ], [ 5.987054299827988, 51.960135012054145 ], [ 5.98705037466988, 51.9601189248447 ], [ 5.987042524602478, 51.960086768400799 ], [ 5.987034998084882, 51.960055958567509 ], [ 5.986999780215549, 51.959911658490093 ], [ 5.986923432122213, 51.959599745546662 ], [ 5.98685507656015, 51.95930772807953 ], [ 5.986781586908091, 51.959000528350785 ], [ 5.986710924194829, 51.95870665295832 ], [ 5.986624574311046, 51.958348185853275 ], [ 5.986582033346586, 51.9581706298735 ], [ 5.98654280269411, 51.958013235991999 ], [ 5.98646549071393, 51.957667881708815 ], [ 5.986393483897657, 51.957372179300222 ], [ 5.986362745927417, 51.957247100358572 ], [ 5.986336003037101, 51.957159716443059 ], [ 5.986313373168416, 51.957082908903054 ], [ 5.986049973231343, 51.956447250845777 ], [ 5.985789521889161, 51.955793231793344 ], [ 5.985562779693502, 51.955223891226474 ], [ 5.985550557843935, 51.955193213044076 ], [ 5.98552494881409, 51.955128902720269 ], [ 5.985480448610824, 51.955147121323336 ], [ 5.982236674573379, 51.956495556089024 ], [ 5.982273666080904, 51.956542276684225 ], [ 5.983027276647145, 51.958618153761897 ], [ 5.983521252594844, 51.961200940028235 ], [ 5.981209891731388, 51.961681724434065 ], [ 5.979430592836136, 51.962585047252468 ], [ 5.979614106411109, 51.963914406523408 ], [ 5.979849992380142, 51.965145472007698 ], [ 5.980106797059841, 51.966737090031771 ], [ 5.977983087749166, 51.969233071952324 ], [ 5.976466047188194, 51.969166811588138 ], [ 5.975997749807767, 51.968966918695244 ], [ 5.975376548141933, 51.96865459088626 ], [ 5.974227940342617, 51.96828000961267 ], [ 5.973139726286819, 51.968088816514097 ], [ 5.972191317969731, 51.967894670777767 ], [ 5.971772138299386, 51.967779906482065 ], [ 5.970573748413402, 51.967594574733461 ], [ 5.969904127483799, 51.967471214621838 ], [ 5.96871499777304, 51.967560524899845 ], [ 5.967990671591102, 51.967707077081322 ], [ 5.967544516301612, 51.967632878761016 ], [ 5.966839119009779, 51.967555462868077 ], [ 5.965976272540434, 51.967451852735863 ], [ 5.964971596312901, 51.967510724319247 ], [ 5.964401874193063, 51.967569138192665 ], [ 5.963939621127437, 51.967603989449451 ], [ 5.963099991190121, 51.967608105000018 ], [ 5.962679331943471, 51.967482361480108 ], [ 5.962037981089637, 51.967061359303479 ], [ 5.96153827883252, 51.966781509337288 ], [ 5.961018624500047, 51.966434342628617 ], [ 5.960692578101922, 51.966078363693981 ], [ 5.960280949580877, 51.965643310427673 ], [ 5.959984886445155, 51.965355439402025 ], [ 5.95965020582222, 51.965016353768156 ], [ 5.95931619646136, 51.964729508025123 ], [ 5.958733959094604, 51.964713519922036 ], [ 5.958782860635522, 51.964215268852818 ], [ 5.958709954028349, 51.963971251453657 ], [ 5.958772086356669, 51.963369570436591 ], [ 5.958900166218463, 51.963019242697598 ], [ 5.958969399131245, 51.962636057208456 ], [ 5.95899762429488, 51.962103638199878 ], [ 5.958976903389461, 51.961744203308363 ], [ 5.958915166801209, 51.961573724096688 ], [ 5.958968838272663, 51.961218421585848 ], [ 5.959080865478648, 51.960982493161389 ], [ 5.959203121414232, 51.960764491638201 ], [ 5.959325649818564, 51.960567836985021 ], [ 5.959752388865959, 51.960374193439293 ], [ 5.96030295350468, 51.959961696646772 ], [ 5.960329476653066, 51.959635456681163 ], [ 5.960535672067357, 51.958924367985354 ], [ 5.960546960367746, 51.958437815953339 ], [ 5.960583999333879, 51.958151974151519 ], [ 5.961217843857517, 51.957784006803379 ], [ 5.961652595964193, 51.957526556935207 ], [ 5.962103892815696, 51.957212284352629 ], [ 5.962049984424641, 51.956978850475096 ], [ 5.962583570093139, 51.95661220893966 ], [ 5.963040152122365, 51.956480765042535 ], [ 5.963551302028533, 51.95629736853008 ], [ 5.964235836180033, 51.955791783431756 ], [ 5.964247956148576, 51.955602967473311 ], [ 5.964212819922293, 51.955362981489579 ], [ 5.964008027584008, 51.955045741310904 ], [ 5.963927545178525, 51.954549245529911 ], [ 5.96413321531808, 51.954369310434799 ], [ 5.964393307743181, 51.954126189827356 ], [ 5.964727276076163, 51.953618670379818 ], [ 5.96521748031366, 51.952817978114155 ], [ 5.965343531994426, 51.952439845101715 ], [ 5.965588364178212, 51.952036971190132 ], [ 5.965648433675963, 51.951618714593181 ], [ 5.965433336715447, 51.951295067493788 ], [ 5.965164696141152, 51.950978422786726 ], [ 5.9649210116828, 51.950587502227975 ], [ 5.965253272564886, 51.950302733820259 ], [ 5.966047286972268, 51.950047150004643 ], [ 5.966336213606946, 51.94955782505447 ], [ 5.966523356709791, 51.94861396171347 ], [ 5.966580550096316, 51.948326050574657 ], [ 5.966849858762662, 51.947550876937328 ], [ 5.96722908055899, 51.946734711451022 ], [ 5.967188332490342, 51.946166676508938 ], [ 5.967177664067613, 51.946009431851813 ], [ 5.967316691734927, 51.945089262960835 ], [ 5.96735854545445, 51.944812237352288 ], [ 5.967383971255462, 51.944194719801231 ], [ 5.967137980284588, 51.943729379113783 ], [ 5.966923774652074, 51.943138041439092 ], [ 5.967219100999654, 51.942585482711266 ], [ 5.968250809971725, 51.941954849104775 ], [ 5.969421306521089, 51.941374638707266 ], [ 5.969461433011624, 51.940088252883136 ], [ 5.969259924169084, 51.939557791459833 ], [ 5.969233545964666, 51.939552019397929 ], [ 5.969213913286798, 51.939545285420522 ], [ 5.96918954543419, 51.939536750237977 ], [ 5.969162260385805, 51.939527546375288 ], [ 5.969132098953549, 51.939516334352867 ], [ 5.969099372014941, 51.939504658638583 ], [ 5.969068087735623, 51.93949208591841 ], [ 5.969020070497094, 51.939466481914437 ], [ 5.96895461973642, 51.939431014000291 ], [ 5.968884017018895, 51.939396362530665 ], [ 5.968796773614113, 51.939353541993874 ], [ 5.968576386328404, 51.939245090459792 ], [ 5.968189081620992, 51.939060298152647 ], [ 5.967674124579006, 51.938823633742452 ], [ 5.967579881595181, 51.938783651267954 ], [ 5.967531113597667, 51.938760594091043 ], [ 5.967297588773853, 51.938733397498474 ], [ 5.96713939022771, 51.938718295706842 ], [ 5.967013335116763, 51.938706927114083 ], [ 5.966930131063394, 51.938698510942189 ], [ 5.966777327150472, 51.938687849300784 ], [ 5.966647928476523, 51.938679939372769 ], [ 5.966590534569974, 51.938675818007944 ], [ 5.966549228291105, 51.938675365484031 ], [ 5.966497244973459, 51.938680322676881 ], [ 5.966427300563192, 51.938688568250164 ], [ 5.966360567379683, 51.938698865294768 ], [ 5.966255959972704, 51.938714355471191 ], [ 5.966232000825722, 51.938719390186996 ], [ 5.966190630122614, 51.938727476858666 ], [ 5.966141608678815, 51.938741093132563 ], [ 5.966114512203704, 51.938752066651588 ], [ 5.966097745046966, 51.93875885460929 ], [ 5.9660717176661, 51.938767027451895 ], [ 5.966027975692136, 51.938768285554112 ], [ 5.965775466700801, 51.93876761439823 ], [ 5.965753608719533, 51.938767560211886 ], [ 5.965574885095478, 51.938768916289789 ], [ 5.965285707879547, 51.938769979529695 ], [ 5.964940232368299, 51.938771822181195 ], [ 5.963641924249663, 51.938780651226239 ], [ 5.963151722192303, 51.938783620853101 ], [ 5.962727232186196, 51.938786185760407 ], [ 5.96265051304761, 51.9387867142391 ], [ 5.961794242549926, 51.938792620584195 ], [ 5.961682954056029, 51.939458999973084 ], [ 5.961300641212394, 51.941209187797945 ], [ 5.961190086235011, 51.941653009631544 ], [ 5.961011262227986, 51.942255019244982 ], [ 5.960738472813491, 51.942887139882764 ], [ 5.960293449976539, 51.943782732258221 ], [ 5.959983281706307, 51.944239678220249 ], [ 5.959658099011207, 51.944688768662104 ], [ 5.959503984280438, 51.944885907028471 ], [ 5.95916275715104, 51.945391530369399 ], [ 5.959067707083051, 51.945502172828903 ], [ 5.958801945387261, 51.945811507444269 ], [ 5.958328320825618, 51.946263787643581 ], [ 5.958220562179366, 51.94637387993123 ], [ 5.957553112408497, 51.947010390050586 ], [ 5.956575526482009, 51.947795062848243 ], [ 5.955337466320834, 51.948675023307224 ], [ 5.955225440385986, 51.948753539148676 ], [ 5.955219226414287, 51.948757901589161 ], [ 5.955139883924237, 51.948814552401366 ], [ 5.955023905700393, 51.948912996461374 ], [ 5.954921276007513, 51.948999628086831 ], [ 5.954826616495118, 51.949081619068423 ], [ 5.954745926527425, 51.949145673572986 ], [ 5.954181446895953, 51.949647613726619 ], [ 5.953806462449474, 51.950022890054221 ], [ 5.953423135549596, 51.950440729463551 ], [ 5.952697979889054, 51.951157800550064 ], [ 5.951804035480841, 51.952019788867865 ], [ 5.951329585324395, 51.952463460073389 ], [ 5.950887998777576, 51.95299141771379 ], [ 5.950476352093039, 51.953609581522805 ], [ 5.95010948552938, 51.95422889561037 ], [ 5.949740580203414, 51.955096037239983 ], [ 5.949530952535366, 51.955665286446731 ], [ 5.949405266504684, 51.956150128283298 ], [ 5.949305491981727, 51.956641083992537 ], [ 5.949272737997022, 51.956998340413868 ], [ 5.949249360428601, 51.957451458108267 ], [ 5.949265543528389, 51.958018674010042 ], [ 5.949323161841148, 51.958584703024407 ], [ 5.949392266438103, 51.959003707896187 ], [ 5.9494319494638, 51.959185479063592 ], [ 5.949492284459875, 51.959461808157336 ], [ 5.949656262206083, 51.960076521599966 ], [ 5.949838013181078, 51.960628878171825 ], [ 5.950108988700405, 51.961286879205403 ], [ 5.950488224374697, 51.962050396918002 ], [ 5.950973247550477, 51.962832003102406 ], [ 5.951242946295688, 51.963224023262157 ], [ 5.951752554648874, 51.963859761588232 ], [ 5.952428804151015, 51.964569884511569 ], [ 5.952955339800571, 51.965053425817871 ], [ 5.95364770543379, 51.96559183100576 ], [ 5.953916703467081, 51.965819235140096 ], [ 5.954043680263029, 51.965926582502874 ], [ 5.954354229555676, 51.966171510398304 ], [ 5.954766757746859, 51.966488850014962 ], [ 5.955099001412115, 51.966753697341474 ], [ 5.955457449215045, 51.967017976657232 ], [ 5.955887647540083, 51.967319506272446 ], [ 5.956361494238711, 51.967650997038355 ], [ 5.956863387092664, 51.967985738643264 ], [ 5.957314512840206, 51.968268744470578 ], [ 5.957740203995804, 51.96852060141449 ], [ 5.958128147126801, 51.968749234375686 ], [ 5.958462174641243, 51.968938731945244 ], [ 5.958942945138705, 51.969202055766893 ], [ 5.959308070218206, 51.969377261001057 ], [ 5.959493975013676, 51.969465658578443 ], [ 5.959814012220053, 51.969617835041042 ], [ 5.959836530492415, 51.969628538399974 ], [ 5.960431975025867, 51.969903189258069 ], [ 5.960794510990215, 51.97005482599409 ], [ 5.961519748471949, 51.970365906224821 ], [ 5.962041828501741, 51.970585296165865 ], [ 5.962385219105681, 51.970716123627732 ], [ 5.963628859420851, 51.971143264581393 ], [ 5.964633730380747, 51.971424074845906 ], [ 5.965171617833674, 51.971537624993751 ], [ 5.965629031333273, 51.971625367449015 ], [ 5.966276661815845, 51.971730480851903 ], [ 5.966967927332554, 51.971843599929876 ], [ 5.96841259028945, 51.972082821643845 ], [ 5.969603490406443, 51.972233677598474 ], [ 5.970635716097732, 51.972295568880746 ], [ 5.971312742221373, 51.972340744975348 ], [ 5.971725159798331, 51.97237466708502 ], [ 5.972289438431463, 51.972433961457831 ], [ 5.972862444604123, 51.972495025313698 ], [ 5.973233787584064, 51.972532822964737 ], [ 5.973772953371874, 51.972600082251347 ], [ 5.973868375662875, 51.972611983217107 ], [ 5.974285634825494, 51.972665215219102 ], [ 5.97486021977149, 51.972754143459795 ], [ 5.97551453534423, 51.972845618210258 ], [ 5.976176843319903, 51.972935970689782 ], [ 5.976438470283896, 51.972987907174094 ], [ 5.976993643530676, 51.973102961654746 ], [ 5.977497385633684, 51.973195782768386 ], [ 5.977967016440602, 51.973272054705561 ], [ 5.978345614123489, 51.973331641591948 ], [ 5.978854977220797, 51.973405544039849 ], [ 5.979171202989118, 51.973451015719725 ], [ 5.979609618243971, 51.973501686516663 ], [ 5.980006867941206, 51.973550603750191 ], [ 5.980429064439512, 51.973591879497107 ], [ 5.980780666763334, 51.973630256308049 ], [ 5.981112409473353, 51.97366686279166 ], [ 5.981458767312662, 51.973698172226136 ], [ 5.981841972602932, 51.973731433550284 ], [ 5.982186777761009, 51.973760816191593 ], [ 5.982575080831088, 51.973795388607172 ], [ 5.982947422368783, 51.973825834042152 ], [ 5.983413541314572, 51.973856773605668 ], [ 5.983936111574461, 51.973891811198797 ], [ 5.984388287476604, 51.973917145983648 ], [ 5.984766935673083, 51.973932489088376 ], [ 5.985249056207516, 51.973948482251778 ], [ 5.985614433857653, 51.973959611645952 ], [ 5.98593876846806, 51.973967371512451 ], [ 5.986336008198172, 51.97397439052267 ], [ 5.986502898000907, 51.973978789302798 ], [ 5.987768353837827, 51.974070917774739 ], [ 5.98852361339631, 51.974142506618229 ], [ 5.989363582153968, 51.974245736457185 ], [ 5.990163003657156, 51.974369257296964 ], [ 5.990340039057297, 51.974406091673274 ], [ 5.990933656992386, 51.974529593084895 ], [ 5.991217281799513, 51.97460057406478 ], [ 5.99415595571509, 51.975444895421624 ], [ 5.994639873682911, 51.975599648732562 ], [ 5.995031849329047, 51.975727173092501 ], [ 5.99553480824498, 51.97589784164262 ], [ 5.996118188178836, 51.976113770696053 ], [ 5.99655919810493, 51.976274913351588 ], [ 5.997308551597283, 51.976590080169295 ], [ 5.99760441989952, 51.97672479992746 ], [ 5.997938701863723, 51.976885295924532 ], [ 5.998283667625842, 51.977064880751122 ], [ 5.998682814577127, 51.977287524915418 ], [ 5.999010501203129, 51.977482495725859 ], [ 5.999465125233441, 51.977796844884914 ], [ 5.999772812140435, 51.978008276596356 ], [ 6.000094303840601, 51.97826895491022 ], [ 6.000300622825547, 51.978455116801349 ], [ 6.000562807318432, 51.978716849059346 ], [ 6.000772163564236, 51.978938534415796 ], [ 6.001115476259039, 51.979363260220026 ], [ 6.00118754072856, 51.979455716182109 ], [ 6.001244655991711, 51.979528979029745 ], [ 6.001433074762761, 51.979789000191396 ], [ 6.001667213270689, 51.980158260867718 ], [ 6.001855143589844, 51.980464043835873 ], [ 6.001965203541793, 51.980650004778205 ], [ 6.002516311922616, 51.980534488966846 ] ] ] ] } }
]
}
