{
"type": "FeatureCollection",
"name": "Zandvoort",
"crs": { "type": "name", "properties": { "name": "urn:ogc:def:crs:EPSG::28992" } },
"features": [
{ "type": "Feature", "properties": { "buurtcode": "BU04739998", "buurtnaam": "Buitenwater", "pc6_codes": null, "wijkcode": "WK047399", "gemeentecode": "GM0473", "gemeentenaam": "Zandvoort", "oppervlakteLandInHa": null, "AantalInwoners_5": null, "Mannen_6": null, "Vrouwen_7": null, "HuishoudensTotaal_29": null, "GemiddeldeHuishoudensgrootte_33": null, "Woningvoorraad_35": null, "NieuwbouwWoningen_36": null, "NietWoningvoorraad_37": null, "NieuwbouwNietWoningen_38": null, "GemiddeldeWOZWaardeVanWoningen_39": null, "PercentageEengezinswoning_40": null, "PercentageTussenwoningEengezins_41": null, "PercentageHoekwoningEengezins_42": null, "PercentageTweeOnderEenKapWoningEe_43": null, "PercentageVrijstaandeWoningEengezins_44": null, "PercentageMeergezinswoning_45": null, "Koopwoningen_47": null, "HuurwoningenTotaal_48": null, "InBezitWoningcorporatie_49": null, "InBezitOverigeVerhuurders_50": null, "BouwjaarMeerDanTienJaarGeleden_51": null, "BouwjaarAfgelopenTienJaar_52": null, "GemiddeldeElektriciteitslevering_53": null, "GemiddeldeElektriciteitsteruglevering_54": null, "GemiddeldAardgasverbruik_55": null, "AardgasvrijeWoningen_57": null, "Aardgaswoningen_58": null, "WoningenMetZonnestroom_59": null, "WoningenHoofdzElektrVerwarmd_60": null, "k_20PersonenMetHoogsteInkomen_80": null, "k_20HuishoudensMetHoogsteInkomen_85": null, "MediaanVermogenVanParticuliereHuish_86": null, "PersonenautoSTotaal_104": null, "PersonenautoSBrandstofBenzine_105": null, "PersonenautoSOverigeBrandstof_106": null, "PersonenautoSPerHuishouden_107": null, "Omgevingsadressendichtheid_121": null, "AantalInstallatiesBijWoningen_5": null, "OpgesteldVermogenVanZonnepanelen_6": null, "installaties_per_woning": null, "vermogen_per_woning": null, "installaties_per_100_woningen": null, "vermogen_per_huishouden": null, "batterijdruk_score": null, "koop_zon_score": null, "eengezins_zon_score": null, "betaalkracht_zon_score": null, "overige_brandstof_zon_score": null, "lichte_batterij_kansscore": null }, "geometry": { "type": "MultiPolygon", "coordinates": [ [ [ [ 96555.152000000001863, 491098.091000000014901 ], [ 96758.104000000006636, 491013.387999999977183 ], [ 96995.278000000005704, 490914.401000000012573 ], [ 97197.944000000003143, 490829.818000000028405 ], [ 97305.709000000002561, 490784.841000000014901 ], [ 97433.37510000000475, 490731.558599999989383 ], [ 97432.644700000004377, 490730.4962 ], [ 97420.738400000002002, 490698.746099999989383 ], [ 97404.2019, 490645.82929999998305 ], [ 97375.7592, 490559.178100000019185 ], [ 97351.530899999997928, 490485.988599999982398 ], [ 97344.009099999995669, 490463.266500000027008 ], [ 97287.123600000006263, 490323.037000000011176 ], [ 97254.3845, 490239.2636 ], [ 97242.1443, 490207.943099999974947 ], [ 97203.118199999997159, 490110.047000000020489 ], [ 97167.399399999994785, 490016.119799999985844 ], [ 97108.5294, 489867.952800000028219 ], [ 97069.082800000003772, 489756.009399999980815 ], [ 97060.656400000007125, 489732.0969 ], [ 97059.581399999995483, 489729.046299999987241 ], [ 97010.633400000006077, 489609.983499999972992 ], [ 96967.638600000005681, 489499.5198 ], [ 96929.2739, 489414.191400000010617 ], [ 96879.664399999994203, 489289.8371 ], [ 96847.427500000005239, 489215.691899999976158 ], [ 96839.976899999994203, 489198.555600000021514 ], [ 96802.935100000002421, 489119.8419 ], [ 96760.6017, 489031.8678 ], [ 96753.7601, 489015.635799999989104 ], [ 96726.867299999998068, 488951.831200000015087 ], [ 96710.992199999993318, 488913.466499999980442 ], [ 96694.455799999996088, 488851.9508 ], [ 96673.950500000006286, 488795.065300000016578 ], [ 96642.861900000003516, 488724.2891 ], [ 96625.002399999997579, 488675.341000000014901 ], [ 96595.236799999998766, 488607.872099999978673 ], [ 96566.132599999997183, 488556.9398 ], [ 96533.059599999993225, 488486.163600000028964 ], [ 96488.080300000001444, 488383.6373 ], [ 96458.4755, 488300.5296 ], [ 96453.333400000003166, 488286.094600000011269 ], [ 96433.179199999998673, 488229.5172 ], [ 96371.663400000004913, 488080.6888 ], [ 96365.707200000004377, 488069.246700000017881 ], [ 96346.5279, 488032.402300000016112 ], [ 96320.069600000002538, 487987.423 ], [ 96290.965299999996205, 487911.355099999986123 ], [ 96265.168399999995017, 487846.532100000011269 ], [ 96198.361000000004424, 487674.5526 ], [ 96161.812099999995553, 487579.6434 ], [ 96157.3505, 487568.0576 ], [ 96127.760299999994459, 487500.0 ], [ 96124.277499999996508, 487491.989699999976438 ], [ 96096.496199999994133, 487431.135400000028312 ], [ 96070.699299999992945, 487355.0676 ], [ 96051.44550000000163, 487301.653899999975692 ], [ 96036.536999999996624, 487264.6361 ], [ 96035.928400000004331, 487262.8932 ], [ 96025.058699999994133, 487236.0048 ], [ 95907.980299999995623, 486958.191799999971408 ], [ 95880.19890000000305, 486890.0614 ], [ 95860.100300000005518, 486841.435699999972712 ], [ 95850.8459, 486819.04590000002645 ], [ 95839.188500000003842, 486790.84240000002319 ], [ 95812.068599999998696, 486716.759000000020023 ], [ 95784.287400000001071, 486647.96720000001369 ], [ 95777.364000000001397, 486625.7649 ], [ 95765.104900000005728, 486586.45140000001993 ], [ 95756.452900000003865, 486558.3322 ], [ 95746.584099999992759, 486526.2586 ], [ 95722.11, 486467.388700000010431 ], [ 95687.714099999997416, 486406.5344 ], [ 95659.271399999997811, 486335.758299999986775 ], [ 95636.120299999995041, 486284.8258 ], [ 95622.891099999993457, 486239.846599999989849 ], [ 95600.401400000002468, 486177.669400000013411 ], [ 95563.629, 486110.755500000028405 ], [ 95551.865000000005239, 486083.6083000000217 ], [ 95528.3024, 486024.2108 ], [ 95474.724100000006729, 485893.9032 ], [ 95459.378100000001723, 485854.6459 ], [ 95446.281400000007125, 485821.142600000021048 ], [ 95427.760500000003958, 485775.50189999997383 ], [ 95412.547000000005937, 485721.923699999984819 ], [ 95412.119999999995343, 485720.612499999988358 ], [ 95394.026100000002771, 485665.0381 ], [ 95373.520799999998417, 485615.428599999984726 ], [ 95351.692599999994854, 485565.15779999998631 ], [ 95327.218599999992875, 485517.53259999997681 ], [ 95300.098800000007031, 485456.678300000028685 ], [ 95279.5282, 485388.444100000022445 ], [ 95272.978900000001886, 485366.719800000020768 ], [ 95248.5049, 485313.14159999997355 ], [ 95247.555699999997159, 485311.107599999988452 ], [ 95225.353799999997136, 485263.532100000011269 ], [ 95200.218399999997928, 485211.93829999997979 ], [ 95171.114100000006147, 485137.854799999971874 ], [ 95144.655799999993178, 485067.7401 ], [ 95094.3848, 484955.9534 ], [ 95063.9577, 484868.64069999998901 ], [ 95034.853400000007241, 484795.218700000026729 ], [ 94998.473199999993085, 484717.166399999987334 ], [ 94974.960000000006403, 484666.691400000010617 ], [ 94972.3989, 484661.1936 ], [ 94961.29330000000482, 484637.353599999973085 ], [ 94948.8637000000017, 484610.6714 ], [ 94907.853199999997742, 484521.374399999971502 ], [ 94886.024999999994179, 484471.7649 ], [ 94881.394799999994575, 484453.244100000010803 ], [ 94882.056299999996554, 484443.3221 ], [ 94882.056299999996554, 484439.9426 ], [ 94875.945999999996275, 484426.130799999984447 ], [ 94873.457299999994575, 484424.1398 ], [ 94864.858399999997346, 484414.879399999976158 ], [ 94847.660399999993388, 484386.43660000001546 ], [ 94833.769700000004377, 484353.363599999982398 ], [ 94802.019700000004377, 484270.0197 ], [ 94767.623800000001211, 484166.1706000000122 ], [ 94698.831999999994878, 483977.6546 ], [ 94634.949299999992945, 483827.841299999970943 ], [ 94624.087, 483802.3678 ], [ 94603.637100000007194, 483750.2991 ], [ 94597.837199999994482, 483735.5317 ], [ 94538.097299999993993, 483583.424600000027567 ], [ 94514.946100000001024, 483521.2474 ], [ 94477.9044, 483427.320100000011735 ], [ 94450.447799999994459, 483379.131 ], [ 94445.492899999997462, 483370.434599999978673 ], [ 94411.758499999996275, 483298.996900000027381 ], [ 94385.300099999993108, 483233.5124 ], [ 94360.686499999996158, 483168.0404 ], [ 94352.725000000005821, 483152.208999999973457 ], [ 94326.796000000002095, 483092.942099999985658 ], [ 94326.460999999995693, 483092.197900000028312 ], [ 94314.5239, 483067.48609999998007 ], [ 94284.0968, 482998.29739999998128 ], [ 94255.653999999994994, 482951.333800000022165 ], [ 94231.841499999994994, 482912.3076 ], [ 94221.919599999993807, 482889.818000000028405 ], [ 94213.982099999993807, 482864.6825 ], [ 94211.336200000005192, 482840.87 ], [ 94210.351500000004307, 482832.336000000010245 ], [ 94209.351800000004005, 482823.672000000020489 ], [ 94204.060100000002421, 482811.7658 ], [ 94191.492400000002817, 482793.2449 ], [ 94187.415399999998044, 482788.026399999973364 ], [ 94181.674899999998161, 482780.678399999975227 ], [ 94172.03070000000298, 482763.269299999985378 ], [ 94170.993300000001909, 482761.396499999973457 ], [ 94168.6152, 482754.985600000014529 ], [ 94162.992400000002817, 482739.8284 ], [ 94159.742400000002817, 482731.067700000014156 ], [ 94137.835900000005495, 482677.898999999975786 ], [ 94115.657399999996414, 482624.0699 ], [ 94098.778999999994994, 482631.512999999977183 ], [ 94097.395999999993364, 482632.13 ], [ 93004.0, 483120.0 ], [ 93112.0, 483366.0 ], [ 93307.0, 483805.0 ], [ 93453.943, 484154.797000000020489 ], [ 93512.0, 484293.0 ], [ 93771.0, 484819.0 ], [ 93928.0, 485213.0 ], [ 94154.0, 485720.0 ], [ 94367.0, 486182.0 ], [ 94484.0, 486576.0 ], [ 94585.015, 486868.379000000015367 ], [ 94645.0, 487042.0 ], [ 94692.279999999998836, 487142.878000000026077 ], [ 94892.0, 487569.0 ], [ 95114.0, 488032.0 ], [ 95314.0, 488519.0 ], [ 95408.679999999993015, 488739.647999999986496 ], [ 95547.0, 489062.0 ], [ 95724.0, 489548.0 ], [ 95941.0, 490077.0 ], [ 96138.0, 490502.0 ], [ 96314.0, 490960.0 ], [ 96398.648000000001048, 491163.408 ], [ 96555.152000000001863, 491098.091000000014901 ] ] ] ] } },
{ "type": "Feature", "properties": { "buurtcode": "BU04730101", "buurtnaam": "Boulevard Noord", "pc6_codes": "2041AA, 2041AB, 2041AE, 2041HA, 2041HB, 2041HC, 2041HD, 2041HE, 2041HG, 2041HH, 2041HJ, 2041HK, 2041HL, 2041HM, 2041HN, 2041HP, 2041HR, 2041HS, 2041HT, 2041HV, 2041HW, 2041JA, 2041JB, 2041JC, 2041JD, 2041JE, 2041JG, 2041JH, 2041JJ, 2041JK, 2041JL, 2041JM, 2041JN, 2041JP, 2041JR, 2041JS, 2041JT, 2041JV, 2041JW, 2041JX, 2041JZ, 2041KA, 2041KC, 2041KD, 2041KE, 2041KG, 2041KJ, 2041KK, 2041KL, 2041KM, 2041KR, 2041KS, 2041KT, 2041KV, 2042KP", "wijkcode": "WK047301", "gemeentecode": "GM0473", "gemeentenaam": "Zandvoort", "oppervlakteLandInHa": 19, "AantalInwoners_5": 1445, "Mannen_6": 715, "Vrouwen_7": 735, "HuishoudensTotaal_29": 890, "GemiddeldeHuishoudensgrootte_33": 1.6, "Woningvoorraad_35": 965, "NieuwbouwWoningen_36": 0, "NietWoningvoorraad_37": 553, "NieuwbouwNietWoningen_38": 0, "GemiddeldeWOZWaardeVanWoningen_39": 374, "PercentageEengezinswoning_40": 14, "PercentageTussenwoningEengezins_41": 8, "PercentageHoekwoningEengezins_42": 4, "PercentageTweeOnderEenKapWoningEe_43": 1, "PercentageVrijstaandeWoningEengezins_44": 1, "PercentageMeergezinswoning_45": 86, "Koopwoningen_47": 77, "HuurwoningenTotaal_48": 21, "InBezitWoningcorporatie_49": 6, "InBezitOverigeVerhuurders_50": 15, "BouwjaarMeerDanTienJaarGeleden_51": 100, "BouwjaarAfgelopenTienJaar_52": 0, "GemiddeldeElektriciteitslevering_53": 2140, "GemiddeldeElektriciteitsteruglevering_54": 50, "GemiddeldAardgasverbruik_55": 680, "AardgasvrijeWoningen_57": 1, "Aardgaswoningen_58": 97, "WoningenMetZonnestroom_59": 4, "WoningenHoofdzElektrVerwarmd_60": 1, "k_20PersonenMetHoogsteInkomen_80": 19.6, "k_20HuishoudensMetHoogsteInkomen_85": 12.0, "MediaanVermogenVanParticuliereHuish_86": 271.0, "PersonenautoSTotaal_104": 660, "PersonenautoSBrandstofBenzine_105": 525, "PersonenautoSOverigeBrandstof_106": 135, "PersonenautoSPerHuishouden_107": 0.7, "Omgevingsadressendichtheid_121": 2039, "AantalInstallatiesBijWoningen_5": 33, "OpgesteldVermogenVanZonnepanelen_6": 133, "installaties_per_woning": 0.034196891191709843, "vermogen_per_woning": 0.1378238341968912, "installaties_per_100_woningen": 3.4196891191709842, "vermogen_per_huishouden": 0.14943820224719101, "batterijdruk_score": 2.0, "koop_zon_score": 0.0308, "eengezins_zon_score": 0.0056, "betaalkracht_zon_score": 10.84, "overige_brandstof_zon_score": 5.4, "lichte_batterij_kansscore": 0.19382500408967107 }, "geometry": { "type": "MultiPolygon", "coordinates": [ [ [ [ 96874.044599999993807, 488918.226000000024214 ], [ 96885.50800000000163, 488901.718999999982771 ], [ 96943.896999999997206, 488811.4841 ], [ 96955.301000000006752, 488767.5721 ], [ 96951.447100000004866, 488719.940200000011828 ], [ 96913.842900000003283, 488638.665800000017043 ], [ 96819.117899999997462, 488448.519299999985378 ], [ 96784.492800000007264, 488353.316799999971408 ], [ 96792.824600000007194, 488329.8382 ], [ 96824.110799999994924, 488312.342 ], [ 96668.068400000003749, 487950.9386 ], [ 96642.515599999998813, 487888.769299999985378 ], [ 96620.607000000003609, 487838.022400000016205 ], [ 96584.864400000005844, 487852.65590000001248 ], [ 96617.501000000003842, 487934.0149 ], [ 96570.576199999995879, 487951.1003 ], [ 96521.361999999993714, 488063.2808 ], [ 96509.528000000005704, 488058.166099999973085 ], [ 96492.153000000005704, 488101.810999999986961 ], [ 96514.19199999999546, 488157.51500000001397 ], [ 96594.58190000000468, 488357.366099999984726 ], [ 96671.3799, 488551.0061 ], [ 96742.967900000003283, 488726.069100000022445 ], [ 96779.878899999996065, 488794.7021 ], [ 96837.105899999995017, 488933.659099999989849 ], [ 96874.044599999993807, 488918.226000000024214 ] ] ] ] } },
{ "type": "Feature", "properties": { "buurtcode": "BU04730102", "buurtnaam": "Stations omgeving", "pc6_codes": "2041AB, 2041AG, 2041EA, 2041EB, 2041EC, 2041ED, 2041EE, 2041EG, 2041EK, 2041EL, 2041EM, 2041GA, 2041GB, 2041GC, 2041GE, 2041GG, 2041GH, 2041GJ, 2041GK, 2041GN, 2041KL, 2041KM, 2041LM, 2041NX", "wijkcode": "WK047301", "gemeentecode": "GM0473", "gemeentenaam": "Zandvoort", "oppervlakteLandInHa": 10, "AantalInwoners_5": 1095, "Mannen_6": 535, "Vrouwen_7": 560, "HuishoudensTotaal_29": 510, "GemiddeldeHuishoudensgrootte_33": 2.2, "Woningvoorraad_35": 496, "NieuwbouwWoningen_36": 0, "NietWoningvoorraad_37": 9, "NieuwbouwNietWoningen_38": 0, "GemiddeldeWOZWaardeVanWoningen_39": 464, "PercentageEengezinswoning_40": 38, "PercentageTussenwoningEengezins_41": 27, "PercentageHoekwoningEengezins_42": 10, "PercentageTweeOnderEenKapWoningEe_43": 1, "PercentageVrijstaandeWoningEengezins_44": 0, "PercentageMeergezinswoning_45": 62, "Koopwoningen_47": 75, "HuurwoningenTotaal_48": 25, "InBezitWoningcorporatie_49": 20, "InBezitOverigeVerhuurders_50": 4, "BouwjaarMeerDanTienJaarGeleden_51": 100, "BouwjaarAfgelopenTienJaar_52": 0, "GemiddeldeElektriciteitslevering_53": 2470, "GemiddeldeElektriciteitsteruglevering_54": 210, "GemiddeldAardgasverbruik_55": 140, "AardgasvrijeWoningen_57": 84, "Aardgaswoningen_58": 15, "WoningenMetZonnestroom_59": 10, "WoningenHoofdzElektrVerwarmd_60": 5, "k_20PersonenMetHoogsteInkomen_80": 25.0, "k_20HuishoudensMetHoogsteInkomen_85": 28.0, "MediaanVermogenVanParticuliereHuish_86": 303.3, "PersonenautoSTotaal_104": 540, "PersonenautoSBrandstofBenzine_105": 450, "PersonenautoSOverigeBrandstof_106": 90, "PersonenautoSPerHuishouden_107": 1.1, "Omgevingsadressendichtheid_121": 2513, "AantalInstallatiesBijWoningen_5": 29, "OpgesteldVermogenVanZonnepanelen_6": 104, "installaties_per_woning": 0.058467741935483868, "vermogen_per_woning": 0.20967741935483872, "installaties_per_100_woningen": 5.846774193548387, "vermogen_per_huishouden": 0.20392156862745098, "batterijdruk_score": 21.0, "koop_zon_score": 0.075, "eengezins_zon_score": 0.038, "betaalkracht_zon_score": 30.33, "overige_brandstof_zon_score": 9.0, "lichte_batterij_kansscore": 0.2536486078250525 }, "geometry": { "type": "MultiPolygon", "coordinates": [ [ [ [ 96941.334700000006706, 488264.1104 ], [ 96942.287899999995716, 488263.707999999984168 ], [ 96907.703999999997905, 488170.35820000001695 ], [ 96858.623099999997066, 488191.7918 ], [ 96831.175099999993108, 488128.465199999976903 ], [ 96951.23080000000482, 488076.4289 ], [ 96900.984400000001187, 487960.502700000011828 ], [ 97043.22280000000319, 487898.8516 ], [ 97007.988500000006752, 487756.556099999987055 ], [ 96941.439499999993131, 487783.960000000020955 ], [ 96926.201700000005076, 487791.0456000000122 ], [ 96729.435599999997066, 487882.541299999982584 ], [ 96719.235400000005029, 487855.647500000020955 ], [ 96642.515599999998813, 487888.769299999985378 ], [ 96668.068400000003749, 487950.9386 ], [ 96824.110799999994924, 488312.342 ], [ 96941.334700000006706, 488264.1104 ] ] ] ] } },
{ "type": "Feature", "properties": { "buurtcode": "BU04730103", "buurtnaam": "Oud Noord", "pc6_codes": "2041BA, 2041BB, 2041BC, 2041BD, 2041BE, 2041BG, 2041BH, 2041BJ, 2041BK, 2041BL, 2041BM, 2041BN, 2041BP, 2041BR, 2041EE, 2041EH, 2041EJ, 2041EN, 2041GL, 2041GM, 2041LA, 2041LB, 2041LC, 2041LD, 2041LE, 2041LG, 2041LH, 2041LJ, 2041LK, 2041LL, 2041LM, 2041NA, 2041NB, 2041NC, 2041ND, 2041NE, 2041NG, 2041NH, 2041NJ, 2041NK, 2041NL, 2041NM, 2041NN, 2041NP, 2041NR, 2041NS, 2041NT, 2041NV, 2041NW, 2041PA, 2041PB, 2041PC, 2041PD, 2041PE, 2041PG, 2041PH, 2041PJ, 2041PK, 2041PL, 2041PM, 2041PN, 2041PP, 2041PR", "wijkcode": "WK047301", "gemeentecode": "GM0473", "gemeentenaam": "Zandvoort", "oppervlakteLandInHa": 33, "AantalInwoners_5": 2025, "Mannen_6": 945, "Vrouwen_7": 1085, "HuishoudensTotaal_29": 960, "GemiddeldeHuishoudensgrootte_33": 2.1, "Woningvoorraad_35": 955, "NieuwbouwWoningen_36": 0, "NietWoningvoorraad_37": 87, "NieuwbouwNietWoningen_38": 0, "GemiddeldeWOZWaardeVanWoningen_39": 384, "PercentageEengezinswoning_40": 73, "PercentageTussenwoningEengezins_41": 52, "PercentageHoekwoningEengezins_42": 20, "PercentageTweeOnderEenKapWoningEe_43": 1, "PercentageVrijstaandeWoningEengezins_44": 0, "PercentageMeergezinswoning_45": 27, "Koopwoningen_47": 31, "HuurwoningenTotaal_48": 69, "InBezitWoningcorporatie_49": 68, "InBezitOverigeVerhuurders_50": 2, "BouwjaarMeerDanTienJaarGeleden_51": 100, "BouwjaarAfgelopenTienJaar_52": 0, "GemiddeldeElektriciteitslevering_53": 2250, "GemiddeldeElektriciteitsteruglevering_54": 180, "GemiddeldAardgasverbruik_55": 770, "AardgasvrijeWoningen_57": 8, "Aardgaswoningen_58": 90, "WoningenMetZonnestroom_59": 10, "WoningenHoofdzElektrVerwarmd_60": 2, "k_20PersonenMetHoogsteInkomen_80": 12.9, "k_20HuishoudensMetHoogsteInkomen_85": 14.3, "MediaanVermogenVanParticuliereHuish_86": 23.3, "PersonenautoSTotaal_104": 870, "PersonenautoSBrandstofBenzine_105": 745, "PersonenautoSOverigeBrandstof_106": 120, "PersonenautoSPerHuishouden_107": 0.9, "Omgevingsadressendichtheid_121": 2490, "AantalInstallatiesBijWoningen_5": 54, "OpgesteldVermogenVanZonnepanelen_6": 164, "installaties_per_woning": 0.05654450261780105, "vermogen_per_woning": 0.17172774869109947, "installaties_per_100_woningen": 5.6544502617801049, "vermogen_per_huishouden": 0.17083333333333334, "batterijdruk_score": 18.0, "koop_zon_score": 0.031, "eengezins_zon_score": 0.073, "betaalkracht_zon_score": 2.33, "overige_brandstof_zon_score": 12.0, "lichte_batterij_kansscore": 0.23531214088073377 }, "geometry": { "type": "MultiPolygon", "coordinates": [ [ [ [ 97380.578999999997905, 488240.961000000010245 ], [ 97497.342000000004191, 488205.431999999971595 ], [ 97537.587199999994482, 488163.9755 ], [ 97508.568700000003446, 488132.6558 ], [ 97539.428, 488098.7182 ], [ 97615.813800000003539, 487994.163699999975506 ], [ 97693.3759, 487904.5491 ], [ 97724.3021, 487815.114599999971688 ], [ 97738.59769999999844, 487763.6079 ], [ 97533.325100000001839, 487748.1506 ], [ 97437.338799999997718, 487745.041900000011083 ], [ 97189.390400000003865, 487731.023800000024494 ], [ 97094.804199999998673, 487736.377900000021327 ], [ 97007.988500000006752, 487756.556099999987055 ], [ 97043.22280000000319, 487898.8516 ], [ 96900.984400000001187, 487960.502700000011828 ], [ 96951.23080000000482, 488076.4289 ], [ 96831.175099999993108, 488128.465199999976903 ], [ 96858.623099999997066, 488191.7918 ], [ 96907.703999999997905, 488170.35820000001695 ], [ 96942.287899999995716, 488263.707999999984168 ], [ 97139.71129999999539, 488180.359500000020489 ], [ 97160.526299999997718, 488230.1067 ], [ 97170.647299999996903, 488280.326699999975972 ], [ 97380.578999999997905, 488240.961000000010245 ] ] ] ] } },
{ "type": "Feature", "properties": { "buurtcode": "BU04730104", "buurtnaam": "Nieuw Noord - bedrijven", "pc6_codes": "2041BS, 2041CA, 2041CB, 2041CC, 2041CD, 2041CE, 2041CK, 2041CL, 2041CM, 2041CS, 2041CT, 2041CV, 2041CW, 2041CX, 2041CZ", "wijkcode": "WK047301", "gemeentecode": "GM0473", "gemeentenaam": "Zandvoort", "oppervlakteLandInHa": 18, "AantalInwoners_5": 390, "Mannen_6": 175, "Vrouwen_7": 215, "HuishoudensTotaal_29": 220, "GemiddeldeHuishoudensgrootte_33": 1.8, "Woningvoorraad_35": 152, "NieuwbouwWoningen_36": 18, "NietWoningvoorraad_37": 192, "NieuwbouwNietWoningen_38": 2, "GemiddeldeWOZWaardeVanWoningen_39": 442, "PercentageEengezinswoning_40": 30, "PercentageTussenwoningEengezins_41": 22, "PercentageHoekwoningEengezins_42": 7, "PercentageTweeOnderEenKapWoningEe_43": 0, "PercentageVrijstaandeWoningEengezins_44": 0, "PercentageMeergezinswoning_45": 70, "Koopwoningen_47": 78, "HuurwoningenTotaal_48": 21, "InBezitWoningcorporatie_49": 7, "InBezitOverigeVerhuurders_50": 14, "BouwjaarMeerDanTienJaarGeleden_51": 26, "BouwjaarAfgelopenTienJaar_52": 74, "GemiddeldeElektriciteitslevering_53": 3570, "GemiddeldeElektriciteitsteruglevering_54": 310, "GemiddeldAardgasverbruik_55": 230, "AardgasvrijeWoningen_57": 76, "Aardgaswoningen_58": 19, "WoningenMetZonnestroom_59": 14, "WoningenHoofdzElektrVerwarmd_60": 78, "k_20PersonenMetHoogsteInkomen_80": 18.9, "k_20HuishoudensMetHoogsteInkomen_85": 12.4, "MediaanVermogenVanParticuliereHuish_86": 68.1, "PersonenautoSTotaal_104": 170, "PersonenautoSBrandstofBenzine_105": 135, "PersonenautoSOverigeBrandstof_106": 35, "PersonenautoSPerHuishouden_107": 0.8, "Omgevingsadressendichtheid_121": 1428, "AantalInstallatiesBijWoningen_5": 5, "OpgesteldVermogenVanZonnepanelen_6": 70, "installaties_per_woning": 0.032894736842105261, "vermogen_per_woning": 0.46052631578947367, "installaties_per_100_woningen": 3.2894736842105261, "vermogen_per_huishouden": 0.31818181818181818, "batterijdruk_score": 43.4, "koop_zon_score": 0.1092, "eengezins_zon_score": 0.042, "betaalkracht_zon_score": 9.534, "overige_brandstof_zon_score": 4.9, "lichte_batterij_kansscore": 0.25356416518833813 }, "geometry": { "type": "MultiPolygon", "coordinates": [ [ [ [ 98502.329299999997602, 487998.347100000013597 ], [ 98102.999299999995856, 487865.8014 ], [ 97901.176000000006752, 487800.785800000012387 ], [ 97738.59769999999844, 487763.6079 ], [ 97724.3021, 487815.114599999971688 ], [ 97693.3759, 487904.5491 ], [ 97615.813800000003539, 487994.163699999975506 ], [ 97730.457800000003772, 488116.5051 ], [ 97798.269799999994575, 488061.879499999980908 ], [ 97803.5873, 488068.4806 ], [ 97814.791400000001886, 488071.018900000024587 ], [ 97858.223400000002584, 488072.2782 ], [ 97945.315400000006775, 488075.627900000021327 ], [ 97965.9513, 488014.53090000001248 ], [ 98267.194000000003143, 488135.0281 ], [ 98305.648499999995693, 488117.422100000025239 ], [ 98448.492700000002515, 488163.4032 ], [ 98502.329299999997602, 487998.347100000013597 ] ] ] ] } },
{ "type": "Feature", "properties": { "buurtcode": "BU04730105", "buurtnaam": "Nieuw Noord - wonen", "pc6_codes": "2041CE, 2041CG, 2041CH, 2041CJ, 2041CN, 2041CP, 2041CR, 2041RA, 2041RB, 2041RC, 2041RM, 2041RN, 2041RP, 2041RR, 2041RS, 2041RT, 2041RV, 2041SB, 2041SC, 2041SE, 2041SG, 2041SH, 2041SJ, 2041SK, 2041SL, 2041SM, 2041TA, 2041TB, 2041TC, 2041TD, 2041TH, 2041TJ, 2041TK, 2041TL, 2041TM, 2041TN, 2041TP, 2041TR, 2041TS, 2041VA, 2041VB, 2041VC, 2041VD, 2041VE, 2041VG, 2041VH, 2041VJ, 2041VK, 2041VL, 2041VM, 2041VN, 2041VP, 2041VR, 2041VS, 2041VT, 2041VW, 2041XA, 2041XB, 2041XC, 2041XD, 2041XE, 2041XG, 2041XH, 2041XJ, 2041XK, 2041XL, 2041XM, 2041XN, 2041XP, 2041XR, 2041XS, 2041XT, 2041XV, 2041XW", "wijkcode": "WK047301", "gemeentecode": "GM0473", "gemeentenaam": "Zandvoort", "oppervlakteLandInHa": 27, "AantalInwoners_5": 2870, "Mannen_6": 1365, "Vrouwen_7": 1500, "HuishoudensTotaal_29": 1400, "GemiddeldeHuishoudensgrootte_33": 2.0, "Woningvoorraad_35": 1395, "NieuwbouwWoningen_36": 0, "NietWoningvoorraad_37": 269, "NieuwbouwNietWoningen_38": 0, "GemiddeldeWOZWaardeVanWoningen_39": 311, "PercentageEengezinswoning_40": 33, "PercentageTussenwoningEengezins_41": 25, "PercentageHoekwoningEengezins_42": 6, "PercentageTweeOnderEenKapWoningEe_43": 1, "PercentageVrijstaandeWoningEengezins_44": 1, "PercentageMeergezinswoning_45": 67, "Koopwoningen_47": 20, "HuurwoningenTotaal_48": 80, "InBezitWoningcorporatie_49": 79, "InBezitOverigeVerhuurders_50": 2, "BouwjaarMeerDanTienJaarGeleden_51": 98, "BouwjaarAfgelopenTienJaar_52": 2, "GemiddeldeElektriciteitslevering_53": 2110, "GemiddeldeElektriciteitsteruglevering_54": 150, "GemiddeldAardgasverbruik_55": 800, "AardgasvrijeWoningen_57": 0, "Aardgaswoningen_58": 99, "WoningenMetZonnestroom_59": 7, "WoningenHoofdzElektrVerwarmd_60": 1, "k_20PersonenMetHoogsteInkomen_80": 10.4, "k_20HuishoudensMetHoogsteInkomen_85": 9.7, "MediaanVermogenVanParticuliereHuish_86": 7.7, "PersonenautoSTotaal_104": 1155, "PersonenautoSBrandstofBenzine_105": 1000, "PersonenautoSOverigeBrandstof_106": 150, "PersonenautoSPerHuishouden_107": 0.8, "Omgevingsadressendichtheid_121": 1143, "AantalInstallatiesBijWoningen_5": 65, "OpgesteldVermogenVanZonnepanelen_6": 229, "installaties_per_woning": 0.046594982078853049, "vermogen_per_woning": 0.16415770609318997, "installaties_per_100_woningen": 4.6594982078853047, "vermogen_per_huishouden": 0.16357142857142856, "batterijdruk_score": 10.5, "koop_zon_score": 0.014, "eengezins_zon_score": 0.0231, "betaalkracht_zon_score": 0.539, "overige_brandstof_zon_score": 10.5, "lichte_batterij_kansscore": 0.12697567393641501 }, "geometry": { "type": "MultiPolygon", "coordinates": [ [ [ [ 98448.492700000002515, 488163.4032 ], [ 98305.648499999995693, 488117.422100000025239 ], [ 98267.194000000003143, 488135.0281 ], [ 97965.9513, 488014.53090000001248 ], [ 97945.315400000006775, 488075.627900000021327 ], [ 97858.223400000002584, 488072.2782 ], [ 97814.791400000001886, 488071.018900000024587 ], [ 97803.5873, 488068.4806 ], [ 97798.269799999994575, 488061.879499999980908 ], [ 97730.457800000003772, 488116.5051 ], [ 97615.813800000003539, 487994.163699999975506 ], [ 97539.428, 488098.7182 ], [ 97508.568700000003446, 488132.6558 ], [ 97537.587199999994482, 488163.9755 ], [ 97669.49890000000596, 488306.3481 ], [ 97841.387300000002142, 488357.941 ], [ 97837.002500000002328, 488372.536199999973178 ], [ 97889.500499999994645, 488388.308299999975134 ], [ 97892.698199999998906, 488377.664800000027753 ], [ 98292.285699999993085, 488507.9989 ], [ 98331.882599999997183, 488520.9143 ], [ 98448.492700000002515, 488163.4032 ] ] ] ] } },
{ "type": "Feature", "properties": { "buurtcode": "BU04730106", "buurtnaam": "Sport Circuit", "pc6_codes": "2041BM, 2041BN, 2041JA, 2041KN, 2041KP, 2041TA, 2041TZ, 2041XA, 2041XX, 2041XZ", "wijkcode": "WK047301", "gemeentecode": "GM0473", "gemeentenaam": "Zandvoort", "oppervlakteLandInHa": 144, "AantalInwoners_5": 35, "Mannen_6": 15, "Vrouwen_7": 15, "HuishoudensTotaal_29": 15, "GemiddeldeHuishoudensgrootte_33": 2.1, "Woningvoorraad_35": 104, "NieuwbouwWoningen_36": 0, "NietWoningvoorraad_37": 25, "NieuwbouwNietWoningen_38": 0, "GemiddeldeWOZWaardeVanWoningen_39": 267, "PercentageEengezinswoning_40": 99, "PercentageTussenwoningEengezins_41": 0, "PercentageHoekwoningEengezins_42": 0, "PercentageTweeOnderEenKapWoningEe_43": 1, "PercentageVrijstaandeWoningEengezins_44": 98, "PercentageMeergezinswoning_45": 1, "Koopwoningen_47": 24, "HuurwoningenTotaal_48": 75, "InBezitWoningcorporatie_49": 0, "InBezitOverigeVerhuurders_50": 75, "BouwjaarMeerDanTienJaarGeleden_51": 4, "BouwjaarAfgelopenTienJaar_52": 96, "GemiddeldeElektriciteitslevering_53": null, "GemiddeldeElektriciteitsteruglevering_54": null, "GemiddeldAardgasverbruik_55": null, "AardgasvrijeWoningen_57": 0, "Aardgaswoningen_58": 51, "WoningenMetZonnestroom_59": 0, "WoningenHoofdzElektrVerwarmd_60": 0, "k_20PersonenMetHoogsteInkomen_80": null, "k_20HuishoudensMetHoogsteInkomen_85": null, "MediaanVermogenVanParticuliereHuish_86": null, "PersonenautoSTotaal_104": 25, "PersonenautoSBrandstofBenzine_105": 20, "PersonenautoSOverigeBrandstof_106": 5, "PersonenautoSPerHuishouden_107": null, "Omgevingsadressendichtheid_121": 869, "AantalInstallatiesBijWoningen_5": 0, "OpgesteldVermogenVanZonnepanelen_6": 0, "installaties_per_woning": 0.0, "vermogen_per_woning": 0.0, "installaties_per_100_woningen": 0.0, "vermogen_per_huishouden": 0.0, "batterijdruk_score": null, "koop_zon_score": 0.0, "eengezins_zon_score": 0.0, "betaalkracht_zon_score": null, "overige_brandstof_zon_score": 0.0, "lichte_batterij_kansscore": null }, "geometry": { "type": "MultiPolygon", "coordinates": [ [ [ [ 97578.447400000004563, 489738.134100000024773 ], [ 97605.728400000007241, 489718.6901 ], [ 97619.7059, 489707.291099999973085 ], [ 97644.699900000006892, 489677.24810000002617 ], [ 97655.942899999994552, 489671.352100000018254 ], [ 97652.415999999997439, 489645.570100000011735 ], [ 98341.522899999996298, 489310.938000000023749 ], [ 98168.613899999996647, 488901.9851 ], [ 98428.671900000001187, 488771.968999999982771 ], [ 98614.190199999997276, 488679.21909999998752 ], [ 98533.6483, 488586.724500000011176 ], [ 98331.882599999997183, 488520.9143 ], [ 98292.285699999993085, 488507.9989 ], [ 97892.698199999998906, 488377.664800000027753 ], [ 97889.500499999994645, 488388.308299999975134 ], [ 97837.002500000002328, 488372.536199999973178 ], [ 97841.387300000002142, 488357.941 ], [ 97669.49890000000596, 488306.3481 ], [ 97537.587199999994482, 488163.9755 ], [ 97497.342000000004191, 488205.431999999971595 ], [ 97380.578999999997905, 488240.961000000010245 ], [ 97400.513900000005378, 488282.812099999981001 ], [ 97433.958400000003166, 488327.550899999972899 ], [ 97471.9608, 488362.229999999981374 ], [ 97505.64440000000468, 488386.318199999979697 ], [ 97527.896399999997811, 488397.806099999987055 ], [ 97574.9899, 488418.449100000027101 ], [ 97589.025500000003376, 488444.305500000016764 ], [ 97567.713499999998021, 488499.0625 ], [ 97530.875, 488549.593999999982771 ], [ 97503.5, 488560.906000000017229 ], [ 97491.744999999995343, 488618.93550000002142 ], [ 97412.006999999997788, 488654.143999999971129 ], [ 97142.530899999997928, 488766.46909999998752 ], [ 97124.36689999999362, 488653.2501 ], [ 97124.570000000006985, 488626.813100000028498 ], [ 97114.592000000004191, 488623.522999999986496 ], [ 97088.077999999994063, 488648.549 ], [ 96951.447100000004866, 488719.940200000011828 ], [ 96955.301000000006752, 488767.5721 ], [ 96943.896999999997206, 488811.4841 ], [ 96885.50800000000163, 488901.718999999982771 ], [ 96874.044599999993807, 488918.226000000024214 ], [ 96837.105899999995017, 488933.659099999989849 ], [ 97141.559899999992922, 489656.309100000013132 ], [ 97199.692899999994552, 489645.5121 ], [ 97235.74189999999362, 489662.938100000028498 ], [ 97252.521900000007008, 489665.679599999974016 ], [ 97279.303899999998976, 489661.0661 ], [ 97292.210900000005495, 489642.831599999975879 ], [ 97311.3894, 489624.1016 ], [ 97325.029899999994086, 489621.32909999997355 ], [ 97343.719899999996414, 489628.5761 ], [ 97364.854900000005728, 489625.9781 ], [ 97377.895000000004075, 489612.5381 ], [ 97391.085999999995693, 489613.813100000028498 ], [ 97401.625, 489640.718600000021979 ], [ 97407.929999999993015, 489662.000500000023749 ], [ 97408.819900000002235, 489697.730099999986123 ], [ 97428.585900000005495, 489717.688100000028498 ], [ 97438.9859, 489734.2351 ], [ 97464.089999999996508, 489732.460000000020955 ], [ 97490.4709, 489722.95409999997355 ], [ 97501.141900000002352, 489738.018099999986589 ], [ 97524.620899999994435, 489753.1521 ], [ 97535.577699999994365, 489754.6116 ], [ 97546.534899999998743, 489756.0711 ], [ 97578.447400000004563, 489738.134100000024773 ] ] ] ] } },
{ "type": "Feature", "properties": { "buurtcode": "BU04730107", "buurtnaam": "Recreatiepark", "pc6_codes": "2041BE, 2041KH, 2041LL", "wijkcode": "WK047301", "gemeentecode": "GM0473", "gemeentenaam": "Zandvoort", "oppervlakteLandInHa": 27, "AantalInwoners_5": 5, "Mannen_6": 5, "Vrouwen_7": 5, "HuishoudensTotaal_29": 0, "GemiddeldeHuishoudensgrootte_33": 1.3, "Woningvoorraad_35": 440, "NieuwbouwWoningen_36": 0, "NietWoningvoorraad_37": 3, "NieuwbouwNietWoningen_38": 0, "GemiddeldeWOZWaardeVanWoningen_39": null, "PercentageEengezinswoning_40": 100, "PercentageTussenwoningEengezins_41": 51, "PercentageHoekwoningEengezins_42": 47, "PercentageTweeOnderEenKapWoningEe_43": 0, "PercentageVrijstaandeWoningEengezins_44": 0, "PercentageMeergezinswoning_45": 0, "Koopwoningen_47": 39, "HuurwoningenTotaal_48": 52, "InBezitWoningcorporatie_49": 0, "InBezitOverigeVerhuurders_50": 52, "BouwjaarMeerDanTienJaarGeleden_51": 100, "BouwjaarAfgelopenTienJaar_52": 0, "GemiddeldeElektriciteitslevering_53": 2540, "GemiddeldeElektriciteitsteruglevering_54": 0, "GemiddeldAardgasverbruik_55": 940, "AardgasvrijeWoningen_57": 0, "Aardgaswoningen_58": 100, "WoningenMetZonnestroom_59": 0, "WoningenHoofdzElektrVerwarmd_60": 0, "k_20PersonenMetHoogsteInkomen_80": null, "k_20HuishoudensMetHoogsteInkomen_85": null, "MediaanVermogenVanParticuliereHuish_86": null, "PersonenautoSTotaal_104": 5, "PersonenautoSBrandstofBenzine_105": 5, "PersonenautoSOverigeBrandstof_106": 0, "PersonenautoSPerHuishouden_107": null, "Omgevingsadressendichtheid_121": 1834, "AantalInstallatiesBijWoningen_5": 0, "OpgesteldVermogenVanZonnepanelen_6": 0, "installaties_per_woning": 0.0, "vermogen_per_woning": 0.0, "installaties_per_100_woningen": 0.0, "vermogen_per_huishouden": null, "batterijdruk_score": 0.0, "koop_zon_score": 0.0, "eengezins_zon_score": 0.0, "betaalkracht_zon_score": null, "overige_brandstof_zon_score": 0.0, "lichte_batterij_kansscore": 0.278 }, "geometry": { "type": "MultiPolygon", "coordinates": [ [ [ [ 97412.006999999997788, 488654.143999999971129 ], [ 97491.744999999995343, 488618.93550000002142 ], [ 97503.5, 488560.906000000017229 ], [ 97530.875, 488549.593999999982771 ], [ 97567.713499999998021, 488499.0625 ], [ 97589.025500000003376, 488444.305500000016764 ], [ 97574.9899, 488418.449100000027101 ], [ 97527.896399999997811, 488397.806099999987055 ], [ 97505.64440000000468, 488386.318199999979697 ], [ 97471.9608, 488362.229999999981374 ], [ 97433.958400000003166, 488327.550899999972899 ], [ 97400.513900000005378, 488282.812099999981001 ], [ 97380.578999999997905, 488240.961000000010245 ], [ 97170.647299999996903, 488280.326699999975972 ], [ 97160.526299999997718, 488230.1067 ], [ 97139.71129999999539, 488180.359500000020489 ], [ 96942.287899999995716, 488263.707999999984168 ], [ 96941.334700000006706, 488264.1104 ], [ 96824.110799999994924, 488312.342 ], [ 96792.824600000007194, 488329.8382 ], [ 96784.492800000007264, 488353.316799999971408 ], [ 96819.117899999997462, 488448.519299999985378 ], [ 96913.842900000003283, 488638.665800000017043 ], [ 96951.447100000004866, 488719.940200000011828 ], [ 97088.077999999994063, 488648.549 ], [ 97114.592000000004191, 488623.522999999986496 ], [ 97124.570000000006985, 488626.813100000028498 ], [ 97124.36689999999362, 488653.2501 ], [ 97142.530899999997928, 488766.46909999998752 ], [ 97412.006999999997788, 488654.143999999971129 ] ] ] ] } },
{ "type": "Feature", "properties": { "buurtcode": "BU04730201", "buurtnaam": "Boulevard Midden", "pc6_codes": "2041HA, 2042AB, 2042AC, 2042AD, 2042GM, 2042GN, 2042JA, 2042JB, 2042KM, 2042KR, 2042KS, 2042TA, 2042TB, 2042TC, 2042TD, 2042TE, 2042TG, 2042TH, 2042TJ, 2042TK, 2042TL, 2042TN, 2042TP, 2042TR, 2042TS, 2042TT", "wijkcode": "WK047302", "gemeentecode": "GM0473", "gemeentenaam": "Zandvoort", "oppervlakteLandInHa": 10, "AantalInwoners_5": 630, "Mannen_6": 315, "Vrouwen_7": 315, "HuishoudensTotaal_29": 435, "GemiddeldeHuishoudensgrootte_33": 1.4, "Woningvoorraad_35": 590, "NieuwbouwWoningen_36": 0, "NietWoningvoorraad_37": 324, "NieuwbouwNietWoningen_38": 0, "GemiddeldeWOZWaardeVanWoningen_39": 371, "PercentageEengezinswoning_40": 4, "PercentageTussenwoningEengezins_41": 3, "PercentageHoekwoningEengezins_42": 0, "PercentageTweeOnderEenKapWoningEe_43": 0, "PercentageVrijstaandeWoningEengezins_44": 1, "PercentageMeergezinswoning_45": 96, "Koopwoningen_47": 66, "HuurwoningenTotaal_48": 31, "InBezitWoningcorporatie_49": 0, "InBezitOverigeVerhuurders_50": 31, "BouwjaarMeerDanTienJaarGeleden_51": 100, "BouwjaarAfgelopenTienJaar_52": 0, "GemiddeldeElektriciteitslevering_53": 1870, "GemiddeldeElektriciteitsteruglevering_54": 50, "GemiddeldAardgasverbruik_55": 990, "AardgasvrijeWoningen_57": 0, "Aardgaswoningen_58": 98, "WoningenMetZonnestroom_59": 3, "WoningenHoofdzElektrVerwarmd_60": 1, "k_20PersonenMetHoogsteInkomen_80": 26.2, "k_20HuishoudensMetHoogsteInkomen_85": 11.5, "MediaanVermogenVanParticuliereHuish_86": 307.4, "PersonenautoSTotaal_104": 300, "PersonenautoSBrandstofBenzine_105": 235, "PersonenautoSOverigeBrandstof_106": 60, "PersonenautoSPerHuishouden_107": 0.7, "Omgevingsadressendichtheid_121": 2078, "AantalInstallatiesBijWoningen_5": 5, "OpgesteldVermogenVanZonnepanelen_6": 12, "installaties_per_woning": 0.0084745762711864406, "vermogen_per_woning": 0.020338983050847456, "installaties_per_100_woningen": 0.84745762711864403, "vermogen_per_huishouden": 0.027586206896551724, "batterijdruk_score": 1.5, "koop_zon_score": 0.0198, "eengezins_zon_score": 0.0012, "betaalkracht_zon_score": 9.222, "overige_brandstof_zon_score": 1.8, "lichte_batterij_kansscore": 0.14850166928596573 }, "geometry": { "type": "MultiPolygon", "coordinates": [ [ [ [ 96570.576199999995879, 487951.1003 ], [ 96617.501000000003842, 487934.0149 ], [ 96584.864400000005844, 487852.65590000001248 ], [ 96580.539600000003702, 487841.874699999985751 ], [ 96546.494300000005751, 487758.120600000023842 ], [ 96511.9957, 487708.538600000028964 ], [ 96420.017099999997299, 487630.4952 ], [ 96390.289300000004005, 487583.693099999974947 ], [ 96369.280499999993481, 487529.634499999985565 ], [ 96324.1103, 487400.858799999987241 ], [ 96266.184200000003329, 487299.249699999985751 ], [ 96178.842900000003283, 487257.326599999971222 ], [ 96141.668900000004214, 487238.809100000013132 ], [ 96140.023000000001048, 487239.942099999985658 ], [ 96205.509999999994761, 487383.918 ], [ 96242.759999999994761, 487482.028 ], [ 96276.5809, 487559.2721 ], [ 96268.476299999994808, 487567.6898 ], [ 96282.782000000006519, 487605.318000000028405 ], [ 96295.347899999993388, 487635.21909999998752 ], [ 96330.385899999993853, 487688.853599999973085 ], [ 96361.805900000006659, 487737.948099999979604 ], [ 96458.368400000006659, 487973.1151 ], [ 96490.069900000002235, 488049.7561 ], [ 96509.528000000005704, 488058.166099999973085 ], [ 96521.361999999993714, 488063.2808 ], [ 96570.576199999995879, 487951.1003 ] ] ] ] } },
{ "type": "Feature", "properties": { "buurtcode": "BU04730202", "buurtnaam": "Boulevard Zuid", "pc6_codes": "2042AD, 2042AE, 2042AG, 2042AK, 2042AL, 2042AM, 2042AZ, 2042BD, 2042BK, 2042BL, 2042BM, 2042BP, 2042GL", "wijkcode": "WK047302", "gemeentecode": "GM0473", "gemeentenaam": "Zandvoort", "oppervlakteLandInHa": 11, "AantalInwoners_5": 280, "Mannen_6": 130, "Vrouwen_7": 150, "HuishoudensTotaal_29": 135, "GemiddeldeHuishoudensgrootte_33": 2.1, "Woningvoorraad_35": 163, "NieuwbouwWoningen_36": 0, "NietWoningvoorraad_37": 33, "NieuwbouwNietWoningen_38": 0, "GemiddeldeWOZWaardeVanWoningen_39": 829, "PercentageEengezinswoning_40": 71, "PercentageTussenwoningEengezins_41": 18, "PercentageHoekwoningEengezins_42": 8, "PercentageTweeOnderEenKapWoningEe_43": 8, "PercentageVrijstaandeWoningEengezins_44": 37, "PercentageMeergezinswoning_45": 29, "Koopwoningen_47": 85, "HuurwoningenTotaal_48": 13, "InBezitWoningcorporatie_49": 0, "InBezitOverigeVerhuurders_50": 13, "BouwjaarMeerDanTienJaarGeleden_51": 98, "BouwjaarAfgelopenTienJaar_52": 2, "GemiddeldeElektriciteitslevering_53": 3580, "GemiddeldeElektriciteitsteruglevering_54": 930, "GemiddeldAardgasverbruik_55": 1550, "AardgasvrijeWoningen_57": 3, "Aardgaswoningen_58": 93, "WoningenMetZonnestroom_59": 27, "WoningenHoofdzElektrVerwarmd_60": 7, "k_20PersonenMetHoogsteInkomen_80": 35.1, "k_20HuishoudensMetHoogsteInkomen_85": 47.8, "MediaanVermogenVanParticuliereHuish_86": 963.5, "PersonenautoSTotaal_104": 190, "PersonenautoSBrandstofBenzine_105": 135, "PersonenautoSOverigeBrandstof_106": 50, "PersonenautoSPerHuishouden_107": 1.4, "Omgevingsadressendichtheid_121": 868, "AantalInstallatiesBijWoningen_5": 21, "OpgesteldVermogenVanZonnepanelen_6": 111, "installaties_per_woning": 0.12883435582822086, "vermogen_per_woning": 0.68098159509202449, "installaties_per_100_woningen": 12.883435582822086, "vermogen_per_huishouden": 0.82222222222222219, "batterijdruk_score": 251.1, "koop_zon_score": 0.2295, "eengezins_zon_score": 0.1917, "betaalkracht_zon_score": 260.145, "overige_brandstof_zon_score": 13.5, "lichte_batterij_kansscore": 0.3937220500422971 }, "geometry": { "type": "MultiPolygon", "coordinates": [ [ [ [ 96178.06260000000475, 487097.665099999983795 ], [ 96147.002500000002328, 487018.652500000025611 ], [ 96146.6149, 487009.074100000027101 ], [ 96144.472899999993388, 486956.1484 ], [ 96114.420400000002701, 486909.9254 ], [ 96035.7454, 486729.6898 ], [ 96051.5, 486723.313000000023749 ], [ 95876.39089999999851, 486292.0001 ], [ 95865.213199999998324, 486264.585000000020955 ], [ 95748.228900000001886, 486312.357100000022911 ], [ 95771.0919, 486368.34409999998752 ], [ 95782.618900000001304, 486371.0221 ], [ 95901.953999999997905, 486643.335100000025705 ], [ 96064.091, 487052.492000000027474 ], [ 96097.698999999993248, 487137.878000000026077 ], [ 96141.668900000004214, 487238.809100000013132 ], [ 96178.842900000003283, 487257.326599999971222 ], [ 96266.184200000003329, 487299.249699999985751 ], [ 96178.06260000000475, 487097.665099999983795 ] ] ] ] } },
{ "type": "Feature", "properties": { "buurtcode": "BU04730203", "buurtnaam": "Brederode- Gerkestraat e.o.", "pc6_codes": "2042AH, 2042AJ, 2042AN, 2042AP, 2042AR, 2042AS, 2042AT, 2042AV, 2042AW, 2042AX, 2042BA, 2042BB, 2042BC, 2042BD, 2042BE, 2042BG, 2042BH, 2042BJ, 2042BN, 2042BP, 2042BR, 2042BS, 2042BT, 2042BV, 2042BW, 2042BX, 2042BZ, 2042CA, 2042CB, 2042CC, 2042CD, 2042CE, 2042CG, 2042CH, 2042CJ, 2042CK, 2042CL, 2042CM, 2042CN, 2042CP, 2042CR, 2042CS, 2042CT, 2042CV, 2042CW, 2042DV, 2042DW, 2042DX, 2042DZ, 2042EA, 2042EB, 2042EC, 2042ED, 2042EE, 2042EG, 2042EH, 2042EJ, 2042EK, 2042EL, 2042EM, 2042EN, 2042EP, 2042ER, 2042ES, 2042EV, 2042EW, 2042EX, 2042GA, 2042GB, 2042GC, 2042GH, 2042GJ, 2042GL, 2042GT, 2042GV, 2042NC, 2042ND, 2042NE, 2042XA, 2042XB, 2042XC", "wijkcode": "WK047302", "gemeentecode": "GM0473", "gemeentenaam": "Zandvoort", "oppervlakteLandInHa": 46, "AantalInwoners_5": 2930, "Mannen_6": 1420, "Vrouwen_7": 1505, "HuishoudensTotaal_29": 1460, "GemiddeldeHuishoudensgrootte_33": 2.0, "Woningvoorraad_35": 1598, "NieuwbouwWoningen_36": 50, "NietWoningvoorraad_37": 168, "NieuwbouwNietWoningen_38": 0, "GemiddeldeWOZWaardeVanWoningen_39": 529, "PercentageEengezinswoning_40": 56, "PercentageTussenwoningEengezins_41": 19, "PercentageHoekwoningEengezins_42": 18, "PercentageTweeOnderEenKapWoningEe_43": 13, "PercentageVrijstaandeWoningEengezins_44": 7, "PercentageMeergezinswoning_45": 44, "Koopwoningen_47": 66, "HuurwoningenTotaal_48": 33, "InBezitWoningcorporatie_49": 21, "InBezitOverigeVerhuurders_50": 12, "BouwjaarMeerDanTienJaarGeleden_51": 100, "BouwjaarAfgelopenTienJaar_52": 0, "GemiddeldeElektriciteitslevering_53": 2560, "GemiddeldeElektriciteitsteruglevering_54": 410, "GemiddeldAardgasverbruik_55": 1090, "AardgasvrijeWoningen_57": 1, "Aardgaswoningen_58": 96, "WoningenMetZonnestroom_59": 19, "WoningenHoofdzElektrVerwarmd_60": 3, "k_20PersonenMetHoogsteInkomen_80": 24.4, "k_20HuishoudensMetHoogsteInkomen_85": 25.3, "MediaanVermogenVanParticuliereHuish_86": 375.7, "PersonenautoSTotaal_104": 1480, "PersonenautoSBrandstofBenzine_105": 1215, "PersonenautoSOverigeBrandstof_106": 260, "PersonenautoSPerHuishouden_107": 1.0, "Omgevingsadressendichtheid_121": 1879, "AantalInstallatiesBijWoningen_5": 210, "OpgesteldVermogenVanZonnepanelen_6": 748, "installaties_per_woning": 0.13141426783479349, "vermogen_per_woning": 0.46808510638297873, "installaties_per_100_woningen": 13.141426783479348, "vermogen_per_huishouden": 0.51232876712328768, "batterijdruk_score": 77.9, "koop_zon_score": 0.1254, "eengezins_zon_score": 0.1064, "betaalkracht_zon_score": 71.383, "overige_brandstof_zon_score": 49.4, "lichte_batterij_kansscore": 0.29842017248545705 }, "geometry": { "type": "MultiPolygon", "coordinates": [ [ [ [ 96403.387799999996787, 487343.037100000015926 ], [ 96485.3514, 487321.540700000012293 ], [ 96549.6051, 487317.297000000020489 ], [ 96626.313899999993737, 487332.291399999987334 ], [ 96717.748800000001211, 487363.056600000010803 ], [ 96789.467000000004191, 487370.9914 ], [ 96879.807199999995646, 487337.5087 ], [ 97235.021399999997811, 487140.5528 ], [ 97339.893899999995483, 487082.404099999985192 ], [ 97608.583599999998114, 486932.022999999986496 ], [ 97603.960900000005495, 486922.109600000025239 ], [ 97585.121400000003632, 486924.2036 ], [ 97572.054900000002817, 486923.3751 ], [ 97556.452900000003865, 486919.406100000021979 ], [ 97543.21490000000631, 486913.6876 ], [ 97507.960900000005495, 486890.406100000021979 ], [ 97499.351899999994203, 486886.438100000028498 ], [ 97491.181899999995949, 486885.86099999997532 ], [ 97478.060800000006566, 486890.1372 ], [ 97463.334000000002561, 486901.204000000027008 ], [ 97434.64089999999851, 486849.96909999998752 ], [ 97427.1639, 486840.031100000021979 ], [ 97414.827900000003865, 486829.6251 ], [ 97401.88289999999688, 486823.1251 ], [ 97381.397899999996298, 486818.34409999998752 ], [ 97316.591400000004796, 486827.780099999974482 ], [ 97253.784400000004098, 486843.1581 ], [ 97109.218999999997322, 486871.75 ], [ 96974.106, 486928.368100000021514 ], [ 96890.312900000004447, 486947.34409999998752 ], [ 96837.535999999992782, 486960.131 ], [ 96682.629, 487035.222100000013597 ], [ 96650.842900000003283, 487043.437099999981001 ], [ 96617.682, 487041.996099999989383 ], [ 96523.681899999995949, 487019.2071 ], [ 96477.962899999998626, 487001.068099999974947 ], [ 96431.844899999996414, 486969.6201 ], [ 96384.834400000007008, 486940.128099999972619 ], [ 96341.747900000002119, 486925.574100000027101 ], [ 96273.751399999993737, 486923.878399999986868 ], [ 96261.446599999995669, 486904.799300000013318 ], [ 96238.118900000001304, 486868.6286 ], [ 96175.784400000004098, 486716.4806 ], [ 96051.5, 486723.313000000023749 ], [ 96035.7454, 486729.6898 ], [ 96114.420400000002701, 486909.9254 ], [ 96144.472899999993388, 486956.1484 ], [ 96146.6149, 487009.074100000027101 ], [ 96147.002500000002328, 487018.652500000025611 ], [ 96178.06260000000475, 487097.665099999983795 ], [ 96266.184200000003329, 487299.249699999985751 ], [ 96324.1103, 487400.858799999987241 ], [ 96403.387799999996787, 487343.037100000015926 ] ] ] ] } },
{ "type": "Feature", "properties": { "buurtcode": "BU04730204", "buurtnaam": "Zandvoortselaan", "pc6_codes": "2042PM, 2042XD, 2042XE, 2042XJ, 2042XK, 2042XL, 2042XM, 2042XN, 2042XP, 2042XR, 2042XS, 2042XT, 2042XW", "wijkcode": "WK047302", "gemeentecode": "GM0473", "gemeentenaam": "Zandvoort", "oppervlakteLandInHa": 45, "AantalInwoners_5": 590, "Mannen_6": 285, "Vrouwen_7": 305, "HuishoudensTotaal_29": 170, "GemiddeldeHuishoudensgrootte_33": 1.7, "Woningvoorraad_35": 204, "NieuwbouwWoningen_36": 1, "NietWoningvoorraad_37": 10, "NieuwbouwNietWoningen_38": 0, "GemiddeldeWOZWaardeVanWoningen_39": 533, "PercentageEengezinswoning_40": 44, "PercentageTussenwoningEengezins_41": 6, "PercentageHoekwoningEengezins_42": 4, "PercentageTweeOnderEenKapWoningEe_43": 14, "PercentageVrijstaandeWoningEengezins_44": 19, "PercentageMeergezinswoning_45": 56, "Koopwoningen_47": 35, "HuurwoningenTotaal_48": 65, "InBezitWoningcorporatie_49": 47, "InBezitOverigeVerhuurders_50": 19, "BouwjaarMeerDanTienJaarGeleden_51": 98, "BouwjaarAfgelopenTienJaar_52": 2, "GemiddeldeElektriciteitslevering_53": 2550, "GemiddeldeElektriciteitsteruglevering_54": 990, "GemiddeldAardgasverbruik_55": 1030, "AardgasvrijeWoningen_57": 3, "Aardgaswoningen_58": 86, "WoningenMetZonnestroom_59": 62, "WoningenHoofdzElektrVerwarmd_60": 4, "k_20PersonenMetHoogsteInkomen_80": 19.4, "k_20HuishoudensMetHoogsteInkomen_85": 19.0, "MediaanVermogenVanParticuliereHuish_86": 29.2, "PersonenautoSTotaal_104": 160, "PersonenautoSBrandstofBenzine_105": 125, "PersonenautoSOverigeBrandstof_106": 35, "PersonenautoSPerHuishouden_107": 0.9, "Omgevingsadressendichtheid_121": 846, "AantalInstallatiesBijWoningen_5": 23, "OpgesteldVermogenVanZonnepanelen_6": 125, "installaties_per_woning": 0.11274509803921569, "vermogen_per_woning": 0.61274509803921573, "installaties_per_100_woningen": 11.274509803921569, "vermogen_per_huishouden": 0.73529411764705888, "batterijdruk_score": 613.8, "koop_zon_score": 0.217, "eengezins_zon_score": 0.2728, "betaalkracht_zon_score": 18.104, "overige_brandstof_zon_score": 21.7, "lichte_batterij_kansscore": 0.31118898481315771 }, "geometry": { "type": "MultiPolygon", "coordinates": [ [ [ [ 97984.950200000006589, 487153.286399999982677 ], [ 98080.412599999996019, 487139.001600000017788 ], [ 98160.7932, 487117.497800000011921 ], [ 98411.844899999996414, 487050.335100000025705 ], [ 98532.950899999996182, 487021.2866 ], [ 98901.440600000001723, 486924.241199999989476 ], [ 98889.303499999994528, 486847.627700000011828 ], [ 98853.630999999993946, 486851.393800000019837 ], [ 98809.501600000003236, 486847.273800000024494 ], [ 98779.517699999996694, 486837.452 ], [ 98748.210000000006403, 486823.473400000017136 ], [ 98726.370800000004238, 486809.711000000010245 ], [ 98575.371100000003935, 486692.8605 ], [ 98551.979500000001281, 486675.504599999985658 ], [ 98526.842900000003283, 486660.7891 ], [ 98499.95789999999397, 486649.5822 ], [ 98465.161200000002282, 486642.088899999973364 ], [ 98420.657399999996414, 486641.76659999997355 ], [ 98365.900500000003376, 486647.608 ], [ 98293.085999999995693, 486659.451200000010431 ], [ 98232.919200000003912, 486672.539800000027753 ], [ 98109.728199999997742, 486688.5993 ], [ 98061.39089999999851, 486698.156399999978021 ], [ 98005.502399999997579, 486714.8406 ], [ 97952.570900000006077, 486739.338600000017323 ], [ 97913.270999999993364, 486761.867000000027474 ], [ 97878.7117, 486781.6779 ], [ 97608.583599999998114, 486932.022999999986496 ], [ 97339.893899999995483, 487082.404099999985192 ], [ 97235.021399999997811, 487140.5528 ], [ 97310.365399999995134, 487128.027599999972153 ], [ 97361.939899999997579, 487121.832600000023376 ], [ 97581.876600000003236, 487135.8419 ], [ 97736.893100000001141, 487145.716000000014901 ], [ 97885.138999999995576, 487155.995 ], [ 97984.950200000006589, 487153.286399999982677 ] ] ] ] } },
{ "type": "Feature", "properties": { "buurtcode": "BU04730205", "buurtnaam": "Kostverloren e.o.", "pc6_codes": "2042LP, 2042NA, 2042NB, 2042NG, 2042NH, 2042NL, 2042NM, 2042NN, 2042NP, 2042NR, 2042NS, 2042NT, 2042NV, 2042NW, 2042NX, 2042NZ, 2042PA, 2042PB, 2042PC, 2042PD, 2042PE, 2042PJ, 2042PK, 2042PL, 2042PM, 2042PN, 2042PP, 2042PR, 2042PS, 2042PT, 2042PV, 2042PW, 2042PX, 2042PZ, 2042RA, 2042RB, 2042RC, 2042RD", "wijkcode": "WK047302", "gemeentecode": "GM0473", "gemeentenaam": "Zandvoort", "oppervlakteLandInHa": 32, "AantalInwoners_5": 1495, "Mannen_6": 740, "Vrouwen_7": 760, "HuishoudensTotaal_29": 675, "GemiddeldeHuishoudensgrootte_33": 2.2, "Woningvoorraad_35": 686, "NieuwbouwWoningen_36": 0, "NietWoningvoorraad_37": 54, "NieuwbouwNietWoningen_38": 0, "GemiddeldeWOZWaardeVanWoningen_39": 668, "PercentageEengezinswoning_40": 73, "PercentageTussenwoningEengezins_41": 22, "PercentageHoekwoningEengezins_42": 16, "PercentageTweeOnderEenKapWoningEe_43": 19, "PercentageVrijstaandeWoningEengezins_44": 15, "PercentageMeergezinswoning_45": 27, "Koopwoningen_47": 70, "HuurwoningenTotaal_48": 30, "InBezitWoningcorporatie_49": 21, "InBezitOverigeVerhuurders_50": 8, "BouwjaarMeerDanTienJaarGeleden_51": 89, "BouwjaarAfgelopenTienJaar_52": 11, "GemiddeldeElektriciteitslevering_53": 3200, "GemiddeldeElektriciteitsteruglevering_54": 890, "GemiddeldAardgasverbruik_55": 1170, "AardgasvrijeWoningen_57": 2, "Aardgaswoningen_58": 92, "WoningenMetZonnestroom_59": 43, "WoningenHoofdzElektrVerwarmd_60": 6, "k_20PersonenMetHoogsteInkomen_80": 30.3, "k_20HuishoudensMetHoogsteInkomen_85": 37.0, "MediaanVermogenVanParticuliereHuish_86": 499.6, "PersonenautoSTotaal_104": 700, "PersonenautoSBrandstofBenzine_105": 555, "PersonenautoSOverigeBrandstof_106": 145, "PersonenautoSPerHuishouden_107": 1.0, "Omgevingsadressendichtheid_121": 2218, "AantalInstallatiesBijWoningen_5": 229, "OpgesteldVermogenVanZonnepanelen_6": 742, "installaties_per_woning": 0.33381924198250729, "vermogen_per_woning": 1.0816326530612246, "installaties_per_100_woningen": 33.381924198250729, "vermogen_per_huishouden": 1.0992592592592592, "batterijdruk_score": 382.7, "koop_zon_score": 0.301, "eengezins_zon_score": 0.3139, "betaalkracht_zon_score": 214.828, "overige_brandstof_zon_score": 62.35, "lichte_batterij_kansscore": 0.40024387297258929 }, "geometry": { "type": "MultiPolygon", "coordinates": [ [ [ [ 96941.439499999993131, 487783.960000000020955 ], [ 97007.988500000006752, 487756.556099999987055 ], [ 97094.804199999998673, 487736.377900000021327 ], [ 97189.390400000003865, 487731.023800000024494 ], [ 97437.338799999997718, 487745.041900000011083 ], [ 97533.325100000001839, 487748.1506 ], [ 97532.985, 487638.216100000019651 ], [ 97512.9899, 487634.510100000014063 ], [ 97510.994000000006054, 487446.8591 ], [ 97510.707999999998719, 487410.355099999986123 ], [ 97473.335900000005495, 487351.6041 ], [ 97458.780899999997928, 487339.188100000028498 ], [ 97443.460900000005495, 487331.774099999980535 ], [ 97430.9899, 487317.836599999980535 ], [ 97576.618900000001304, 487260.310999999986961 ], [ 97579.815000000002328, 487186.885100000014063 ], [ 97581.876600000003236, 487135.8419 ], [ 97361.939899999997579, 487121.832600000023376 ], [ 97310.365399999995134, 487128.027599999972153 ], [ 97235.021399999997811, 487140.5528 ], [ 96879.807199999995646, 487337.5087 ], [ 96990.826, 487428.3136 ], [ 97060.358600000006845, 487647.3124 ], [ 97060.7975, 487648.446999999985565 ], [ 96819.143100000001141, 487756.321699999971315 ], [ 96820.943, 487761.2242 ], [ 96926.201700000005076, 487791.0456000000122 ], [ 96941.439499999993131, 487783.960000000020955 ] ] ] ] } },
{ "type": "Feature", "properties": { "buurtcode": "BU04730206", "buurtnaam": "Centrum", "pc6_codes": "2041AA, 2041AE, 2041AG, 2042GD, 2042GE, 2042GG, 2042GK, 2042GL, 2042GP, 2042GR, 2042GS, 2042HA, 2042HB, 2042HC, 2042HD, 2042HE, 2042HG, 2042HH, 2042HJ, 2042HK, 2042HL, 2042JB, 2042JC, 2042JD, 2042JE, 2042JG, 2042JH, 2042JJ, 2042JK, 2042JL, 2042JM, 2042JN, 2042JP, 2042JR, 2042JS, 2042JT, 2042JV, 2042JW, 2042JX, 2042JZ, 2042KA, 2042KB, 2042KD, 2042KE, 2042KG, 2042KH, 2042KJ, 2042KK, 2042KL, 2042KN, 2042KP, 2042LA, 2042LB, 2042LC, 2042LD, 2042LE, 2042LG, 2042LH, 2042LJ, 2042LK, 2042LL, 2042LM, 2042LN, 2042LP, 2042LR, 2042LS, 2042LT, 2042LV, 2042LW, 2042LX, 2042LZ, 2042NG, 2042NH, 2042NJ, 2042NK, 2042PG, 2042PH, 2042VA, 2042VB, 2042VC, 2042VD, 2042VE, 2042VG, 2042VH, 2042VJ, 2042VK, 2042VL, 2042VM, 2042VN, 2042VR, 2042VS, 2042VT, 2042VV, 2042VW, 2042VX, 2042VZ", "wijkcode": "WK047302", "gemeentecode": "GM0473", "gemeentenaam": "Zandvoort", "oppervlakteLandInHa": 27, "AantalInwoners_5": 2645, "Mannen_6": 1345, "Vrouwen_7": 1295, "HuishoudensTotaal_29": 1505, "GemiddeldeHuishoudensgrootte_33": 1.8, "Woningvoorraad_35": 1518, "NieuwbouwWoningen_36": 0, "NietWoningvoorraad_37": 309, "NieuwbouwNietWoningen_38": 0, "GemiddeldeWOZWaardeVanWoningen_39": 411, "PercentageEengezinswoning_40": 45, "PercentageTussenwoningEengezins_41": 29, "PercentageHoekwoningEengezins_42": 8, "PercentageTweeOnderEenKapWoningEe_43": 5, "PercentageVrijstaandeWoningEengezins_44": 3, "PercentageMeergezinswoning_45": 55, "Koopwoningen_47": 50, "HuurwoningenTotaal_48": 49, "InBezitWoningcorporatie_49": 18, "InBezitOverigeVerhuurders_50": 31, "BouwjaarMeerDanTienJaarGeleden_51": 96, "BouwjaarAfgelopenTienJaar_52": 4, "GemiddeldeElektriciteitslevering_53": 2300, "GemiddeldeElektriciteitsteruglevering_54": 190, "GemiddeldAardgasverbruik_55": 880, "AardgasvrijeWoningen_57": 11, "Aardgaswoningen_58": 82, "WoningenMetZonnestroom_59": 11, "WoningenHoofdzElektrVerwarmd_60": 11, "k_20PersonenMetHoogsteInkomen_80": 19.6, "k_20HuishoudensMetHoogsteInkomen_85": 15.9, "MediaanVermogenVanParticuliereHuish_86": 107.3, "PersonenautoSTotaal_104": 1150, "PersonenautoSBrandstofBenzine_105": 925, "PersonenautoSOverigeBrandstof_106": 220, "PersonenautoSPerHuishouden_107": 0.8, "Omgevingsadressendichtheid_121": 2405, "AantalInstallatiesBijWoningen_5": 116, "OpgesteldVermogenVanZonnepanelen_6": 349, "installaties_per_woning": 0.076416337285902497, "vermogen_per_woning": 0.22990777338603424, "installaties_per_100_woningen": 7.64163372859025, "vermogen_per_huishouden": 0.23189368770764118, "batterijdruk_score": 20.9, "koop_zon_score": 0.055, "eengezins_zon_score": 0.0495, "betaalkracht_zon_score": 11.803, "overige_brandstof_zon_score": 24.2, "lichte_batterij_kansscore": 0.22136518757427445 }, "geometry": { "type": "MultiPolygon", "coordinates": [ [ [ [ 96719.235400000005029, 487855.647500000020955 ], [ 96729.435599999997066, 487882.541299999982584 ], [ 96926.201700000005076, 487791.0456000000122 ], [ 96820.943, 487761.2242 ], [ 96819.143100000001141, 487756.321699999971315 ], [ 97060.7975, 487648.446999999985565 ], [ 97060.358600000006845, 487647.3124 ], [ 96990.826, 487428.3136 ], [ 96879.807199999995646, 487337.5087 ], [ 96789.467000000004191, 487370.9914 ], [ 96717.748800000001211, 487363.056600000010803 ], [ 96626.313899999993737, 487332.291399999987334 ], [ 96549.6051, 487317.297000000020489 ], [ 96485.3514, 487321.540700000012293 ], [ 96403.387799999996787, 487343.037100000015926 ], [ 96324.1103, 487400.858799999987241 ], [ 96369.280499999993481, 487529.634499999985565 ], [ 96390.289300000004005, 487583.693099999974947 ], [ 96420.017099999997299, 487630.4952 ], [ 96511.9957, 487708.538600000028964 ], [ 96546.494300000005751, 487758.120600000023842 ], [ 96580.539600000003702, 487841.874699999985751 ], [ 96584.864400000005844, 487852.65590000001248 ], [ 96620.607000000003609, 487838.022400000016205 ], [ 96642.515599999998813, 487888.769299999985378 ], [ 96719.235400000005029, 487855.647500000020955 ] ] ] ] } },
{ "type": "Feature", "properties": { "buurtcode": "BU04730301", "buurtnaam": "Bentveld Noord", "pc6_codes": "2116AB, 2116EA, 2116EB, 2116EG, 2116EH, 2116EJ, 2116EK, 2116EL, 2116EM, 2116EN, 2116EP, 2116VA, 2116VB, 2116VC, 2116VD, 2116VE, 2116VG, 2116VH, 2116VJ", "wijkcode": "WK047303", "gemeentecode": "GM0473", "gemeentenaam": "Zandvoort", "oppervlakteLandInHa": 26, "AantalInwoners_5": 385, "Mannen_6": 190, "Vrouwen_7": 195, "HuishoudensTotaal_29": 190, "GemiddeldeHuishoudensgrootte_33": 2.0, "Woningvoorraad_35": 206, "NieuwbouwWoningen_36": 1, "NietWoningvoorraad_37": 63, "NieuwbouwNietWoningen_38": 0, "GemiddeldeWOZWaardeVanWoningen_39": 960, "PercentageEengezinswoning_40": 49, "PercentageTussenwoningEengezins_41": 4, "PercentageHoekwoningEengezins_42": 7, "PercentageTweeOnderEenKapWoningEe_43": 12, "PercentageVrijstaandeWoningEengezins_44": 25, "PercentageMeergezinswoning_45": 51, "Koopwoningen_47": 85, "HuurwoningenTotaal_48": 15, "InBezitWoningcorporatie_49": 3, "InBezitOverigeVerhuurders_50": 12, "BouwjaarMeerDanTienJaarGeleden_51": 98, "BouwjaarAfgelopenTienJaar_52": 2, "GemiddeldeElektriciteitslevering_53": 3140, "GemiddeldeElektriciteitsteruglevering_54": 520, "GemiddeldAardgasverbruik_55": 1400, "AardgasvrijeWoningen_57": 1, "Aardgaswoningen_58": 95, "WoningenMetZonnestroom_59": 21, "WoningenHoofdzElektrVerwarmd_60": 5, "k_20PersonenMetHoogsteInkomen_80": 32.0, "k_20HuishoudensMetHoogsteInkomen_85": 30.9, "MediaanVermogenVanParticuliereHuish_86": 678.6, "PersonenautoSTotaal_104": 260, "PersonenautoSBrandstofBenzine_105": 195, "PersonenautoSOverigeBrandstof_106": 60, "PersonenautoSPerHuishouden_107": 1.3, "Omgevingsadressendichtheid_121": 323, "AantalInstallatiesBijWoningen_5": null, "OpgesteldVermogenVanZonnepanelen_6": null, "installaties_per_woning": null, "vermogen_per_woning": null, "installaties_per_100_woningen": null, "vermogen_per_huishouden": null, "batterijdruk_score": 109.2, "koop_zon_score": 0.1785, "eengezins_zon_score": 0.1029, "betaalkracht_zon_score": 142.506, "overige_brandstof_zon_score": 12.6, "lichte_batterij_kansscore": 0.32606588285017929 }, "geometry": { "type": "MultiPolygon", "coordinates": [ [ [ [ 99997.705799999996088, 487246.754000000015367 ], [ 99986.524999999994179, 487215.642999999981839 ], [ 99986.002999999996973, 487214.061999999976251 ], [ 99984.18399999999383, 487208.745999999984633 ], [ 99983.001000000003842, 487205.287000000011176 ], [ 99973.626000000003842, 487177.881999999983236 ], [ 99965.702999999994063, 487155.672000000020489 ], [ 99959.059999999997672, 487135.73599999997532 ], [ 99958.510999999998603, 487134.134000000020023 ], [ 99958.479999999995925, 487134.043 ], [ 99957.48399999999674, 487131.134000000020023 ], [ 99955.221999999994296, 487124.593999999982771 ], [ 99944.615000000005239, 487093.930999999982305 ], [ 99939.570999999996275, 487079.321999999985565 ], [ 99931.009999999994761, 487054.527 ], [ 99925.104000000006636, 487037.423 ], [ 99913.430999999996857, 487003.647999999986496 ], [ 99909.293999999994412, 486991.679 ], [ 99906.356, 486983.212999999988824 ], [ 99894.69999999999709, 486949.663999999989755 ], [ 99893.202999999994063, 486945.313000000023749 ], [ 99885.455000000001746, 486923.082999999984168 ], [ 99877.645000000004075, 486900.618000000016764 ], [ 99875.642999999996391, 486894.871999999973923 ], [ 99872.864000000001397, 486886.884000000020023 ], [ 99871.587, 486883.602000000013504 ], [ 99868.487999999997555, 486875.577999999979511 ], [ 99861.418000000005122, 486857.310999999986961 ], [ 99857.073999999993248, 486846.087999999988824 ], [ 99853.122000000003027, 486835.879000000015367 ], [ 99851.093999999997322, 486830.64000000001397 ], [ 99847.475999999995111, 486821.292000000015832 ], [ 99846.600000000005821, 486819.028999999980442 ], [ 99834.174, 486786.770000000018626 ], [ 99820.785999999992782, 486752.01500000001397 ], [ 99816.292000000001281, 486740.347 ], [ 99812.793999999994412, 486731.267 ], [ 99793.892000000007101, 486682.814000000013039 ], [ 99790.61250000000291, 486673.738499999977648 ], [ 99719.178899999998976, 486700.326799999980722 ], [ 99667.520900000003166, 486713.4781 ], [ 99508.853799999997136, 486744.660900000017136 ], [ 99327.424100000003818, 486775.816799999971408 ], [ 99088.134000000005472, 486815.991099999984726 ], [ 99085.73399999999674, 486832.541099999973085 ], [ 99092.732900000002701, 486878.9926 ], [ 99169.0809, 486863.3051 ], [ 99370.319900000002235, 486826.225099999981467 ], [ 99375.225999999995111, 486829.503099999972619 ], [ 99390.396999999997206, 486943.702 ], [ 99405.320000000006985, 486991.13900000002468 ], [ 99444.39089999999851, 487066.4251 ], [ 99660.619900000005146, 487225.8001 ], [ 99883.990099999995437, 487295.3261 ], [ 99997.705799999996088, 487246.754000000015367 ] ] ] ] } },
{ "type": "Feature", "properties": { "buurtcode": "BU04730302", "buurtnaam": "Bentveld Zuid", "pc6_codes": "2116ER, 2116ES, 2116GA, 2116TA, 2116TB, 2116TC, 2116TD, 2116TE, 2116TG, 2116TH, 2116TJ, 2116TK, 2116TL, 2116TM, 2116TN, 2116TP, 2116TR, 2116TS, 2116TT, 2116TV, 2116TW, 2116TZ", "wijkcode": "WK047303", "gemeentecode": "GM0473", "gemeentenaam": "Zandvoort", "oppervlakteLandInHa": 52, "AantalInwoners_5": 635, "Mannen_6": 280, "Vrouwen_7": 355, "HuishoudensTotaal_29": 270, "GemiddeldeHuishoudensgrootte_33": 2.1, "Woningvoorraad_35": 344, "NieuwbouwWoningen_36": 0, "NietWoningvoorraad_37": 9, "NieuwbouwNietWoningen_38": 0, "GemiddeldeWOZWaardeVanWoningen_39": 853, "PercentageEengezinswoning_40": 51, "PercentageTussenwoningEengezins_41": 3, "PercentageHoekwoningEengezins_42": 2, "PercentageTweeOnderEenKapWoningEe_43": 10, "PercentageVrijstaandeWoningEengezins_44": 35, "PercentageMeergezinswoning_45": 49, "Koopwoningen_47": 58, "HuurwoningenTotaal_48": 42, "InBezitWoningcorporatie_49": 40, "InBezitOverigeVerhuurders_50": 2, "BouwjaarMeerDanTienJaarGeleden_51": 98, "BouwjaarAfgelopenTienJaar_52": 2, "GemiddeldeElektriciteitslevering_53": 3340, "GemiddeldeElektriciteitsteruglevering_54": 510, "GemiddeldAardgasverbruik_55": 1320, "AardgasvrijeWoningen_57": 2, "Aardgaswoningen_58": 92, "WoningenMetZonnestroom_59": 21, "WoningenHoofdzElektrVerwarmd_60": 6, "k_20PersonenMetHoogsteInkomen_80": 35.3, "k_20HuishoudensMetHoogsteInkomen_85": 44.8, "MediaanVermogenVanParticuliereHuish_86": 1109.4, "PersonenautoSTotaal_104": 320, "PersonenautoSBrandstofBenzine_105": 230, "PersonenautoSOverigeBrandstof_106": 85, "PersonenautoSPerHuishouden_107": 1.2, "Omgevingsadressendichtheid_121": 308, "AantalInstallatiesBijWoningen_5": 31, "OpgesteldVermogenVanZonnepanelen_6": 169, "installaties_per_woning": 0.090116279069767435, "vermogen_per_woning": 0.49127906976744184, "installaties_per_100_woningen": 9.0116279069767433, "vermogen_per_huishouden": 0.62592592592592589, "batterijdruk_score": 107.1, "koop_zon_score": 0.1218, "eengezins_zon_score": 0.1071, "betaalkracht_zon_score": 232.974, "overige_brandstof_zon_score": 17.85, "lichte_batterij_kansscore": 0.27621839416281407 }, "geometry": { "type": "MultiPolygon", "coordinates": [ [ [ [ 99327.424100000003818, 486775.816799999971408 ], [ 99508.853799999997136, 486744.660900000017136 ], [ 99667.520900000003166, 486713.4781 ], [ 99719.178899999998976, 486700.326799999980722 ], [ 99790.61250000000291, 486673.738499999977648 ], [ 99787.332999999998719, 486664.663 ], [ 99776.862999999997555, 486635.673 ], [ 99775.426999999996042, 486631.697999999974854 ], [ 99765.665999999997439, 486604.678000000014435 ], [ 99759.236000000004424, 486586.87699999997858 ], [ 99752.765, 486568.963999999978114 ], [ 99735.490999999994528, 486521.147999999986496 ], [ 99735.06699999999546, 486519.974999999976717 ], [ 99731.611000000004424, 486510.407 ], [ 99725.929999999993015, 486494.683000000019092 ], [ 99716.160999999992782, 486467.64000000001397 ], [ 99708.482000000003609, 486447.113000000012107 ], [ 99696.607999999992899, 486413.51400000002468 ], [ 99693.642000000007101, 486405.368000000016764 ], [ 99691.256999999997788, 486398.786000000021886 ], [ 99690.853000000002794, 486397.592 ], [ 99661.342000000004191, 486315.892 ], [ 99646.989000000001397, 486276.158 ], [ 99645.369999999995343, 486271.677000000025146 ], [ 99643.046000000002095, 486265.244 ], [ 99641.66809999999532, 486261.3543 ], [ 99637.875, 486250.647 ], [ 99626.255999999993946, 486217.842 ], [ 99608.467000000004191, 486167.26 ], [ 99602.217000000004191, 486147.931999999971595 ], [ 99599.106, 486139.188000000023749 ], [ 99590.943, 486116.243000000016764 ], [ 99587.063999999998487, 486105.455000000016298 ], [ 99584.623999999996158, 486098.667000000015832 ], [ 99578.823999999993248, 486082.444000000017695 ], [ 99571.55800000000454, 486061.783 ], [ 99561.710000000006403, 486033.520000000018626 ], [ 99499.940000000002328, 485858.362000000022817 ], [ 99490.603000000002794, 485831.85999999998603 ], [ 99459.60899999999674, 485743.061999999976251 ], [ 99403.384999999994761, 485582.821 ], [ 99338.668000000005122, 485398.129000000015367 ], [ 99337.746, 485396.021 ], [ 99327.072, 485364.9951 ], [ 99311.303, 485414.064599999983329 ], [ 99299.293000000005122, 485453.615600000019185 ], [ 99287.410000000003492, 485500.0001 ], [ 99247.906000000002678, 485710.0736 ], [ 99221.653600000005099, 485848.063000000023749 ], [ 99190.078999999997905, 486067.650100000028033 ], [ 99153.505000000004657, 486322.0061 ], [ 99151.784, 486355.8371 ], [ 99154.293999999994412, 486395.6066 ], [ 99158.123999999996158, 486417.975099999981467 ], [ 99107.009999999994761, 486705.9731 ], [ 99090.534, 486799.4411 ], [ 99088.134000000005472, 486815.991099999984726 ], [ 99327.424100000003818, 486775.816799999971408 ] ] ] ] } },
{ "type": "Feature", "properties": { "buurtcode": "BU04730401", "buurtnaam": "Noord strand", "pc6_codes": "2041JA, 2041KB", "wijkcode": "WK047304", "gemeentecode": "GM0473", "gemeentenaam": "Zandvoort", "oppervlakteLandInHa": 31, "AantalInwoners_5": 0, "Mannen_6": 0, "Vrouwen_7": 0, "HuishoudensTotaal_29": 0, "GemiddeldeHuishoudensgrootte_33": null, "Woningvoorraad_35": 0, "NieuwbouwWoningen_36": 0, "NietWoningvoorraad_37": 2, "NieuwbouwNietWoningen_38": 0, "GemiddeldeWOZWaardeVanWoningen_39": null, "PercentageEengezinswoning_40": null, "PercentageTussenwoningEengezins_41": null, "PercentageHoekwoningEengezins_42": null, "PercentageTweeOnderEenKapWoningEe_43": null, "PercentageVrijstaandeWoningEengezins_44": null, "PercentageMeergezinswoning_45": null, "Koopwoningen_47": null, "HuurwoningenTotaal_48": null, "InBezitWoningcorporatie_49": null, "InBezitOverigeVerhuurders_50": null, "BouwjaarMeerDanTienJaarGeleden_51": null, "BouwjaarAfgelopenTienJaar_52": null, "GemiddeldeElektriciteitslevering_53": null, "GemiddeldeElektriciteitsteruglevering_54": null, "GemiddeldAardgasverbruik_55": null, "AardgasvrijeWoningen_57": null, "Aardgaswoningen_58": null, "WoningenMetZonnestroom_59": null, "WoningenHoofdzElektrVerwarmd_60": null, "k_20PersonenMetHoogsteInkomen_80": null, "k_20HuishoudensMetHoogsteInkomen_85": null, "MediaanVermogenVanParticuliereHuish_86": null, "PersonenautoSTotaal_104": 0, "PersonenautoSBrandstofBenzine_105": 0, "PersonenautoSOverigeBrandstof_106": 0, "PersonenautoSPerHuishouden_107": null, "Omgevingsadressendichtheid_121": 1213, "AantalInstallatiesBijWoningen_5": 0, "OpgesteldVermogenVanZonnepanelen_6": 0, "installaties_per_woning": null, "vermogen_per_woning": null, "installaties_per_100_woningen": null, "vermogen_per_huishouden": null, "batterijdruk_score": null, "koop_zon_score": null, "eengezins_zon_score": null, "betaalkracht_zon_score": null, "overige_brandstof_zon_score": null, "lichte_batterij_kansscore": null }, "geometry": { "type": "MultiPolygon", "coordinates": [ [ [ [ 97467.005000000004657, 490717.522999999986496 ], [ 97523.754, 490703.882999999972526 ], [ 97538.739000000001397, 490700.281000000017229 ], [ 97544.274999999994179, 490698.457 ], [ 97550.041200000006938, 490696.5574 ], [ 97506.951, 490585.464099999982864 ], [ 97476.714399999997113, 490507.3651 ], [ 97462.278999999994994, 490461.8761 ], [ 97382.585000000006403, 490256.389099999971222 ], [ 97365.979000000006636, 490213.6644 ], [ 97355.06600000000617, 490185.5871 ], [ 97322.123999999996158, 490100.725099999981467 ], [ 97311.5769, 490073.8319 ], [ 97233.543000000005122, 489874.8601 ], [ 97141.559899999992922, 489656.309100000013132 ], [ 96837.105899999995017, 488933.659099999989849 ], [ 96779.878899999996065, 488794.7021 ], [ 96742.967900000003283, 488726.069100000022445 ], [ 96671.3799, 488551.0061 ], [ 96594.58190000000468, 488357.366099999984726 ], [ 96514.19199999999546, 488157.51500000001397 ], [ 96492.153000000005704, 488101.810999999986961 ], [ 96509.528000000005704, 488058.166099999973085 ], [ 96490.069900000002235, 488049.7561 ], [ 96452.612299999993411, 488033.1127 ], [ 96368.783200000005309, 488067.967799999983981 ], [ 96365.707200000004377, 488069.246700000017881 ], [ 96371.663400000004913, 488080.6888 ], [ 96433.179199999998673, 488229.5172 ], [ 96453.333400000003166, 488286.094600000011269 ], [ 96458.4755, 488300.5296 ], [ 96488.080300000001444, 488383.6373 ], [ 96533.059599999993225, 488486.163600000028964 ], [ 96566.132599999997183, 488556.9398 ], [ 96595.236799999998766, 488607.872099999978673 ], [ 96625.002399999997579, 488675.341000000014901 ], [ 96642.861900000003516, 488724.2891 ], [ 96673.950500000006286, 488795.065300000016578 ], [ 96694.455799999996088, 488851.9508 ], [ 96710.992199999993318, 488913.466499999980442 ], [ 96726.867299999998068, 488951.831200000015087 ], [ 96753.7601, 489015.635799999989104 ], [ 96760.6017, 489031.8678 ], [ 96802.935100000002421, 489119.8419 ], [ 96839.976899999994203, 489198.555600000021514 ], [ 96847.427500000005239, 489215.691899999976158 ], [ 96879.664399999994203, 489289.8371 ], [ 96929.2739, 489414.191400000010617 ], [ 96967.638600000005681, 489499.5198 ], [ 97010.633400000006077, 489609.983499999972992 ], [ 97059.581399999995483, 489729.046299999987241 ], [ 97060.656400000007125, 489732.0969 ], [ 97069.082800000003772, 489756.009399999980815 ], [ 97108.5294, 489867.952800000028219 ], [ 97167.399399999994785, 490016.119799999985844 ], [ 97203.118199999997159, 490110.047000000020489 ], [ 97242.1443, 490207.943099999974947 ], [ 97254.3845, 490239.2636 ], [ 97287.123600000006263, 490323.037000000011176 ], [ 97344.009099999995669, 490463.266500000027008 ], [ 97351.530899999997928, 490485.988599999982398 ], [ 97375.7592, 490559.178100000019185 ], [ 97404.2019, 490645.82929999998305 ], [ 97420.738400000002002, 490698.746099999989383 ], [ 97432.644700000004377, 490730.4962 ], [ 97433.37510000000475, 490731.558599999989383 ], [ 97467.005000000004657, 490717.522999999986496 ] ] ] ] } },
{ "type": "Feature", "properties": { "buurtcode": "BU04730402", "buurtnaam": "Zuid strand", "pc6_codes": "2042AA, 2042AD, 2042AE, 2042AG, 2042JA, 2042TV", "wijkcode": "WK047304", "gemeentecode": "GM0473", "gemeentenaam": "Zandvoort", "oppervlakteLandInHa": 48, "AantalInwoners_5": 0, "Mannen_6": 0, "Vrouwen_7": 0, "HuishoudensTotaal_29": 0, "GemiddeldeHuishoudensgrootte_33": null, "Woningvoorraad_35": 0, "NieuwbouwWoningen_36": 0, "NietWoningvoorraad_37": 3, "NieuwbouwNietWoningen_38": 0, "GemiddeldeWOZWaardeVanWoningen_39": null, "PercentageEengezinswoning_40": null, "PercentageTussenwoningEengezins_41": null, "PercentageHoekwoningEengezins_42": null, "PercentageTweeOnderEenKapWoningEe_43": null, "PercentageVrijstaandeWoningEengezins_44": null, "PercentageMeergezinswoning_45": null, "Koopwoningen_47": null, "HuurwoningenTotaal_48": null, "InBezitWoningcorporatie_49": null, "InBezitOverigeVerhuurders_50": null, "BouwjaarMeerDanTienJaarGeleden_51": null, "BouwjaarAfgelopenTienJaar_52": null, "GemiddeldeElektriciteitslevering_53": null, "GemiddeldeElektriciteitsteruglevering_54": null, "GemiddeldAardgasverbruik_55": null, "AardgasvrijeWoningen_57": null, "Aardgaswoningen_58": null, "WoningenMetZonnestroom_59": null, "WoningenHoofdzElektrVerwarmd_60": null, "k_20PersonenMetHoogsteInkomen_80": null, "k_20HuishoudensMetHoogsteInkomen_85": null, "MediaanVermogenVanParticuliereHuish_86": null, "PersonenautoSTotaal_104": 0, "PersonenautoSBrandstofBenzine_105": 0, "PersonenautoSOverigeBrandstof_106": 0, "PersonenautoSPerHuishouden_107": null, "Omgevingsadressendichtheid_121": 1140, "AantalInstallatiesBijWoningen_5": 0, "OpgesteldVermogenVanZonnepanelen_6": 0, "installaties_per_woning": null, "vermogen_per_woning": null, "installaties_per_100_woningen": null, "vermogen_per_huishouden": null, "batterijdruk_score": null, "koop_zon_score": null, "eengezins_zon_score": null, "betaalkracht_zon_score": null, "overige_brandstof_zon_score": null, "lichte_batterij_kansscore": null }, "geometry": { "type": "MultiPolygon", "coordinates": [ [ [ [ 96368.783200000005309, 488067.967799999983981 ], [ 96452.612299999993411, 488033.1127 ], [ 96490.069900000002235, 488049.7561 ], [ 96458.368400000006659, 487973.1151 ], [ 96361.805900000006659, 487737.948099999979604 ], [ 96330.385899999993853, 487688.853599999973085 ], [ 96295.347899999993388, 487635.21909999998752 ], [ 96282.782000000006519, 487605.318000000028405 ], [ 96268.476299999994808, 487567.6898 ], [ 96276.5809, 487559.2721 ], [ 96242.759999999994761, 487482.028 ], [ 96205.509999999994761, 487383.918 ], [ 96140.023000000001048, 487239.942099999985658 ], [ 96141.668900000004214, 487238.809100000013132 ], [ 96097.698999999993248, 487137.878000000026077 ], [ 96064.091, 487052.492000000027474 ], [ 95901.953999999997905, 486643.335100000025705 ], [ 95782.618900000001304, 486371.0221 ], [ 95771.0919, 486368.34409999998752 ], [ 95748.228900000001886, 486312.357100000022911 ], [ 95055.490699999994831, 484676.367900000012014 ], [ 94938.512400000006892, 484400.1089 ], [ 94175.329899999996996, 482597.756500000017695 ], [ 94148.172000000005937, 482609.732000000018161 ], [ 94146.351999999998952, 482610.533999999985099 ], [ 94115.657399999996414, 482624.0699 ], [ 94137.835900000005495, 482677.898999999975786 ], [ 94159.742400000002817, 482731.067700000014156 ], [ 94162.992400000002817, 482739.8284 ], [ 94168.6152, 482754.985600000014529 ], [ 94170.993300000001909, 482761.396499999973457 ], [ 94172.03070000000298, 482763.269299999985378 ], [ 94181.674899999998161, 482780.678399999975227 ], [ 94187.415399999998044, 482788.026399999973364 ], [ 94191.492400000002817, 482793.2449 ], [ 94204.060100000002421, 482811.7658 ], [ 94209.351800000004005, 482823.672000000020489 ], [ 94210.351500000004307, 482832.336000000010245 ], [ 94211.336200000005192, 482840.87 ], [ 94213.982099999993807, 482864.6825 ], [ 94221.919599999993807, 482889.818000000028405 ], [ 94231.841499999994994, 482912.3076 ], [ 94255.653999999994994, 482951.333800000022165 ], [ 94284.0968, 482998.29739999998128 ], [ 94314.5239, 483067.48609999998007 ], [ 94326.460999999995693, 483092.197900000028312 ], [ 94326.796000000002095, 483092.942099999985658 ], [ 94352.725000000005821, 483152.208999999973457 ], [ 94360.686499999996158, 483168.0404 ], [ 94385.300099999993108, 483233.5124 ], [ 94411.758499999996275, 483298.996900000027381 ], [ 94445.492899999997462, 483370.434599999978673 ], [ 94450.447799999994459, 483379.131 ], [ 94477.9044, 483427.320100000011735 ], [ 94514.946100000001024, 483521.2474 ], [ 94538.097299999993993, 483583.424600000027567 ], [ 94597.837199999994482, 483735.5317 ], [ 94603.637100000007194, 483750.2991 ], [ 94624.087, 483802.3678 ], [ 94634.949299999992945, 483827.841299999970943 ], [ 94698.831999999994878, 483977.6546 ], [ 94767.623800000001211, 484166.1706000000122 ], [ 94802.019700000004377, 484270.0197 ], [ 94833.769700000004377, 484353.363599999982398 ], [ 94847.660399999993388, 484386.43660000001546 ], [ 94864.858399999997346, 484414.879399999976158 ], [ 94873.457299999994575, 484424.1398 ], [ 94875.945999999996275, 484426.130799999984447 ], [ 94882.056299999996554, 484439.9426 ], [ 94882.056299999996554, 484443.3221 ], [ 94881.394799999994575, 484453.244100000010803 ], [ 94886.024999999994179, 484471.7649 ], [ 94907.853199999997742, 484521.374399999971502 ], [ 94948.8637000000017, 484610.6714 ], [ 94961.29330000000482, 484637.353599999973085 ], [ 94972.3989, 484661.1936 ], [ 94974.960000000006403, 484666.691400000010617 ], [ 94998.473199999993085, 484717.166399999987334 ], [ 95034.853400000007241, 484795.218700000026729 ], [ 95063.9577, 484868.64069999998901 ], [ 95094.3848, 484955.9534 ], [ 95144.655799999993178, 485067.7401 ], [ 95171.114100000006147, 485137.854799999971874 ], [ 95200.218399999997928, 485211.93829999997979 ], [ 95225.353799999997136, 485263.532100000011269 ], [ 95247.555699999997159, 485311.107599999988452 ], [ 95248.5049, 485313.14159999997355 ], [ 95272.978900000001886, 485366.719800000020768 ], [ 95279.5282, 485388.444100000022445 ], [ 95300.098800000007031, 485456.678300000028685 ], [ 95327.218599999992875, 485517.53259999997681 ], [ 95351.692599999994854, 485565.15779999998631 ], [ 95373.520799999998417, 485615.428599999984726 ], [ 95394.026100000002771, 485665.0381 ], [ 95412.119999999995343, 485720.612499999988358 ], [ 95412.547000000005937, 485721.923699999984819 ], [ 95427.760500000003958, 485775.50189999997383 ], [ 95446.281400000007125, 485821.142600000021048 ], [ 95459.378100000001723, 485854.6459 ], [ 95474.724100000006729, 485893.9032 ], [ 95528.3024, 486024.2108 ], [ 95551.865000000005239, 486083.6083000000217 ], [ 95563.629, 486110.755500000028405 ], [ 95600.401400000002468, 486177.669400000013411 ], [ 95622.891099999993457, 486239.846599999989849 ], [ 95636.120299999995041, 486284.8258 ], [ 95659.271399999997811, 486335.758299999986775 ], [ 95687.714099999997416, 486406.5344 ], [ 95722.11, 486467.388700000010431 ], [ 95746.584099999992759, 486526.2586 ], [ 95756.452900000003865, 486558.3322 ], [ 95765.104900000005728, 486586.45140000001993 ], [ 95777.364000000001397, 486625.7649 ], [ 95784.287400000001071, 486647.96720000001369 ], [ 95812.068599999998696, 486716.759000000020023 ], [ 95839.188500000003842, 486790.84240000002319 ], [ 95850.8459, 486819.04590000002645 ], [ 95860.100300000005518, 486841.435699999972712 ], [ 95880.19890000000305, 486890.0614 ], [ 95907.980299999995623, 486958.191799999971408 ], [ 96025.058699999994133, 487236.0048 ], [ 96035.928400000004331, 487262.8932 ], [ 96036.536999999996624, 487264.6361 ], [ 96051.44550000000163, 487301.653899999975692 ], [ 96070.699299999992945, 487355.0676 ], [ 96096.496199999994133, 487431.135400000028312 ], [ 96124.277499999996508, 487491.989699999976438 ], [ 96127.760299999994459, 487500.0 ], [ 96157.3505, 487568.0576 ], [ 96161.812099999995553, 487579.6434 ], [ 96198.361000000004424, 487674.5526 ], [ 96265.168399999995017, 487846.532100000011269 ], [ 96290.965299999996205, 487911.355099999986123 ], [ 96320.069600000002538, 487987.423 ], [ 96346.5279, 488032.402300000016112 ], [ 96365.707200000004377, 488069.246700000017881 ], [ 96368.783200000005309, 488067.967799999983981 ] ] ] ] } },
{ "type": "Feature", "properties": { "buurtcode": "BU04730403", "buurtnaam": "Zuid duinen", "pc6_codes": "2042BN, 2042XC, 2042XD", "wijkcode": "WK047304", "gemeentecode": "GM0473", "gemeentenaam": "Zandvoort", "oppervlakteLandInHa": 1819, "AantalInwoners_5": 15, "Mannen_6": 10, "Vrouwen_7": 5, "HuishoudensTotaal_29": 5, "GemiddeldeHuishoudensgrootte_33": 2.1, "Woningvoorraad_35": 7, "NieuwbouwWoningen_36": 0, "NietWoningvoorraad_37": 3, "NieuwbouwNietWoningen_38": 0, "GemiddeldeWOZWaardeVanWoningen_39": null, "PercentageEengezinswoning_40": null, "PercentageTussenwoningEengezins_41": null, "PercentageHoekwoningEengezins_42": null, "PercentageTweeOnderEenKapWoningEe_43": null, "PercentageVrijstaandeWoningEengezins_44": null, "PercentageMeergezinswoning_45": null, "Koopwoningen_47": null, "HuurwoningenTotaal_48": null, "InBezitWoningcorporatie_49": null, "InBezitOverigeVerhuurders_50": null, "BouwjaarMeerDanTienJaarGeleden_51": null, "BouwjaarAfgelopenTienJaar_52": null, "GemiddeldeElektriciteitslevering_53": 3270, "GemiddeldeElektriciteitsteruglevering_54": 980, "GemiddeldAardgasverbruik_55": 1060, "AardgasvrijeWoningen_57": null, "Aardgaswoningen_58": null, "WoningenMetZonnestroom_59": null, "WoningenHoofdzElektrVerwarmd_60": null, "k_20PersonenMetHoogsteInkomen_80": null, "k_20HuishoudensMetHoogsteInkomen_85": null, "MediaanVermogenVanParticuliereHuish_86": null, "PersonenautoSTotaal_104": 20, "PersonenautoSBrandstofBenzine_105": 15, "PersonenautoSOverigeBrandstof_106": 5, "PersonenautoSPerHuishouden_107": null, "Omgevingsadressendichtheid_121": 395, "AantalInstallatiesBijWoningen_5": null, "OpgesteldVermogenVanZonnepanelen_6": null, "installaties_per_woning": null, "vermogen_per_woning": null, "installaties_per_100_woningen": null, "vermogen_per_huishouden": null, "batterijdruk_score": null, "koop_zon_score": null, "eengezins_zon_score": null, "betaalkracht_zon_score": null, "overige_brandstof_zon_score": null, "lichte_batterij_kansscore": null }, "geometry": { "type": "MultiPolygon", "coordinates": [ [ [ [ 96682.629, 487035.222100000013597 ], [ 96837.535999999992782, 486960.131 ], [ 96890.312900000004447, 486947.34409999998752 ], [ 96974.106, 486928.368100000021514 ], [ 97109.218999999997322, 486871.75 ], [ 97253.784400000004098, 486843.1581 ], [ 97316.591400000004796, 486827.780099999974482 ], [ 97381.397899999996298, 486818.34409999998752 ], [ 97401.88289999999688, 486823.1251 ], [ 97414.827900000003865, 486829.6251 ], [ 97427.1639, 486840.031100000021979 ], [ 97434.64089999999851, 486849.96909999998752 ], [ 97463.334000000002561, 486901.204000000027008 ], [ 97478.060800000006566, 486890.1372 ], [ 97491.181899999995949, 486885.86099999997532 ], [ 97499.351899999994203, 486886.438100000028498 ], [ 97507.960900000005495, 486890.406100000021979 ], [ 97543.21490000000631, 486913.6876 ], [ 97556.452900000003865, 486919.406100000021979 ], [ 97572.054900000002817, 486923.3751 ], [ 97585.121400000003632, 486924.2036 ], [ 97603.960900000005495, 486922.109600000025239 ], [ 97608.583599999998114, 486932.022999999986496 ], [ 97878.7117, 486781.6779 ], [ 97913.270999999993364, 486761.867000000027474 ], [ 97952.570900000006077, 486739.338600000017323 ], [ 98005.502399999997579, 486714.8406 ], [ 98061.39089999999851, 486698.156399999978021 ], [ 98109.728199999997742, 486688.5993 ], [ 98232.919200000003912, 486672.539800000027753 ], [ 98293.085999999995693, 486659.451200000010431 ], [ 98365.900500000003376, 486647.608 ], [ 98420.657399999996414, 486641.76659999997355 ], [ 98465.161200000002282, 486642.088899999973364 ], [ 98499.95789999999397, 486649.5822 ], [ 98526.842900000003283, 486660.7891 ], [ 98551.979500000001281, 486675.504599999985658 ], [ 98575.371100000003935, 486692.8605 ], [ 98726.370800000004238, 486809.711000000010245 ], [ 98748.210000000006403, 486823.473400000017136 ], [ 98779.517699999996694, 486837.452 ], [ 98809.501600000003236, 486847.273800000024494 ], [ 98853.630999999993946, 486851.393800000019837 ], [ 98889.303499999994528, 486847.627700000011828 ], [ 98900.134099999995669, 486846.4842 ], [ 98953.238299999997253, 486837.243100000021514 ], [ 99088.134000000005472, 486815.991099999984726 ], [ 99090.534, 486799.4411 ], [ 99107.009999999994761, 486705.9731 ], [ 99158.123999999996158, 486417.975099999981467 ], [ 99154.293999999994412, 486395.6066 ], [ 99151.784, 486355.8371 ], [ 99153.505000000004657, 486322.0061 ], [ 99190.078999999997905, 486067.650100000028033 ], [ 99221.653600000005099, 485848.063000000023749 ], [ 99247.906000000002678, 485710.0736 ], [ 99287.410000000003492, 485500.0001 ], [ 99299.293000000005122, 485453.615600000019185 ], [ 99311.303, 485414.064599999983329 ], [ 99327.072, 485364.9951 ], [ 99324.388000000006286, 485357.194000000017695 ], [ 99321.903999999994994, 485350.282 ], [ 99303.034, 485294.48599999997532 ], [ 99009.432, 484467.197999999974854 ], [ 98997.130000000004657, 484434.396 ], [ 98972.701100000005681, 484364.865700000023935 ], [ 98763.164000000004307, 483768.474999999976717 ], [ 98556.097999999998137, 483209.618000000016764 ], [ 98549.220000000001164, 483191.055 ], [ 98174.11699999999837, 482178.681999999971595 ], [ 98157.335000000006403, 482136.075000000011642 ], [ 97728.93399999999383, 481002.808000000019092 ], [ 97714.847999999998137, 481008.929 ], [ 97650.994000000006054, 481036.538999999989755 ], [ 97570.154999999998836, 481070.632999999972526 ], [ 97493.876999999993131, 481102.788 ], [ 97461.767000000007101, 481117.685 ], [ 97460.781000000002678, 481116.307099999976344 ], [ 96577.364000000001397, 481505.349999999976717 ], [ 96084.087, 481732.048 ], [ 95340.789999999993597, 482071.794999999983702 ], [ 94501.759999999994761, 482450.647999999986496 ], [ 94202.487999999997555, 482585.781000000017229 ], [ 94175.329899999996996, 482597.756500000017695 ], [ 94938.512400000006892, 484400.1089 ], [ 95055.490699999994831, 484676.367900000012014 ], [ 95748.228900000001886, 486312.357100000022911 ], [ 95865.213199999998324, 486264.585000000020955 ], [ 95876.39089999999851, 486292.0001 ], [ 96051.5, 486723.313000000023749 ], [ 96175.784400000004098, 486716.4806 ], [ 96238.118900000001304, 486868.6286 ], [ 96261.446599999995669, 486904.799300000013318 ], [ 96273.751399999993737, 486923.878399999986868 ], [ 96341.747900000002119, 486925.574100000027101 ], [ 96384.834400000007008, 486940.128099999972619 ], [ 96431.844899999996414, 486969.6201 ], [ 96477.962899999998626, 487001.068099999974947 ], [ 96523.681899999995949, 487019.2071 ], [ 96617.682, 487041.996099999989383 ], [ 96650.842900000003283, 487043.437099999981001 ], [ 96682.629, 487035.222100000013597 ] ] ] ] } },
{ "type": "Feature", "properties": { "buurtcode": "BU04730404", "buurtnaam": "Noord duinen", "pc6_codes": "2041JA, 2041KZ, 2042DA, 2042XT, 2116EK", "wijkcode": "WK047304", "gemeentecode": "GM0473", "gemeentenaam": "Zandvoort", "oppervlakteLandInHa": 781, "AantalInwoners_5": 5, "Mannen_6": 5, "Vrouwen_7": 5, "HuishoudensTotaal_29": 5, "GemiddeldeHuishoudensgrootte_33": 2.7, "Woningvoorraad_35": 5, "NieuwbouwWoningen_36": 0, "NietWoningvoorraad_37": 76, "NieuwbouwNietWoningen_38": 1, "GemiddeldeWOZWaardeVanWoningen_39": null, "PercentageEengezinswoning_40": null, "PercentageTussenwoningEengezins_41": null, "PercentageHoekwoningEengezins_42": null, "PercentageTweeOnderEenKapWoningEe_43": null, "PercentageVrijstaandeWoningEengezins_44": null, "PercentageMeergezinswoning_45": null, "Koopwoningen_47": null, "HuurwoningenTotaal_48": null, "InBezitWoningcorporatie_49": null, "InBezitOverigeVerhuurders_50": null, "BouwjaarMeerDanTienJaarGeleden_51": null, "BouwjaarAfgelopenTienJaar_52": null, "GemiddeldeElektriciteitslevering_53": 2080, "GemiddeldeElektriciteitsteruglevering_54": 0, "GemiddeldAardgasverbruik_55": 830, "AardgasvrijeWoningen_57": null, "Aardgaswoningen_58": null, "WoningenMetZonnestroom_59": null, "WoningenHoofdzElektrVerwarmd_60": null, "k_20PersonenMetHoogsteInkomen_80": null, "k_20HuishoudensMetHoogsteInkomen_85": null, "MediaanVermogenVanParticuliereHuish_86": null, "PersonenautoSTotaal_104": 10, "PersonenautoSBrandstofBenzine_105": 10, "PersonenautoSOverigeBrandstof_106": 0, "PersonenautoSPerHuishouden_107": null, "Omgevingsadressendichtheid_121": 799, "AantalInstallatiesBijWoningen_5": 0, "OpgesteldVermogenVanZonnepanelen_6": 0, "installaties_per_woning": 0.0, "vermogen_per_woning": 0.0, "installaties_per_100_woningen": 0.0, "vermogen_per_huishouden": 0.0, "batterijdruk_score": null, "koop_zon_score": null, "eengezins_zon_score": null, "betaalkracht_zon_score": null, "overige_brandstof_zon_score": null, "lichte_batterij_kansscore": null }, "geometry": { "type": "MultiPolygon", "coordinates": [ [ [ [ 97560.193, 490693.212999999988824 ], [ 97560.479000000006636, 490693.119 ], [ 97569.830000000001746, 490690.063000000023749 ], [ 97570.221999999994296, 490689.908999999985099 ], [ 97584.327999999994063, 490685.261999999987893 ], [ 97587.251999999993131, 490684.299 ], [ 97588.342999999993481, 490683.99 ], [ 97592.121, 490682.695 ], [ 97594.303, 490681.96999999997206 ], [ 97604.948999999993248, 490678.602000000013504 ], [ 97609.375, 490677.197999999974854 ], [ 97611.129, 490676.642 ], [ 97612.979999999995925, 490676.069000000017695 ], [ 97614.244000000006054, 490675.678000000014435 ], [ 97614.872000000003027, 490675.484 ], [ 97618.262000000002445, 490674.397 ], [ 97640.361000000004424, 490667.397999999986496 ], [ 97655.462, 490661.995999999984633 ], [ 97669.752999999996973, 490657.40500000002794 ], [ 97678.347999999998137, 490655.316999999980908 ], [ 97709.778000000005704, 490644.512999999977183 ], [ 97724.265, 490639.602000000013504 ], [ 97744.89100000000326, 490632.727000000013504 ], [ 97767.515, 490624.93 ], [ 97772.190000000002328, 490623.319000000017695 ], [ 97775.667000000001281, 490622.178000000014435 ], [ 97777.687999999994645, 490621.51500000001397 ], [ 97790.937000000005355, 490617.167000000015832 ], [ 97794.73399999999674, 490615.920999999972992 ], [ 97799.212, 490614.451 ], [ 97813.88300000000163, 490609.636 ], [ 97815.924, 490608.967 ], [ 97829.876000000003842, 490604.387999999977183 ], [ 97830.149999999994179, 490604.298 ], [ 97885.44999999999709, 490586.150000000023283 ], [ 97975.827999999994063, 490555.968 ], [ 98013.979000000006636, 490543.604999999981374 ], [ 98014.395000000004075, 490543.46999999997206 ], [ 98170.775999999998021, 490492.178000000014435 ], [ 98298.618000000002212, 490450.737000000022817 ], [ 98390.671000000002095, 490420.24 ], [ 98442.679000000003725, 490402.642999999981839 ], [ 98512.051999999996042, 490380.675999999977648 ], [ 98600.596999999994296, 490352.666000000026543 ], [ 98832.395999999993364, 490275.642 ], [ 98841.686000000001513, 490272.555 ], [ 99015.395000000004075, 490214.832999999984168 ], [ 99062.021999999997206, 490200.449000000022352 ], [ 99084.475000000005821, 490193.522 ], [ 99132.751000000003842, 490178.94 ], [ 99148.209000000002561, 490174.217 ], [ 99159.153000000005704, 490170.62 ], [ 99302.604000000006636, 490123.471000000019558 ], [ 99740.051999999996042, 489979.69 ], [ 99816.789999999993597, 489954.468 ], [ 100129.975, 489851.544999999983702 ], [ 100298.637, 489796.117000000027474 ], [ 100298.778, 489796.071 ], [ 100584.456, 489702.097 ], [ 100621.189, 489690.01400000002468 ], [ 100625.988, 489688.435 ], [ 100846.702, 489615.830000000016298 ], [ 100847.065, 489615.711000000010245 ], [ 100846.921, 489615.310999999986961 ], [ 100833.996, 489579.293 ], [ 100833.0229, 489576.581 ], [ 100829.529, 489566.843999999982771 ], [ 100808.265, 489507.587 ], [ 100546.387, 488777.25199999997858 ], [ 100505.032, 488661.23599999997532 ], [ 100504.933, 488660.961000000010245 ], [ 100489.022, 488616.664999999979045 ], [ 100455.937, 488524.121999999973923 ], [ 100396.381, 488358.419999999983702 ], [ 100336.893, 488192.159999999974389 ], [ 100295.485, 488076.120999999984633 ], [ 100244.689, 487934.657 ], [ 100216.069, 487854.863000000012107 ], [ 100202.014, 487815.723 ], [ 100167.88, 487720.691999999980908 ], [ 100132.025, 487620.460000000020955 ], [ 100100.142, 487531.51 ], [ 100064.079, 487431.835000000020955 ], [ 100020.537, 487310.184 ], [ 100008.1005, 487275.633099999977276 ], [ 99997.888000000006286, 487247.261 ], [ 99997.705799999996088, 487246.754000000015367 ], [ 99883.990099999995437, 487295.3261 ], [ 99660.619900000005146, 487225.8001 ], [ 99444.39089999999851, 487066.4251 ], [ 99405.320000000006985, 486991.13900000002468 ], [ 99390.396999999997206, 486943.702 ], [ 99375.225999999995111, 486829.503099999972619 ], [ 99370.319900000002235, 486826.225099999981467 ], [ 99169.0809, 486863.3051 ], [ 99092.732900000002701, 486878.9926 ], [ 99085.73399999999674, 486832.541099999973085 ], [ 99088.134000000005472, 486815.991099999984726 ], [ 98953.238299999997253, 486837.243100000021514 ], [ 98900.134099999995669, 486846.4842 ], [ 98889.303499999994528, 486847.627700000011828 ], [ 98901.440600000001723, 486924.241199999989476 ], [ 98532.950899999996182, 487021.2866 ], [ 98411.844899999996414, 487050.335100000025705 ], [ 98160.7932, 487117.497800000011921 ], [ 98080.412599999996019, 487139.001600000017788 ], [ 97984.950200000006589, 487153.286399999982677 ], [ 97885.138999999995576, 487155.995 ], [ 97736.893100000001141, 487145.716000000014901 ], [ 97581.876600000003236, 487135.8419 ], [ 97579.815000000002328, 487186.885100000014063 ], [ 97576.618900000001304, 487260.310999999986961 ], [ 97430.9899, 487317.836599999980535 ], [ 97443.460900000005495, 487331.774099999980535 ], [ 97458.780899999997928, 487339.188100000028498 ], [ 97473.335900000005495, 487351.6041 ], [ 97510.707999999998719, 487410.355099999986123 ], [ 97510.994000000006054, 487446.8591 ], [ 97512.9899, 487634.510100000014063 ], [ 97532.985, 487638.216100000019651 ], [ 97533.325100000001839, 487748.1506 ], [ 97738.59769999999844, 487763.6079 ], [ 97901.176000000006752, 487800.785800000012387 ], [ 98102.999299999995856, 487865.8014 ], [ 98502.329299999997602, 487998.347100000013597 ], [ 98448.492700000002515, 488163.4032 ], [ 98331.882599999997183, 488520.9143 ], [ 98533.6483, 488586.724500000011176 ], [ 98614.190199999997276, 488679.21909999998752 ], [ 98428.671900000001187, 488771.968999999982771 ], [ 98168.613899999996647, 488901.9851 ], [ 98341.522899999996298, 489310.938000000023749 ], [ 97652.415999999997439, 489645.570100000011735 ], [ 97655.942899999994552, 489671.352100000018254 ], [ 97644.699900000006892, 489677.24810000002617 ], [ 97619.7059, 489707.291099999973085 ], [ 97605.728400000007241, 489718.6901 ], [ 97578.447400000004563, 489738.134100000024773 ], [ 97546.534899999998743, 489756.0711 ], [ 97535.577699999994365, 489754.6116 ], [ 97524.620899999994435, 489753.1521 ], [ 97501.141900000002352, 489738.018099999986589 ], [ 97490.4709, 489722.95409999997355 ], [ 97464.089999999996508, 489732.460000000020955 ], [ 97438.9859, 489734.2351 ], [ 97428.585900000005495, 489717.688100000028498 ], [ 97408.819900000002235, 489697.730099999986123 ], [ 97407.929999999993015, 489662.000500000023749 ], [ 97401.625, 489640.718600000021979 ], [ 97391.085999999995693, 489613.813100000028498 ], [ 97377.895000000004075, 489612.5381 ], [ 97364.854900000005728, 489625.9781 ], [ 97343.719899999996414, 489628.5761 ], [ 97325.029899999994086, 489621.32909999997355 ], [ 97311.3894, 489624.1016 ], [ 97292.210900000005495, 489642.831599999975879 ], [ 97279.303899999998976, 489661.0661 ], [ 97252.521900000007008, 489665.679599999974016 ], [ 97235.74189999999362, 489662.938100000028498 ], [ 97199.692899999994552, 489645.5121 ], [ 97141.559899999992922, 489656.309100000013132 ], [ 97233.543000000005122, 489874.8601 ], [ 97311.5769, 490073.8319 ], [ 97322.123999999996158, 490100.725099999981467 ], [ 97355.06600000000617, 490185.5871 ], [ 97365.979000000006636, 490213.6644 ], [ 97382.585000000006403, 490256.389099999971222 ], [ 97462.278999999994994, 490461.8761 ], [ 97476.714399999997113, 490507.3651 ], [ 97506.951, 490585.464099999982864 ], [ 97550.041200000006938, 490696.5574 ], [ 97560.193, 490693.212999999988824 ] ] ] ] } }
]
}
